<?xml version="1.0" encoding="UTF-8"?>
<gpx xmlns="http://www.topografix.com/GPX/1/1" xmlns:gpxtpx="http://www.garmin.com/xmlschemas/TrackPointExtension/v1" xmlns:xsi="http://www.w3.org/2001/XMLSchema-instance" xsi:schemaLocation="http://www.topografix.com/GPX/1/1 http://www.topografix.com/GPX/1/1/gpx.xsd" version="1.1" creator="gpx.py -- https://github.com/tkrajina/gpxpy">
  <trk>
    <name>gpx from keep</name>
    <type>Run</type>
    <trkseg>
      <trkpt lat="38.83779439542423" lon="121.50477537761876">
        <ele>8.39823115139928</ele>
        <time>2025-10-12T13:49:09Z</time>
      </trkpt>
      <trkpt lat="38.837711879099906" lon="121.50483167101788">
        <ele>8.775393959088479</ele>
        <time>2025-10-12T13:49:17Z</time>
      </trkpt>
      <trkpt lat="38.8374915460487" lon="121.50463390417421">
        <ele>8.330294881016016</ele>
        <time>2025-10-12T13:49:25Z</time>
      </trkpt>
      <trkpt lat="38.83745985656497" lon="121.5045805946198">
        <ele>8.724046997725964</ele>
        <time>2025-10-12T13:49:28Z</time>
      </trkpt>
      <trkpt lat="38.83736540033723" lon="121.50449560878076">
        <ele>8.2938082087785</ele>
        <time>2025-10-12T13:49:34Z</time>
      </trkpt>
      <trkpt lat="38.83724084974709" lon="121.50441077501503">
        <ele>8.627825002186</ele>
        <time>2025-10-12T13:49:40Z</time>
      </trkpt>
      <trkpt lat="38.83713617620994" lon="121.50430606243664">
        <ele>9.090522859245539</ele>
        <time>2025-10-12T13:49:46Z</time>
      </trkpt>
      <trkpt lat="38.83703016247539" lon="121.50428674376901">
        <ele>8.531193018890917</ele>
        <time>2025-10-12T13:49:52Z</time>
      </trkpt>
      <trkpt lat="38.83698199915307" lon="121.50431555031535">
        <ele>8.885560294613242</ele>
        <time>2025-10-12T13:49:55Z</time>
      </trkpt>
      <trkpt lat="38.836912178682" lon="121.50453805817709">
        <ele>9.606041109189391</ele>
        <time>2025-10-12T13:50:04Z</time>
      </trkpt>
      <trkpt lat="38.83678437695217" lon="121.50489224706878">
        <ele>11.421470706351101</ele>
        <time>2025-10-12T13:50:19Z</time>
      </trkpt>
      <trkpt lat="38.836705170059645" lon="121.505162591952">
        <ele>9.2991035701707</ele>
        <time>2025-10-12T13:50:31Z</time>
      </trkpt>
      <trkpt lat="38.83658069209183" lon="121.50551603679217">
        <ele>9.74796767346561</ele>
        <time>2025-10-12T13:50:46Z</time>
      </trkpt>
      <trkpt lat="38.8364655228813" lon="121.5058596564786">
        <ele>8.621184756048024</ele>
        <time>2025-10-12T13:51:01Z</time>
      </trkpt>
      <trkpt lat="38.83639751141149" lon="121.50609240774182">
        <ele>9.315174813382328</ele>
        <time>2025-10-12T13:51:10Z</time>
      </trkpt>
      <trkpt lat="38.83636129181738" lon="121.50616601349873">
        <ele>9.162230903282762</ele>
        <time>2025-10-12T13:51:13Z</time>
      </trkpt>
      <trkpt lat="38.836284198618856" lon="121.50648300316922">
        <ele>7.933582830242813</ele>
        <time>2025-10-12T13:51:26Z</time>
      </trkpt>
      <trkpt lat="38.83616952487856" lon="121.50681888469862">
        <ele>9.423568624071777</ele>
        <time>2025-10-12T13:51:44Z</time>
      </trkpt>
      <trkpt lat="38.836138083262966" lon="121.50689148803467">
        <ele>9.093431354500353</ele>
        <time>2025-10-12T13:51:50Z</time>
      </trkpt>
      <trkpt lat="38.83613124922504" lon="121.50697907631246">
        <ele>10.123910375870764</ele>
        <time>2025-10-12T13:51:56Z</time>
      </trkpt>
      <trkpt lat="38.83616613178134" lon="121.50701763944573">
        <ele>8.659527040086687</ele>
        <time>2025-10-12T13:51:59Z</time>
      </trkpt>
      <trkpt lat="38.836215879384866" lon="121.50703483963797">
        <ele>8.291588185355067</ele>
        <time>2025-10-12T13:52:02Z</time>
      </trkpt>
      <trkpt lat="38.83646739961808" lon="121.50725123186584">
        <ele>9.449734024703503</ele>
        <time>2025-10-12T13:52:17Z</time>
      </trkpt>
      <trkpt lat="38.836722207418276" lon="121.50745407982603">
        <ele>10.104072437621653</ele>
        <time>2025-10-12T13:52:32Z</time>
      </trkpt>
      <trkpt lat="38.83696665578973" lon="121.50768522603522">
        <ele>11.29992064088583</ele>
        <time>2025-10-12T13:52:47Z</time>
      </trkpt>
      <trkpt lat="38.83706622704142" lon="121.50779674818818">
        <ele>11.580076321959496</ele>
        <time>2025-10-12T13:52:53Z</time>
      </trkpt>
      <trkpt lat="38.837334774838375" lon="121.50804228516981">
        <ele>11.54837066307664</ele>
        <time>2025-10-12T13:53:08Z</time>
      </trkpt>
      <trkpt lat="38.83745137334261" lon="121.50814010539959">
        <ele>10.931284530088305</ele>
        <time>2025-10-12T13:53:15Z</time>
      </trkpt>
      <trkpt lat="38.837482713164775" lon="121.50819747052464">
        <ele>11.477972346358001</ele>
        <time>2025-10-12T13:53:18Z</time>
      </trkpt>
      <trkpt lat="38.83760008024272" lon="121.50829481893471">
        <ele>11.130528897978365</ele>
        <time>2025-10-12T13:53:24Z</time>
      </trkpt>
      <trkpt lat="38.83763999957753" lon="121.50837866607793">
        <ele>11.95993844885379</ele>
        <time>2025-10-12T13:53:28Z</time>
      </trkpt>
      <trkpt lat="38.837527790818676" lon="121.50876502279664">
        <ele>9.814191495999694</ele>
        <time>2025-10-12T13:53:43Z</time>
      </trkpt>
      <trkpt lat="38.83743180052713" lon="121.50897802841553">
        <ele>10.501274090260267</ele>
        <time>2025-10-12T13:53:52Z</time>
      </trkpt>
      <trkpt lat="38.8372711953565" lon="121.50912658392433">
        <ele>9.902298747561872</ele>
        <time>2025-10-12T13:54:01Z</time>
      </trkpt>
      <trkpt lat="38.83714860451618" lon="121.50934528261682">
        <ele>9.764560781419277</ele>
        <time>2025-10-12T13:54:10Z</time>
      </trkpt>
      <trkpt lat="38.83699329665307" lon="121.50972651503619">
        <ele>9.088349132798612</ele>
        <time>2025-10-12T13:54:25Z</time>
      </trkpt>
      <trkpt lat="38.83689016304779" lon="121.50985126595205">
        <ele>9.240589078515768</ele>
        <time>2025-10-12T13:54:31Z</time>
      </trkpt>
      <trkpt lat="38.83676028003483" lon="121.5099313874637">
        <ele>8.608747427351773</ele>
        <time>2025-10-12T13:54:37Z</time>
      </trkpt>
      <trkpt lat="38.83643050664986" lon="121.5099640648981">
        <ele>8.154478074982762</ele>
        <time>2025-10-12T13:54:52Z</time>
      </trkpt>
      <trkpt lat="38.83629769761874" lon="121.51000906614217">
        <ele>8.100415213033557</ele>
        <time>2025-10-12T13:54:58Z</time>
      </trkpt>
      <trkpt lat="38.836113834739415" lon="121.5101243736362">
        <ele>8.516325031407177</ele>
        <time>2025-10-12T13:55:07Z</time>
      </trkpt>
      <trkpt lat="38.83612351992344" lon="121.51022944132195">
        <ele>9.0465322509408</ele>
        <time>2025-10-12T13:55:10Z</time>
      </trkpt>
      <trkpt lat="38.836173518582505" lon="121.5102875928352">
        <ele>8.486557374708354</ele>
        <time>2025-10-12T13:55:13Z</time>
      </trkpt>
      <trkpt lat="38.836257300590646" lon="121.51052339357587">
        <ele>7.214397944509983</ele>
        <time>2025-10-12T13:55:22Z</time>
      </trkpt>
      <trkpt lat="38.836267912030024" lon="121.51059965442002">
        <ele>7.546274377033114</ele>
        <time>2025-10-12T13:55:25Z</time>
      </trkpt>
      <trkpt lat="38.836195801120006" lon="121.51087185442286">
        <ele>7.438714251853526</ele>
        <time>2025-10-12T13:55:35Z</time>
      </trkpt>
      <trkpt lat="38.836023054426946" lon="121.51123189492411">
        <ele>6.310336709022522</ele>
        <time>2025-10-12T13:55:50Z</time>
      </trkpt>
      <trkpt lat="38.83598784733443" lon="121.51139790403987">
        <ele>7.09926285687834</ele>
        <time>2025-10-12T13:55:56Z</time>
      </trkpt>
      <trkpt lat="38.83601270650794" lon="121.51163481853969">
        <ele>6.69935969542712</ele>
        <time>2025-10-12T13:56:05Z</time>
      </trkpt>
      <trkpt lat="38.83607830186311" lon="121.51178610539499">
        <ele>7.217431231401861</ele>
        <time>2025-10-12T13:56:11Z</time>
      </trkpt>
      <trkpt lat="38.83617893580328" lon="121.51190023970177">
        <ele>6.487298062071204</ele>
        <time>2025-10-12T13:56:17Z</time>
      </trkpt>
      <trkpt lat="38.83630628703925" lon="121.51193691672897">
        <ele>5.81667454726994</ele>
        <time>2025-10-12T13:56:23Z</time>
      </trkpt>
      <trkpt lat="38.836498861369314" lon="121.5118839023357">
        <ele>6.437788729555905</ele>
        <time>2025-10-12T13:56:32Z</time>
      </trkpt>
      <trkpt lat="38.83666881825064" lon="121.51177870119146">
        <ele>6.087265380658209</ele>
        <time>2025-10-12T13:56:41Z</time>
      </trkpt>
      <trkpt lat="38.836893850424" lon="121.5114735993096">
        <ele>6.416796989738941</ele>
        <time>2025-10-12T13:56:56Z</time>
      </trkpt>
      <trkpt lat="38.837041796365526" lon="121.51109756586796">
        <ele>6.732409447431564</ele>
        <time>2025-10-12T13:57:11Z</time>
      </trkpt>
      <trkpt lat="38.83707123943872" lon="121.51093513382102">
        <ele>6.8782652504742146</ele>
        <time>2025-10-12T13:57:17Z</time>
      </trkpt>
      <trkpt lat="38.83713043569107" lon="121.51078245017038">
        <ele>7.625593442469835</ele>
        <time>2025-10-12T13:57:23Z</time>
      </trkpt>
      <trkpt lat="38.837294709348754" lon="121.51051893199961">
        <ele>7.822921860031784</ele>
        <time>2025-10-12T13:57:35Z</time>
      </trkpt>
      <trkpt lat="38.837554170449316" lon="121.51022787064356">
        <ele>9.573816314339638</ele>
        <time>2025-10-12T13:57:51Z</time>
      </trkpt>
      <trkpt lat="38.83768035990617" lon="121.51014265249422">
        <ele>8.924020688980818</ele>
        <time>2025-10-12T13:57:57Z</time>
      </trkpt>
      <trkpt lat="38.83777313617542" lon="121.50993210449646">
        <ele>8.542252340354025</ele>
        <time>2025-10-12T13:58:06Z</time>
      </trkpt>
      <trkpt lat="38.83784508625895" lon="121.50993745298376">
        <ele>8.851359107531607</ele>
        <time>2025-10-12T13:58:09Z</time>
      </trkpt>
      <trkpt lat="38.83788023271626" lon="121.50983860830065">
        <ele>8.746552945114672</ele>
        <time>2025-10-12T13:58:12Z</time>
      </trkpt>
      <trkpt lat="38.83793231315622" lon="121.50977441222231">
        <ele>8.605717132799327</ele>
        <time>2025-10-12T13:58:15Z</time>
      </trkpt>
      <trkpt lat="38.83801932734591" lon="121.50942750892762">
        <ele>8.272773582488298</ele>
        <time>2025-10-12T13:58:27Z</time>
      </trkpt>
      <trkpt lat="38.838052327482515" lon="121.5093374899688">
        <ele>9.796918398700655</ele>
        <time>2025-10-12T13:58:30Z</time>
      </trkpt>
      <trkpt lat="38.83828587616696" lon="121.50917295287101">
        <ele>10.101028447970748</ele>
        <time>2025-10-12T13:58:42Z</time>
      </trkpt>
      <trkpt lat="38.83832863672489" lon="121.50910408921489">
        <ele>9.374604672193527</ele>
        <time>2025-10-12T13:58:45Z</time>
      </trkpt>
      <trkpt lat="38.83812329848154" lon="121.50883205463576">
        <ele>10.139664073474705</ele>
        <time>2025-10-12T13:58:57Z</time>
      </trkpt>
      <trkpt lat="38.83789864474992" lon="121.50863721133129">
        <ele>10.250501092523336</ele>
        <time>2025-10-12T13:59:09Z</time>
      </trkpt>
      <trkpt lat="38.837690842393904" lon="121.50841918049449">
        <ele>10.157986333593726</ele>
        <time>2025-10-12T13:59:21Z</time>
      </trkpt>
      <trkpt lat="38.837642668435464" lon="121.50834290940638">
        <ele>8.873429977335036</ele>
        <time>2025-10-12T13:59:24Z</time>
      </trkpt>
      <trkpt lat="38.83748061805631" lon="121.50819035065892">
        <ele>9.477923878468573</ele>
        <time>2025-10-12T13:59:33Z</time>
      </trkpt>
      <trkpt lat="38.83741211496411" lon="121.50814989351807">
        <ele>9.248278906568885</ele>
        <time>2025-10-12T13:59:36Z</time>
      </trkpt>
      <trkpt lat="38.83728920186319" lon="121.50801770146826">
        <ele>9.729537272825837</ele>
        <time>2025-10-12T13:59:42Z</time>
      </trkpt>
      <trkpt lat="38.8371273139219" lon="121.50792301026918">
        <ele>11.111922280862927</ele>
        <time>2025-10-12T13:59:49Z</time>
      </trkpt>
      <trkpt lat="38.836892674893996" lon="121.50766671716593">
        <ele>10.240831709466875</ele>
        <time>2025-10-12T14:00:02Z</time>
      </trkpt>
      <trkpt lat="38.83677808069724" lon="121.50755641318769">
        <ele>10.354559792205691</ele>
        <time>2025-10-12T14:00:08Z</time>
      </trkpt>
      <trkpt lat="38.836729075536454" lon="121.50741034074338">
        <ele>9.760056029073894</ele>
        <time>2025-10-12T14:00:17Z</time>
      </trkpt>
      <trkpt lat="38.83669510192949" lon="121.50736859935533">
        <ele>10.50602955184877</ele>
        <time>2025-10-12T14:00:32Z</time>
      </trkpt>
      <trkpt lat="38.83689153102237" lon="121.50708130947844">
        <ele>10.309593071229756</ele>
        <time>2025-10-12T14:00:53Z</time>
      </trkpt>
      <trkpt lat="38.837052220733916" lon="121.50679822470651">
        <ele>9.660409021191299</ele>
        <time>2025-10-12T14:01:05Z</time>
      </trkpt>
      <trkpt lat="38.83721787232048" lon="121.5064974404448">
        <ele>9.44774438533932</ele>
        <time>2025-10-12T14:01:17Z</time>
      </trkpt>
      <trkpt lat="38.837299216681075" lon="121.50637406707531">
        <ele>9.112352509051561</ele>
        <time>2025-10-12T14:01:23Z</time>
      </trkpt>
      <trkpt lat="38.83733802928598" lon="121.50627992586932">
        <ele>9.429739132523537</ele>
        <time>2025-10-12T14:01:26Z</time>
      </trkpt>
      <trkpt lat="38.83750575332601" lon="121.50598880754531">
        <ele>10.020036732777953</ele>
        <time>2025-10-12T14:01:38Z</time>
      </trkpt>
      <trkpt lat="38.83769988816715" lon="121.50567115270346">
        <ele>9.658358966000378</ele>
        <time>2025-10-12T14:01:51Z</time>
      </trkpt>
      <trkpt lat="38.83777506522516" lon="121.5055122467521">
        <ele>9.639483991079032</ele>
        <time>2025-10-12T14:01:57Z</time>
      </trkpt>
      <trkpt lat="38.83792710154854" lon="121.5052708801708">
        <ele>8.682838249020278</ele>
        <time>2025-10-12T14:02:07Z</time>
      </trkpt>
      <trkpt lat="38.83794983512653" lon="121.50521130201969">
        <ele>8.371928723528981</ele>
        <time>2025-10-12T14:02:13Z</time>
      </trkpt>
      <trkpt lat="38.83794207765839" lon="121.50515442364228">
        <ele>8.631161339581013</ele>
        <time>2025-10-12T14:02:19Z</time>
      </trkpt>
    </trkseg>
  </trk>
</gpx>