<?xml version="1.0" encoding="UTF-8"?>
<gpx xmlns="http://www.topografix.com/GPX/1/1" xmlns:gpxtpx="http://www.garmin.com/xmlschemas/TrackPointExtension/v1" xmlns:xsi="http://www.w3.org/2001/XMLSchema-instance" xsi:schemaLocation="http://www.topografix.com/GPX/1/1 http://www.topografix.com/GPX/1/1/gpx.xsd" version="1.1" creator="gpx.py -- https://github.com/tkrajina/gpxpy">
  <trk>
    <name>gpx from keep</name>
    <type>Run</type>
    <trkseg>
      <trkpt lat="38.833210107387806" lon="121.50734404315898">
        <ele>2.8621205585077405</ele>
        <time>2025-08-23T02:13:41Z</time>
      </trkpt>
      <trkpt lat="38.83318355013753" lon="121.50716672657657">
        <ele>3.442084951326251</ele>
        <time>2025-08-23T02:13:53Z</time>
      </trkpt>
      <trkpt lat="38.833108861940275" lon="121.50696681778082">
        <ele>3.210544530302286</ele>
        <time>2025-08-23T02:14:02Z</time>
      </trkpt>
      <trkpt lat="38.83291499893593" lon="121.5066831159802">
        <ele>2.3437139093875885</ele>
        <time>2025-08-23T02:14:17Z</time>
      </trkpt>
      <trkpt lat="38.832625235968905" lon="121.50654111049906">
        <ele>2.6372577100992203</ele>
        <time>2025-08-23T02:14:38Z</time>
      </trkpt>
      <trkpt lat="38.832356193396365" lon="121.50648600042531">
        <ele>1.809305528178811</ele>
        <time>2025-08-23T02:14:53Z</time>
      </trkpt>
      <trkpt lat="38.83221143377087" lon="121.50638189313199">
        <ele>2.3177433349192142</ele>
        <time>2025-08-23T02:15:02Z</time>
      </trkpt>
      <trkpt lat="38.83206797379287" lon="121.50620767351504">
        <ele>2.671058828011155</ele>
        <time>2025-08-23T02:15:12Z</time>
      </trkpt>
      <trkpt lat="38.83193964567801" lon="121.50584815327636">
        <ele>2.5735088558867574</ele>
        <time>2025-08-23T02:15:27Z</time>
      </trkpt>
      <trkpt lat="38.83180172267644" lon="121.50557165718182">
        <ele>3.6198823461309075</ele>
        <time>2025-08-23T02:15:39Z</time>
      </trkpt>
      <trkpt lat="38.83175164459779" lon="121.50554592007788">
        <ele>3.444198701530695</ele>
        <time>2025-08-23T02:15:42Z</time>
      </trkpt>
      <trkpt lat="38.83171572881703" lon="121.50548363803476">
        <ele>3.44312646612525</ele>
        <time>2025-08-23T02:15:45Z</time>
      </trkpt>
      <trkpt lat="38.831563479340275" lon="121.50537293479026">
        <ele>2.2340328404679894</ele>
        <time>2025-08-23T02:15:54Z</time>
      </trkpt>
      <trkpt lat="38.831306464774485" lon="121.5053018248791">
        <ele>3.1347911274060607</ele>
        <time>2025-08-23T02:16:06Z</time>
      </trkpt>
      <trkpt lat="38.83125435499342" lon="121.50531823416246">
        <ele>1.7897241041064262</ele>
        <time>2025-08-23T02:16:09Z</time>
      </trkpt>
      <trkpt lat="38.8309645872868" lon="121.50532637117352">
        <ele>1.9887118116021156</ele>
        <time>2025-08-23T02:16:24Z</time>
      </trkpt>
      <trkpt lat="38.830829081323635" lon="121.50530764042807">
        <ele>2.258265845477581</ele>
        <time>2025-08-23T02:16:30Z</time>
      </trkpt>
      <trkpt lat="38.83077510098279" lon="121.50526929813466">
        <ele>2.6151593290269375</ele>
        <time>2025-08-23T02:16:33Z</time>
      </trkpt>
      <trkpt lat="38.83059747057806" lon="121.50505962630733">
        <ele>3.3438525395467877</ele>
        <time>2025-08-23T02:16:45Z</time>
      </trkpt>
      <trkpt lat="38.830373394780864" lon="121.504903184496">
        <ele>2.0003669587895274</ele>
        <time>2025-08-23T02:16:57Z</time>
      </trkpt>
      <trkpt lat="38.83013318687663" lon="121.50481145741877">
        <ele>2.717345711775124</ele>
        <time>2025-08-23T02:17:09Z</time>
      </trkpt>
      <trkpt lat="38.829889951364834" lon="121.50460145232343">
        <ele>3.047671985812485</ele>
        <time>2025-08-23T02:17:22Z</time>
      </trkpt>
      <trkpt lat="38.829661244002594" lon="121.50432575257035">
        <ele>2.1210274025797844</ele>
        <time>2025-08-23T02:17:37Z</time>
      </trkpt>
      <trkpt lat="38.82950207627154" lon="121.50418190689511">
        <ele>2.441687121987343</ele>
        <time>2025-08-23T02:17:46Z</time>
      </trkpt>
      <trkpt lat="38.829230852978505" lon="121.50405315807352">
        <ele>2.950161120854318</ele>
        <time>2025-08-23T02:17:58Z</time>
      </trkpt>
      <trkpt lat="38.829104295544354" lon="121.50402807902871">
        <ele>2.732769154943526</ele>
        <time>2025-08-23T02:18:04Z</time>
      </trkpt>
      <trkpt lat="38.82904335757488" lon="121.50399501317546">
        <ele>3.4336507972329855</ele>
        <time>2025-08-23T02:18:07Z</time>
      </trkpt>
      <trkpt lat="38.82903292629216" lon="121.50392723787414">
        <ele>2.993484564125538</ele>
        <time>2025-08-23T02:18:10Z</time>
      </trkpt>
      <trkpt lat="38.82884107443875" lon="121.50393176025973">
        <ele>4.137465229257941</ele>
        <time>2025-08-23T02:18:19Z</time>
      </trkpt>
      <trkpt lat="38.82877602564193" lon="121.50395650479017">
        <ele>4.076723844744265</ele>
        <time>2025-08-23T02:18:22Z</time>
      </trkpt>
      <trkpt lat="38.828752893634714" lon="121.50401141355955">
        <ele>3.0867176530882716</ele>
        <time>2025-08-23T02:18:25Z</time>
      </trkpt>
      <trkpt lat="38.828677382234744" lon="121.50401082410133">
        <ele>3.2232543593272567</ele>
        <time>2025-08-23T02:18:28Z</time>
      </trkpt>
      <trkpt lat="38.82847876876414" lon="121.50406687786689">
        <ele>2.3640511324629188</ele>
        <time>2025-08-23T02:18:37Z</time>
      </trkpt>
      <trkpt lat="38.82827743368851" lon="121.50404209678062">
        <ele>2.715536283329129</ele>
        <time>2025-08-23T02:18:46Z</time>
      </trkpt>
      <trkpt lat="38.82815764040345" lon="121.50398363391473">
        <ele>3.389721157029271</ele>
        <time>2025-08-23T02:18:52Z</time>
      </trkpt>
      <trkpt lat="38.828003857111455" lon="121.50381571988495">
        <ele>2.944269847124815</ele>
        <time>2025-08-23T02:19:01Z</time>
      </trkpt>
      <trkpt lat="38.827899027324435" lon="121.5035881845389">
        <ele>2.147463481873274</ele>
        <time>2025-08-23T02:19:10Z</time>
      </trkpt>
      <trkpt lat="38.827875463947926" lon="121.5034227256911">
        <ele>1.1240285756066442</ele>
        <time>2025-08-23T02:19:16Z</time>
      </trkpt>
      <trkpt lat="38.827796279631286" lon="121.5032368363266">
        <ele>1.655497582629323</ele>
        <time>2025-08-23T02:19:24Z</time>
      </trkpt>
      <trkpt lat="38.8277079860058" lon="121.5031790927577">
        <ele>1.3044033339247108</ele>
        <time>2025-08-23T02:19:28Z</time>
      </trkpt>
      <trkpt lat="38.82764411214533" lon="121.50307313687304">
        <ele>2.874259718693793</ele>
        <time>2025-08-23T02:19:32Z</time>
      </trkpt>
      <trkpt lat="38.82757019026831" lon="121.50303002437026">
        <ele>3.4490478560328484</ele>
        <time>2025-08-23T02:19:35Z</time>
      </trkpt>
      <trkpt lat="38.827265894245365" lon="121.5029919318151">
        <ele>2.4825026877224445</ele>
        <time>2025-08-23T02:19:48Z</time>
      </trkpt>
      <trkpt lat="38.82719009875085" lon="121.50301048662404">
        <ele>3.0630180090665817</ele>
        <time>2025-08-23T02:19:51Z</time>
      </trkpt>
      <trkpt lat="38.827063148656165" lon="121.50310214164222">
        <ele>3.3196721617132425</ele>
        <time>2025-08-23T02:19:57Z</time>
      </trkpt>
      <trkpt lat="38.82699746024432" lon="121.50312417313616">
        <ele>3.4903134498745203</ele>
        <time>2025-08-23T02:20:00Z</time>
      </trkpt>
      <trkpt lat="38.82692453302507" lon="121.50326084800999">
        <ele>2.4778795363381505</ele>
        <time>2025-08-23T02:20:06Z</time>
      </trkpt>
      <trkpt lat="38.82681925221694" lon="121.50335179511396">
        <ele>1.3764517698436975</ele>
        <time>2025-08-23T02:20:12Z</time>
      </trkpt>
      <trkpt lat="38.826656727970615" lon="121.50353543663516">
        <ele>3.5853346223011613</ele>
        <time>2025-08-23T02:20:21Z</time>
      </trkpt>
      <trkpt lat="38.826575890619345" lon="121.50378094318752">
        <ele>2.9244512896984816</ele>
        <time>2025-08-23T02:20:30Z</time>
      </trkpt>
      <trkpt lat="38.82656036326168" lon="121.50393330736145">
        <ele>4.298383678309619</ele>
        <time>2025-08-23T02:20:36Z</time>
      </trkpt>
      <trkpt lat="38.826587711176764" lon="121.50409024866377">
        <ele>1.1185207916423678</ele>
        <time>2025-08-23T02:20:42Z</time>
      </trkpt>
      <trkpt lat="38.8265840409057" lon="121.50426019613214">
        <ele>2.316976858302951</ele>
        <time>2025-08-23T02:20:48Z</time>
      </trkpt>
      <trkpt lat="38.826483696351495" lon="121.50458712849759">
        <ele>2.499806512147188</ele>
        <time>2025-08-23T02:21:00Z</time>
      </trkpt>
      <trkpt lat="38.82638543485492" lon="121.50480249061441">
        <ele>2.794799697585404</ele>
        <time>2025-08-23T02:21:09Z</time>
      </trkpt>
      <trkpt lat="38.82632981137139" lon="121.50486206721835">
        <ele>2.6530248783528805</ele>
        <time>2025-08-23T02:21:12Z</time>
      </trkpt>
      <trkpt lat="38.82626970478033" lon="121.50484665764237">
        <ele>1.9798719519749284</ele>
        <time>2025-08-23T02:21:15Z</time>
      </trkpt>
      <trkpt lat="38.82614591827" lon="121.50492148424074">
        <ele>2.3852528342977166</ele>
        <time>2025-08-23T02:21:21Z</time>
      </trkpt>
      <trkpt lat="38.826056723038334" lon="121.50494996147022">
        <ele>2.950172344222665</ele>
        <time>2025-08-23T02:21:25Z</time>
      </trkpt>
      <trkpt lat="38.825978858109984" lon="121.50493888121856">
        <ele>3.018823930993676</ele>
        <time>2025-08-23T02:21:29Z</time>
      </trkpt>
      <trkpt lat="38.82604896996681" lon="121.50489488843701">
        <ele>3.527786895632744</ele>
        <time>2025-08-23T02:21:33Z</time>
      </trkpt>
      <trkpt lat="38.826148469113306" lon="121.50491552351826">
        <ele>3.8820016039535403</ele>
        <time>2025-08-23T02:21:37Z</time>
      </trkpt>
      <trkpt lat="38.826365407990075" lon="121.50473626661034">
        <ele>2.1263408418744802</ele>
        <time>2025-08-23T02:21:49Z</time>
      </trkpt>
      <trkpt lat="38.826429672482426" lon="121.50472789770167">
        <ele>2.906139218248427</ele>
        <time>2025-08-23T02:21:52Z</time>
      </trkpt>
      <trkpt lat="38.82653746449991" lon="121.50450771991632">
        <ele>2.5808846103027463</ele>
        <time>2025-08-23T02:22:01Z</time>
      </trkpt>
      <trkpt lat="38.82657535929101" lon="121.50418337519817">
        <ele>0.6559444274753332</ele>
        <time>2025-08-23T02:22:13Z</time>
      </trkpt>
      <trkpt lat="38.826556863402196" lon="121.50399566657924">
        <ele>1.818320489488542</ele>
        <time>2025-08-23T02:22:19Z</time>
      </trkpt>
      <trkpt lat="38.826628991517055" lon="121.50367815676285">
        <ele>1.5905315922573209</ele>
        <time>2025-08-23T02:22:31Z</time>
      </trkpt>
      <trkpt lat="38.82674623589254" lon="121.50345938183926">
        <ele>1.6207629702985287</ele>
        <time>2025-08-23T02:22:40Z</time>
      </trkpt>
      <trkpt lat="38.8269515329872" lon="121.50322795257472">
        <ele>1.9276397377252579</ele>
        <time>2025-08-23T02:22:52Z</time>
      </trkpt>
      <trkpt lat="38.827049871646786" lon="121.50310543999001">
        <ele>1.0541627164930105</ele>
        <time>2025-08-23T02:22:58Z</time>
      </trkpt>
      <trkpt lat="38.82718089119713" lon="121.50302291244968">
        <ele>2.253501716069877</ele>
        <time>2025-08-23T02:23:04Z</time>
      </trkpt>
      <trkpt lat="38.82731633537403" lon="121.50299705050014">
        <ele>3.8425345299765468</ele>
        <time>2025-08-23T02:23:10Z</time>
      </trkpt>
      <trkpt lat="38.82752833853737" lon="121.50304422869755">
        <ele>2.584850744344294</ele>
        <time>2025-08-23T02:23:19Z</time>
      </trkpt>
      <trkpt lat="38.827684795828866" lon="121.50322116241763">
        <ele>2.003395654261112</ele>
        <time>2025-08-23T02:23:28Z</time>
      </trkpt>
      <trkpt lat="38.82778023542111" lon="121.50325586750091">
        <ele>3.2961706472560763</ele>
        <time>2025-08-23T02:23:32Z</time>
      </trkpt>
      <trkpt lat="38.82787072949592" lon="121.50345571942552">
        <ele>1.6256109839305282</ele>
        <time>2025-08-23T02:23:40Z</time>
      </trkpt>
      <trkpt lat="38.82788852105351" lon="121.50355757241219">
        <ele>1.4992674635723233</ele>
        <time>2025-08-23T02:23:44Z</time>
      </trkpt>
      <trkpt lat="38.82797572194714" lon="121.50378237196205">
        <ele>1.9644083678722382</ele>
        <time>2025-08-23T02:23:52Z</time>
      </trkpt>
      <trkpt lat="38.82812901997362" lon="121.50399226223075">
        <ele>1.876898692920804</ele>
        <time>2025-08-23T02:24:01Z</time>
      </trkpt>
      <trkpt lat="38.828255198694414" lon="121.504065770587">
        <ele>2.874152190051973</ele>
        <time>2025-08-23T02:24:07Z</time>
      </trkpt>
      <trkpt lat="38.828459294735815" lon="121.50409401525167">
        <ele>2.7608062718063593</ele>
        <time>2025-08-23T02:24:16Z</time>
      </trkpt>
      <trkpt lat="38.82867429236606" lon="121.50403956053333">
        <ele>3.3193914918228984</ele>
        <time>2025-08-23T02:24:25Z</time>
      </trkpt>
      <trkpt lat="38.828885140970634" lon="121.50404137060937">
        <ele>3.129396516829729</ele>
        <time>2025-08-23T02:24:34Z</time>
      </trkpt>
      <trkpt lat="38.82895492955613" lon="121.5040736523966">
        <ele>3.246965954080224</ele>
        <time>2025-08-23T02:24:37Z</time>
      </trkpt>
      <trkpt lat="38.82901617692429" lon="121.50406699366842">
        <ele>3.188567914068699</ele>
        <time>2025-08-23T02:24:40Z</time>
      </trkpt>
      <trkpt lat="38.82906946256382" lon="121.50403122337563">
        <ele>2.3800468603149056</ele>
        <time>2025-08-23T02:24:43Z</time>
      </trkpt>
      <trkpt lat="38.82935282171752" lon="121.50411983497575">
        <ele>4.037081082351506</ele>
        <time>2025-08-23T02:24:55Z</time>
      </trkpt>
      <trkpt lat="38.829494779491945" lon="121.50418327182429">
        <ele>2.576662724837661</ele>
        <time>2025-08-23T02:25:01Z</time>
      </trkpt>
      <trkpt lat="38.82953655353751" lon="121.5042472253849">
        <ele>2.421148235909641</ele>
        <time>2025-08-23T02:25:04Z</time>
      </trkpt>
      <trkpt lat="38.82966020261644" lon="121.5043291312828">
        <ele>3.64734329842031</ele>
        <time>2025-08-23T02:25:10Z</time>
      </trkpt>
      <trkpt lat="38.82986028744133" lon="121.50457708047995">
        <ele>2.421734078787267</ele>
        <time>2025-08-23T02:25:22Z</time>
      </trkpt>
      <trkpt lat="38.829947204360884" lon="121.50468341878937">
        <ele>2.982670503668487</ele>
        <time>2025-08-23T02:25:28Z</time>
      </trkpt>
      <trkpt lat="38.83015911676789" lon="121.50483130830983">
        <ele>3.999223140999675</ele>
        <time>2025-08-23T02:25:38Z</time>
      </trkpt>
      <trkpt lat="38.830337784180855" lon="121.50489573850717">
        <ele>3.226369752548635</ele>
        <time>2025-08-23T02:25:46Z</time>
      </trkpt>
      <trkpt lat="38.83051200151799" lon="121.50499988487414">
        <ele>3.7017293805256486</ele>
        <time>2025-08-23T02:25:54Z</time>
      </trkpt>
      <trkpt lat="38.83075764647712" lon="121.50526239009106">
        <ele>3.0997775038704276</ele>
        <time>2025-08-23T02:26:07Z</time>
      </trkpt>
      <trkpt lat="38.830818436938934" lon="121.50531397983829">
        <ele>2.2923138150945306</ele>
        <time>2025-08-23T02:26:10Z</time>
      </trkpt>
      <trkpt lat="38.83087071950236" lon="121.5053154096178">
        <ele>1.0548774925991893</ele>
        <time>2025-08-23T02:26:13Z</time>
      </trkpt>
      <trkpt lat="38.83093150890305" lon="121.50535320015902">
        <ele>4.241159262135625</ele>
        <time>2025-08-23T02:26:16Z</time>
      </trkpt>
      <trkpt lat="38.831226617807154" lon="121.50531402924163">
        <ele>2.256705512292683</ele>
        <time>2025-08-23T02:26:28Z</time>
      </trkpt>
      <trkpt lat="38.83151418001815" lon="121.50536321997507">
        <ele>3.8494517216458917</ele>
        <time>2025-08-23T02:26:40Z</time>
      </trkpt>
      <trkpt lat="38.83176272453334" lon="121.50553317244075">
        <ele>3.21113377250731</ele>
        <time>2025-08-23T02:26:52Z</time>
      </trkpt>
      <trkpt lat="38.831897997922546" lon="121.50574287666272">
        <ele>1.4891571532934904</ele>
        <time>2025-08-23T02:27:01Z</time>
      </trkpt>
      <trkpt lat="38.83196591362923" lon="121.50590339599752">
        <ele>2.9795627631247044</ele>
        <time>2025-08-23T02:27:07Z</time>
      </trkpt>
      <trkpt lat="38.83204380981362" lon="121.50614167454842">
        <ele>2.8658885899931192</ele>
        <time>2025-08-23T02:27:16Z</time>
      </trkpt>
      <trkpt lat="38.832098640315955" lon="121.50621365255071">
        <ele>2.786708869971335</ele>
        <time>2025-08-23T02:27:19Z</time>
      </trkpt>
      <trkpt lat="38.83211924689956" lon="121.50629383798005">
        <ele>2.320092332549393</ele>
        <time>2025-08-23T02:27:22Z</time>
      </trkpt>
      <trkpt lat="38.83222273414889" lon="121.50640599867003">
        <ele>2.0449005011469126</ele>
        <time>2025-08-23T02:27:28Z</time>
      </trkpt>
      <trkpt lat="38.83242561407063" lon="121.50652405888007">
        <ele>3.260301198810339</ele>
        <time>2025-08-23T02:27:37Z</time>
      </trkpt>
      <trkpt lat="38.83259301200662" lon="121.5065286786073">
        <ele>2.6009930251166224</ele>
        <time>2025-08-23T02:27:44Z</time>
      </trkpt>
      <trkpt lat="38.83259301200662" lon="121.5065286786073">
        <ele>2.6009930251166224</ele>
        <time>2025-08-23T02:27:48Z</time>
      </trkpt>
    </trkseg>
  </trk>
</gpx>