<?xml version="1.0" encoding="UTF-8"?>
<gpx xmlns="http://www.topografix.com/GPX/1/1" xmlns:gpxtpx="http://www.garmin.com/xmlschemas/TrackPointExtension/v1" xmlns:xsi="http://www.w3.org/2001/XMLSchema-instance" xsi:schemaLocation="http://www.topografix.com/GPX/1/1 http://www.topografix.com/GPX/1/1/gpx.xsd" version="1.1" creator="gpx.py -- https://github.com/tkrajina/gpxpy">
  <trk>
    <name>gpx from keep</name>
    <type>Run</type>
    <trkseg>
      <trkpt lat="38.8376877185229" lon="121.50468091108594">
        <ele>7.887000581663964</ele>
        <time>2025-10-09T15:11:42Z</time>
      </trkpt>
      <trkpt lat="38.837788016441785" lon="121.50493123644948">
        <ele>7.669415949843824</ele>
        <time>2025-10-09T15:12:05Z</time>
      </trkpt>
      <trkpt lat="38.83800758523162" lon="121.50515538483444">
        <ele>13.51180325821042</ele>
        <time>2025-10-09T15:12:20Z</time>
      </trkpt>
      <trkpt lat="38.838002758103976" lon="121.50522407269004">
        <ele>13.372695054858923</ele>
        <time>2025-10-09T15:12:23Z</time>
      </trkpt>
      <trkpt lat="38.837883146117115" lon="121.50551926726712">
        <ele>12.149036386050284</ele>
        <time>2025-10-09T15:12:35Z</time>
      </trkpt>
      <trkpt lat="38.83777176628192" lon="121.5056621475352">
        <ele>11.924421886913478</ele>
        <time>2025-10-09T15:12:44Z</time>
      </trkpt>
      <trkpt lat="38.83771612554484" lon="121.50576889711625">
        <ele>11.289927554316819</ele>
        <time>2025-10-09T15:12:50Z</time>
      </trkpt>
      <trkpt lat="38.83763763305032" lon="121.50586117481382">
        <ele>11.457706377841532</ele>
        <time>2025-10-09T15:12:56Z</time>
      </trkpt>
      <trkpt lat="38.83755166197013" lon="121.50603798778727">
        <ele>11.770231048576534</ele>
        <time>2025-10-09T15:13:05Z</time>
      </trkpt>
      <trkpt lat="38.83744629092451" lon="121.5061140868003">
        <ele>12.1983297849074</ele>
        <time>2025-10-09T15:13:11Z</time>
      </trkpt>
      <trkpt lat="38.837273605080725" lon="121.50640487905154">
        <ele>9.685618254356086</ele>
        <time>2025-10-09T15:13:26Z</time>
      </trkpt>
      <trkpt lat="38.83709675177865" lon="121.50668638142372">
        <ele>10.684195614419878</ele>
        <time>2025-10-09T15:13:41Z</time>
      </trkpt>
      <trkpt lat="38.83690992592249" lon="121.50703655699705">
        <ele>8.75750954542309</ele>
        <time>2025-10-09T15:13:58Z</time>
      </trkpt>
      <trkpt lat="38.83683321467026" lon="121.50718304840301">
        <ele>9.446850520558655</ele>
        <time>2025-10-09T15:14:06Z</time>
      </trkpt>
      <trkpt lat="38.83675850000766" lon="121.5072178340736">
        <ele>11.212118647992611</ele>
        <time>2025-10-09T15:14:10Z</time>
      </trkpt>
      <trkpt lat="38.83670089686373" lon="121.50738424320734">
        <ele>12.50317584630102</ele>
        <time>2025-10-09T15:14:25Z</time>
        <extensions>
          <gpxtpx:TrackPointExtension>
            <gpxtpx:hr>116</gpxtpx:hr>
          </gpxtpx:TrackPointExtension>
        </extensions>
      </trkpt>
      <trkpt lat="38.83678129298096" lon="121.50753592715868">
        <ele>12.419726354070008</ele>
        <time>2025-10-09T15:14:31Z</time>
        <extensions>
          <gpxtpx:TrackPointExtension>
            <gpxtpx:hr>116</gpxtpx:hr>
          </gpxtpx:TrackPointExtension>
        </extensions>
      </trkpt>
      <trkpt lat="38.83686153606304" lon="121.50759973899382">
        <ele>10.709253900684416</ele>
        <time>2025-10-09T15:14:37Z</time>
        <extensions>
          <gpxtpx:TrackPointExtension>
            <gpxtpx:hr>115</gpxtpx:hr>
          </gpxtpx:TrackPointExtension>
        </extensions>
      </trkpt>
      <trkpt lat="38.836956919166894" lon="121.50765280623641">
        <ele>10.250695953145623</ele>
        <time>2025-10-09T15:14:43Z</time>
        <extensions>
          <gpxtpx:TrackPointExtension>
            <gpxtpx:hr>115</gpxtpx:hr>
          </gpxtpx:TrackPointExtension>
        </extensions>
      </trkpt>
      <trkpt lat="38.83716653810982" lon="121.50788987633186">
        <ele>11.357418915256858</ele>
        <time>2025-10-09T15:14:55Z</time>
        <extensions>
          <gpxtpx:TrackPointExtension>
            <gpxtpx:hr>116</gpxtpx:hr>
          </gpxtpx:TrackPointExtension>
        </extensions>
      </trkpt>
      <trkpt lat="38.837368470351606" lon="121.50808068388652">
        <ele>11.51529510691762</ele>
        <time>2025-10-09T15:15:07Z</time>
        <extensions>
          <gpxtpx:TrackPointExtension>
            <gpxtpx:hr>116</gpxtpx:hr>
          </gpxtpx:TrackPointExtension>
        </extensions>
      </trkpt>
      <trkpt lat="38.83748960939211" lon="121.50821936729322">
        <ele>11.031461579725146</ele>
        <time>2025-10-09T15:15:16Z</time>
        <extensions>
          <gpxtpx:TrackPointExtension>
            <gpxtpx:hr>122</gpxtpx:hr>
          </gpxtpx:TrackPointExtension>
        </extensions>
      </trkpt>
      <trkpt lat="38.83760584489068" lon="121.50831965926443">
        <ele>11.835493003949523</ele>
        <time>2025-10-09T15:15:22Z</time>
        <extensions>
          <gpxtpx:TrackPointExtension>
            <gpxtpx:hr>122</gpxtpx:hr>
          </gpxtpx:TrackPointExtension>
        </extensions>
      </trkpt>
      <trkpt lat="38.837615029746" lon="121.50839126891394">
        <ele>13.063506249338388</ele>
        <time>2025-10-09T15:15:25Z</time>
        <extensions>
          <gpxtpx:TrackPointExtension>
            <gpxtpx:hr>122</gpxtpx:hr>
          </gpxtpx:TrackPointExtension>
        </extensions>
      </trkpt>
      <trkpt lat="38.83758989817649" lon="121.50848510158771">
        <ele>12.486343345604837</ele>
        <time>2025-10-09T15:15:28Z</time>
        <extensions>
          <gpxtpx:TrackPointExtension>
            <gpxtpx:hr>122</gpxtpx:hr>
          </gpxtpx:TrackPointExtension>
        </extensions>
      </trkpt>
      <trkpt lat="38.837554409180896" lon="121.5087827870419">
        <ele>10.38471921812743</ele>
        <time>2025-10-09T15:15:40Z</time>
        <extensions>
          <gpxtpx:TrackPointExtension>
            <gpxtpx:hr>123</gpxtpx:hr>
          </gpxtpx:TrackPointExtension>
        </extensions>
      </trkpt>
      <trkpt lat="38.83748324522294" lon="121.50891962778493">
        <ele>10.147709919139743</ele>
        <time>2025-10-09T15:15:46Z</time>
        <extensions>
          <gpxtpx:TrackPointExtension>
            <gpxtpx:hr>123</gpxtpx:hr>
          </gpxtpx:TrackPointExtension>
        </extensions>
      </trkpt>
      <trkpt lat="38.83725959049938" lon="121.50910826775389">
        <ele>9.499310323037207</ele>
        <time>2025-10-09T15:15:58Z</time>
        <extensions>
          <gpxtpx:TrackPointExtension>
            <gpxtpx:hr>123</gpxtpx:hr>
          </gpxtpx:TrackPointExtension>
        </extensions>
      </trkpt>
      <trkpt lat="38.83711958832502" lon="121.50940884579269">
        <ele>9.624598199501634</ele>
        <time>2025-10-09T15:16:10Z</time>
        <extensions>
          <gpxtpx:TrackPointExtension>
            <gpxtpx:hr>125</gpxtpx:hr>
          </gpxtpx:TrackPointExtension>
        </extensions>
      </trkpt>
      <trkpt lat="38.83699478341757" lon="121.50970706826945">
        <ele>9.233724039047956</ele>
        <time>2025-10-09T15:16:22Z</time>
        <extensions>
          <gpxtpx:TrackPointExtension>
            <gpxtpx:hr>122</gpxtpx:hr>
          </gpxtpx:TrackPointExtension>
        </extensions>
      </trkpt>
      <trkpt lat="38.83677334485017" lon="121.50991661876623">
        <ele>8.388428130187094</ele>
        <time>2025-10-09T15:16:34Z</time>
        <extensions>
          <gpxtpx:TrackPointExtension>
            <gpxtpx:hr>126</gpxtpx:hr>
          </gpxtpx:TrackPointExtension>
        </extensions>
      </trkpt>
      <trkpt lat="38.83649218088678" lon="121.50996823822443">
        <ele>8.264669799245894</ele>
        <time>2025-10-09T15:16:47Z</time>
        <extensions>
          <gpxtpx:TrackPointExtension>
            <gpxtpx:hr>127</gpxtpx:hr>
          </gpxtpx:TrackPointExtension>
        </extensions>
      </trkpt>
      <trkpt lat="38.836350414181595" lon="121.50998867933258">
        <ele>7.677717199549079</ele>
        <time>2025-10-09T15:16:53Z</time>
        <extensions>
          <gpxtpx:TrackPointExtension>
            <gpxtpx:hr>127</gpxtpx:hr>
          </gpxtpx:TrackPointExtension>
        </extensions>
      </trkpt>
      <trkpt lat="38.83609672475632" lon="121.51011570286308">
        <ele>8.225479351356626</ele>
        <time>2025-10-09T15:17:05Z</time>
        <extensions>
          <gpxtpx:TrackPointExtension>
            <gpxtpx:hr>128</gpxtpx:hr>
          </gpxtpx:TrackPointExtension>
        </extensions>
      </trkpt>
      <trkpt lat="38.83610536063603" lon="121.51020064693624">
        <ele>8.0225277710706</ele>
        <time>2025-10-09T15:17:08Z</time>
        <extensions>
          <gpxtpx:TrackPointExtension>
            <gpxtpx:hr>127</gpxtpx:hr>
          </gpxtpx:TrackPointExtension>
        </extensions>
      </trkpt>
      <trkpt lat="38.83622544617012" lon="121.51052358111751">
        <ele>7.907206716015935</ele>
        <time>2025-10-09T15:17:20Z</time>
        <extensions>
          <gpxtpx:TrackPointExtension>
            <gpxtpx:hr>126</gpxtpx:hr>
          </gpxtpx:TrackPointExtension>
        </extensions>
      </trkpt>
      <trkpt lat="38.83624827646482" lon="121.51060819665416">
        <ele>7.555730292573571</ele>
        <time>2025-10-09T15:17:23Z</time>
        <extensions>
          <gpxtpx:TrackPointExtension>
            <gpxtpx:hr>127</gpxtpx:hr>
          </gpxtpx:TrackPointExtension>
        </extensions>
      </trkpt>
      <trkpt lat="38.83622639523913" lon="121.51079375065059">
        <ele>7.9829559829086065</ele>
        <time>2025-10-09T15:17:29Z</time>
        <extensions>
          <gpxtpx:TrackPointExtension>
            <gpxtpx:hr>127</gpxtpx:hr>
          </gpxtpx:TrackPointExtension>
        </extensions>
      </trkpt>
      <trkpt lat="38.83607779380703" lon="121.51110092099118">
        <ele>7.7414241861552</ele>
        <time>2025-10-09T15:17:41Z</time>
        <extensions>
          <gpxtpx:TrackPointExtension>
            <gpxtpx:hr>129</gpxtpx:hr>
          </gpxtpx:TrackPointExtension>
        </extensions>
      </trkpt>
      <trkpt lat="38.83603236886809" lon="121.5111658111588">
        <ele>7.043278754688799</ele>
        <time>2025-10-09T15:17:44Z</time>
        <extensions>
          <gpxtpx:TrackPointExtension>
            <gpxtpx:hr>129</gpxtpx:hr>
          </gpxtpx:TrackPointExtension>
        </extensions>
      </trkpt>
      <trkpt lat="38.83598475242832" lon="121.51132656645218">
        <ele>6.332648695446551</ele>
        <time>2025-10-09T15:17:50Z</time>
        <extensions>
          <gpxtpx:TrackPointExtension>
            <gpxtpx:hr>129</gpxtpx:hr>
          </gpxtpx:TrackPointExtension>
        </extensions>
      </trkpt>
      <trkpt lat="38.83597760202054" lon="121.51151343916732">
        <ele>7.027737317606807</ele>
        <time>2025-10-09T15:17:56Z</time>
        <extensions>
          <gpxtpx:TrackPointExtension>
            <gpxtpx:hr>129</gpxtpx:hr>
          </gpxtpx:TrackPointExtension>
        </extensions>
      </trkpt>
      <trkpt lat="38.83601150104823" lon="121.51166774628645">
        <ele>6.063470285385847</ele>
        <time>2025-10-09T15:18:02Z</time>
      </trkpt>
      <trkpt lat="38.83612229514474" lon="121.51185531843714">
        <ele>6.1873389994725585</ele>
        <time>2025-10-09T15:18:10Z</time>
      </trkpt>
      <trkpt lat="38.83629208520425" lon="121.51194006845286">
        <ele>5.159151380881667</ele>
        <time>2025-10-09T15:18:18Z</time>
      </trkpt>
      <trkpt lat="38.83647295441821" lon="121.51189333356818">
        <ele>5.287102037109435</ele>
        <time>2025-10-09T15:18:26Z</time>
      </trkpt>
      <trkpt lat="38.83663499681701" lon="121.5117753268088">
        <ele>6.257393158972263</ele>
        <time>2025-10-09T15:18:34Z</time>
      </trkpt>
      <trkpt lat="38.83670893891542" lon="121.51178234148415">
        <ele>6.609987836331129</ele>
        <time>2025-10-09T15:18:37Z</time>
      </trkpt>
      <trkpt lat="38.83676668072654" lon="121.51184097814269">
        <ele>5.908645954914391</ele>
        <time>2025-10-09T15:18:40Z</time>
      </trkpt>
      <trkpt lat="38.836828904045326" lon="121.51180673182374">
        <ele>6.212116664275527</ele>
        <time>2025-10-09T15:18:43Z</time>
      </trkpt>
      <trkpt lat="38.836994877612135" lon="121.51150905518992">
        <ele>6.710212220437825</ele>
        <time>2025-10-09T15:18:55Z</time>
      </trkpt>
      <trkpt lat="38.837045893217855" lon="121.51144459066661">
        <ele>7.2149050971493125</ele>
        <time>2025-10-09T15:18:58Z</time>
      </trkpt>
      <trkpt lat="38.8370726136596" lon="121.51137535625652">
        <ele>6.784830839373171</ele>
        <time>2025-10-09T15:19:01Z</time>
      </trkpt>
      <trkpt lat="38.8370794481225" lon="121.51128521203155">
        <ele>6.025137599557638</ele>
        <time>2025-10-09T15:19:04Z</time>
      </trkpt>
      <trkpt lat="38.83702311081414" lon="121.51110624139886">
        <ele>6.725685025565326</ele>
        <time>2025-10-09T15:19:10Z</time>
        <extensions>
          <gpxtpx:TrackPointExtension>
            <gpxtpx:hr>134</gpxtpx:hr>
          </gpxtpx:TrackPointExtension>
        </extensions>
      </trkpt>
      <trkpt lat="38.83701640812531" lon="121.51102142797338">
        <ele>7.599718427285552</ele>
        <time>2025-10-09T15:19:13Z</time>
        <extensions>
          <gpxtpx:TrackPointExtension>
            <gpxtpx:hr>134</gpxtpx:hr>
          </gpxtpx:TrackPointExtension>
        </extensions>
      </trkpt>
      <trkpt lat="38.837078803898784" lon="121.51078293383858">
        <ele>7.607051241211593</ele>
        <time>2025-10-09T15:19:22Z</time>
        <extensions>
          <gpxtpx:TrackPointExtension>
            <gpxtpx:hr>134</gpxtpx:hr>
          </gpxtpx:TrackPointExtension>
        </extensions>
      </trkpt>
      <trkpt lat="38.837202770505904" lon="121.5105885770623">
        <ele>8.669480816461146</ele>
        <time>2025-10-09T15:19:31Z</time>
        <extensions>
          <gpxtpx:TrackPointExtension>
            <gpxtpx:hr>135</gpxtpx:hr>
          </gpxtpx:TrackPointExtension>
        </extensions>
      </trkpt>
      <trkpt lat="38.83742949386704" lon="121.51030715932579">
        <ele>8.983027640730143</ele>
        <time>2025-10-09T15:19:46Z</time>
        <extensions>
          <gpxtpx:TrackPointExtension>
            <gpxtpx:hr>135</gpxtpx:hr>
          </gpxtpx:TrackPointExtension>
        </extensions>
      </trkpt>
      <trkpt lat="38.837609757861905" lon="121.51018900770708">
        <ele>9.200502625666559</ele>
        <time>2025-10-09T15:19:55Z</time>
        <extensions>
          <gpxtpx:TrackPointExtension>
            <gpxtpx:hr>137</gpxtpx:hr>
          </gpxtpx:TrackPointExtension>
        </extensions>
      </trkpt>
      <trkpt lat="38.837697505777534" lon="121.51005245641763">
        <ele>9.444062931463122</ele>
        <time>2025-10-09T15:20:01Z</time>
        <extensions>
          <gpxtpx:TrackPointExtension>
            <gpxtpx:hr>144</gpxtpx:hr>
          </gpxtpx:TrackPointExtension>
        </extensions>
      </trkpt>
      <trkpt lat="38.837762711905874" lon="121.50990842507758">
        <ele>9.502686811611056</ele>
        <time>2025-10-09T15:20:07Z</time>
        <extensions>
          <gpxtpx:TrackPointExtension>
            <gpxtpx:hr>139</gpxtpx:hr>
          </gpxtpx:TrackPointExtension>
        </extensions>
      </trkpt>
      <trkpt lat="38.8378314261599" lon="121.50989142386001">
        <ele>10.004201346077025</ele>
        <time>2025-10-09T15:20:10Z</time>
        <extensions>
          <gpxtpx:TrackPointExtension>
            <gpxtpx:hr>139</gpxtpx:hr>
          </gpxtpx:TrackPointExtension>
        </extensions>
      </trkpt>
      <trkpt lat="38.837931655609886" lon="121.50969205624334">
        <ele>9.279064658097923</ele>
        <time>2025-10-09T15:20:18Z</time>
        <extensions>
          <gpxtpx:TrackPointExtension>
            <gpxtpx:hr>142</gpxtpx:hr>
          </gpxtpx:TrackPointExtension>
        </extensions>
      </trkpt>
      <trkpt lat="38.83799424650287" lon="121.50937675546534">
        <ele>10.255515898577869</ele>
        <time>2025-10-09T15:20:30Z</time>
        <extensions>
          <gpxtpx:TrackPointExtension>
            <gpxtpx:hr>145</gpxtpx:hr>
          </gpxtpx:TrackPointExtension>
        </extensions>
      </trkpt>
      <trkpt lat="38.83806178762284" lon="121.50929696203106">
        <ele>9.350770805031061</ele>
        <time>2025-10-09T15:20:34Z</time>
        <extensions>
          <gpxtpx:TrackPointExtension>
            <gpxtpx:hr>145</gpxtpx:hr>
          </gpxtpx:TrackPointExtension>
        </extensions>
      </trkpt>
      <trkpt lat="38.83823977535564" lon="121.50917569106998">
        <ele>10.58670483250171</ele>
        <time>2025-10-09T15:20:43Z</time>
        <extensions>
          <gpxtpx:TrackPointExtension>
            <gpxtpx:hr>145</gpxtpx:hr>
          </gpxtpx:TrackPointExtension>
        </extensions>
      </trkpt>
      <trkpt lat="38.83828380967812" lon="121.50910773827569">
        <ele>10.393199535086751</ele>
        <time>2025-10-09T15:20:46Z</time>
        <extensions>
          <gpxtpx:TrackPointExtension>
            <gpxtpx:hr>147</gpxtpx:hr>
          </gpxtpx:TrackPointExtension>
        </extensions>
      </trkpt>
      <trkpt lat="38.838282003983515" lon="121.50902320994551">
        <ele>10.361449192278087</ele>
        <time>2025-10-09T15:20:49Z</time>
        <extensions>
          <gpxtpx:TrackPointExtension>
            <gpxtpx:hr>147</gpxtpx:hr>
          </gpxtpx:TrackPointExtension>
        </extensions>
      </trkpt>
      <trkpt lat="38.838015748189775" lon="121.5087732515273">
        <ele>10.295620959252119</ele>
        <time>2025-10-09T15:21:04Z</time>
        <extensions>
          <gpxtpx:TrackPointExtension>
            <gpxtpx:hr>146</gpxtpx:hr>
          </gpxtpx:TrackPointExtension>
        </extensions>
      </trkpt>
      <trkpt lat="38.83775188166537" lon="121.50851067064963">
        <ele>10.129700212739408</ele>
        <time>2025-10-09T15:21:19Z</time>
        <extensions>
          <gpxtpx:TrackPointExtension>
            <gpxtpx:hr>146</gpxtpx:hr>
          </gpxtpx:TrackPointExtension>
        </extensions>
      </trkpt>
      <trkpt lat="38.83758437276961" lon="121.50828259324437">
        <ele>10.177225042134523</ele>
        <time>2025-10-09T15:21:34Z</time>
        <extensions>
          <gpxtpx:TrackPointExtension>
            <gpxtpx:hr>146</gpxtpx:hr>
          </gpxtpx:TrackPointExtension>
        </extensions>
      </trkpt>
      <trkpt lat="38.83734776442807" lon="121.50810551179455">
        <ele>9.569729699753225</ele>
        <time>2025-10-09T15:21:49Z</time>
        <extensions>
          <gpxtpx:TrackPointExtension>
            <gpxtpx:hr>143</gpxtpx:hr>
          </gpxtpx:TrackPointExtension>
        </extensions>
      </trkpt>
      <trkpt lat="38.83711320515002" lon="121.50787842240993">
        <ele>10.074907653033733</ele>
        <time>2025-10-09T15:22:01Z</time>
        <extensions>
          <gpxtpx:TrackPointExtension>
            <gpxtpx:hr>137</gpxtpx:hr>
          </gpxtpx:TrackPointExtension>
        </extensions>
      </trkpt>
      <trkpt lat="38.837065491289515" lon="121.50782578871947">
        <ele>10.358940286561847</ele>
        <time>2025-10-09T15:22:04Z</time>
        <extensions>
          <gpxtpx:TrackPointExtension>
            <gpxtpx:hr>137</gpxtpx:hr>
          </gpxtpx:TrackPointExtension>
        </extensions>
      </trkpt>
      <trkpt lat="38.83699869843062" lon="121.50778687155551">
        <ele>9.731994626112282</ele>
        <time>2025-10-09T15:22:07Z</time>
        <extensions>
          <gpxtpx:TrackPointExtension>
            <gpxtpx:hr>138</gpxtpx:hr>
          </gpxtpx:TrackPointExtension>
        </extensions>
      </trkpt>
      <trkpt lat="38.836814102476936" lon="121.50762466554053">
        <ele>9.21006371639669</ele>
        <time>2025-10-09T15:22:16Z</time>
        <extensions>
          <gpxtpx:TrackPointExtension>
            <gpxtpx:hr>139</gpxtpx:hr>
          </gpxtpx:TrackPointExtension>
        </extensions>
      </trkpt>
      <trkpt lat="38.83674226694151" lon="121.50753924958113">
        <ele>9.773970338515937</ele>
        <time>2025-10-09T15:22:20Z</time>
        <extensions>
          <gpxtpx:TrackPointExtension>
            <gpxtpx:hr>139</gpxtpx:hr>
          </gpxtpx:TrackPointExtension>
        </extensions>
      </trkpt>
      <trkpt lat="38.83667276595653" lon="121.50738739964497">
        <ele>9.327555138617754</ele>
        <time>2025-10-09T15:22:30Z</time>
        <extensions>
          <gpxtpx:TrackPointExtension>
            <gpxtpx:hr>140</gpxtpx:hr>
          </gpxtpx:TrackPointExtension>
        </extensions>
      </trkpt>
      <trkpt lat="38.83682408748556" lon="121.5071221447125">
        <ele>11.301746395416558</ele>
        <time>2025-10-09T15:22:43Z</time>
        <extensions>
          <gpxtpx:TrackPointExtension>
            <gpxtpx:hr>135</gpxtpx:hr>
          </gpxtpx:TrackPointExtension>
        </extensions>
      </trkpt>
      <trkpt lat="38.83685461288479" lon="121.50703665703307">
        <ele>11.26223142258823</ele>
        <time>2025-10-09T15:22:46Z</time>
        <extensions>
          <gpxtpx:TrackPointExtension>
            <gpxtpx:hr>134</gpxtpx:hr>
          </gpxtpx:TrackPointExtension>
        </extensions>
      </trkpt>
      <trkpt lat="38.837060981355215" lon="121.50668081978861">
        <ele>9.130950571037829</ele>
        <time>2025-10-09T15:23:01Z</time>
        <extensions>
          <gpxtpx:TrackPointExtension>
            <gpxtpx:hr>140</gpxtpx:hr>
          </gpxtpx:TrackPointExtension>
        </extensions>
      </trkpt>
      <trkpt lat="38.83719606265351" lon="121.50649471468022">
        <ele>9.718578639440238</ele>
        <time>2025-10-09T15:23:10Z</time>
        <extensions>
          <gpxtpx:TrackPointExtension>
            <gpxtpx:hr>141</gpxtpx:hr>
          </gpxtpx:TrackPointExtension>
        </extensions>
      </trkpt>
      <trkpt lat="38.83732128625607" lon="121.50624861218947">
        <ele>9.97119341045618</ele>
        <time>2025-10-09T15:23:19Z</time>
        <extensions>
          <gpxtpx:TrackPointExtension>
            <gpxtpx:hr>141</gpxtpx:hr>
          </gpxtpx:TrackPointExtension>
        </extensions>
      </trkpt>
      <trkpt lat="38.837457703026146" lon="121.50607277648055">
        <ele>9.439099193550646</ele>
        <time>2025-10-09T15:23:37Z</time>
        <extensions>
          <gpxtpx:TrackPointExtension>
            <gpxtpx:hr>141</gpxtpx:hr>
          </gpxtpx:TrackPointExtension>
        </extensions>
      </trkpt>
      <trkpt lat="38.83760597064215" lon="121.50578286877574">
        <ele>10.132431440986693</ele>
        <time>2025-10-09T15:24:01Z</time>
        <extensions>
          <gpxtpx:TrackPointExtension>
            <gpxtpx:hr>132</gpxtpx:hr>
          </gpxtpx:TrackPointExtension>
        </extensions>
      </trkpt>
      <trkpt lat="38.837769196857366" lon="121.5055521933855">
        <ele>9.428708178922534</ele>
        <time>2025-10-09T15:24:26Z</time>
        <extensions>
          <gpxtpx:TrackPointExtension>
            <gpxtpx:hr>115</gpxtpx:hr>
          </gpxtpx:TrackPointExtension>
        </extensions>
      </trkpt>
      <trkpt lat="38.8378338385621" lon="121.50539931242683">
        <ele>8.643749020062387</ele>
        <time>2025-10-09T15:24:37Z</time>
        <extensions>
          <gpxtpx:TrackPointExtension>
            <gpxtpx:hr>109</gpxtpx:hr>
          </gpxtpx:TrackPointExtension>
        </extensions>
      </trkpt>
      <trkpt lat="38.83792832668681" lon="121.50528166903821">
        <ele>8.473002085462213</ele>
        <time>2025-10-09T15:24:50Z</time>
        <extensions>
          <gpxtpx:TrackPointExtension>
            <gpxtpx:hr>107</gpxtpx:hr>
          </gpxtpx:TrackPointExtension>
        </extensions>
      </trkpt>
      <trkpt lat="38.83794883610684" lon="121.50519660948628">
        <ele>8.201282553374767</ele>
        <time>2025-10-09T15:24:56Z</time>
        <extensions>
          <gpxtpx:TrackPointExtension>
            <gpxtpx:hr>105</gpxtpx:hr>
          </gpxtpx:TrackPointExtension>
        </extensions>
      </trkpt>
      <trkpt lat="38.83790325997836" lon="121.50504583910276">
        <ele>9.623064825311303</ele>
        <time>2025-10-09T15:25:08Z</time>
        <extensions>
          <gpxtpx:TrackPointExtension>
            <gpxtpx:hr>106</gpxtpx:hr>
          </gpxtpx:TrackPointExtension>
        </extensions>
      </trkpt>
      <trkpt lat="38.83785747559144" lon="121.50499410438607">
        <ele>9.082482382655144</ele>
        <time>2025-10-09T15:25:14Z</time>
        <extensions>
          <gpxtpx:TrackPointExtension>
            <gpxtpx:hr>108</gpxtpx:hr>
          </gpxtpx:TrackPointExtension>
        </extensions>
      </trkpt>
      <trkpt lat="38.837830840514236" lon="121.50493006924385">
        <ele>9.084216917864978</ele>
        <time>2025-10-09T15:25:20Z</time>
        <extensions>
          <gpxtpx:TrackPointExtension>
            <gpxtpx:hr>107</gpxtpx:hr>
          </gpxtpx:TrackPointExtension>
        </extensions>
      </trkpt>
      <trkpt lat="38.83763337950327" lon="121.50475125421794">
        <ele>8.090611991472542</ele>
        <time>2025-10-09T15:25:44Z</time>
        <extensions>
          <gpxtpx:TrackPointExtension>
            <gpxtpx:hr>103</gpxtpx:hr>
          </gpxtpx:TrackPointExtension>
        </extensions>
      </trkpt>
      <trkpt lat="38.837561304910786" lon="121.50462267235177">
        <ele>9.25098648481071</ele>
        <time>2025-10-09T15:25:56Z</time>
        <extensions>
          <gpxtpx:TrackPointExtension>
            <gpxtpx:hr>102</gpxtpx:hr>
          </gpxtpx:TrackPointExtension>
        </extensions>
      </trkpt>
    </trkseg>
  </trk>
</gpx>