<?xml version="1.0" encoding="UTF-8"?>
<gpx xmlns="http://www.topografix.com/GPX/1/1" xmlns:gpxtpx="http://www.garmin.com/xmlschemas/TrackPointExtension/v1" xmlns:xsi="http://www.w3.org/2001/XMLSchema-instance" xsi:schemaLocation="http://www.topografix.com/GPX/1/1 http://www.topografix.com/GPX/1/1/gpx.xsd" version="1.1" creator="gpx.py -- https://github.com/tkrajina/gpxpy">
  <trk>
    <name>gpx from keep</name>
    <type>Run</type>
    <trkseg>
      <trkpt lat="38.83301968895732" lon="121.50798300744412">
        <ele>2.559163155447825</ele>
        <time>2025-05-21T05:31:15Z</time>
      </trkpt>
      <trkpt lat="38.83310877017306" lon="121.5076873686463">
        <ele>2.5069514364004135</ele>
        <time>2025-05-21T05:31:27Z</time>
      </trkpt>
      <trkpt lat="38.83321092929759" lon="121.50750466972342">
        <ele>2.9459323938935995</ele>
        <time>2025-05-21T05:31:35Z</time>
      </trkpt>
      <trkpt lat="38.83323984424848" lon="121.50727967659363">
        <ele>3.8552086651325226</ele>
        <time>2025-05-21T05:31:43Z</time>
      </trkpt>
      <trkpt lat="38.83319731027922" lon="121.50706381476124">
        <ele>4.397959121502936</ele>
        <time>2025-05-21T05:31:51Z</time>
        <extensions>
          <gpxtpx:TrackPointExtension>
            <gpxtpx:hr>139</gpxtpx:hr>
          </gpxtpx:TrackPointExtension>
        </extensions>
      </trkpt>
      <trkpt lat="38.83298555710929" lon="121.50674995278602">
        <ele>3.7313701044768095</ele>
        <time>2025-05-21T05:32:05Z</time>
        <extensions>
          <gpxtpx:TrackPointExtension>
            <gpxtpx:hr>139</gpxtpx:hr>
          </gpxtpx:TrackPointExtension>
        </extensions>
      </trkpt>
      <trkpt lat="38.832857152350215" lon="121.50664089122856">
        <ele>2.6641840115189552</ele>
        <time>2025-05-21T05:32:11Z</time>
        <extensions>
          <gpxtpx:TrackPointExtension>
            <gpxtpx:hr>139</gpxtpx:hr>
          </gpxtpx:TrackPointExtension>
        </extensions>
      </trkpt>
      <trkpt lat="38.83272176662728" lon="121.50656377284365">
        <ele>2.147193904966116</ele>
        <time>2025-05-21T05:32:17Z</time>
        <extensions>
          <gpxtpx:TrackPointExtension>
            <gpxtpx:hr>139</gpxtpx:hr>
          </gpxtpx:TrackPointExtension>
        </extensions>
      </trkpt>
      <trkpt lat="38.83241799965974" lon="121.50650234171907">
        <ele>-0.09167845919728279</ele>
        <time>2025-05-21T05:32:29Z</time>
      </trkpt>
      <trkpt lat="38.832292296076545" lon="121.50643867898098">
        <ele>0.6174883954226971</ele>
        <time>2025-05-21T05:32:35Z</time>
      </trkpt>
      <trkpt lat="38.83212566255167" lon="121.5062834782893">
        <ele>0.2439894014969468</ele>
        <time>2025-05-21T05:32:44Z</time>
      </trkpt>
      <trkpt lat="38.83202651505771" lon="121.50607842551666">
        <ele>1.7691532019525766</ele>
        <time>2025-05-21T05:32:53Z</time>
        <extensions>
          <gpxtpx:TrackPointExtension>
            <gpxtpx:hr>132</gpxtpx:hr>
          </gpxtpx:TrackPointExtension>
        </extensions>
      </trkpt>
      <trkpt lat="38.83200317454426" lon="121.5059843204402">
        <ele>2.0093357786536217</ele>
        <time>2025-05-21T05:32:56Z</time>
        <extensions>
          <gpxtpx:TrackPointExtension>
            <gpxtpx:hr>132</gpxtpx:hr>
          </gpxtpx:TrackPointExtension>
        </extensions>
      </trkpt>
      <trkpt lat="38.83196634876229" lon="121.50591626971493">
        <ele>3.025021861307323</ele>
        <time>2025-05-21T05:32:59Z</time>
        <extensions>
          <gpxtpx:TrackPointExtension>
            <gpxtpx:hr>132</gpxtpx:hr>
          </gpxtpx:TrackPointExtension>
        </extensions>
      </trkpt>
      <trkpt lat="38.8319477918849" lon="121.50583040934706">
        <ele>3.112762906588614</ele>
        <time>2025-05-21T05:33:02Z</time>
        <extensions>
          <gpxtpx:TrackPointExtension>
            <gpxtpx:hr>132</gpxtpx:hr>
          </gpxtpx:TrackPointExtension>
        </extensions>
      </trkpt>
      <trkpt lat="38.83183235472856" lon="121.50560697900013">
        <ele>3.69259911775589</ele>
        <time>2025-05-21T05:33:11Z</time>
        <extensions>
          <gpxtpx:TrackPointExtension>
            <gpxtpx:hr>127</gpxtpx:hr>
          </gpxtpx:TrackPointExtension>
        </extensions>
      </trkpt>
      <trkpt lat="38.83164069382348" lon="121.50542027156557">
        <ele>3.1808494087308645</ele>
        <time>2025-05-21T05:33:21Z</time>
        <extensions>
          <gpxtpx:TrackPointExtension>
            <gpxtpx:hr>124</gpxtpx:hr>
          </gpxtpx:TrackPointExtension>
        </extensions>
      </trkpt>
      <trkpt lat="38.831465621107306" lon="121.5053288004171">
        <ele>1.971821959130466</ele>
        <time>2025-05-21T05:33:29Z</time>
        <extensions>
          <gpxtpx:TrackPointExtension>
            <gpxtpx:hr>124</gpxtpx:hr>
          </gpxtpx:TrackPointExtension>
        </extensions>
      </trkpt>
      <trkpt lat="38.831269911036905" lon="121.50529285872375">
        <ele>0.574963609687984</ele>
        <time>2025-05-21T05:33:37Z</time>
        <extensions>
          <gpxtpx:TrackPointExtension>
            <gpxtpx:hr>125</gpxtpx:hr>
          </gpxtpx:TrackPointExtension>
        </extensions>
      </trkpt>
      <trkpt lat="38.83098979563107" lon="121.50531379479155">
        <ele>1.1563708297908306</ele>
        <time>2025-05-21T05:33:49Z</time>
        <extensions>
          <gpxtpx:TrackPointExtension>
            <gpxtpx:hr>127</gpxtpx:hr>
          </gpxtpx:TrackPointExtension>
        </extensions>
      </trkpt>
      <trkpt lat="38.830818951188704" lon="121.5053042907006">
        <ele>0.0037553030997514725</ele>
        <time>2025-05-21T05:33:57Z</time>
        <extensions>
          <gpxtpx:TrackPointExtension>
            <gpxtpx:hr>127</gpxtpx:hr>
          </gpxtpx:TrackPointExtension>
        </extensions>
      </trkpt>
      <trkpt lat="38.83056079563259" lon="121.50504693912443">
        <ele>2.09695225674659</ele>
        <time>2025-05-21T05:34:12Z</time>
        <extensions>
          <gpxtpx:TrackPointExtension>
            <gpxtpx:hr>127</gpxtpx:hr>
          </gpxtpx:TrackPointExtension>
        </extensions>
      </trkpt>
      <trkpt lat="38.83030755277619" lon="121.50486832530022">
        <ele>2.6145065715536475</ele>
        <time>2025-05-21T05:34:24Z</time>
        <extensions>
          <gpxtpx:TrackPointExtension>
            <gpxtpx:hr>124</gpxtpx:hr>
          </gpxtpx:TrackPointExtension>
        </extensions>
      </trkpt>
      <trkpt lat="38.83002635190488" lon="121.50473090963229">
        <ele>1.0844107568264008</ele>
        <time>2025-05-21T05:34:36Z</time>
        <extensions>
          <gpxtpx:TrackPointExtension>
            <gpxtpx:hr>122</gpxtpx:hr>
          </gpxtpx:TrackPointExtension>
        </extensions>
      </trkpt>
      <trkpt lat="38.82990815665544" lon="121.50462922917778">
        <ele>1.2026351289823651</ele>
        <time>2025-05-21T05:34:42Z</time>
        <extensions>
          <gpxtpx:TrackPointExtension>
            <gpxtpx:hr>122</gpxtpx:hr>
          </gpxtpx:TrackPointExtension>
        </extensions>
      </trkpt>
      <trkpt lat="38.829713543884154" lon="121.50435252624989">
        <ele>1.7823842214420438</ele>
        <time>2025-05-21T05:34:54Z</time>
        <extensions>
          <gpxtpx:TrackPointExtension>
            <gpxtpx:hr>124</gpxtpx:hr>
          </gpxtpx:TrackPointExtension>
        </extensions>
      </trkpt>
      <trkpt lat="38.82945634052483" lon="121.5041714826542">
        <ele>1.2274203849956393</ele>
        <time>2025-05-21T05:35:06Z</time>
        <extensions>
          <gpxtpx:TrackPointExtension>
            <gpxtpx:hr>130</gpxtpx:hr>
          </gpxtpx:TrackPointExtension>
        </extensions>
      </trkpt>
      <trkpt lat="38.8293956652398" lon="121.50412482371958">
        <ele>0.9636652376502752</ele>
        <time>2025-05-21T05:35:09Z</time>
        <extensions>
          <gpxtpx:TrackPointExtension>
            <gpxtpx:hr>130</gpxtpx:hr>
          </gpxtpx:TrackPointExtension>
        </extensions>
      </trkpt>
      <trkpt lat="38.829243136817965" lon="121.50408246376439">
        <ele>1.0710502723231912</ele>
        <time>2025-05-21T05:35:15Z</time>
        <extensions>
          <gpxtpx:TrackPointExtension>
            <gpxtpx:hr>137</gpxtpx:hr>
          </gpxtpx:TrackPointExtension>
        </extensions>
      </trkpt>
      <trkpt lat="38.82917377135917" lon="121.5040443048066">
        <ele>0.7318685110658407</ele>
        <time>2025-05-21T05:35:18Z</time>
        <extensions>
          <gpxtpx:TrackPointExtension>
            <gpxtpx:hr>137</gpxtpx:hr>
          </gpxtpx:TrackPointExtension>
        </extensions>
      </trkpt>
      <trkpt lat="38.82908967517905" lon="121.50404175642103">
        <ele>0.3063847366720438</ele>
        <time>2025-05-21T05:35:21Z</time>
        <extensions>
          <gpxtpx:TrackPointExtension>
            <gpxtpx:hr>135</gpxtpx:hr>
          </gpxtpx:TrackPointExtension>
        </extensions>
      </trkpt>
      <trkpt lat="38.82891268994362" lon="121.50396547210646">
        <ele>0.6146746063604951</ele>
        <time>2025-05-21T05:35:28Z</time>
        <extensions>
          <gpxtpx:TrackPointExtension>
            <gpxtpx:hr>136</gpxtpx:hr>
          </gpxtpx:TrackPointExtension>
        </extensions>
      </trkpt>
      <trkpt lat="38.82870951759683" lon="121.50399404358544">
        <ele>2.357796457596123</ele>
        <time>2025-05-21T05:35:36Z</time>
        <extensions>
          <gpxtpx:TrackPointExtension>
            <gpxtpx:hr>138</gpxtpx:hr>
          </gpxtpx:TrackPointExtension>
        </extensions>
      </trkpt>
      <trkpt lat="38.8285455801735" lon="121.50411174731062">
        <ele>0.6807350013405085</ele>
        <time>2025-05-21T05:35:44Z</time>
        <extensions>
          <gpxtpx:TrackPointExtension>
            <gpxtpx:hr>135</gpxtpx:hr>
          </gpxtpx:TrackPointExtension>
        </extensions>
      </trkpt>
      <trkpt lat="38.82835234322692" lon="121.50408437846791">
        <ele>1.3365711579099298</ele>
        <time>2025-05-21T05:35:52Z</time>
        <extensions>
          <gpxtpx:TrackPointExtension>
            <gpxtpx:hr>136</gpxtpx:hr>
          </gpxtpx:TrackPointExtension>
        </extensions>
      </trkpt>
      <trkpt lat="38.828169881806375" lon="121.50399372010163">
        <ele>1.7635700404644012</ele>
        <time>2025-05-21T05:36:00Z</time>
        <extensions>
          <gpxtpx:TrackPointExtension>
            <gpxtpx:hr>138</gpxtpx:hr>
          </gpxtpx:TrackPointExtension>
        </extensions>
      </trkpt>
      <trkpt lat="38.828058460953706" lon="121.50388660893368">
        <ele>2.172601604834199</ele>
        <time>2025-05-21T05:36:06Z</time>
        <extensions>
          <gpxtpx:TrackPointExtension>
            <gpxtpx:hr>138</gpxtpx:hr>
          </gpxtpx:TrackPointExtension>
        </extensions>
      </trkpt>
      <trkpt lat="38.827914737023534" lon="121.50358921792491">
        <ele>1.6393503807485104</ele>
        <time>2025-05-21T05:36:18Z</time>
        <extensions>
          <gpxtpx:TrackPointExtension>
            <gpxtpx:hr>137</gpxtpx:hr>
          </gpxtpx:TrackPointExtension>
        </extensions>
      </trkpt>
      <trkpt lat="38.827832138584846" lon="121.50324748561893">
        <ele>2.7076053377240896</ele>
        <time>2025-05-21T05:36:30Z</time>
        <extensions>
          <gpxtpx:TrackPointExtension>
            <gpxtpx:hr>139</gpxtpx:hr>
          </gpxtpx:TrackPointExtension>
        </extensions>
      </trkpt>
      <trkpt lat="38.82768148968801" lon="121.50316457969545">
        <ele>2.104995367117226</ele>
        <time>2025-05-21T05:36:36Z</time>
        <extensions>
          <gpxtpx:TrackPointExtension>
            <gpxtpx:hr>140</gpxtpx:hr>
          </gpxtpx:TrackPointExtension>
        </extensions>
      </trkpt>
      <trkpt lat="38.82763047545499" lon="121.50308608223862">
        <ele>2.4905605232343078</ele>
        <time>2025-05-21T05:36:39Z</time>
        <extensions>
          <gpxtpx:TrackPointExtension>
            <gpxtpx:hr>140</gpxtpx:hr>
          </gpxtpx:TrackPointExtension>
        </extensions>
      </trkpt>
      <trkpt lat="38.827572546805605" lon="121.50303766467496">
        <ele>2.5542578222230077</ele>
        <time>2025-05-21T05:36:42Z</time>
        <extensions>
          <gpxtpx:TrackPointExtension>
            <gpxtpx:hr>141</gpxtpx:hr>
          </gpxtpx:TrackPointExtension>
        </extensions>
      </trkpt>
      <trkpt lat="38.82734363619393" lon="121.50298039309422">
        <ele>1.6954783694818616</ele>
        <time>2025-05-21T05:36:51Z</time>
        <extensions>
          <gpxtpx:TrackPointExtension>
            <gpxtpx:hr>143</gpxtpx:hr>
          </gpxtpx:TrackPointExtension>
        </extensions>
      </trkpt>
      <trkpt lat="38.8272579926514" lon="121.5029765314499">
        <ele>1.9158015437424183</ele>
        <time>2025-05-21T05:36:54Z</time>
        <extensions>
          <gpxtpx:TrackPointExtension>
            <gpxtpx:hr>143</gpxtpx:hr>
          </gpxtpx:TrackPointExtension>
        </extensions>
      </trkpt>
      <trkpt lat="38.82718745022348" lon="121.50301227139042">
        <ele>0.8203727286309004</ele>
        <time>2025-05-21T05:36:57Z</time>
        <extensions>
          <gpxtpx:TrackPointExtension>
            <gpxtpx:hr>142</gpxtpx:hr>
          </gpxtpx:TrackPointExtension>
        </extensions>
      </trkpt>
      <trkpt lat="38.82709392455018" lon="121.50302093068623">
        <ele>0.8718122281134129</ele>
        <time>2025-05-21T05:37:00Z</time>
        <extensions>
          <gpxtpx:TrackPointExtension>
            <gpxtpx:hr>143</gpxtpx:hr>
          </gpxtpx:TrackPointExtension>
        </extensions>
      </trkpt>
      <trkpt lat="38.827033308668646" lon="121.50305610378179">
        <ele>0.7793220691382885</ele>
        <time>2025-05-21T05:37:03Z</time>
        <extensions>
          <gpxtpx:TrackPointExtension>
            <gpxtpx:hr>143</gpxtpx:hr>
          </gpxtpx:TrackPointExtension>
        </extensions>
      </trkpt>
      <trkpt lat="38.82679548447106" lon="121.50333125686448">
        <ele>0.15512200631201267</ele>
        <time>2025-05-21T05:37:15Z</time>
        <extensions>
          <gpxtpx:TrackPointExtension>
            <gpxtpx:hr>139</gpxtpx:hr>
          </gpxtpx:TrackPointExtension>
        </extensions>
      </trkpt>
      <trkpt lat="38.82673665473311" lon="121.50336396683838">
        <ele>0.5461638225242496</ele>
        <time>2025-05-21T05:37:18Z</time>
        <extensions>
          <gpxtpx:TrackPointExtension>
            <gpxtpx:hr>139</gpxtpx:hr>
          </gpxtpx:TrackPointExtension>
        </extensions>
      </trkpt>
      <trkpt lat="38.82667066445429" lon="121.50343250490604">
        <ele>0.8619393138214946</ele>
        <time>2025-05-21T05:37:21Z</time>
        <extensions>
          <gpxtpx:TrackPointExtension>
            <gpxtpx:hr>140</gpxtpx:hr>
          </gpxtpx:TrackPointExtension>
        </extensions>
      </trkpt>
      <trkpt lat="38.82662579146691" lon="121.50350883033298">
        <ele>0.7081437651067972</ele>
        <time>2025-05-21T05:37:24Z</time>
        <extensions>
          <gpxtpx:TrackPointExtension>
            <gpxtpx:hr>140</gpxtpx:hr>
          </gpxtpx:TrackPointExtension>
        </extensions>
      </trkpt>
      <trkpt lat="38.8266131677459" lon="121.50358879567517">
        <ele>0.1159849502146244</ele>
        <time>2025-05-21T05:37:27Z</time>
        <extensions>
          <gpxtpx:TrackPointExtension>
            <gpxtpx:hr>141</gpxtpx:hr>
          </gpxtpx:TrackPointExtension>
        </extensions>
      </trkpt>
      <trkpt lat="38.826546120215816" lon="121.50377769638366">
        <ele>0.6072988528758287</ele>
        <time>2025-05-21T05:37:34Z</time>
        <extensions>
          <gpxtpx:TrackPointExtension>
            <gpxtpx:hr>141</gpxtpx:hr>
          </gpxtpx:TrackPointExtension>
        </extensions>
      </trkpt>
      <trkpt lat="38.82654181467496" lon="121.50391624198515">
        <ele>0.05928205233067274</ele>
        <time>2025-05-21T05:37:38Z</time>
        <extensions>
          <gpxtpx:TrackPointExtension>
            <gpxtpx:hr>141</gpxtpx:hr>
          </gpxtpx:TrackPointExtension>
        </extensions>
      </trkpt>
      <trkpt lat="38.82656277256165" lon="121.50417179969662">
        <ele>0.3475643405690789</ele>
        <time>2025-05-21T05:37:46Z</time>
        <extensions>
          <gpxtpx:TrackPointExtension>
            <gpxtpx:hr>141</gpxtpx:hr>
          </gpxtpx:TrackPointExtension>
        </extensions>
      </trkpt>
      <trkpt lat="38.82650697264791" lon="121.50448532554078">
        <ele>0.5454243514686823</ele>
        <time>2025-05-21T05:37:57Z</time>
        <extensions>
          <gpxtpx:TrackPointExtension>
            <gpxtpx:hr>141</gpxtpx:hr>
          </gpxtpx:TrackPointExtension>
        </extensions>
      </trkpt>
      <trkpt lat="38.82635481400716" lon="121.50479103929014">
        <ele>0.9121728334575891</ele>
        <time>2025-05-21T05:38:09Z</time>
        <extensions>
          <gpxtpx:TrackPointExtension>
            <gpxtpx:hr>140</gpxtpx:hr>
          </gpxtpx:TrackPointExtension>
        </extensions>
      </trkpt>
      <trkpt lat="38.82630921186123" lon="121.50479294181832">
        <ele>0.36670768074691296</ele>
        <time>2025-05-21T05:38:12Z</time>
        <extensions>
          <gpxtpx:TrackPointExtension>
            <gpxtpx:hr>140</gpxtpx:hr>
          </gpxtpx:TrackPointExtension>
        </extensions>
      </trkpt>
      <trkpt lat="38.826339272760386" lon="121.5046809401304">
        <ele>-0.41572968009859324</ele>
        <time>2025-05-21T05:38:15Z</time>
        <extensions>
          <gpxtpx:TrackPointExtension>
            <gpxtpx:hr>141</gpxtpx:hr>
          </gpxtpx:TrackPointExtension>
        </extensions>
      </trkpt>
      <trkpt lat="38.826388177045935" lon="121.50463196090844">
        <ele>0.5149978650733829</ele>
        <time>2025-05-21T05:38:18Z</time>
        <extensions>
          <gpxtpx:TrackPointExtension>
            <gpxtpx:hr>141</gpxtpx:hr>
          </gpxtpx:TrackPointExtension>
        </extensions>
      </trkpt>
      <trkpt lat="38.82646050435763" lon="121.50447544304407">
        <ele>1.2618197174742818</ele>
        <time>2025-05-21T05:38:24Z</time>
        <extensions>
          <gpxtpx:TrackPointExtension>
            <gpxtpx:hr>142</gpxtpx:hr>
          </gpxtpx:TrackPointExtension>
        </extensions>
      </trkpt>
      <trkpt lat="38.8265095249193" lon="121.5043187080723">
        <ele>0.6894523166120052</ele>
        <time>2025-05-21T05:38:30Z</time>
        <extensions>
          <gpxtpx:TrackPointExtension>
            <gpxtpx:hr>145</gpxtpx:hr>
          </gpxtpx:TrackPointExtension>
        </extensions>
      </trkpt>
      <trkpt lat="38.82655425531846" lon="121.50422792175893">
        <ele>1.7363001592457294</ele>
        <time>2025-05-21T05:38:33Z</time>
        <extensions>
          <gpxtpx:TrackPointExtension>
            <gpxtpx:hr>145</gpxtpx:hr>
          </gpxtpx:TrackPointExtension>
        </extensions>
      </trkpt>
      <trkpt lat="38.826561010408206" lon="121.50414274447203">
        <ele>1.1928341770544648</ele>
        <time>2025-05-21T05:38:36Z</time>
        <extensions>
          <gpxtpx:TrackPointExtension>
            <gpxtpx:hr>143</gpxtpx:hr>
          </gpxtpx:TrackPointExtension>
        </extensions>
      </trkpt>
      <trkpt lat="38.82654297451461" lon="121.50405040401233">
        <ele>0.6075747953727841</ele>
        <time>2025-05-21T05:38:39Z</time>
        <extensions>
          <gpxtpx:TrackPointExtension>
            <gpxtpx:hr>143</gpxtpx:hr>
          </gpxtpx:TrackPointExtension>
        </extensions>
      </trkpt>
      <trkpt lat="38.826548022496404" lon="121.50386145625632">
        <ele>-0.011885439977049828</ele>
        <time>2025-05-21T05:38:45Z</time>
        <extensions>
          <gpxtpx:TrackPointExtension>
            <gpxtpx:hr>144</gpxtpx:hr>
          </gpxtpx:TrackPointExtension>
        </extensions>
      </trkpt>
      <trkpt lat="38.826623299163465" lon="121.5036033084258">
        <ele>-0.025456364266574383</ele>
        <time>2025-05-21T05:38:54Z</time>
        <extensions>
          <gpxtpx:TrackPointExtension>
            <gpxtpx:hr>144</gpxtpx:hr>
          </gpxtpx:TrackPointExtension>
        </extensions>
      </trkpt>
      <trkpt lat="38.82666602140421" lon="121.50352378481021">
        <ele>0.11527686938643456</ele>
        <time>2025-05-21T05:38:57Z</time>
        <extensions>
          <gpxtpx:TrackPointExtension>
            <gpxtpx:hr>144</gpxtpx:hr>
          </gpxtpx:TrackPointExtension>
        </extensions>
      </trkpt>
      <trkpt lat="38.82667544340653" lon="121.5034520602135">
        <ele>0.7126464145258069</ele>
        <time>2025-05-21T05:39:00Z</time>
        <extensions>
          <gpxtpx:TrackPointExtension>
            <gpxtpx:hr>147</gpxtpx:hr>
          </gpxtpx:TrackPointExtension>
        </extensions>
      </trkpt>
      <trkpt lat="38.82674934357547" lon="121.50342318483172">
        <ele>0.669465740211308</ele>
        <time>2025-05-21T05:39:03Z</time>
        <extensions>
          <gpxtpx:TrackPointExtension>
            <gpxtpx:hr>147</gpxtpx:hr>
          </gpxtpx:TrackPointExtension>
        </extensions>
      </trkpt>
      <trkpt lat="38.826964007496564" lon="121.50320081755528">
        <ele>0.5485480818897486</ele>
        <time>2025-05-21T05:39:15Z</time>
        <extensions>
          <gpxtpx:TrackPointExtension>
            <gpxtpx:hr>144</gpxtpx:hr>
          </gpxtpx:TrackPointExtension>
        </extensions>
      </trkpt>
      <trkpt lat="38.82714502170834" lon="121.50303484169245">
        <ele>2.114032139070332</ele>
        <time>2025-05-21T05:39:24Z</time>
        <extensions>
          <gpxtpx:TrackPointExtension>
            <gpxtpx:hr>145</gpxtpx:hr>
          </gpxtpx:TrackPointExtension>
        </extensions>
      </trkpt>
      <trkpt lat="38.82728485890949" lon="121.5029880946974">
        <ele>1.833371547050774</ele>
        <time>2025-05-21T05:39:30Z</time>
        <extensions>
          <gpxtpx:TrackPointExtension>
            <gpxtpx:hr>147</gpxtpx:hr>
          </gpxtpx:TrackPointExtension>
        </extensions>
      </trkpt>
      <trkpt lat="38.82742747694517" lon="121.50300051748971">
        <ele>2.371138034388423</ele>
        <time>2025-05-21T05:39:36Z</time>
        <extensions>
          <gpxtpx:TrackPointExtension>
            <gpxtpx:hr>147</gpxtpx:hr>
          </gpxtpx:TrackPointExtension>
        </extensions>
      </trkpt>
      <trkpt lat="38.82753080997774" lon="121.50305081639091">
        <ele>1.1972701866179705</ele>
        <time>2025-05-21T05:39:40Z</time>
        <extensions>
          <gpxtpx:TrackPointExtension>
            <gpxtpx:hr>147</gpxtpx:hr>
          </gpxtpx:TrackPointExtension>
        </extensions>
      </trkpt>
      <trkpt lat="38.82762897977928" lon="121.50313453623674">
        <ele>1.1966606555506587</ele>
        <time>2025-05-21T05:39:44Z</time>
        <extensions>
          <gpxtpx:TrackPointExtension>
            <gpxtpx:hr>150</gpxtpx:hr>
          </gpxtpx:TrackPointExtension>
        </extensions>
      </trkpt>
      <trkpt lat="38.82771176439586" lon="121.50323291317783">
        <ele>0.6518698511645198</ele>
        <time>2025-05-21T05:39:48Z</time>
        <extensions>
          <gpxtpx:TrackPointExtension>
            <gpxtpx:hr>150</gpxtpx:hr>
          </gpxtpx:TrackPointExtension>
        </extensions>
      </trkpt>
      <trkpt lat="38.82781440157481" lon="121.50325100408232">
        <ele>1.4414311069995165</ele>
        <time>2025-05-21T05:39:52Z</time>
        <extensions>
          <gpxtpx:TrackPointExtension>
            <gpxtpx:hr>150</gpxtpx:hr>
          </gpxtpx:TrackPointExtension>
        </extensions>
      </trkpt>
      <trkpt lat="38.827863351988356" lon="121.50354074731474">
        <ele>0.825445119291544</ele>
        <time>2025-05-21T05:40:00Z</time>
        <extensions>
          <gpxtpx:TrackPointExtension>
            <gpxtpx:hr>153</gpxtpx:hr>
          </gpxtpx:TrackPointExtension>
        </extensions>
      </trkpt>
      <trkpt lat="38.827901275187884" lon="121.50366427064999">
        <ele>2.4356249161064625</ele>
        <time>2025-05-21T05:40:04Z</time>
        <extensions>
          <gpxtpx:TrackPointExtension>
            <gpxtpx:hr>153</gpxtpx:hr>
          </gpxtpx:TrackPointExtension>
        </extensions>
      </trkpt>
      <trkpt lat="38.828105509485724" lon="121.50398812520157">
        <ele>2.1253208639100194</ele>
        <time>2025-05-21T05:40:16Z</time>
        <extensions>
          <gpxtpx:TrackPointExtension>
            <gpxtpx:hr>155</gpxtpx:hr>
          </gpxtpx:TrackPointExtension>
        </extensions>
      </trkpt>
      <trkpt lat="38.82817378223721" lon="121.50404406758652">
        <ele>1.804350944235921</ele>
        <time>2025-05-21T05:40:19Z</time>
        <extensions>
          <gpxtpx:TrackPointExtension>
            <gpxtpx:hr>155</gpxtpx:hr>
          </gpxtpx:TrackPointExtension>
        </extensions>
      </trkpt>
      <trkpt lat="38.82839533635199" lon="121.5041067922397">
        <ele>2.3812686363235116</ele>
        <time>2025-05-21T05:40:28Z</time>
        <extensions>
          <gpxtpx:TrackPointExtension>
            <gpxtpx:hr>158</gpxtpx:hr>
          </gpxtpx:TrackPointExtension>
        </extensions>
      </trkpt>
      <trkpt lat="38.828706078686906" lon="121.50403821362957">
        <ele>1.6240291595458984</ele>
        <time>2025-05-21T05:40:40Z</time>
        <extensions>
          <gpxtpx:TrackPointExtension>
            <gpxtpx:hr>156</gpxtpx:hr>
          </gpxtpx:TrackPointExtension>
        </extensions>
      </trkpt>
      <trkpt lat="38.82877063279312" lon="121.5040272235738">
        <ele>3.0149929029867053</ele>
        <time>2025-05-21T05:40:43Z</time>
        <extensions>
          <gpxtpx:TrackPointExtension>
            <gpxtpx:hr>156</gpxtpx:hr>
          </gpxtpx:TrackPointExtension>
        </extensions>
      </trkpt>
      <trkpt lat="38.828940981289094" lon="121.50410184149435">
        <ele>2.88211405929178</ele>
        <time>2025-05-21T05:40:49Z</time>
        <extensions>
          <gpxtpx:TrackPointExtension>
            <gpxtpx:hr>157</gpxtpx:hr>
          </gpxtpx:TrackPointExtension>
        </extensions>
      </trkpt>
      <trkpt lat="38.82902573100998" lon="121.50404834051511">
        <ele>2.736459828913212</ele>
        <time>2025-05-21T05:40:52Z</time>
        <extensions>
          <gpxtpx:TrackPointExtension>
            <gpxtpx:hr>158</gpxtpx:hr>
          </gpxtpx:TrackPointExtension>
        </extensions>
      </trkpt>
      <trkpt lat="38.829178276993254" lon="121.50405270903879">
        <ele>2.8781706113368273</ele>
        <time>2025-05-21T05:40:58Z</time>
        <extensions>
          <gpxtpx:TrackPointExtension>
            <gpxtpx:hr>158</gpxtpx:hr>
          </gpxtpx:TrackPointExtension>
        </extensions>
      </trkpt>
      <trkpt lat="38.829421164092544" lon="121.50415548348855">
        <ele>1.9693098114803433</ele>
        <time>2025-05-21T05:41:07Z</time>
        <extensions>
          <gpxtpx:TrackPointExtension>
            <gpxtpx:hr>158</gpxtpx:hr>
          </gpxtpx:TrackPointExtension>
        </extensions>
      </trkpt>
      <trkpt lat="38.829679092045886" lon="121.50436813067172">
        <ele>0.9608389073982835</ele>
        <time>2025-05-21T05:41:19Z</time>
        <extensions>
          <gpxtpx:TrackPointExtension>
            <gpxtpx:hr>159</gpxtpx:hr>
          </gpxtpx:TrackPointExtension>
        </extensions>
      </trkpt>
      <trkpt lat="38.829915961623584" lon="121.50463730252709">
        <ele>1.781084105372429</ele>
        <time>2025-05-21T05:41:31Z</time>
        <extensions>
          <gpxtpx:TrackPointExtension>
            <gpxtpx:hr>159</gpxtpx:hr>
          </gpxtpx:TrackPointExtension>
        </extensions>
      </trkpt>
      <trkpt lat="38.8299675672952" lon="121.50471754129187">
        <ele>2.304698501713574</ele>
        <time>2025-05-21T05:41:34Z</time>
        <extensions>
          <gpxtpx:TrackPointExtension>
            <gpxtpx:hr>161</gpxtpx:hr>
          </gpxtpx:TrackPointExtension>
        </extensions>
      </trkpt>
      <trkpt lat="38.83009023796693" lon="121.50479707460143">
        <ele>2.4089573388919234</ele>
        <time>2025-05-21T05:41:40Z</time>
        <extensions>
          <gpxtpx:TrackPointExtension>
            <gpxtpx:hr>162</gpxtpx:hr>
          </gpxtpx:TrackPointExtension>
        </extensions>
      </trkpt>
      <trkpt lat="38.83027869825854" lon="121.50485400811696">
        <ele>2.173895082436502</ele>
        <time>2025-05-21T05:41:47Z</time>
        <extensions>
          <gpxtpx:TrackPointExtension>
            <gpxtpx:hr>162</gpxtpx:hr>
          </gpxtpx:TrackPointExtension>
        </extensions>
      </trkpt>
      <trkpt lat="38.8304629297733" lon="121.50497446701446">
        <ele>1.3731125611811876</ele>
        <time>2025-05-21T05:41:55Z</time>
        <extensions>
          <gpxtpx:TrackPointExtension>
            <gpxtpx:hr>162</gpxtpx:hr>
          </gpxtpx:TrackPointExtension>
        </extensions>
      </trkpt>
      <trkpt lat="38.83069615144175" lon="121.50518511543508">
        <ele>1.9715336291119456</ele>
        <time>2025-05-21T05:42:05Z</time>
        <extensions>
          <gpxtpx:TrackPointExtension>
            <gpxtpx:hr>162</gpxtpx:hr>
          </gpxtpx:TrackPointExtension>
        </extensions>
      </trkpt>
      <trkpt lat="38.83080457904273" lon="121.50531230229664">
        <ele>0.686176311224699</ele>
        <time>2025-05-21T05:42:11Z</time>
        <extensions>
          <gpxtpx:TrackPointExtension>
            <gpxtpx:hr>163</gpxtpx:hr>
          </gpxtpx:TrackPointExtension>
        </extensions>
      </trkpt>
      <trkpt lat="38.83088290352525" lon="121.505343780684">
        <ele>1.7379867620766163</ele>
        <time>2025-05-21T05:42:14Z</time>
        <extensions>
          <gpxtpx:TrackPointExtension>
            <gpxtpx:hr>163</gpxtpx:hr>
          </gpxtpx:TrackPointExtension>
        </extensions>
      </trkpt>
      <trkpt lat="38.83104016263725" lon="121.50533866097074">
        <ele>1.4111548829823732</ele>
        <time>2025-05-21T05:42:20Z</time>
        <extensions>
          <gpxtpx:TrackPointExtension>
            <gpxtpx:hr>165</gpxtpx:hr>
          </gpxtpx:TrackPointExtension>
        </extensions>
      </trkpt>
      <trkpt lat="38.83127790341146" lon="121.50529649595784">
        <ele>1.936296408995986</ele>
        <time>2025-05-21T05:42:29Z</time>
        <extensions>
          <gpxtpx:TrackPointExtension>
            <gpxtpx:hr>165</gpxtpx:hr>
          </gpxtpx:TrackPointExtension>
        </extensions>
      </trkpt>
      <trkpt lat="38.83152451573669" lon="121.50535703322431">
        <ele>1.4478752398863435</ele>
        <time>2025-05-21T05:42:38Z</time>
        <extensions>
          <gpxtpx:TrackPointExtension>
            <gpxtpx:hr>165</gpxtpx:hr>
          </gpxtpx:TrackPointExtension>
        </extensions>
      </trkpt>
      <trkpt lat="38.831651799249045" lon="121.50545431536409">
        <ele>1.879602369852364</ele>
        <time>2025-05-21T05:42:44Z</time>
        <extensions>
          <gpxtpx:TrackPointExtension>
            <gpxtpx:hr>165</gpxtpx:hr>
          </gpxtpx:TrackPointExtension>
        </extensions>
      </trkpt>
      <trkpt lat="38.83178960905185" lon="121.50559672550756">
        <ele>1.085964941419661</ele>
        <time>2025-05-21T05:42:50Z</time>
        <extensions>
          <gpxtpx:TrackPointExtension>
            <gpxtpx:hr>166</gpxtpx:hr>
          </gpxtpx:TrackPointExtension>
        </extensions>
      </trkpt>
      <trkpt lat="38.83188519963488" lon="121.50577902660295">
        <ele>-0.23880781047046185</ele>
        <time>2025-05-21T05:42:56Z</time>
        <extensions>
          <gpxtpx:TrackPointExtension>
            <gpxtpx:hr>167</gpxtpx:hr>
          </gpxtpx:TrackPointExtension>
        </extensions>
      </trkpt>
      <trkpt lat="38.83198720770155" lon="121.50608137105209">
        <ele>1.5817269012331963</ele>
        <time>2025-05-21T05:43:05Z</time>
        <extensions>
          <gpxtpx:TrackPointExtension>
            <gpxtpx:hr>165</gpxtpx:hr>
          </gpxtpx:TrackPointExtension>
        </extensions>
      </trkpt>
      <trkpt lat="38.83210829193069" lon="121.50631528028856">
        <ele>2.505712339654565</ele>
        <time>2025-05-21T05:43:14Z</time>
        <extensions>
          <gpxtpx:TrackPointExtension>
            <gpxtpx:hr>164</gpxtpx:hr>
          </gpxtpx:TrackPointExtension>
        </extensions>
      </trkpt>
      <trkpt lat="38.83217351643525" lon="121.50638405425417">
        <ele>1.635696285404265</ele>
        <time>2025-05-21T05:43:17Z</time>
        <extensions>
          <gpxtpx:TrackPointExtension>
            <gpxtpx:hr>164</gpxtpx:hr>
          </gpxtpx:TrackPointExtension>
        </extensions>
      </trkpt>
      <trkpt lat="38.832405726613686" lon="121.50651522149433">
        <ele>1.715189939364791</ele>
        <time>2025-05-21T05:43:26Z</time>
        <extensions>
          <gpxtpx:TrackPointExtension>
            <gpxtpx:hr>162</gpxtpx:hr>
          </gpxtpx:TrackPointExtension>
        </extensions>
      </trkpt>
      <trkpt lat="38.83261829940722" lon="121.50653354146942">
        <ele>1.8314683819189668</ele>
        <time>2025-05-21T05:43:35Z</time>
        <extensions>
          <gpxtpx:TrackPointExtension>
            <gpxtpx:hr>164</gpxtpx:hr>
          </gpxtpx:TrackPointExtension>
        </extensions>
      </trkpt>
      <trkpt lat="38.83275852962327" lon="121.50658629490391">
        <ele>2.4786445861682296</ele>
        <time>2025-05-21T05:43:47Z</time>
        <extensions>
          <gpxtpx:TrackPointExtension>
            <gpxtpx:hr>161</gpxtpx:hr>
          </gpxtpx:TrackPointExtension>
        </extensions>
      </trkpt>
    </trkseg>
  </trk>
</gpx>