<?xml version="1.0" encoding="UTF-8"?>
<gpx xmlns="http://www.topografix.com/GPX/1/1" xmlns:gpxtpx="http://www.garmin.com/xmlschemas/TrackPointExtension/v1" xmlns:xsi="http://www.w3.org/2001/XMLSchema-instance" xsi:schemaLocation="http://www.topografix.com/GPX/1/1 http://www.topografix.com/GPX/1/1/gpx.xsd" version="1.1" creator="gpx.py -- https://github.com/tkrajina/gpxpy">
  <trk>
    <name>gpx from keep</name>
    <type>Run</type>
    <trkseg>
      <trkpt lat="38.82673076128897" lon="121.50342531763553">
        <ele>3.292068101465702</ele>
        <time>2025-09-20T01:53:42Z</time>
      </trkpt>
      <trkpt lat="38.826799052623365" lon="121.50334810288959">
        <ele>1.2718892293050885</ele>
        <time>2025-09-20T01:53:49Z</time>
      </trkpt>
      <trkpt lat="38.826857381109285" lon="121.50331292525262">
        <ele>2.217177551239729</ele>
        <time>2025-09-20T01:53:52Z</time>
      </trkpt>
      <trkpt lat="38.82688977818648" lon="121.50326292699931">
        <ele>1.9505605809390545</ele>
        <time>2025-09-20T01:53:55Z</time>
      </trkpt>
      <trkpt lat="38.826965161974506" lon="121.50320158761451">
        <ele>2.704389494843781</ele>
        <time>2025-09-20T01:54:01Z</time>
      </trkpt>
      <trkpt lat="38.826987747601954" lon="121.50314904847198">
        <ele>2.375120187178254</ele>
        <time>2025-09-20T01:54:04Z</time>
      </trkpt>
      <trkpt lat="38.827242631761486" lon="121.50300276258405">
        <ele>2.598488780669868</ele>
        <time>2025-09-20T01:54:19Z</time>
      </trkpt>
      <trkpt lat="38.82729825517746" lon="121.50300296322774">
        <ele>3.964911456219852</ele>
        <time>2025-09-20T01:54:22Z</time>
      </trkpt>
      <trkpt lat="38.82738530227067" lon="121.50305082582572">
        <ele>3.1557610062882304</ele>
        <time>2025-09-20T01:54:25Z</time>
      </trkpt>
      <trkpt lat="38.82744550767883" lon="121.50301496012035">
        <ele>2.846241010352969</ele>
        <time>2025-09-20T01:54:31Z</time>
      </trkpt>
      <trkpt lat="38.827505532659316" lon="121.50301106558159">
        <ele>3.2186363842338324</ele>
        <time>2025-09-20T01:54:34Z</time>
      </trkpt>
      <trkpt lat="38.82759962235138" lon="121.50308975269563">
        <ele>2.6232234882190824</ele>
        <time>2025-09-20T01:54:40Z</time>
      </trkpt>
      <trkpt lat="38.8276802644423" lon="121.50318443279065">
        <ele>1.9061279706656933</ele>
        <time>2025-09-20T01:54:46Z</time>
      </trkpt>
      <trkpt lat="38.827782139107356" lon="121.50324647904023">
        <ele>1.8411223329603672</ele>
        <time>2025-09-20T01:54:53Z</time>
      </trkpt>
      <trkpt lat="38.827867050784874" lon="121.50339829574824">
        <ele>1.750289797782898</ele>
        <time>2025-09-20T01:55:00Z</time>
      </trkpt>
      <trkpt lat="38.827911244733876" lon="121.5035302526347">
        <ele>2.6074849208816886</ele>
        <time>2025-09-20T01:55:06Z</time>
      </trkpt>
      <trkpt lat="38.82790123611301" lon="121.50360103993184">
        <ele>1.0281777018681169</ele>
        <time>2025-09-20T01:55:09Z</time>
      </trkpt>
      <trkpt lat="38.827949998508494" lon="121.50372886804101">
        <ele>2.038022634573281</ele>
        <time>2025-09-20T01:55:15Z</time>
      </trkpt>
      <trkpt lat="38.82807091744004" lon="121.50389100179979">
        <ele>2.249644204042852</ele>
        <time>2025-09-20T01:55:24Z</time>
      </trkpt>
      <trkpt lat="38.828132506576694" lon="121.50403039128612">
        <ele>2.457845726981759</ele>
        <time>2025-09-20T01:55:30Z</time>
      </trkpt>
      <trkpt lat="38.82841408884362" lon="121.50410105637465">
        <ele>3.211429069750011</ele>
        <time>2025-09-20T01:55:45Z</time>
      </trkpt>
      <trkpt lat="38.82851066479937" lon="121.50410004779457">
        <ele>3.378197276033461</ele>
        <time>2025-09-20T01:55:51Z</time>
      </trkpt>
      <trkpt lat="38.82871449184565" lon="121.504025841895">
        <ele>2.876323329284787</ele>
        <time>2025-09-20T01:56:03Z</time>
      </trkpt>
      <trkpt lat="38.828833733269676" lon="121.50402034635017">
        <ele>0.302621116861701</ele>
        <time>2025-09-20T01:56:09Z</time>
      </trkpt>
      <trkpt lat="38.828939841400185" lon="121.50408093391135">
        <ele>-0.03448070492595434</ele>
        <time>2025-09-20T01:56:15Z</time>
      </trkpt>
      <trkpt lat="38.829105634863254" lon="121.5040166160395">
        <ele>1.5544154522940516</ele>
        <time>2025-09-20T01:56:24Z</time>
      </trkpt>
      <trkpt lat="38.82938068787728" lon="121.50414159669948">
        <ele>2.0442537302151322</ele>
        <time>2025-09-20T01:56:39Z</time>
      </trkpt>
      <trkpt lat="38.82949378352854" lon="121.50419335442858">
        <ele>1.6599409440532327</ele>
        <time>2025-09-20T01:56:45Z</time>
      </trkpt>
      <trkpt lat="38.82954544984832" lon="121.50419199842837">
        <ele>1.5998431220650673</ele>
        <time>2025-09-20T01:56:48Z</time>
      </trkpt>
      <trkpt lat="38.82959826406193" lon="121.50413464258918">
        <ele>3.0770463226363063</ele>
        <time>2025-09-20T01:56:51Z</time>
      </trkpt>
      <trkpt lat="38.82966459469252" lon="121.50411116830796">
        <ele>2.8276996798813343</ele>
        <time>2025-09-20T01:56:54Z</time>
      </trkpt>
      <trkpt lat="38.829737456661825" lon="121.50418959649723">
        <ele>4.099045487120748</ele>
        <time>2025-09-20T01:56:58Z</time>
      </trkpt>
      <trkpt lat="38.829789784596855" lon="121.504221361389">
        <ele>3.80990117136389</ele>
        <time>2025-09-20T01:57:01Z</time>
      </trkpt>
      <trkpt lat="38.82995672349969" lon="121.50447229927407">
        <ele>4.074648756533861</ele>
        <time>2025-09-20T01:57:13Z</time>
      </trkpt>
      <trkpt lat="38.83013750644074" lon="121.50463526752459">
        <ele>2.472395888529718</ele>
        <time>2025-09-20T01:57:25Z</time>
      </trkpt>
      <trkpt lat="38.83024085087085" lon="121.50467797275672">
        <ele>3.388200501911342</ele>
        <time>2025-09-20T01:57:31Z</time>
      </trkpt>
      <trkpt lat="38.83026928859585" lon="121.50472939642574">
        <ele>3.3561217468231916</ele>
        <time>2025-09-20T01:57:34Z</time>
      </trkpt>
      <trkpt lat="38.830271045337966" lon="121.50482017380718">
        <ele>3.143202928826213</ele>
        <time>2025-09-20T01:57:37Z</time>
      </trkpt>
      <trkpt lat="38.830362159741334" lon="121.50491627298274">
        <ele>2.7128239842131734</ele>
        <time>2025-09-20T01:57:43Z</time>
      </trkpt>
      <trkpt lat="38.83042435696293" lon="121.50493717357071">
        <ele>3.4396013459190726</ele>
        <time>2025-09-20T01:57:46Z</time>
      </trkpt>
      <trkpt lat="38.830612283865854" lon="121.50507502218271">
        <ele>2.525775460526347</ele>
        <time>2025-09-20T01:57:58Z</time>
      </trkpt>
      <trkpt lat="38.83076342140287" lon="121.50523938795008">
        <ele>2.4707148764282465</ele>
        <time>2025-09-20T01:58:07Z</time>
      </trkpt>
      <trkpt lat="38.83101495313058" lon="121.5053504322254">
        <ele>3.195185659453273</ele>
        <time>2025-09-20T01:58:19Z</time>
      </trkpt>
      <trkpt lat="38.8311886268558" lon="121.50530080498079">
        <ele>3.786673947237432</ele>
        <time>2025-09-20T01:58:28Z</time>
      </trkpt>
      <trkpt lat="38.83146312694135" lon="121.50535338184855">
        <ele>3.0413068253546953</ele>
        <time>2025-09-20T01:58:43Z</time>
      </trkpt>
      <trkpt lat="38.83172334791623" lon="121.50550699924618">
        <ele>3.1880096597597003</ele>
        <time>2025-09-20T01:58:58Z</time>
      </trkpt>
      <trkpt lat="38.83185885631704" lon="121.50568049730667">
        <ele>2.8759347684681416</ele>
        <time>2025-09-20T01:59:08Z</time>
      </trkpt>
      <trkpt lat="38.831924961228" lon="121.50581088707143">
        <ele>2.8623428782448173</ele>
        <time>2025-09-20T01:59:14Z</time>
      </trkpt>
      <trkpt lat="38.832038010973186" lon="121.50616382467896">
        <ele>2.6019661175087094</ele>
        <time>2025-09-20T01:59:29Z</time>
      </trkpt>
      <trkpt lat="38.8322708733094" lon="121.50643047936259">
        <ele>3.542633787728846</ele>
        <time>2025-09-20T01:59:44Z</time>
        <extensions>
          <gpxtpx:TrackPointExtension>
            <gpxtpx:hr>122</gpxtpx:hr>
          </gpxtpx:TrackPointExtension>
        </extensions>
      </trkpt>
      <trkpt lat="38.8324423353064" lon="121.50652252341044">
        <ele>2.971736580133438</ele>
        <time>2025-09-20T01:59:53Z</time>
        <extensions>
          <gpxtpx:TrackPointExtension>
            <gpxtpx:hr>122</gpxtpx:hr>
          </gpxtpx:TrackPointExtension>
        </extensions>
      </trkpt>
      <trkpt lat="38.83273200730518" lon="121.50658868725039">
        <ele>2.490229678340256</ele>
        <time>2025-09-20T02:00:08Z</time>
        <extensions>
          <gpxtpx:TrackPointExtension>
            <gpxtpx:hr>125</gpxtpx:hr>
          </gpxtpx:TrackPointExtension>
        </extensions>
      </trkpt>
      <trkpt lat="38.832890287164545" lon="121.50669826055241">
        <ele>1.8245926862582564</ele>
        <time>2025-09-20T02:00:17Z</time>
        <extensions>
          <gpxtpx:TrackPointExtension>
            <gpxtpx:hr>127</gpxtpx:hr>
          </gpxtpx:TrackPointExtension>
        </extensions>
      </trkpt>
      <trkpt lat="38.83304340352006" lon="121.50685715023675">
        <ele>1.9589682212099433</ele>
        <time>2025-09-20T02:00:26Z</time>
        <extensions>
          <gpxtpx:TrackPointExtension>
            <gpxtpx:hr>129</gpxtpx:hr>
          </gpxtpx:TrackPointExtension>
        </extensions>
      </trkpt>
      <trkpt lat="38.833174822054055" lon="121.50711551362468">
        <ele>2.872668821364641</ele>
        <time>2025-09-20T02:00:38Z</time>
        <extensions>
          <gpxtpx:TrackPointExtension>
            <gpxtpx:hr>128</gpxtpx:hr>
          </gpxtpx:TrackPointExtension>
        </extensions>
      </trkpt>
      <trkpt lat="38.83322549110907" lon="121.50740948634483">
        <ele>3.166965357027948</ele>
        <time>2025-09-20T02:00:50Z</time>
        <extensions>
          <gpxtpx:TrackPointExtension>
            <gpxtpx:hr>128</gpxtpx:hr>
          </gpxtpx:TrackPointExtension>
        </extensions>
      </trkpt>
      <trkpt lat="38.83321687087302" lon="121.50749751574756">
        <ele>3.375606082379818</ele>
        <time>2025-09-20T02:00:53Z</time>
        <extensions>
          <gpxtpx:TrackPointExtension>
            <gpxtpx:hr>128</gpxtpx:hr>
          </gpxtpx:TrackPointExtension>
        </extensions>
      </trkpt>
      <trkpt lat="38.83307336675396" lon="121.50784711585715">
        <ele>3.511916859075427</ele>
        <time>2025-09-20T02:01:08Z</time>
        <extensions>
          <gpxtpx:TrackPointExtension>
            <gpxtpx:hr>127</gpxtpx:hr>
          </gpxtpx:TrackPointExtension>
        </extensions>
      </trkpt>
      <trkpt lat="38.83296533095309" lon="121.50823726579166">
        <ele>2.439405884593725</ele>
        <time>2025-09-20T02:01:24Z</time>
        <extensions>
          <gpxtpx:TrackPointExtension>
            <gpxtpx:hr>126</gpxtpx:hr>
          </gpxtpx:TrackPointExtension>
        </extensions>
      </trkpt>
      <trkpt lat="38.832849515839044" lon="121.50840645322188">
        <ele>2.7227877378463745</ele>
        <time>2025-09-20T02:01:32Z</time>
        <extensions>
          <gpxtpx:TrackPointExtension>
            <gpxtpx:hr>126</gpxtpx:hr>
          </gpxtpx:TrackPointExtension>
        </extensions>
      </trkpt>
      <trkpt lat="38.83266349803614" lon="121.50854446486913">
        <ele>2.610560119152069</ele>
        <time>2025-09-20T02:01:42Z</time>
        <extensions>
          <gpxtpx:TrackPointExtension>
            <gpxtpx:hr>130</gpxtpx:hr>
          </gpxtpx:TrackPointExtension>
        </extensions>
      </trkpt>
      <trkpt lat="38.83248442314489" lon="121.50861136694864">
        <ele>1.5005289940163493</ele>
        <time>2025-09-20T02:01:51Z</time>
        <extensions>
          <gpxtpx:TrackPointExtension>
            <gpxtpx:hr>130</gpxtpx:hr>
          </gpxtpx:TrackPointExtension>
        </extensions>
      </trkpt>
      <trkpt lat="38.83229889590242" lon="121.50859336157222">
        <ele>1.5252754427492619</ele>
        <time>2025-09-20T02:02:00Z</time>
        <extensions>
          <gpxtpx:TrackPointExtension>
            <gpxtpx:hr>131</gpxtpx:hr>
          </gpxtpx:TrackPointExtension>
        </extensions>
      </trkpt>
      <trkpt lat="38.83205463534346" lon="121.50849122452905">
        <ele>2.344368452206254</ele>
        <time>2025-09-20T02:02:12Z</time>
        <extensions>
          <gpxtpx:TrackPointExtension>
            <gpxtpx:hr>131</gpxtpx:hr>
          </gpxtpx:TrackPointExtension>
        </extensions>
      </trkpt>
      <trkpt lat="38.83200487128444" lon="121.50844629541756">
        <ele>3.0672532310709357</ele>
        <time>2025-09-20T02:02:15Z</time>
        <extensions>
          <gpxtpx:TrackPointExtension>
            <gpxtpx:hr>131</gpxtpx:hr>
          </gpxtpx:TrackPointExtension>
        </extensions>
      </trkpt>
      <trkpt lat="38.831829638182214" lon="121.50815113734294">
        <ele>-0.11435187608003616</ele>
        <time>2025-09-20T02:02:30Z</time>
        <extensions>
          <gpxtpx:TrackPointExtension>
            <gpxtpx:hr>130</gpxtpx:hr>
          </gpxtpx:TrackPointExtension>
        </extensions>
      </trkpt>
      <trkpt lat="38.83172741110186" lon="121.50793778384762">
        <ele>-0.837153191678226</ele>
        <time>2025-09-20T02:02:39Z</time>
        <extensions>
          <gpxtpx:TrackPointExtension>
            <gpxtpx:hr>131</gpxtpx:hr>
          </gpxtpx:TrackPointExtension>
        </extensions>
      </trkpt>
      <trkpt lat="38.83145137095374" lon="121.50771390987533">
        <ele>2.3574127135798335</ele>
        <time>2025-09-20T02:02:54Z</time>
        <extensions>
          <gpxtpx:TrackPointExtension>
            <gpxtpx:hr>134</gpxtpx:hr>
          </gpxtpx:TrackPointExtension>
        </extensions>
      </trkpt>
      <trkpt lat="38.831262092352105" lon="121.50767760467568">
        <ele>2.3281898088753223</ele>
        <time>2025-09-20T02:03:03Z</time>
        <extensions>
          <gpxtpx:TrackPointExtension>
            <gpxtpx:hr>136</gpxtpx:hr>
          </gpxtpx:TrackPointExtension>
        </extensions>
      </trkpt>
      <trkpt lat="38.8310771938443" lon="121.50771947193695">
        <ele>2.4613164123147726</ele>
        <time>2025-09-20T02:03:12Z</time>
        <extensions>
          <gpxtpx:TrackPointExtension>
            <gpxtpx:hr>136</gpxtpx:hr>
          </gpxtpx:TrackPointExtension>
        </extensions>
      </trkpt>
      <trkpt lat="38.830840854963476" lon="121.5076861753056">
        <ele>3.4557845974341035</ele>
        <time>2025-09-20T02:03:23Z</time>
        <extensions>
          <gpxtpx:TrackPointExtension>
            <gpxtpx:hr>137</gpxtpx:hr>
          </gpxtpx:TrackPointExtension>
        </extensions>
      </trkpt>
      <trkpt lat="38.830668879867474" lon="121.50761523659727">
        <ele>3.2393239745870233</ele>
        <time>2025-09-20T02:03:31Z</time>
        <extensions>
          <gpxtpx:TrackPointExtension>
            <gpxtpx:hr>137</gpxtpx:hr>
          </gpxtpx:TrackPointExtension>
        </extensions>
      </trkpt>
      <trkpt lat="38.83042075048119" lon="121.50737019395783">
        <ele>2.886426804587245</ele>
        <time>2025-09-20T02:03:46Z</time>
        <extensions>
          <gpxtpx:TrackPointExtension>
            <gpxtpx:hr>135</gpxtpx:hr>
          </gpxtpx:TrackPointExtension>
        </extensions>
      </trkpt>
      <trkpt lat="38.8302918663501" lon="121.50700821025808">
        <ele>3.1193687366321683</ele>
        <time>2025-09-20T02:04:01Z</time>
        <extensions>
          <gpxtpx:TrackPointExtension>
            <gpxtpx:hr>133</gpxtpx:hr>
          </gpxtpx:TrackPointExtension>
        </extensions>
      </trkpt>
      <trkpt lat="38.83017207854236" lon="121.50671254131305">
        <ele>2.7156595326960087</ele>
        <time>2025-09-20T02:04:13Z</time>
        <extensions>
          <gpxtpx:TrackPointExtension>
            <gpxtpx:hr>129</gpxtpx:hr>
          </gpxtpx:TrackPointExtension>
        </extensions>
      </trkpt>
      <trkpt lat="38.830115828424454" lon="121.50666679038613">
        <ele>2.9550935104489326</ele>
        <time>2025-09-20T02:04:16Z</time>
        <extensions>
          <gpxtpx:TrackPointExtension>
            <gpxtpx:hr>129</gpxtpx:hr>
          </gpxtpx:TrackPointExtension>
        </extensions>
      </trkpt>
      <trkpt lat="38.82983288093476" lon="121.50652728684976">
        <ele>2.099573068320751</ele>
        <time>2025-09-20T02:04:31Z</time>
        <extensions>
          <gpxtpx:TrackPointExtension>
            <gpxtpx:hr>130</gpxtpx:hr>
          </gpxtpx:TrackPointExtension>
        </extensions>
      </trkpt>
      <trkpt lat="38.82967070917246" lon="121.50640963423506">
        <ele>3.3512227768078446</ele>
        <time>2025-09-20T02:04:40Z</time>
        <extensions>
          <gpxtpx:TrackPointExtension>
            <gpxtpx:hr>131</gpxtpx:hr>
          </gpxtpx:TrackPointExtension>
        </extensions>
      </trkpt>
      <trkpt lat="38.82944177317398" lon="121.50613127796555">
        <ele>2.9496091157197952</ele>
        <time>2025-09-20T02:04:55Z</time>
        <extensions>
          <gpxtpx:TrackPointExtension>
            <gpxtpx:hr>131</gpxtpx:hr>
          </gpxtpx:TrackPointExtension>
        </extensions>
      </trkpt>
      <trkpt lat="38.82928897990839" lon="121.50599863453627">
        <ele>2.748661027289927</ele>
        <time>2025-09-20T02:05:04Z</time>
        <extensions>
          <gpxtpx:TrackPointExtension>
            <gpxtpx:hr>131</gpxtpx:hr>
          </gpxtpx:TrackPointExtension>
        </extensions>
      </trkpt>
      <trkpt lat="38.82916009477472" lon="121.50595348227392">
        <ele>2.363841639831662</ele>
        <time>2025-09-20T02:05:10Z</time>
        <extensions>
          <gpxtpx:TrackPointExtension>
            <gpxtpx:hr>131</gpxtpx:hr>
          </gpxtpx:TrackPointExtension>
        </extensions>
      </trkpt>
      <trkpt lat="38.82896445623012" lon="121.50593606792214">
        <ele>2.525165173225105</ele>
        <time>2025-09-20T02:05:19Z</time>
        <extensions>
          <gpxtpx:TrackPointExtension>
            <gpxtpx:hr>135</gpxtpx:hr>
          </gpxtpx:TrackPointExtension>
        </extensions>
      </trkpt>
      <trkpt lat="38.82878988190904" lon="121.50598210238766">
        <ele>2.469450958073139</ele>
        <time>2025-09-20T02:05:27Z</time>
        <extensions>
          <gpxtpx:TrackPointExtension>
            <gpxtpx:hr>135</gpxtpx:hr>
          </gpxtpx:TrackPointExtension>
        </extensions>
      </trkpt>
      <trkpt lat="38.828719682285204" lon="121.50603166517612">
        <ele>2.337356866337359</ele>
        <time>2025-09-20T02:05:31Z</time>
        <extensions>
          <gpxtpx:TrackPointExtension>
            <gpxtpx:hr>135</gpxtpx:hr>
          </gpxtpx:TrackPointExtension>
        </extensions>
      </trkpt>
      <trkpt lat="38.82863653964943" lon="121.50605970799865">
        <ele>2.603465755470097</ele>
        <time>2025-09-20T02:05:35Z</time>
        <extensions>
          <gpxtpx:TrackPointExtension>
            <gpxtpx:hr>135</gpxtpx:hr>
          </gpxtpx:TrackPointExtension>
        </extensions>
      </trkpt>
      <trkpt lat="38.828571118000085" lon="121.50613047746315">
        <ele>2.4929585894569755</ele>
        <time>2025-09-20T02:05:39Z</time>
        <extensions>
          <gpxtpx:TrackPointExtension>
            <gpxtpx:hr>133</gpxtpx:hr>
          </gpxtpx:TrackPointExtension>
        </extensions>
      </trkpt>
      <trkpt lat="38.82842826495247" lon="121.50637329098579">
        <ele>2.6626702304929495</ele>
        <time>2025-09-20T02:05:50Z</time>
        <extensions>
          <gpxtpx:TrackPointExtension>
            <gpxtpx:hr>132</gpxtpx:hr>
          </gpxtpx:TrackPointExtension>
        </extensions>
      </trkpt>
      <trkpt lat="38.82836667499319" lon="121.50652100302968">
        <ele>2.761979210190475</ele>
        <time>2025-09-20T02:05:56Z</time>
        <extensions>
          <gpxtpx:TrackPointExtension>
            <gpxtpx:hr>131</gpxtpx:hr>
          </gpxtpx:TrackPointExtension>
        </extensions>
      </trkpt>
      <trkpt lat="38.828332513175006" lon="121.50687142131582">
        <ele>3.4351974492892623</ele>
        <time>2025-09-20T02:06:08Z</time>
        <extensions>
          <gpxtpx:TrackPointExtension>
            <gpxtpx:hr>135</gpxtpx:hr>
          </gpxtpx:TrackPointExtension>
        </extensions>
      </trkpt>
      <trkpt lat="38.82827791373966" lon="121.50727712261036">
        <ele>2.747619033791125</ele>
        <time>2025-09-20T02:06:23Z</time>
        <extensions>
          <gpxtpx:TrackPointExtension>
            <gpxtpx:hr>140</gpxtpx:hr>
          </gpxtpx:TrackPointExtension>
        </extensions>
      </trkpt>
      <trkpt lat="38.82821159394058" lon="121.50743157996284">
        <ele>2.9779000030830503</ele>
        <time>2025-09-20T02:06:29Z</time>
        <extensions>
          <gpxtpx:TrackPointExtension>
            <gpxtpx:hr>140</gpxtpx:hr>
          </gpxtpx:TrackPointExtension>
        </extensions>
      </trkpt>
      <trkpt lat="38.828213390391475" lon="121.5075157508299">
        <ele>3.8342898041009903</ele>
        <time>2025-09-20T02:06:32Z</time>
        <extensions>
          <gpxtpx:TrackPointExtension>
            <gpxtpx:hr>140</gpxtpx:hr>
          </gpxtpx:TrackPointExtension>
        </extensions>
      </trkpt>
      <trkpt lat="38.82797638890293" lon="121.50778554654235">
        <ele>4.972495412454009</ele>
        <time>2025-09-20T02:06:47Z</time>
        <extensions>
          <gpxtpx:TrackPointExtension>
            <gpxtpx:hr>137</gpxtpx:hr>
          </gpxtpx:TrackPointExtension>
        </extensions>
      </trkpt>
      <trkpt lat="38.82767746931277" lon="121.50796942607136">
        <ele>3.515007189475</ele>
        <time>2025-09-20T02:07:02Z</time>
        <extensions>
          <gpxtpx:TrackPointExtension>
            <gpxtpx:hr>139</gpxtpx:hr>
          </gpxtpx:TrackPointExtension>
        </extensions>
      </trkpt>
      <trkpt lat="38.827461836638726" lon="121.50805886398139">
        <ele>2.9188618138432503</ele>
        <time>2025-09-20T02:07:12Z</time>
        <extensions>
          <gpxtpx:TrackPointExtension>
            <gpxtpx:hr>140</gpxtpx:hr>
          </gpxtpx:TrackPointExtension>
        </extensions>
      </trkpt>
      <trkpt lat="38.827168047727696" lon="121.50810796506698">
        <ele>3.2267996352165937</ele>
        <time>2025-09-20T02:07:28Z</time>
        <extensions>
          <gpxtpx:TrackPointExtension>
            <gpxtpx:hr>138</gpxtpx:hr>
          </gpxtpx:TrackPointExtension>
        </extensions>
      </trkpt>
      <trkpt lat="38.827072407464165" lon="121.50816280615216">
        <ele>2.43110204488039</ele>
        <time>2025-09-20T02:07:32Z</time>
        <extensions>
          <gpxtpx:TrackPointExtension>
            <gpxtpx:hr>137</gpxtpx:hr>
          </gpxtpx:TrackPointExtension>
        </extensions>
      </trkpt>
      <trkpt lat="38.826939783861754" lon="121.50829971756087">
        <ele>2.1309620020911098</ele>
        <time>2025-09-20T02:07:40Z</time>
        <extensions>
          <gpxtpx:TrackPointExtension>
            <gpxtpx:hr>137</gpxtpx:hr>
          </gpxtpx:TrackPointExtension>
        </extensions>
      </trkpt>
      <trkpt lat="38.82688759191449" lon="121.50838842063602">
        <ele>2.315896403044462</ele>
        <time>2025-09-20T02:07:44Z</time>
        <extensions>
          <gpxtpx:TrackPointExtension>
            <gpxtpx:hr>137</gpxtpx:hr>
          </gpxtpx:TrackPointExtension>
        </extensions>
      </trkpt>
      <trkpt lat="38.82680288091734" lon="121.50857233481165">
        <ele>3.0647506145760417</ele>
        <time>2025-09-20T02:07:52Z</time>
        <extensions>
          <gpxtpx:TrackPointExtension>
            <gpxtpx:hr>137</gpxtpx:hr>
          </gpxtpx:TrackPointExtension>
        </extensions>
      </trkpt>
      <trkpt lat="38.82675891313636" lon="121.50888528242993">
        <ele>2.4458126556128263</ele>
        <time>2025-09-20T02:08:04Z</time>
        <extensions>
          <gpxtpx:TrackPointExtension>
            <gpxtpx:hr>136</gpxtpx:hr>
          </gpxtpx:TrackPointExtension>
        </extensions>
      </trkpt>
      <trkpt lat="38.82681263350114" lon="121.50923354709474">
        <ele>2.6403778567910194</ele>
        <time>2025-09-20T02:08:16Z</time>
        <extensions>
          <gpxtpx:TrackPointExtension>
            <gpxtpx:hr>136</gpxtpx:hr>
          </gpxtpx:TrackPointExtension>
        </extensions>
      </trkpt>
      <trkpt lat="38.82682717543024" lon="121.50932933000438">
        <ele>3.5947824167087674</ele>
        <time>2025-09-20T02:08:19Z</time>
        <extensions>
          <gpxtpx:TrackPointExtension>
            <gpxtpx:hr>136</gpxtpx:hr>
          </gpxtpx:TrackPointExtension>
        </extensions>
      </trkpt>
      <trkpt lat="38.8267969206858" lon="121.50964309595494">
        <ele>3.304241966456175</ele>
        <time>2025-09-20T02:08:31Z</time>
        <extensions>
          <gpxtpx:TrackPointExtension>
            <gpxtpx:hr>144</gpxtpx:hr>
          </gpxtpx:TrackPointExtension>
        </extensions>
      </trkpt>
      <trkpt lat="38.826759498272075" lon="121.50980150937454">
        <ele>2.968278300948441</ele>
        <time>2025-09-20T02:08:37Z</time>
        <extensions>
          <gpxtpx:TrackPointExtension>
            <gpxtpx:hr>144</gpxtpx:hr>
          </gpxtpx:TrackPointExtension>
        </extensions>
      </trkpt>
      <trkpt lat="38.82679639885896" lon="121.50972353834017">
        <ele>3.0986618446186185</ele>
        <time>2025-09-20T02:08:43Z</time>
        <extensions>
          <gpxtpx:TrackPointExtension>
            <gpxtpx:hr>144</gpxtpx:hr>
          </gpxtpx:TrackPointExtension>
        </extensions>
      </trkpt>
      <trkpt lat="38.82682948426624" lon="121.50952376140256">
        <ele>1.4876555874943733</ele>
        <time>2025-09-20T02:08:52Z</time>
        <extensions>
          <gpxtpx:TrackPointExtension>
            <gpxtpx:hr>142</gpxtpx:hr>
          </gpxtpx:TrackPointExtension>
        </extensions>
      </trkpt>
      <trkpt lat="38.826812813444036" lon="121.50925630176472">
        <ele>2.371145535260439</ele>
        <time>2025-09-20T02:09:01Z</time>
        <extensions>
          <gpxtpx:TrackPointExtension>
            <gpxtpx:hr>139</gpxtpx:hr>
          </gpxtpx:TrackPointExtension>
        </extensions>
      </trkpt>
      <trkpt lat="38.82677324797971" lon="121.50886145575167">
        <ele>1.8966773394495249</ele>
        <time>2025-09-20T02:09:16Z</time>
        <extensions>
          <gpxtpx:TrackPointExtension>
            <gpxtpx:hr>141</gpxtpx:hr>
          </gpxtpx:TrackPointExtension>
        </extensions>
      </trkpt>
      <trkpt lat="38.82677787847556" lon="121.50869378880154">
        <ele>1.903445572592318</ele>
        <time>2025-09-20T02:09:22Z</time>
        <extensions>
          <gpxtpx:TrackPointExtension>
            <gpxtpx:hr>142</gpxtpx:hr>
          </gpxtpx:TrackPointExtension>
        </extensions>
      </trkpt>
      <trkpt lat="38.82685713733835" lon="121.50846550115855">
        <ele>2.4921054216101766</ele>
        <time>2025-09-20T02:09:31Z</time>
        <extensions>
          <gpxtpx:TrackPointExtension>
            <gpxtpx:hr>144</gpxtpx:hr>
          </gpxtpx:TrackPointExtension>
        </extensions>
      </trkpt>
      <trkpt lat="38.82694686355223" lon="121.50829162661452">
        <ele>3.3834339044988155</ele>
        <time>2025-09-20T02:09:39Z</time>
        <extensions>
          <gpxtpx:TrackPointExtension>
            <gpxtpx:hr>144</gpxtpx:hr>
          </gpxtpx:TrackPointExtension>
        </extensions>
      </trkpt>
      <trkpt lat="38.827181474170445" lon="121.50811432798201">
        <ele>2.07058631721884</ele>
        <time>2025-09-20T02:09:53Z</time>
        <extensions>
          <gpxtpx:TrackPointExtension>
            <gpxtpx:hr>142</gpxtpx:hr>
          </gpxtpx:TrackPointExtension>
        </extensions>
      </trkpt>
      <trkpt lat="38.82748938252692" lon="121.50805289676295">
        <ele>3.77165718190372</ele>
        <time>2025-09-20T02:10:08Z</time>
        <extensions>
          <gpxtpx:TrackPointExtension>
            <gpxtpx:hr>143</gpxtpx:hr>
          </gpxtpx:TrackPointExtension>
        </extensions>
      </trkpt>
      <trkpt lat="38.8275385679156" lon="121.50802014134968">
        <ele>3.074316523037851</ele>
        <time>2025-09-20T02:10:11Z</time>
        <extensions>
          <gpxtpx:TrackPointExtension>
            <gpxtpx:hr>143</gpxtpx:hr>
          </gpxtpx:TrackPointExtension>
        </extensions>
      </trkpt>
      <trkpt lat="38.82761150395434" lon="121.50801189373576">
        <ele>3.2826678920537233</ele>
        <time>2025-09-20T02:10:14Z</time>
        <extensions>
          <gpxtpx:TrackPointExtension>
            <gpxtpx:hr>143</gpxtpx:hr>
          </gpxtpx:TrackPointExtension>
        </extensions>
      </trkpt>
      <trkpt lat="38.82772860734694" lon="121.50797210415742">
        <ele>2.7075731372460723</ele>
        <time>2025-09-20T02:10:20Z</time>
        <extensions>
          <gpxtpx:TrackPointExtension>
            <gpxtpx:hr>143</gpxtpx:hr>
          </gpxtpx:TrackPointExtension>
        </extensions>
      </trkpt>
      <trkpt lat="38.827857827775496" lon="121.50789100176209">
        <ele>1.6050918735563755</ele>
        <time>2025-09-20T02:10:26Z</time>
        <extensions>
          <gpxtpx:TrackPointExtension>
            <gpxtpx:hr>143</gpxtpx:hr>
          </gpxtpx:TrackPointExtension>
        </extensions>
      </trkpt>
      <trkpt lat="38.82806376237081" lon="121.50770771606946">
        <ele>2.289159666746855</ele>
        <time>2025-09-20T02:10:38Z</time>
        <extensions>
          <gpxtpx:TrackPointExtension>
            <gpxtpx:hr>140</gpxtpx:hr>
          </gpxtpx:TrackPointExtension>
        </extensions>
      </trkpt>
      <trkpt lat="38.828249285479856" lon="121.50741261497382">
        <ele>3.6802402678877115</ele>
        <time>2025-09-20T02:10:53Z</time>
        <extensions>
          <gpxtpx:TrackPointExtension>
            <gpxtpx:hr>139</gpxtpx:hr>
          </gpxtpx:TrackPointExtension>
        </extensions>
      </trkpt>
      <trkpt lat="38.82832475264121" lon="121.50721384169236">
        <ele>3.6377165000885725</ele>
        <time>2025-09-20T02:11:02Z</time>
        <extensions>
          <gpxtpx:TrackPointExtension>
            <gpxtpx:hr>144</gpxtpx:hr>
          </gpxtpx:TrackPointExtension>
        </extensions>
      </trkpt>
      <trkpt lat="38.828290513406095" lon="121.50713273145936">
        <ele>3.65511333104223</ele>
        <time>2025-09-20T02:11:05Z</time>
        <extensions>
          <gpxtpx:TrackPointExtension>
            <gpxtpx:hr>144</gpxtpx:hr>
          </gpxtpx:TrackPointExtension>
        </extensions>
      </trkpt>
      <trkpt lat="38.82832770537137" lon="121.5070633541995">
        <ele>2.7492983182892203</ele>
        <time>2025-09-20T02:11:08Z</time>
        <extensions>
          <gpxtpx:TrackPointExtension>
            <gpxtpx:hr>145</gpxtpx:hr>
          </gpxtpx:TrackPointExtension>
        </extensions>
      </trkpt>
      <trkpt lat="38.828371896784496" lon="121.50670876418766">
        <ele>2.019072435796261</ele>
        <time>2025-09-20T02:11:23Z</time>
        <extensions>
          <gpxtpx:TrackPointExtension>
            <gpxtpx:hr>146</gpxtpx:hr>
          </gpxtpx:TrackPointExtension>
        </extensions>
      </trkpt>
      <trkpt lat="38.82836198118238" lon="121.50662181031939">
        <ele>0.3601671885699034</ele>
        <time>2025-09-20T02:11:26Z</time>
        <extensions>
          <gpxtpx:TrackPointExtension>
            <gpxtpx:hr>146</gpxtpx:hr>
          </gpxtpx:TrackPointExtension>
        </extensions>
      </trkpt>
      <trkpt lat="38.82838747746277" lon="121.50644941336746">
        <ele>-0.3935122797265649</ele>
        <time>2025-09-20T02:11:32Z</time>
        <extensions>
          <gpxtpx:TrackPointExtension>
            <gpxtpx:hr>146</gpxtpx:hr>
          </gpxtpx:TrackPointExtension>
        </extensions>
      </trkpt>
      <trkpt lat="38.82849078697085" lon="121.50623559030034">
        <ele>-1.4649210255593061</ele>
        <time>2025-09-20T02:11:42Z</time>
        <extensions>
          <gpxtpx:TrackPointExtension>
            <gpxtpx:hr>144</gpxtpx:hr>
          </gpxtpx:TrackPointExtension>
        </extensions>
      </trkpt>
      <trkpt lat="38.8285891306454" lon="121.50611925749213">
        <ele>2.8821952929720283</ele>
        <time>2025-09-20T02:11:49Z</time>
        <extensions>
          <gpxtpx:TrackPointExtension>
            <gpxtpx:hr>143</gpxtpx:hr>
          </gpxtpx:TrackPointExtension>
        </extensions>
      </trkpt>
      <trkpt lat="38.82883999731041" lon="121.5059747880151">
        <ele>3.3131101028993726</ele>
        <time>2025-09-20T02:12:02Z</time>
        <extensions>
          <gpxtpx:TrackPointExtension>
            <gpxtpx:hr>146</gpxtpx:hr>
          </gpxtpx:TrackPointExtension>
        </extensions>
      </trkpt>
      <trkpt lat="38.82902272630089" lon="121.50594216778647">
        <ele>3.6338012740015984</ele>
        <time>2025-09-20T02:12:11Z</time>
        <extensions>
          <gpxtpx:TrackPointExtension>
            <gpxtpx:hr>144</gpxtpx:hr>
          </gpxtpx:TrackPointExtension>
        </extensions>
      </trkpt>
      <trkpt lat="38.829340139962824" lon="121.50602369484477">
        <ele>2.1824119118973613</ele>
        <time>2025-09-20T02:12:26Z</time>
        <extensions>
          <gpxtpx:TrackPointExtension>
            <gpxtpx:hr>145</gpxtpx:hr>
          </gpxtpx:TrackPointExtension>
        </extensions>
      </trkpt>
      <trkpt lat="38.82948691318592" lon="121.50616845766936">
        <ele>2.4771374305710196</ele>
        <time>2025-09-20T02:12:35Z</time>
        <extensions>
          <gpxtpx:TrackPointExtension>
            <gpxtpx:hr>145</gpxtpx:hr>
          </gpxtpx:TrackPointExtension>
        </extensions>
      </trkpt>
      <trkpt lat="38.829561581583974" lon="121.50630604795563">
        <ele>2.2568353759124875</ele>
        <time>2025-09-20T02:12:41Z</time>
        <extensions>
          <gpxtpx:TrackPointExtension>
            <gpxtpx:hr>145</gpxtpx:hr>
          </gpxtpx:TrackPointExtension>
        </extensions>
      </trkpt>
      <trkpt lat="38.82967461932316" lon="121.50639112863067">
        <ele>1.0400336366146803</ele>
        <time>2025-09-20T02:12:47Z</time>
        <extensions>
          <gpxtpx:TrackPointExtension>
            <gpxtpx:hr>144</gpxtpx:hr>
          </gpxtpx:TrackPointExtension>
        </extensions>
      </trkpt>
      <trkpt lat="38.82972736322678" lon="121.50645285704458">
        <ele>1.5080190794542432</ele>
        <time>2025-09-20T02:12:50Z</time>
        <extensions>
          <gpxtpx:TrackPointExtension>
            <gpxtpx:hr>143</gpxtpx:hr>
          </gpxtpx:TrackPointExtension>
        </extensions>
      </trkpt>
      <trkpt lat="38.82978882853243" lon="121.50648230409537">
        <ele>2.2696883594617248</ele>
        <time>2025-09-20T02:12:53Z</time>
        <extensions>
          <gpxtpx:TrackPointExtension>
            <gpxtpx:hr>143</gpxtpx:hr>
          </gpxtpx:TrackPointExtension>
        </extensions>
      </trkpt>
      <trkpt lat="38.82982806825228" lon="121.50652426737702">
        <ele>2.276110471226275</ele>
        <time>2025-09-20T02:12:56Z</time>
        <extensions>
          <gpxtpx:TrackPointExtension>
            <gpxtpx:hr>143</gpxtpx:hr>
          </gpxtpx:TrackPointExtension>
        </extensions>
      </trkpt>
      <trkpt lat="38.829903057783426" lon="121.50655290516394">
        <ele>2.918008199892938</ele>
        <time>2025-09-20T02:12:59Z</time>
        <extensions>
          <gpxtpx:TrackPointExtension>
            <gpxtpx:hr>144</gpxtpx:hr>
          </gpxtpx:TrackPointExtension>
        </extensions>
      </trkpt>
      <trkpt lat="38.82999047013101" lon="121.50663814999892">
        <ele>2.2629505824297667</ele>
        <time>2025-09-20T02:13:05Z</time>
        <extensions>
          <gpxtpx:TrackPointExtension>
            <gpxtpx:hr>144</gpxtpx:hr>
          </gpxtpx:TrackPointExtension>
        </extensions>
      </trkpt>
      <trkpt lat="38.83005600491037" lon="121.50663478809798">
        <ele>2.2973226457834244</ele>
        <time>2025-09-20T02:13:08Z</time>
        <extensions>
          <gpxtpx:TrackPointExtension>
            <gpxtpx:hr>147</gpxtpx:hr>
          </gpxtpx:TrackPointExtension>
        </extensions>
      </trkpt>
      <trkpt lat="38.83016974735079" lon="121.50672067138021">
        <ele>-0.07302264776080847</ele>
        <time>2025-09-20T02:13:14Z</time>
        <extensions>
          <gpxtpx:TrackPointExtension>
            <gpxtpx:hr>146</gpxtpx:hr>
          </gpxtpx:TrackPointExtension>
        </extensions>
      </trkpt>
      <trkpt lat="38.83023507189797" lon="121.50684852790351">
        <ele>1.3796292440965772</ele>
        <time>2025-09-20T02:13:20Z</time>
        <extensions>
          <gpxtpx:TrackPointExtension>
            <gpxtpx:hr>145</gpxtpx:hr>
          </gpxtpx:TrackPointExtension>
        </extensions>
      </trkpt>
      <trkpt lat="38.83025091015684" lon="121.50692609376854">
        <ele>1.5410939697176218</ele>
        <time>2025-09-20T02:13:23Z</time>
        <extensions>
          <gpxtpx:TrackPointExtension>
            <gpxtpx:hr>145</gpxtpx:hr>
          </gpxtpx:TrackPointExtension>
        </extensions>
      </trkpt>
      <trkpt lat="38.83039840928101" lon="121.5072946030392">
        <ele>3.1365426629781723</ele>
        <time>2025-09-20T02:13:38Z</time>
        <extensions>
          <gpxtpx:TrackPointExtension>
            <gpxtpx:hr>146</gpxtpx:hr>
          </gpxtpx:TrackPointExtension>
        </extensions>
      </trkpt>
      <trkpt lat="38.83042442926389" lon="121.50737220092272">
        <ele>3.113168017938733</ele>
        <time>2025-09-20T02:13:41Z</time>
        <extensions>
          <gpxtpx:TrackPointExtension>
            <gpxtpx:hr>146</gpxtpx:hr>
          </gpxtpx:TrackPointExtension>
        </extensions>
      </trkpt>
      <trkpt lat="38.83060640313395" lon="121.50757344404408">
        <ele>1.5698118405416608</ele>
        <time>2025-09-20T02:13:52Z</time>
        <extensions>
          <gpxtpx:TrackPointExtension>
            <gpxtpx:hr>147</gpxtpx:hr>
          </gpxtpx:TrackPointExtension>
        </extensions>
      </trkpt>
      <trkpt lat="38.830824441080665" lon="121.50768245899827">
        <ele>-1.827731973491609</ele>
        <time>2025-09-20T02:14:04Z</time>
        <extensions>
          <gpxtpx:TrackPointExtension>
            <gpxtpx:hr>144</gpxtpx:hr>
          </gpxtpx:TrackPointExtension>
        </extensions>
      </trkpt>
      <trkpt lat="38.83101711859585" lon="121.50771793446576">
        <ele>2.7131046233698726</ele>
        <time>2025-09-20T02:14:13Z</time>
        <extensions>
          <gpxtpx:TrackPointExtension>
            <gpxtpx:hr>144</gpxtpx:hr>
          </gpxtpx:TrackPointExtension>
        </extensions>
      </trkpt>
      <trkpt lat="38.831318351024734" lon="121.50768074460386">
        <ele>2.990914481692016</ele>
        <time>2025-09-20T02:14:28Z</time>
        <extensions>
          <gpxtpx:TrackPointExtension>
            <gpxtpx:hr>145</gpxtpx:hr>
          </gpxtpx:TrackPointExtension>
        </extensions>
      </trkpt>
      <trkpt lat="38.831498149943776" lon="121.50773388700468">
        <ele>2.241277251392603</ele>
        <time>2025-09-20T02:14:37Z</time>
        <extensions>
          <gpxtpx:TrackPointExtension>
            <gpxtpx:hr>146</gpxtpx:hr>
          </gpxtpx:TrackPointExtension>
        </extensions>
      </trkpt>
      <trkpt lat="38.83161261196632" lon="121.50782107308127">
        <ele>2.6272899825125933</ele>
        <time>2025-09-20T02:14:43Z</time>
        <extensions>
          <gpxtpx:TrackPointExtension>
            <gpxtpx:hr>145</gpxtpx:hr>
          </gpxtpx:TrackPointExtension>
        </extensions>
      </trkpt>
      <trkpt lat="38.8317818970857" lon="121.50803528080336">
        <ele>0.7328966809436679</ele>
        <time>2025-09-20T02:14:55Z</time>
        <extensions>
          <gpxtpx:TrackPointExtension>
            <gpxtpx:hr>146</gpxtpx:hr>
          </gpxtpx:TrackPointExtension>
        </extensions>
      </trkpt>
      <trkpt lat="38.831870773433614" lon="121.50828454723226">
        <ele>2.48199993558228</ele>
        <time>2025-09-20T02:15:04Z</time>
        <extensions>
          <gpxtpx:TrackPointExtension>
            <gpxtpx:hr>146</gpxtpx:hr>
          </gpxtpx:TrackPointExtension>
        </extensions>
      </trkpt>
      <trkpt lat="38.832017306703726" lon="121.50844935446459">
        <ele>1.8830043263733387</ele>
        <time>2025-09-20T02:15:13Z</time>
        <extensions>
          <gpxtpx:TrackPointExtension>
            <gpxtpx:hr>147</gpxtpx:hr>
          </gpxtpx:TrackPointExtension>
        </extensions>
      </trkpt>
      <trkpt lat="38.8322369644399" lon="121.50856787792134">
        <ele>0.7921512415632606</ele>
        <time>2025-09-20T02:15:25Z</time>
        <extensions>
          <gpxtpx:TrackPointExtension>
            <gpxtpx:hr>148</gpxtpx:hr>
          </gpxtpx:TrackPointExtension>
        </extensions>
      </trkpt>
      <trkpt lat="38.83243217283625" lon="121.5086186389723">
        <ele>-2.452828725799918</ele>
        <time>2025-09-20T02:15:34Z</time>
        <extensions>
          <gpxtpx:TrackPointExtension>
            <gpxtpx:hr>147</gpxtpx:hr>
          </gpxtpx:TrackPointExtension>
        </extensions>
      </trkpt>
      <trkpt lat="38.83255625825111" lon="121.50861569986229">
        <ele>-1.060386755503714</ele>
        <time>2025-09-20T02:15:40Z</time>
        <extensions>
          <gpxtpx:TrackPointExtension>
            <gpxtpx:hr>146</gpxtpx:hr>
          </gpxtpx:TrackPointExtension>
        </extensions>
      </trkpt>
      <trkpt lat="38.832727148328715" lon="121.50852939881703">
        <ele>1.704015783034265</ele>
        <time>2025-09-20T02:15:49Z</time>
        <extensions>
          <gpxtpx:TrackPointExtension>
            <gpxtpx:hr>145</gpxtpx:hr>
          </gpxtpx:TrackPointExtension>
        </extensions>
      </trkpt>
      <trkpt lat="38.83281435299194" lon="121.50841975075247">
        <ele>-2.70095357298851</ele>
        <time>2025-09-20T02:15:53Z</time>
        <extensions>
          <gpxtpx:TrackPointExtension>
            <gpxtpx:hr>148</gpxtpx:hr>
          </gpxtpx:TrackPointExtension>
        </extensions>
      </trkpt>
      <trkpt lat="38.83286436542449" lon="121.50843011925038">
        <ele>0.8792342646047473</ele>
        <time>2025-09-20T02:15:56Z</time>
        <extensions>
          <gpxtpx:TrackPointExtension>
            <gpxtpx:hr>148</gpxtpx:hr>
          </gpxtpx:TrackPointExtension>
        </extensions>
      </trkpt>
      <trkpt lat="38.83296398518918" lon="121.508246303503">
        <ele>1.313496083021164</ele>
        <time>2025-09-20T02:16:05Z</time>
        <extensions>
          <gpxtpx:TrackPointExtension>
            <gpxtpx:hr>147</gpxtpx:hr>
          </gpxtpx:TrackPointExtension>
        </extensions>
      </trkpt>
      <trkpt lat="38.83307584808896" lon="121.50785870391954">
        <ele>3.528125246055424</ele>
        <time>2025-09-20T02:16:20Z</time>
        <extensions>
          <gpxtpx:TrackPointExtension>
            <gpxtpx:hr>146</gpxtpx:hr>
          </gpxtpx:TrackPointExtension>
        </extensions>
      </trkpt>
      <trkpt lat="38.833144440560204" lon="121.50765435807902">
        <ele>2.893729016184807</ele>
        <time>2025-09-20T02:16:29Z</time>
        <extensions>
          <gpxtpx:TrackPointExtension>
            <gpxtpx:hr>150</gpxtpx:hr>
          </gpxtpx:TrackPointExtension>
        </extensions>
      </trkpt>
      <trkpt lat="38.83321601434221" lon="121.50751256817689">
        <ele>3.2710831025615335</ele>
        <time>2025-09-20T02:16:35Z</time>
        <extensions>
          <gpxtpx:TrackPointExtension>
            <gpxtpx:hr>148</gpxtpx:hr>
          </gpxtpx:TrackPointExtension>
        </extensions>
      </trkpt>
      <trkpt lat="38.83321547152381" lon="121.50727447311246">
        <ele>2.832296134904027</ele>
        <time>2025-09-20T02:16:44Z</time>
        <extensions>
          <gpxtpx:TrackPointExtension>
            <gpxtpx:hr>148</gpxtpx:hr>
          </gpxtpx:TrackPointExtension>
        </extensions>
      </trkpt>
      <trkpt lat="38.83318558858965" lon="121.50712320593286">
        <ele>2.856612389907241</ele>
        <time>2025-09-20T02:16:50Z</time>
        <extensions>
          <gpxtpx:TrackPointExtension>
            <gpxtpx:hr>149</gpxtpx:hr>
          </gpxtpx:TrackPointExtension>
        </extensions>
      </trkpt>
      <trkpt lat="38.833053040828354" lon="121.5068509364553">
        <ele>2.5360503382980824</ele>
        <time>2025-09-20T02:17:02Z</time>
        <extensions>
          <gpxtpx:TrackPointExtension>
            <gpxtpx:hr>149</gpxtpx:hr>
          </gpxtpx:TrackPointExtension>
        </extensions>
      </trkpt>
      <trkpt lat="38.83279967617724" lon="121.50661516559137">
        <ele>2.399250633083284</ele>
        <time>2025-09-20T02:17:17Z</time>
        <extensions>
          <gpxtpx:TrackPointExtension>
            <gpxtpx:hr>147</gpxtpx:hr>
          </gpxtpx:TrackPointExtension>
        </extensions>
      </trkpt>
      <trkpt lat="38.8326808480459" lon="121.50656347997085">
        <ele>2.3392793210223317</ele>
        <time>2025-09-20T02:17:23Z</time>
        <extensions>
          <gpxtpx:TrackPointExtension>
            <gpxtpx:hr>148</gpxtpx:hr>
          </gpxtpx:TrackPointExtension>
        </extensions>
      </trkpt>
      <trkpt lat="38.832545379447154" lon="121.50653385278775">
        <ele>2.5745955370366573</ele>
        <time>2025-09-20T02:17:29Z</time>
        <extensions>
          <gpxtpx:TrackPointExtension>
            <gpxtpx:hr>148</gpxtpx:hr>
          </gpxtpx:TrackPointExtension>
        </extensions>
      </trkpt>
      <trkpt lat="38.83248694628288" lon="121.50654440390598">
        <ele>2.134318446740508</ele>
        <time>2025-09-20T02:17:32Z</time>
        <extensions>
          <gpxtpx:TrackPointExtension>
            <gpxtpx:hr>148</gpxtpx:hr>
          </gpxtpx:TrackPointExtension>
        </extensions>
      </trkpt>
      <trkpt lat="38.83228997186239" lon="121.50645563747754">
        <ele>2.5385603858157992</ele>
        <time>2025-09-20T02:17:41Z</time>
        <extensions>
          <gpxtpx:TrackPointExtension>
            <gpxtpx:hr>146</gpxtpx:hr>
          </gpxtpx:TrackPointExtension>
        </extensions>
      </trkpt>
      <trkpt lat="38.832127503715924" lon="121.50629617001489">
        <ele>2.4608525559306145</ele>
        <time>2025-09-20T02:17:50Z</time>
        <extensions>
          <gpxtpx:TrackPointExtension>
            <gpxtpx:hr>146</gpxtpx:hr>
          </gpxtpx:TrackPointExtension>
        </extensions>
      </trkpt>
      <trkpt lat="38.83200897638268" lon="121.50606556323187">
        <ele>2.129518230445683</ele>
        <time>2025-09-20T02:18:00Z</time>
        <extensions>
          <gpxtpx:TrackPointExtension>
            <gpxtpx:hr>145</gpxtpx:hr>
          </gpxtpx:TrackPointExtension>
        </extensions>
      </trkpt>
      <trkpt lat="38.83195417040247" lon="121.50590570411444">
        <ele>2.575919927097857</ele>
        <time>2025-09-20T02:18:06Z</time>
        <extensions>
          <gpxtpx:TrackPointExtension>
            <gpxtpx:hr>147</gpxtpx:hr>
          </gpxtpx:TrackPointExtension>
        </extensions>
      </trkpt>
      <trkpt lat="38.831942719009945" lon="121.50582196624386">
        <ele>2.8670434104278684</ele>
        <time>2025-09-20T02:18:09Z</time>
        <extensions>
          <gpxtpx:TrackPointExtension>
            <gpxtpx:hr>147</gpxtpx:hr>
          </gpxtpx:TrackPointExtension>
        </extensions>
      </trkpt>
      <trkpt lat="38.83178335554992" lon="121.50555547545771">
        <ele>2.8597541516646743</ele>
        <time>2025-09-20T02:18:21Z</time>
        <extensions>
          <gpxtpx:TrackPointExtension>
            <gpxtpx:hr>147</gpxtpx:hr>
          </gpxtpx:TrackPointExtension>
        </extensions>
      </trkpt>
      <trkpt lat="38.83161587322815" lon="121.50540727808102">
        <ele>3.5960535192862153</ele>
        <time>2025-09-20T02:18:30Z</time>
        <extensions>
          <gpxtpx:TrackPointExtension>
            <gpxtpx:hr>146</gpxtpx:hr>
          </gpxtpx:TrackPointExtension>
        </extensions>
      </trkpt>
      <trkpt lat="38.83143148268284" lon="121.50532800063644">
        <ele>3.7844510804861784</ele>
        <time>2025-09-20T02:18:39Z</time>
        <extensions>
          <gpxtpx:TrackPointExtension>
            <gpxtpx:hr>146</gpxtpx:hr>
          </gpxtpx:TrackPointExtension>
        </extensions>
      </trkpt>
      <trkpt lat="38.83111598264393" lon="121.50531709391262">
        <ele>2.775381746701896</ele>
        <time>2025-09-20T02:18:54Z</time>
        <extensions>
          <gpxtpx:TrackPointExtension>
            <gpxtpx:hr>150</gpxtpx:hr>
          </gpxtpx:TrackPointExtension>
        </extensions>
      </trkpt>
      <trkpt lat="38.83098256686331" lon="121.50532395796638">
        <ele>3.088453714735806</ele>
        <time>2025-09-20T02:19:00Z</time>
        <extensions>
          <gpxtpx:TrackPointExtension>
            <gpxtpx:hr>149</gpxtpx:hr>
          </gpxtpx:TrackPointExtension>
        </extensions>
      </trkpt>
      <trkpt lat="38.830921963123096" lon="121.5052965884984">
        <ele>2.9243017453700304</ele>
        <time>2025-09-20T02:19:03Z</time>
        <extensions>
          <gpxtpx:TrackPointExtension>
            <gpxtpx:hr>149</gpxtpx:hr>
          </gpxtpx:TrackPointExtension>
        </extensions>
      </trkpt>
      <trkpt lat="38.83083492545779" lon="121.50518242229137">
        <ele>2.903595925308764</ele>
        <time>2025-09-20T02:19:09Z</time>
        <extensions>
          <gpxtpx:TrackPointExtension>
            <gpxtpx:hr>149</gpxtpx:hr>
          </gpxtpx:TrackPointExtension>
        </extensions>
      </trkpt>
      <trkpt lat="38.83078325387393" lon="121.50515348158476">
        <ele>3.1291958149522543</ele>
        <time>2025-09-20T02:19:12Z</time>
        <extensions>
          <gpxtpx:TrackPointExtension>
            <gpxtpx:hr>151</gpxtpx:hr>
          </gpxtpx:TrackPointExtension>
        </extensions>
      </trkpt>
      <trkpt lat="38.830784452803336" lon="121.5050503664674">
        <ele>2.335503996349871</ele>
        <time>2025-09-20T02:19:15Z</time>
        <extensions>
          <gpxtpx:TrackPointExtension>
            <gpxtpx:hr>151</gpxtpx:hr>
          </gpxtpx:TrackPointExtension>
        </extensions>
      </trkpt>
      <trkpt lat="38.830732309310896" lon="121.50498394316367">
        <ele>3.3835576865822077</ele>
        <time>2025-09-20T02:19:18Z</time>
        <extensions>
          <gpxtpx:TrackPointExtension>
            <gpxtpx:hr>149</gpxtpx:hr>
          </gpxtpx:TrackPointExtension>
        </extensions>
      </trkpt>
      <trkpt lat="38.830455064655325" lon="121.50478207548814">
        <ele>3.657766403630376</ele>
        <time>2025-09-20T02:19:33Z</time>
        <extensions>
          <gpxtpx:TrackPointExtension>
            <gpxtpx:hr>148</gpxtpx:hr>
          </gpxtpx:TrackPointExtension>
        </extensions>
      </trkpt>
      <trkpt lat="38.83021207982213" lon="121.50465115919032">
        <ele>2.9271532483398914</ele>
        <time>2025-09-20T02:19:45Z</time>
        <extensions>
          <gpxtpx:TrackPointExtension>
            <gpxtpx:hr>148</gpxtpx:hr>
          </gpxtpx:TrackPointExtension>
        </extensions>
      </trkpt>
      <trkpt lat="38.830076102033225" lon="121.50459362742137">
        <ele>2.5545407133176923</ele>
        <time>2025-09-20T02:19:51Z</time>
        <extensions>
          <gpxtpx:TrackPointExtension>
            <gpxtpx:hr>148</gpxtpx:hr>
          </gpxtpx:TrackPointExtension>
        </extensions>
      </trkpt>
      <trkpt lat="38.82995226528308" lon="121.5044060481733">
        <ele>2.6903763599693775</ele>
        <time>2025-09-20T02:20:00Z</time>
        <extensions>
          <gpxtpx:TrackPointExtension>
            <gpxtpx:hr>152</gpxtpx:hr>
          </gpxtpx:TrackPointExtension>
        </extensions>
      </trkpt>
      <trkpt lat="38.82968972596807" lon="121.50414196939742">
        <ele>3.6876214826479554</ele>
        <time>2025-09-20T02:20:15Z</time>
        <extensions>
          <gpxtpx:TrackPointExtension>
            <gpxtpx:hr>149</gpxtpx:hr>
          </gpxtpx:TrackPointExtension>
        </extensions>
      </trkpt>
      <trkpt lat="38.82957050508827" lon="121.50420230110781">
        <ele>3.3186279283836484</ele>
        <time>2025-09-20T02:20:21Z</time>
        <extensions>
          <gpxtpx:TrackPointExtension>
            <gpxtpx:hr>152</gpxtpx:hr>
          </gpxtpx:TrackPointExtension>
        </extensions>
      </trkpt>
      <trkpt lat="38.829268017852435" lon="121.50407050856514">
        <ele>2.4299697866663337</ele>
        <time>2025-09-20T02:20:39Z</time>
        <extensions>
          <gpxtpx:TrackPointExtension>
            <gpxtpx:hr>153</gpxtpx:hr>
          </gpxtpx:TrackPointExtension>
        </extensions>
      </trkpt>
      <trkpt lat="38.82908504137782" lon="121.50402508627153">
        <ele>2.7730109207332134</ele>
        <time>2025-09-20T02:20:48Z</time>
        <extensions>
          <gpxtpx:TrackPointExtension>
            <gpxtpx:hr>153</gpxtpx:hr>
          </gpxtpx:TrackPointExtension>
        </extensions>
      </trkpt>
      <trkpt lat="38.828979132505005" lon="121.50408289356781">
        <ele>2.775727964937687</ele>
        <time>2025-09-20T02:20:54Z</time>
        <extensions>
          <gpxtpx:TrackPointExtension>
            <gpxtpx:hr>154</gpxtpx:hr>
          </gpxtpx:TrackPointExtension>
        </extensions>
      </trkpt>
      <trkpt lat="38.82880008261487" lon="121.50403321756454">
        <ele>3.305038310587406</ele>
        <time>2025-09-20T02:21:03Z</time>
        <extensions>
          <gpxtpx:TrackPointExtension>
            <gpxtpx:hr>154</gpxtpx:hr>
          </gpxtpx:TrackPointExtension>
        </extensions>
      </trkpt>
      <trkpt lat="38.82848315324338" lon="121.5040908575357">
        <ele>2.3720914041623473</ele>
        <time>2025-09-20T02:21:18Z</time>
        <extensions>
          <gpxtpx:TrackPointExtension>
            <gpxtpx:hr>150</gpxtpx:hr>
          </gpxtpx:TrackPointExtension>
        </extensions>
      </trkpt>
      <trkpt lat="38.82842307516933" lon="121.50410458001055">
        <ele>2.7765152528882027</ele>
        <time>2025-09-20T02:21:21Z</time>
        <extensions>
          <gpxtpx:TrackPointExtension>
            <gpxtpx:hr>150</gpxtpx:hr>
          </gpxtpx:TrackPointExtension>
        </extensions>
      </trkpt>
      <trkpt lat="38.82823819683714" lon="121.5040535207805">
        <ele>2.1447671372443438</ele>
        <time>2025-09-20T02:21:30Z</time>
        <extensions>
          <gpxtpx:TrackPointExtension>
            <gpxtpx:hr>151</gpxtpx:hr>
          </gpxtpx:TrackPointExtension>
        </extensions>
      </trkpt>
      <trkpt lat="38.82801817712326" lon="121.50385858948353">
        <ele>2.4308491880074143</ele>
        <time>2025-09-20T02:21:42Z</time>
        <extensions>
          <gpxtpx:TrackPointExtension>
            <gpxtpx:hr>152</gpxtpx:hr>
          </gpxtpx:TrackPointExtension>
        </extensions>
      </trkpt>
      <trkpt lat="38.827913580474615" lon="121.50366518901544">
        <ele>1.1673813480883837</ele>
        <time>2025-09-20T02:21:51Z</time>
        <extensions>
          <gpxtpx:TrackPointExtension>
            <gpxtpx:hr>150</gpxtpx:hr>
          </gpxtpx:TrackPointExtension>
        </extensions>
      </trkpt>
      <trkpt lat="38.827846939320445" lon="121.5033619457671">
        <ele>-0.9291820479556918</ele>
        <time>2025-09-20T02:22:03Z</time>
        <extensions>
          <gpxtpx:TrackPointExtension>
            <gpxtpx:hr>151</gpxtpx:hr>
          </gpxtpx:TrackPointExtension>
        </extensions>
      </trkpt>
      <trkpt lat="38.82781018668249" lon="121.5032843253438">
        <ele>-1.0729966294020414</ele>
        <time>2025-09-20T02:22:06Z</time>
        <extensions>
          <gpxtpx:TrackPointExtension>
            <gpxtpx:hr>152</gpxtpx:hr>
          </gpxtpx:TrackPointExtension>
        </extensions>
      </trkpt>
      <trkpt lat="38.82765404619044" lon="121.50315994208808">
        <ele>1.9973499597981572</ele>
        <time>2025-09-20T02:22:14Z</time>
        <extensions>
          <gpxtpx:TrackPointExtension>
            <gpxtpx:hr>152</gpxtpx:hr>
          </gpxtpx:TrackPointExtension>
        </extensions>
      </trkpt>
      <trkpt lat="38.82761468443575" lon="121.50309066105201">
        <ele>1.9455764628946781</ele>
        <time>2025-09-20T02:22:17Z</time>
        <extensions>
          <gpxtpx:TrackPointExtension>
            <gpxtpx:hr>151</gpxtpx:hr>
          </gpxtpx:TrackPointExtension>
        </extensions>
      </trkpt>
      <trkpt lat="38.82751205990441" lon="121.50302050430781">
        <ele>2.181981892324984</ele>
        <time>2025-09-20T02:22:23Z</time>
        <extensions>
          <gpxtpx:TrackPointExtension>
            <gpxtpx:hr>152</gpxtpx:hr>
          </gpxtpx:TrackPointExtension>
        </extensions>
      </trkpt>
      <trkpt lat="38.82737459918427" lon="121.50298338648348">
        <ele>2.3327777702361345</ele>
        <time>2025-09-20T02:22:29Z</time>
        <extensions>
          <gpxtpx:TrackPointExtension>
            <gpxtpx:hr>149</gpxtpx:hr>
          </gpxtpx:TrackPointExtension>
        </extensions>
      </trkpt>
      <trkpt lat="38.8270629938003" lon="121.50308777886232">
        <ele>2.155189672484994</ele>
        <time>2025-09-20T02:22:44Z</time>
        <extensions>
          <gpxtpx:TrackPointExtension>
            <gpxtpx:hr>151</gpxtpx:hr>
          </gpxtpx:TrackPointExtension>
        </extensions>
      </trkpt>
      <trkpt lat="38.82693280296105" lon="121.50322158504709">
        <ele>3.3757018698379397</ele>
        <time>2025-09-20T02:22:56Z</time>
        <extensions>
          <gpxtpx:TrackPointExtension>
            <gpxtpx:hr>153</gpxtpx:hr>
          </gpxtpx:TrackPointExtension>
        </extensions>
      </trkpt>
    </trkseg>
  </trk>
</gpx>