<?xml version="1.0" encoding="UTF-8"?>
<gpx xmlns="http://www.topografix.com/GPX/1/1" xmlns:gpxtpx="http://www.garmin.com/xmlschemas/TrackPointExtension/v1" xmlns:xsi="http://www.w3.org/2001/XMLSchema-instance" xsi:schemaLocation="http://www.topografix.com/GPX/1/1 http://www.topografix.com/GPX/1/1/gpx.xsd" version="1.1" creator="gpx.py -- https://github.com/tkrajina/gpxpy">
  <trk>
    <name>gpx from keep</name>
    <type>Run</type>
    <trkseg>
      <trkpt lat="38.832650996875465" lon="121.50859499486033">
        <ele>2.5726341968402267</ele>
        <time>2024-09-07T23:18:04Z</time>
      </trkpt>
      <trkpt lat="38.832586499624405" lon="121.50857556474196">
        <ele>2.9569019163027406</ele>
        <time>2024-09-07T23:18:12Z</time>
      </trkpt>
      <trkpt lat="38.83243616448049" lon="121.5086182089792">
        <ele>5.123939688317478</ele>
        <time>2024-09-07T23:18:32Z</time>
      </trkpt>
      <trkpt lat="38.83235681147155" lon="121.50861778520441">
        <ele>5.625099294818938</ele>
        <time>2024-09-07T23:18:43Z</time>
      </trkpt>
      <trkpt lat="38.83229682982822" lon="121.50863796325413">
        <ele>5.612714252434671</ele>
        <time>2024-09-07T23:18:47Z</time>
      </trkpt>
      <trkpt lat="38.832054441639826" lon="121.50852337421449">
        <ele>4.576905710622668</ele>
        <time>2024-09-07T23:18:59Z</time>
      </trkpt>
      <trkpt lat="38.83198327181513" lon="121.50846651101801">
        <ele>5.0532830730080605</ele>
        <time>2024-09-07T23:19:03Z</time>
      </trkpt>
      <trkpt lat="38.831872185148924" lon="121.50831110625623">
        <ele>4.7062669564038515</ele>
        <time>2024-09-07T23:19:11Z</time>
      </trkpt>
      <trkpt lat="38.83172347487504" lon="121.50801817817849">
        <ele>4.726805964484811</ele>
        <time>2024-09-07T23:19:23Z</time>
      </trkpt>
      <trkpt lat="38.831590262028726" lon="121.50787229931966">
        <ele>4.322135945782065</ele>
        <time>2024-09-07T23:19:31Z</time>
      </trkpt>
      <trkpt lat="38.831429407983755" lon="121.50779003574239">
        <ele>4.165649652481079</ele>
        <time>2024-09-07T23:19:39Z</time>
      </trkpt>
      <trkpt lat="38.83126310126923" lon="121.5077556712438">
        <ele>4.723846761509776</ele>
        <time>2024-09-07T23:19:47Z</time>
      </trkpt>
      <trkpt lat="38.831098930068514" lon="121.5077873038741">
        <ele>5.181201761588454</ele>
        <time>2024-09-07T23:19:55Z</time>
      </trkpt>
      <trkpt lat="38.83087763413443" lon="121.5077432600867">
        <ele>5.111677624285221</ele>
        <time>2024-09-07T23:20:06Z</time>
      </trkpt>
      <trkpt lat="38.83079806490352" lon="121.50774503538875">
        <ele>4.993763881735504</ele>
        <time>2024-09-07T23:20:10Z</time>
      </trkpt>
      <trkpt lat="38.83072300138966" lon="121.50769077289416">
        <ele>5.305123969912529</ele>
        <time>2024-09-07T23:20:14Z</time>
      </trkpt>
      <trkpt lat="38.830640988585" lon="121.50766352177027">
        <ele>5.2046326585114</ele>
        <time>2024-09-07T23:20:18Z</time>
      </trkpt>
      <trkpt lat="38.83042844936505" lon="121.50746832702696">
        <ele>5.586965540423989</ele>
        <time>2024-09-07T23:20:30Z</time>
      </trkpt>
      <trkpt lat="38.83033415502617" lon="121.50729430398287">
        <ele>4.815586287528276</ele>
        <time>2024-09-07T23:20:38Z</time>
      </trkpt>
      <trkpt lat="38.830270098779536" lon="121.50713852630359">
        <ele>4.439763942733407</ele>
        <time>2024-09-07T23:20:45Z</time>
      </trkpt>
      <trkpt lat="38.8302593878176" lon="121.50703168093057">
        <ele>5.233046427369118</ele>
        <time>2024-09-07T23:20:49Z</time>
      </trkpt>
      <trkpt lat="38.83023060041709" lon="121.50692945928472">
        <ele>6.2654593186452985</ele>
        <time>2024-09-07T23:20:53Z</time>
      </trkpt>
      <trkpt lat="38.83013659166915" lon="121.50675386240634">
        <ele>5.702447130344808</ele>
        <time>2024-09-07T23:21:01Z</time>
      </trkpt>
      <trkpt lat="38.82989452536301" lon="121.50663506556234">
        <ele>4.697331097908318</ele>
        <time>2024-09-07T23:21:13Z</time>
      </trkpt>
      <trkpt lat="38.829606850238875" lon="121.50640099793037">
        <ele>5.454976079054177</ele>
        <time>2024-09-07T23:21:29Z</time>
      </trkpt>
      <trkpt lat="38.82939492676851" lon="121.5061693764128">
        <ele>4.933708552271128</ele>
        <time>2024-09-07T23:21:41Z</time>
      </trkpt>
      <trkpt lat="38.82923784449719" lon="121.50604781454645">
        <ele>5.112155694514513</ele>
        <time>2024-09-07T23:21:49Z</time>
      </trkpt>
      <trkpt lat="38.82896748344877" lon="121.5059975357315">
        <ele>4.6431530099362135</ele>
        <time>2024-09-07T23:22:01Z</time>
      </trkpt>
      <trkpt lat="38.82879112801836" lon="121.50602634744551">
        <ele>5.1859440095722675</ele>
        <time>2024-09-07T23:22:09Z</time>
      </trkpt>
      <trkpt lat="38.82871641610698" lon="121.50607422002943">
        <ele>4.847487069666386</ele>
        <time>2024-09-07T23:22:13Z</time>
      </trkpt>
      <trkpt lat="38.828524405773265" lon="121.50630371508295">
        <ele>5.743490944616497</ele>
        <time>2024-09-07T23:22:25Z</time>
      </trkpt>
      <trkpt lat="38.82843341266409" lon="121.50650361371778">
        <ele>5.107885778881609</ele>
        <time>2024-09-07T23:22:33Z</time>
      </trkpt>
      <trkpt lat="38.82839595832852" lon="121.50673411382229">
        <ele>5.331375237554312</ele>
        <time>2024-09-07T23:22:41Z</time>
      </trkpt>
      <trkpt lat="38.82836756502808" lon="121.50704511142433">
        <ele>5.503981810063124</ele>
        <time>2024-09-07T23:22:52Z</time>
      </trkpt>
      <trkpt lat="38.82830348879972" lon="121.50730858132256">
        <ele>4.402535534463823</ele>
        <time>2024-09-07T23:23:01Z</time>
      </trkpt>
      <trkpt lat="38.828149449242204" lon="121.5076055747884">
        <ele>4.912489855661988</ele>
        <time>2024-09-07T23:23:13Z</time>
      </trkpt>
      <trkpt lat="38.82795791790124" lon="121.50785152971935">
        <ele>5.20628628320992</ele>
        <time>2024-09-07T23:23:25Z</time>
      </trkpt>
      <trkpt lat="38.82772559804602" lon="121.50801964312228">
        <ele>4.706925452686846</ele>
        <time>2024-09-07T23:23:37Z</time>
      </trkpt>
      <trkpt lat="38.82754424378639" lon="121.50809777308498">
        <ele>5.717678051441908</ele>
        <time>2024-09-07T23:23:45Z</time>
      </trkpt>
      <trkpt lat="38.82725954470194" lon="121.50814649875575">
        <ele>6.196729669347405</ele>
        <time>2024-09-07T23:23:57Z</time>
      </trkpt>
      <trkpt lat="38.82709259658723" lon="121.50823358608116">
        <ele>5.668451419100165</ele>
        <time>2024-09-07T23:24:05Z</time>
      </trkpt>
      <trkpt lat="38.82691740821662" lon="121.50846271355638">
        <ele>5.819490876048803</ele>
        <time>2024-09-07T23:24:17Z</time>
      </trkpt>
      <trkpt lat="38.82686717291779" lon="121.50855686362073">
        <ele>5.121423637494445</ele>
        <time>2024-09-07T23:24:21Z</time>
      </trkpt>
      <trkpt lat="38.826823458907946" lon="121.50889899572309">
        <ele>4.511227278038859</ele>
        <time>2024-09-07T23:24:33Z</time>
      </trkpt>
      <trkpt lat="38.826816833082944" lon="121.5090193433394">
        <ele>4.469133490696549</ele>
        <time>2024-09-07T23:24:37Z</time>
      </trkpt>
      <trkpt lat="38.82686536044777" lon="121.50937685797007">
        <ele>3.76212021894753</ele>
        <time>2024-09-07T23:24:49Z</time>
      </trkpt>
      <trkpt lat="38.826836952067545" lon="121.50966557686934">
        <ele>4.6112146424129605</ele>
        <time>2024-09-07T23:24:59Z</time>
      </trkpt>
      <trkpt lat="38.82675291893671" lon="121.5099167525765">
        <ele>5.231633372604847</ele>
        <time>2024-09-07T23:25:08Z</time>
      </trkpt>
      <trkpt lat="38.82660392302748" lon="121.51019432131271">
        <ele>5.547400479204953</ele>
        <time>2024-09-07T23:25:20Z</time>
      </trkpt>
      <trkpt lat="38.826384564840325" lon="121.51038808803847">
        <ele>7.0871118772774935</ele>
        <time>2024-09-07T23:25:32Z</time>
      </trkpt>
      <trkpt lat="38.826223085030236" lon="121.51047010969519">
        <ele>5.445474524982274</ele>
        <time>2024-09-07T23:25:40Z</time>
      </trkpt>
      <trkpt lat="38.82614031905782" lon="121.51047747489073">
        <ele>5.4195830430835485</ele>
        <time>2024-09-07T23:25:44Z</time>
      </trkpt>
      <trkpt lat="38.826163962226396" lon="121.51041305299837">
        <ele>5.3847071304917336</ele>
        <time>2024-09-07T23:26:04Z</time>
      </trkpt>
      <trkpt lat="38.8262443573824" lon="121.51040101440105">
        <ele>5.28268179576844</ele>
        <time>2024-09-07T23:26:12Z</time>
      </trkpt>
      <trkpt lat="38.82642773181684" lon="121.51031303811493">
        <ele>5.358053975738585</ele>
        <time>2024-09-07T23:26:20Z</time>
      </trkpt>
      <trkpt lat="38.82670377589898" lon="121.51000143451392">
        <ele>4.941092655993998</ele>
        <time>2024-09-07T23:26:36Z</time>
      </trkpt>
      <trkpt lat="38.8268180508629" lon="121.5096595102581">
        <ele>4.14992393925786</ele>
        <time>2024-09-07T23:26:48Z</time>
      </trkpt>
      <trkpt lat="38.82685879236916" lon="121.5094085726846">
        <ele>3.048244054429233</ele>
        <time>2024-09-07T23:26:56Z</time>
      </trkpt>
      <trkpt lat="38.826797526971916" lon="121.50899049188844">
        <ele>4.693061043508351</ele>
        <time>2024-09-07T23:27:09Z</time>
      </trkpt>
      <trkpt lat="38.826831190388845" lon="121.50868581019736">
        <ele>4.227747400291264</ele>
        <time>2024-09-07T23:27:19Z</time>
      </trkpt>
      <trkpt lat="38.826858751781266" lon="121.5085611772453">
        <ele>4.8923694640398026</ele>
        <time>2024-09-07T23:27:23Z</time>
      </trkpt>
      <trkpt lat="38.827009218066664" lon="121.50828156762663">
        <ele>4.451648852787912</ele>
        <time>2024-09-07T23:27:35Z</time>
      </trkpt>
      <trkpt lat="38.82726570725664" lon="121.50813398956801">
        <ele>4.806333709508181</ele>
        <time>2024-09-07T23:27:47Z</time>
      </trkpt>
      <trkpt lat="38.82744147237657" lon="121.50812239021131">
        <ele>4.811197322793305</ele>
        <time>2024-09-07T23:27:55Z</time>
      </trkpt>
      <trkpt lat="38.82762660954947" lon="121.50807163434546">
        <ele>4.34879991132766</ele>
        <time>2024-09-07T23:28:03Z</time>
      </trkpt>
      <trkpt lat="38.827868645616704" lon="121.5079364917724">
        <ele>4.2589008547365665</ele>
        <time>2024-09-07T23:28:15Z</time>
      </trkpt>
      <trkpt lat="38.82809156404358" lon="121.5077051941284">
        <ele>3.8162047043442726</ele>
        <time>2024-09-07T23:28:27Z</time>
      </trkpt>
      <trkpt lat="38.82828701112359" lon="121.50737478733593">
        <ele>4.4255552142858505</ele>
        <time>2024-09-07T23:28:47Z</time>
      </trkpt>
      <trkpt lat="38.82833434980091" lon="121.50724804226594">
        <ele>5.932232013903558</ele>
        <time>2024-09-07T23:28:55Z</time>
      </trkpt>
      <trkpt lat="38.82837612373238" lon="121.50705828202172">
        <ele>4.1964944042265415</ele>
        <time>2024-09-07T23:29:03Z</time>
      </trkpt>
      <trkpt lat="38.82836146020987" lon="121.50699944068408">
        <ele>4.847406076267362</ele>
        <time>2024-09-07T23:29:10Z</time>
      </trkpt>
      <trkpt lat="38.82838246473156" lon="121.50692019341554">
        <ele>4.68354694917798</ele>
        <time>2024-09-07T23:29:19Z</time>
      </trkpt>
      <trkpt lat="38.82837944078493" lon="121.50683741822209">
        <ele>3.7780362721532583</ele>
        <time>2024-09-07T23:29:22Z</time>
      </trkpt>
      <trkpt lat="38.82842564356795" lon="121.50650119415951">
        <ele>4.440693556331098</ele>
        <time>2024-09-07T23:29:46Z</time>
      </trkpt>
      <trkpt lat="38.82858876509885" lon="121.50621606761575">
        <ele>3.6812309082597494</ele>
        <time>2024-09-07T23:29:58Z</time>
      </trkpt>
      <trkpt lat="38.82873492204778" lon="121.50607289680934">
        <ele>3.5920661529526114</ele>
        <time>2024-09-07T23:30:06Z</time>
      </trkpt>
      <trkpt lat="38.82880971385238" lon="121.50602904970694">
        <ele>3.7503432324156165</ele>
        <time>2024-09-07T23:30:10Z</time>
      </trkpt>
      <trkpt lat="38.828995471337876" lon="121.50599060213935">
        <ele>4.575322074815631</ele>
        <time>2024-09-07T23:30:18Z</time>
      </trkpt>
      <trkpt lat="38.829161134942225" lon="121.50600934712428">
        <ele>4.4542648661881685</ele>
        <time>2024-09-07T23:30:26Z</time>
      </trkpt>
      <trkpt lat="38.82933339172737" lon="121.50610191767193">
        <ele>4.152483751997352</ele>
        <time>2024-09-07T23:30:34Z</time>
      </trkpt>
      <trkpt lat="38.829410671105315" lon="121.50616535264226">
        <ele>3.909708572551608</ele>
        <time>2024-09-07T23:30:38Z</time>
      </trkpt>
      <trkpt lat="38.82968588420915" lon="121.50645921646071">
        <ele>3.777069347910583</ele>
        <time>2024-09-07T23:30:54Z</time>
      </trkpt>
      <trkpt lat="38.8299154261538" lon="121.5066355727545">
        <ele>3.7632607854902744</ele>
        <time>2024-09-07T23:31:06Z</time>
      </trkpt>
      <trkpt lat="38.8300090112225" lon="121.5066637063874">
        <ele>4.222824702970684</ele>
        <time>2024-09-07T23:31:10Z</time>
      </trkpt>
      <trkpt lat="38.8301452882212" lon="121.50675408093012">
        <ele>4.826913122087717</ele>
        <time>2024-09-07T23:31:17Z</time>
      </trkpt>
      <trkpt lat="38.8302459121813" lon="121.50691865015634">
        <ele>4.504052330739796</ele>
        <time>2024-09-07T23:31:24Z</time>
      </trkpt>
      <trkpt lat="38.83028797037122" lon="121.50713078147433">
        <ele>4.722508012317121</ele>
        <time>2024-09-07T23:31:31Z</time>
      </trkpt>
      <trkpt lat="38.83042499272612" lon="121.50743676716559">
        <ele>4.871565919369459</ele>
        <time>2024-09-07T23:31:43Z</time>
      </trkpt>
      <trkpt lat="38.830489160899134" lon="121.50752251017893">
        <ele>4.383519788272679</ele>
        <time>2024-09-07T23:31:47Z</time>
      </trkpt>
      <trkpt lat="38.83064195575632" lon="121.50765594920169">
        <ele>4.337637049145997</ele>
        <time>2024-09-07T23:31:55Z</time>
      </trkpt>
      <trkpt lat="38.83080784494717" lon="121.50773906605038">
        <ele>4.658915534615517</ele>
        <time>2024-09-07T23:32:03Z</time>
      </trkpt>
      <trkpt lat="38.83090262981718" lon="121.50773964387261">
        <ele>5.410214220173657</ele>
        <time>2024-09-07T23:32:07Z</time>
      </trkpt>
      <trkpt lat="38.83108089116193" lon="121.50777183780694">
        <ele>4.724021414294839</ele>
        <time>2024-09-07T23:32:15Z</time>
      </trkpt>
      <trkpt lat="38.831269832893774" lon="121.5077349114052">
        <ele>4.9548814464360476</ele>
        <time>2024-09-07T23:32:23Z</time>
      </trkpt>
      <trkpt lat="38.83144713386407" lon="121.50777471288923">
        <ele>4.649083447642624</ele>
        <time>2024-09-07T23:32:31Z</time>
      </trkpt>
      <trkpt lat="38.83160578938224" lon="121.5078744249402">
        <ele>3.363309127278626</ele>
        <time>2024-09-07T23:32:39Z</time>
      </trkpt>
      <trkpt lat="38.83160578938224" lon="121.5078744249402">
        <ele>3.363309127278626</ele>
        <time>2024-09-07T23:32:39Z</time>
      </trkpt>
    </trkseg>
  </trk>
</gpx>