<?xml version="1.0" encoding="UTF-8"?>
<gpx xmlns="http://www.topografix.com/GPX/1/1" xmlns:gpxtpx="http://www.garmin.com/xmlschemas/TrackPointExtension/v1" xmlns:xsi="http://www.w3.org/2001/XMLSchema-instance" xsi:schemaLocation="http://www.topografix.com/GPX/1/1 http://www.topografix.com/GPX/1/1/gpx.xsd" version="1.1" creator="gpx.py -- https://github.com/tkrajina/gpxpy">
  <trk>
    <name>gpx from keep</name>
    <type>Run</type>
    <trkseg>
      <trkpt lat="38.83729399013201" lon="121.50446856005387">
        <ele>9.231451400940553</ele>
        <time>2025-10-11T05:04:52Z</time>
      </trkpt>
      <trkpt lat="38.83706775524749" lon="121.5042588716391">
        <ele>9.388367022387683</ele>
        <time>2025-10-11T05:05:06Z</time>
      </trkpt>
      <trkpt lat="38.83698255186317" lon="121.50427823603533">
        <ele>9.279236804693937</ele>
        <time>2025-10-11T05:05:10Z</time>
      </trkpt>
      <trkpt lat="38.83691203040687" lon="121.50435391005611">
        <ele>9.826958297751844</ele>
        <time>2025-10-11T05:05:14Z</time>
      </trkpt>
      <trkpt lat="38.83684105632083" lon="121.50468576938945">
        <ele>10.011006812565029</ele>
        <time>2025-10-11T05:05:26Z</time>
      </trkpt>
      <trkpt lat="38.83680328044276" lon="121.50477510648025">
        <ele>9.014443906024098</ele>
        <time>2025-10-11T05:05:30Z</time>
      </trkpt>
      <trkpt lat="38.83670285194827" lon="121.50513771709343">
        <ele>7.673709754832089</ele>
        <time>2025-10-11T05:05:44Z</time>
      </trkpt>
      <trkpt lat="38.83656827096431" lon="121.50551909751837">
        <ele>8.875432730652392</ele>
        <time>2025-10-11T05:05:59Z</time>
      </trkpt>
      <trkpt lat="38.83650839605265" lon="121.50567613427609">
        <ele>9.097239872440696</ele>
        <time>2025-10-11T05:06:05Z</time>
      </trkpt>
      <trkpt lat="38.836495888057144" lon="121.50575199171149">
        <ele>9.087312515825033</ele>
        <time>2025-10-11T05:06:08Z</time>
      </trkpt>
      <trkpt lat="38.83637822605803" lon="121.50607716740024">
        <ele>8.829788412898779</ele>
        <time>2025-10-11T05:06:20Z</time>
      </trkpt>
      <trkpt lat="38.83636506125617" lon="121.5061607292602">
        <ele>9.153569295071065</ele>
        <time>2025-10-11T05:06:23Z</time>
      </trkpt>
      <trkpt lat="38.83622109017172" lon="121.50654264108216">
        <ele>9.051655233837664</ele>
        <time>2025-10-11T05:06:38Z</time>
      </trkpt>
      <trkpt lat="38.83617227303048" lon="121.50670882384736">
        <ele>8.847991732880473</ele>
        <time>2025-10-11T05:06:44Z</time>
      </trkpt>
      <trkpt lat="38.836166171051396" lon="121.50678423803835">
        <ele>9.23380024638027</ele>
        <time>2025-10-11T05:06:47Z</time>
      </trkpt>
      <trkpt lat="38.83612208042816" lon="121.5068402707624">
        <ele>9.741447016596794</ele>
        <time>2025-10-11T05:06:53Z</time>
      </trkpt>
      <trkpt lat="38.836082749794144" lon="121.50694044941247">
        <ele>9.001558505930007</ele>
        <time>2025-10-11T05:07:06Z</time>
      </trkpt>
      <trkpt lat="38.83631827022512" lon="121.50715823024603">
        <ele>9.553842703811824</ele>
        <time>2025-10-11T05:07:18Z</time>
      </trkpt>
      <trkpt lat="38.83661905800033" lon="121.50737346452429">
        <ele>10.822749519720674</ele>
        <time>2025-10-11T05:07:34Z</time>
      </trkpt>
      <trkpt lat="38.8368341309159" lon="121.50756819161832">
        <ele>11.541158872656524</ele>
        <time>2025-10-11T05:07:45Z</time>
      </trkpt>
      <trkpt lat="38.83687639673469" lon="121.50764220013062">
        <ele>11.158320933580399</ele>
        <time>2025-10-11T05:07:48Z</time>
      </trkpt>
      <trkpt lat="38.83711225906231" lon="121.50782623318821">
        <ele>11.87695424258709</ele>
        <time>2025-10-11T05:08:00Z</time>
      </trkpt>
      <trkpt lat="38.83738227855621" lon="121.50806424183489">
        <ele>12.57793388236314</ele>
        <time>2025-10-11T05:08:15Z</time>
      </trkpt>
      <trkpt lat="38.83742670087655" lon="121.50813386967617">
        <ele>12.582481410354376</ele>
        <time>2025-10-11T05:08:18Z</time>
      </trkpt>
      <trkpt lat="38.837592649340166" lon="121.50829199968464">
        <ele>9.46642133500427</ele>
        <time>2025-10-11T05:08:27Z</time>
      </trkpt>
      <trkpt lat="38.83766829317638" lon="121.50833788686941">
        <ele>11.274892919696867</ele>
        <time>2025-10-11T05:08:30Z</time>
      </trkpt>
      <trkpt lat="38.83766189362923" lon="121.50843996275773">
        <ele>11.249563573859632</ele>
        <time>2025-10-11T05:08:33Z</time>
      </trkpt>
      <trkpt lat="38.837629556184396" lon="121.508524765065">
        <ele>11.050997181795537</ele>
        <time>2025-10-11T05:08:36Z</time>
      </trkpt>
      <trkpt lat="38.837589542807464" lon="121.50870576891741">
        <ele>11.213417634367943</ele>
        <time>2025-10-11T05:08:43Z</time>
      </trkpt>
      <trkpt lat="38.83755717602625" lon="121.50877565521687">
        <ele>11.363198149949312</ele>
        <time>2025-10-11T05:08:46Z</time>
      </trkpt>
      <trkpt lat="38.837546183217455" lon="121.50887054509931">
        <ele>10.927444702014327</ele>
        <time>2025-10-11T05:08:49Z</time>
      </trkpt>
      <trkpt lat="38.83751208702716" lon="121.50894794619589">
        <ele>10.691806397400796</ele>
        <time>2025-10-11T05:08:52Z</time>
      </trkpt>
      <trkpt lat="38.837283251615005" lon="121.50913626691654">
        <ele>10.235588131472468</ele>
        <time>2025-10-11T05:09:04Z</time>
      </trkpt>
      <trkpt lat="38.83709704416852" lon="121.50949207437044">
        <ele>10.056098142638803</ele>
        <time>2025-10-11T05:09:19Z</time>
      </trkpt>
      <trkpt lat="38.83701283671402" lon="121.5096987222283">
        <ele>8.615393436513841</ele>
        <time>2025-10-11T05:09:27Z</time>
      </trkpt>
      <trkpt lat="38.836945138719436" lon="121.50978727860603">
        <ele>7.906593260355294</ele>
        <time>2025-10-11T05:09:31Z</time>
      </trkpt>
      <trkpt lat="38.83677743224552" lon="121.50990365411845">
        <ele>7.756548480130732</ele>
        <time>2025-10-11T05:09:39Z</time>
      </trkpt>
      <trkpt lat="38.83652169679651" lon="121.50994467018572">
        <ele>8.16234951093793</ele>
        <time>2025-10-11T05:09:50Z</time>
      </trkpt>
      <trkpt lat="38.83645249091344" lon="121.50993326901803">
        <ele>7.7311551021412015</ele>
        <time>2025-10-11T05:09:53Z</time>
      </trkpt>
      <trkpt lat="38.83615583051278" lon="121.51008692041015">
        <ele>7.136189243756235</ele>
        <time>2025-10-11T05:10:08Z</time>
      </trkpt>
      <trkpt lat="38.83611817102864" lon="121.51016485131115">
        <ele>7.477205109782517</ele>
        <time>2025-10-11T05:10:11Z</time>
      </trkpt>
      <trkpt lat="38.83612859761738" lon="121.51023265595482">
        <ele>7.5016445480287075</ele>
        <time>2025-10-11T05:10:14Z</time>
      </trkpt>
      <trkpt lat="38.83621634448888" lon="121.51040047550705">
        <ele>8.156033077277243</ele>
        <time>2025-10-11T05:10:20Z</time>
      </trkpt>
      <trkpt lat="38.836244797968284" lon="121.51067233436866">
        <ele>7.901797665283084</ele>
        <time>2025-10-11T05:10:29Z</time>
      </trkpt>
      <trkpt lat="38.83620701397907" lon="121.51085246997364">
        <ele>7.417294641956687</ele>
        <time>2025-10-11T05:10:35Z</time>
      </trkpt>
      <trkpt lat="38.83604374580119" lon="121.51113614898352">
        <ele>7.276086357422173</ele>
        <time>2025-10-11T05:10:47Z</time>
      </trkpt>
      <trkpt lat="38.83599424557829" lon="121.51131557315522">
        <ele>7.639708497561514</ele>
        <time>2025-10-11T05:10:53Z</time>
      </trkpt>
      <trkpt lat="38.835996225677256" lon="121.51165466063307">
        <ele>6.5514828292652965</ele>
        <time>2025-10-11T05:11:05Z</time>
      </trkpt>
      <trkpt lat="38.83606949695136" lon="121.51179964029419">
        <ele>6.306551453657448</ele>
        <time>2025-10-11T05:11:11Z</time>
      </trkpt>
      <trkpt lat="38.836202184443195" lon="121.5119071356832">
        <ele>6.669809287413955</ele>
        <time>2025-10-11T05:11:18Z</time>
      </trkpt>
      <trkpt lat="38.83628735887207" lon="121.51193638741002">
        <ele>6.435154162347317</ele>
        <time>2025-10-11T05:11:22Z</time>
      </trkpt>
      <trkpt lat="38.8365737135738" lon="121.51187148526515">
        <ele>7.678752369247377</ele>
        <time>2025-10-11T05:11:34Z</time>
      </trkpt>
      <trkpt lat="38.83671128821326" lon="121.5117915084896">
        <ele>8.087691481225193</ele>
        <time>2025-10-11T05:11:40Z</time>
      </trkpt>
      <trkpt lat="38.83685707483382" lon="121.51156578898998">
        <ele>8.618549387902021</ele>
        <time>2025-10-11T05:11:49Z</time>
      </trkpt>
      <trkpt lat="38.83696968542667" lon="121.51132739995982">
        <ele>7.770333603024483</ele>
        <time>2025-10-11T05:11:58Z</time>
      </trkpt>
      <trkpt lat="38.83701109722138" lon="121.51116165494527">
        <ele>8.046390497125685</ele>
        <time>2025-10-11T05:12:04Z</time>
      </trkpt>
      <trkpt lat="38.8370128418355" lon="121.51106425577687">
        <ele>8.581854181364179</ele>
        <time>2025-10-11T05:12:07Z</time>
      </trkpt>
      <trkpt lat="38.83710146288121" lon="121.51076364867558">
        <ele>9.374278034083545</ele>
        <time>2025-10-11T05:12:19Z</time>
      </trkpt>
      <trkpt lat="38.83729095174716" lon="121.51048614356529">
        <ele>9.52358842920512</ele>
        <time>2025-10-11T05:12:31Z</time>
      </trkpt>
      <trkpt lat="38.837329212039585" lon="121.51041537253676">
        <ele>9.89976381789893</ele>
        <time>2025-10-11T05:12:34Z</time>
      </trkpt>
      <trkpt lat="38.83760297508219" lon="121.51018930093778">
        <ele>9.434929518960416</ele>
        <time>2025-10-11T05:12:49Z</time>
      </trkpt>
      <trkpt lat="38.837713302520974" lon="121.51007257958354">
        <ele>10.294934724457562</ele>
        <time>2025-10-11T05:12:55Z</time>
      </trkpt>
      <trkpt lat="38.83774311696857" lon="121.5100022784424">
        <ele>10.552886250428855</ele>
        <time>2025-10-11T05:12:58Z</time>
      </trkpt>
      <trkpt lat="38.83785238421894" lon="121.50990878388768">
        <ele>9.63855731766671</ele>
        <time>2025-10-11T05:13:04Z</time>
      </trkpt>
      <trkpt lat="38.83793836578746" lon="121.50976743835456">
        <ele>9.969439575448632</ele>
        <time>2025-10-11T05:13:10Z</time>
      </trkpt>
      <trkpt lat="38.83798292807985" lon="121.50949367002795">
        <ele>10.950742702931166</ele>
        <time>2025-10-11T05:13:19Z</time>
      </trkpt>
      <trkpt lat="38.83803059733856" lon="121.50939724125367">
        <ele>11.303630784153938</ele>
        <time>2025-10-11T05:13:23Z</time>
      </trkpt>
      <trkpt lat="38.83824996775637" lon="121.50916218466705">
        <ele>10.964553515426815</ele>
        <time>2025-10-11T05:13:35Z</time>
      </trkpt>
      <trkpt lat="38.838288679568336" lon="121.50906558316365">
        <ele>11.2633454259485</ele>
        <time>2025-10-11T05:13:39Z</time>
      </trkpt>
      <trkpt lat="38.83812182614981" lon="121.50885426356078">
        <ele>12.124754892662168</ele>
        <time>2025-10-11T05:13:49Z</time>
        <extensions>
          <gpxtpx:TrackPointExtension>
            <gpxtpx:hr>143</gpxtpx:hr>
          </gpxtpx:TrackPointExtension>
        </extensions>
      </trkpt>
      <trkpt lat="38.83791915760811" lon="121.50863878883375">
        <ele>12.13447770383209</ele>
        <time>2025-10-11T05:14:01Z</time>
        <extensions>
          <gpxtpx:TrackPointExtension>
            <gpxtpx:hr>143</gpxtpx:hr>
          </gpxtpx:TrackPointExtension>
        </extensions>
      </trkpt>
      <trkpt lat="38.837750607611056" lon="121.50851950715817">
        <ele>11.275110467337072</ele>
        <time>2025-10-11T05:14:10Z</time>
        <extensions>
          <gpxtpx:TrackPointExtension>
            <gpxtpx:hr>146</gpxtpx:hr>
          </gpxtpx:TrackPointExtension>
        </extensions>
      </trkpt>
      <trkpt lat="38.8376823151441" lon="121.50851894780803">
        <ele>11.658500966615975</ele>
        <time>2025-10-11T05:14:13Z</time>
        <extensions>
          <gpxtpx:TrackPointExtension>
            <gpxtpx:hr>146</gpxtpx:hr>
          </gpxtpx:TrackPointExtension>
        </extensions>
      </trkpt>
      <trkpt lat="38.837627704265515" lon="121.50859244205228">
        <ele>11.195633721537888</ele>
        <time>2025-10-11T05:14:16Z</time>
        <extensions>
          <gpxtpx:TrackPointExtension>
            <gpxtpx:hr>146</gpxtpx:hr>
          </gpxtpx:TrackPointExtension>
        </extensions>
      </trkpt>
      <trkpt lat="38.837534240415025" lon="121.50885136671903">
        <ele>10.119501117616892</ele>
        <time>2025-10-11T05:14:25Z</time>
        <extensions>
          <gpxtpx:TrackPointExtension>
            <gpxtpx:hr>144</gpxtpx:hr>
          </gpxtpx:TrackPointExtension>
        </extensions>
      </trkpt>
      <trkpt lat="38.83742534917174" lon="121.50900658491679">
        <ele>10.51282935962081</ele>
        <time>2025-10-11T05:14:31Z</time>
        <extensions>
          <gpxtpx:TrackPointExtension>
            <gpxtpx:hr>145</gpxtpx:hr>
          </gpxtpx:TrackPointExtension>
        </extensions>
      </trkpt>
      <trkpt lat="38.83724896628211" lon="121.50918341439757">
        <ele>10.168599439784884</ele>
        <time>2025-10-11T05:14:40Z</time>
        <extensions>
          <gpxtpx:TrackPointExtension>
            <gpxtpx:hr>143</gpxtpx:hr>
          </gpxtpx:TrackPointExtension>
        </extensions>
      </trkpt>
      <trkpt lat="38.837160962758716" lon="121.50935318456358">
        <ele>10.301857753656805</ele>
        <time>2025-10-11T05:14:46Z</time>
        <extensions>
          <gpxtpx:TrackPointExtension>
            <gpxtpx:hr>144</gpxtpx:hr>
          </gpxtpx:TrackPointExtension>
        </extensions>
      </trkpt>
      <trkpt lat="38.83713479458159" lon="121.5094378436608">
        <ele>10.878450806252658</ele>
        <time>2025-10-11T05:14:49Z</time>
        <extensions>
          <gpxtpx:TrackPointExtension>
            <gpxtpx:hr>142</gpxtpx:hr>
          </gpxtpx:TrackPointExtension>
        </extensions>
      </trkpt>
      <trkpt lat="38.83708220103411" lon="121.50952321549168">
        <ele>10.979431477375329</ele>
        <time>2025-10-11T05:14:52Z</time>
        <extensions>
          <gpxtpx:TrackPointExtension>
            <gpxtpx:hr>142</gpxtpx:hr>
          </gpxtpx:TrackPointExtension>
        </extensions>
      </trkpt>
      <trkpt lat="38.837025644117034" lon="121.5096880296966">
        <ele>10.106711342930794</ele>
        <time>2025-10-11T05:14:58Z</time>
        <extensions>
          <gpxtpx:TrackPointExtension>
            <gpxtpx:hr>144</gpxtpx:hr>
          </gpxtpx:TrackPointExtension>
        </extensions>
      </trkpt>
      <trkpt lat="38.83692262748216" lon="121.50983654173469">
        <ele>9.489178027957678</ele>
        <time>2025-10-11T05:15:04Z</time>
        <extensions>
          <gpxtpx:TrackPointExtension>
            <gpxtpx:hr>144</gpxtpx:hr>
          </gpxtpx:TrackPointExtension>
        </extensions>
      </trkpt>
      <trkpt lat="38.83686778341807" lon="121.50989041884185">
        <ele>9.379592237994075</ele>
        <time>2025-10-11T05:15:07Z</time>
        <extensions>
          <gpxtpx:TrackPointExtension>
            <gpxtpx:hr>144</gpxtpx:hr>
          </gpxtpx:TrackPointExtension>
        </extensions>
      </trkpt>
      <trkpt lat="38.836712984574625" lon="121.50994394929357">
        <ele>9.739924132823944</ele>
        <time>2025-10-11T05:15:13Z</time>
        <extensions>
          <gpxtpx:TrackPointExtension>
            <gpxtpx:hr>142</gpxtpx:hr>
          </gpxtpx:TrackPointExtension>
        </extensions>
      </trkpt>
      <trkpt lat="38.83656574956259" lon="121.50995161924992">
        <ele>10.320986314676702</ele>
        <time>2025-10-11T05:15:19Z</time>
        <extensions>
          <gpxtpx:TrackPointExtension>
            <gpxtpx:hr>143</gpxtpx:hr>
          </gpxtpx:TrackPointExtension>
        </extensions>
      </trkpt>
      <trkpt lat="38.83650482201921" lon="121.51001493911555">
        <ele>9.633315493352711</ele>
        <time>2025-10-11T05:15:22Z</time>
        <extensions>
          <gpxtpx:TrackPointExtension>
            <gpxtpx:hr>142</gpxtpx:hr>
          </gpxtpx:TrackPointExtension>
        </extensions>
      </trkpt>
      <trkpt lat="38.83649130944593" lon="121.5101050538603">
        <ele>9.313991737551987</ele>
        <time>2025-10-11T05:15:25Z</time>
        <extensions>
          <gpxtpx:TrackPointExtension>
            <gpxtpx:hr>142</gpxtpx:hr>
          </gpxtpx:TrackPointExtension>
        </extensions>
      </trkpt>
      <trkpt lat="38.83655287948178" lon="121.51035759460567">
        <ele>9.13395718112588</ele>
        <time>2025-10-11T05:15:33Z</time>
        <extensions>
          <gpxtpx:TrackPointExtension>
            <gpxtpx:hr>143</gpxtpx:hr>
          </gpxtpx:TrackPointExtension>
        </extensions>
      </trkpt>
      <trkpt lat="38.83677059751262" lon="121.51055905102643">
        <ele>6.935557481832802</ele>
        <time>2025-10-11T05:15:45Z</time>
        <extensions>
          <gpxtpx:TrackPointExtension>
            <gpxtpx:hr>145</gpxtpx:hr>
          </gpxtpx:TrackPointExtension>
        </extensions>
      </trkpt>
      <trkpt lat="38.83697842642564" lon="121.51086176869319">
        <ele>8.755625857040286</ele>
        <time>2025-10-11T05:15:58Z</time>
        <extensions>
          <gpxtpx:TrackPointExtension>
            <gpxtpx:hr>143</gpxtpx:hr>
          </gpxtpx:TrackPointExtension>
        </extensions>
      </trkpt>
      <trkpt lat="38.837032152665536" lon="121.51089392735642">
        <ele>8.37870335765183</ele>
        <time>2025-10-11T05:16:01Z</time>
        <extensions>
          <gpxtpx:TrackPointExtension>
            <gpxtpx:hr>144</gpxtpx:hr>
          </gpxtpx:TrackPointExtension>
        </extensions>
      </trkpt>
      <trkpt lat="38.83708674387707" lon="121.51085116146325">
        <ele>8.318445400334895</ele>
        <time>2025-10-11T05:16:04Z</time>
        <extensions>
          <gpxtpx:TrackPointExtension>
            <gpxtpx:hr>144</gpxtpx:hr>
          </gpxtpx:TrackPointExtension>
        </extensions>
      </trkpt>
      <trkpt lat="38.83714893887311" lon="121.51067346585847">
        <ele>7.0747013902291656</ele>
        <time>2025-10-11T05:16:10Z</time>
        <extensions>
          <gpxtpx:TrackPointExtension>
            <gpxtpx:hr>149</gpxtpx:hr>
          </gpxtpx:TrackPointExtension>
        </extensions>
      </trkpt>
      <trkpt lat="38.837270280258515" lon="121.51047680637966">
        <ele>8.77301381714642</ele>
        <time>2025-10-11T05:16:19Z</time>
        <extensions>
          <gpxtpx:TrackPointExtension>
            <gpxtpx:hr>149</gpxtpx:hr>
          </gpxtpx:TrackPointExtension>
        </extensions>
      </trkpt>
      <trkpt lat="38.83739135197788" lon="121.5103860954404">
        <ele>7.855773636139929</ele>
        <time>2025-10-11T05:16:25Z</time>
        <extensions>
          <gpxtpx:TrackPointExtension>
            <gpxtpx:hr>152</gpxtpx:hr>
          </gpxtpx:TrackPointExtension>
        </extensions>
      </trkpt>
      <trkpt lat="38.837435007419494" lon="121.51032143268324">
        <ele>7.32715979591012</ele>
        <time>2025-10-11T05:16:28Z</time>
        <extensions>
          <gpxtpx:TrackPointExtension>
            <gpxtpx:hr>152</gpxtpx:hr>
          </gpxtpx:TrackPointExtension>
        </extensions>
      </trkpt>
      <trkpt lat="38.83756158408439" lon="121.5102404872539">
        <ele>7.23341984860599</ele>
        <time>2025-10-11T05:16:34Z</time>
        <extensions>
          <gpxtpx:TrackPointExtension>
            <gpxtpx:hr>153</gpxtpx:hr>
          </gpxtpx:TrackPointExtension>
        </extensions>
      </trkpt>
      <trkpt lat="38.83772343337143" lon="121.51003393021183">
        <ele>10.238801284693182</ele>
        <time>2025-10-11T05:16:43Z</time>
        <extensions>
          <gpxtpx:TrackPointExtension>
            <gpxtpx:hr>153</gpxtpx:hr>
          </gpxtpx:TrackPointExtension>
        </extensions>
      </trkpt>
      <trkpt lat="38.83774461129691" lon="121.5099478755318">
        <ele>10.915794059634209</ele>
        <time>2025-10-11T05:16:46Z</time>
        <extensions>
          <gpxtpx:TrackPointExtension>
            <gpxtpx:hr>153</gpxtpx:hr>
          </gpxtpx:TrackPointExtension>
        </extensions>
      </trkpt>
      <trkpt lat="38.83779806589492" lon="121.50991269185086">
        <ele>10.794397177174687</ele>
        <time>2025-10-11T05:16:49Z</time>
        <extensions>
          <gpxtpx:TrackPointExtension>
            <gpxtpx:hr>154</gpxtpx:hr>
          </gpxtpx:TrackPointExtension>
        </extensions>
      </trkpt>
      <trkpt lat="38.83783997260464" lon="121.5098419004398">
        <ele>9.897124303504825</ele>
        <time>2025-10-11T05:16:52Z</time>
        <extensions>
          <gpxtpx:TrackPointExtension>
            <gpxtpx:hr>154</gpxtpx:hr>
          </gpxtpx:TrackPointExtension>
        </extensions>
      </trkpt>
      <trkpt lat="38.83793637170515" lon="121.509738494386">
        <ele>9.77778515778482</ele>
        <time>2025-10-11T05:16:58Z</time>
        <extensions>
          <gpxtpx:TrackPointExtension>
            <gpxtpx:hr>152</gpxtpx:hr>
          </gpxtpx:TrackPointExtension>
        </extensions>
      </trkpt>
      <trkpt lat="38.837989291234514" lon="121.50946435589945">
        <ele>10.981577325612307</ele>
        <time>2025-10-11T05:17:07Z</time>
        <extensions>
          <gpxtpx:TrackPointExtension>
            <gpxtpx:hr>151</gpxtpx:hr>
          </gpxtpx:TrackPointExtension>
        </extensions>
      </trkpt>
      <trkpt lat="38.838078002913434" lon="121.50930122835317">
        <ele>9.023321864195168</ele>
        <time>2025-10-11T05:17:13Z</time>
        <extensions>
          <gpxtpx:TrackPointExtension>
            <gpxtpx:hr>151</gpxtpx:hr>
          </gpxtpx:TrackPointExtension>
        </extensions>
      </trkpt>
      <trkpt lat="38.8382337039439" lon="121.50918557807434">
        <ele>9.302417158149183</ele>
        <time>2025-10-11T05:17:22Z</time>
        <extensions>
          <gpxtpx:TrackPointExtension>
            <gpxtpx:hr>152</gpxtpx:hr>
          </gpxtpx:TrackPointExtension>
        </extensions>
      </trkpt>
      <trkpt lat="38.83827842458235" lon="121.50910836307514">
        <ele>8.827047480270267</ele>
        <time>2025-10-11T05:17:25Z</time>
        <extensions>
          <gpxtpx:TrackPointExtension>
            <gpxtpx:hr>153</gpxtpx:hr>
          </gpxtpx:TrackPointExtension>
        </extensions>
      </trkpt>
      <trkpt lat="38.83824346097564" lon="121.5090280704144">
        <ele>9.735444026999176</ele>
        <time>2025-10-11T05:17:28Z</time>
        <extensions>
          <gpxtpx:TrackPointExtension>
            <gpxtpx:hr>153</gpxtpx:hr>
          </gpxtpx:TrackPointExtension>
        </extensions>
      </trkpt>
      <trkpt lat="38.8381401739158" lon="121.50887255460201">
        <ele>11.767267243005335</ele>
        <time>2025-10-11T05:17:35Z</time>
        <extensions>
          <gpxtpx:TrackPointExtension>
            <gpxtpx:hr>154</gpxtpx:hr>
          </gpxtpx:TrackPointExtension>
        </extensions>
      </trkpt>
      <trkpt lat="38.83802761939599" lon="121.50875569761656">
        <ele>12.606639466248453</ele>
        <time>2025-10-11T05:17:41Z</time>
        <extensions>
          <gpxtpx:TrackPointExtension>
            <gpxtpx:hr>154</gpxtpx:hr>
          </gpxtpx:TrackPointExtension>
        </extensions>
      </trkpt>
      <trkpt lat="38.83795518062511" lon="121.50870476112125">
        <ele>11.527807831764221</ele>
        <time>2025-10-11T05:17:45Z</time>
        <extensions>
          <gpxtpx:TrackPointExtension>
            <gpxtpx:hr>154</gpxtpx:hr>
          </gpxtpx:TrackPointExtension>
        </extensions>
      </trkpt>
      <trkpt lat="38.83775713580461" lon="121.5084661353137">
        <ele>10.424577380530536</ele>
        <time>2025-10-11T05:17:58Z</time>
        <extensions>
          <gpxtpx:TrackPointExtension>
            <gpxtpx:hr>158</gpxtpx:hr>
          </gpxtpx:TrackPointExtension>
        </extensions>
      </trkpt>
      <trkpt lat="38.837659010959165" lon="121.50833264046649">
        <ele>10.48759389296174</ele>
        <time>2025-10-11T05:18:04Z</time>
        <extensions>
          <gpxtpx:TrackPointExtension>
            <gpxtpx:hr>158</gpxtpx:hr>
          </gpxtpx:TrackPointExtension>
        </extensions>
      </trkpt>
      <trkpt lat="38.837587838944025" lon="121.50828813233693">
        <ele>10.49272543285042</ele>
        <time>2025-10-11T05:18:07Z</time>
        <extensions>
          <gpxtpx:TrackPointExtension>
            <gpxtpx:hr>158</gpxtpx:hr>
          </gpxtpx:TrackPointExtension>
        </extensions>
      </trkpt>
      <trkpt lat="38.83752620500555" lon="121.50822295283768">
        <ele>12.578831687569618</ele>
        <time>2025-10-11T05:18:10Z</time>
        <extensions>
          <gpxtpx:TrackPointExtension>
            <gpxtpx:hr>157</gpxtpx:hr>
          </gpxtpx:TrackPointExtension>
        </extensions>
      </trkpt>
      <trkpt lat="38.83732525595326" lon="121.50810640727812">
        <ele>12.012825936079025</ele>
        <time>2025-10-11T05:18:19Z</time>
        <extensions>
          <gpxtpx:TrackPointExtension>
            <gpxtpx:hr>157</gpxtpx:hr>
          </gpxtpx:TrackPointExtension>
        </extensions>
      </trkpt>
      <trkpt lat="38.837225020538625" lon="121.50797231307662">
        <ele>12.263890388421714</ele>
        <time>2025-10-11T05:18:25Z</time>
        <extensions>
          <gpxtpx:TrackPointExtension>
            <gpxtpx:hr>158</gpxtpx:hr>
          </gpxtpx:TrackPointExtension>
        </extensions>
      </trkpt>
      <trkpt lat="38.83714837401235" lon="121.50793889111068">
        <ele>12.200650492683053</ele>
        <time>2025-10-11T05:18:28Z</time>
        <extensions>
          <gpxtpx:TrackPointExtension>
            <gpxtpx:hr>158</gpxtpx:hr>
          </gpxtpx:TrackPointExtension>
        </extensions>
      </trkpt>
      <trkpt lat="38.836997056873216" lon="121.50776020449261">
        <ele>12.467067372053862</ele>
        <time>2025-10-11T05:18:37Z</time>
        <extensions>
          <gpxtpx:TrackPointExtension>
            <gpxtpx:hr>158</gpxtpx:hr>
          </gpxtpx:TrackPointExtension>
        </extensions>
      </trkpt>
      <trkpt lat="38.83688302308792" lon="121.50765510931114">
        <ele>12.594666956923902</ele>
        <time>2025-10-11T05:18:43Z</time>
        <extensions>
          <gpxtpx:TrackPointExtension>
            <gpxtpx:hr>158</gpxtpx:hr>
          </gpxtpx:TrackPointExtension>
        </extensions>
      </trkpt>
      <trkpt lat="38.836822440669316" lon="121.50762046841616">
        <ele>11.553647792898118</ele>
        <time>2025-10-11T05:18:46Z</time>
        <extensions>
          <gpxtpx:TrackPointExtension>
            <gpxtpx:hr>158</gpxtpx:hr>
          </gpxtpx:TrackPointExtension>
        </extensions>
      </trkpt>
      <trkpt lat="38.83671382850705" lon="121.50743624229406">
        <ele>12.303005398251116</ele>
        <time>2025-10-11T05:19:04Z</time>
        <extensions>
          <gpxtpx:TrackPointExtension>
            <gpxtpx:hr>144</gpxtpx:hr>
          </gpxtpx:TrackPointExtension>
        </extensions>
      </trkpt>
      <trkpt lat="38.83641632240257" lon="121.50722733763442">
        <ele>8.72560790553689</ele>
        <time>2025-10-11T05:19:19Z</time>
        <extensions>
          <gpxtpx:TrackPointExtension>
            <gpxtpx:hr>140</gpxtpx:hr>
          </gpxtpx:TrackPointExtension>
        </extensions>
      </trkpt>
      <trkpt lat="38.836223233022444" lon="121.50709976544168">
        <ele>8.264898540452123</ele>
        <time>2025-10-11T05:19:28Z</time>
        <extensions>
          <gpxtpx:TrackPointExtension>
            <gpxtpx:hr>140</gpxtpx:hr>
          </gpxtpx:TrackPointExtension>
        </extensions>
      </trkpt>
      <trkpt lat="38.83612280827971" lon="121.50698650798071">
        <ele>7.456096976995468</ele>
        <time>2025-10-11T05:19:34Z</time>
        <extensions>
          <gpxtpx:TrackPointExtension>
            <gpxtpx:hr>137</gpxtpx:hr>
          </gpxtpx:TrackPointExtension>
        </extensions>
      </trkpt>
      <trkpt lat="38.83617062514688" lon="121.50669245938624">
        <ele>8.65866412781179</ele>
        <time>2025-10-11T05:20:03Z</time>
        <extensions>
          <gpxtpx:TrackPointExtension>
            <gpxtpx:hr>137</gpxtpx:hr>
          </gpxtpx:TrackPointExtension>
        </extensions>
      </trkpt>
      <trkpt lat="38.83627951900301" lon="121.50634242545672">
        <ele>8.318833346478641</ele>
        <time>2025-10-11T05:20:15Z</time>
        <extensions>
          <gpxtpx:TrackPointExtension>
            <gpxtpx:hr>132</gpxtpx:hr>
          </gpxtpx:TrackPointExtension>
        </extensions>
      </trkpt>
      <trkpt lat="38.83634898540141" lon="121.50619249558164">
        <ele>7.663684329017997</ele>
        <time>2025-10-11T05:20:21Z</time>
        <extensions>
          <gpxtpx:TrackPointExtension>
            <gpxtpx:hr>133</gpxtpx:hr>
          </gpxtpx:TrackPointExtension>
        </extensions>
      </trkpt>
      <trkpt lat="38.836394259674" lon="121.50601175064527">
        <ele>9.2127644456923</ele>
        <time>2025-10-11T05:20:27Z</time>
        <extensions>
          <gpxtpx:TrackPointExtension>
            <gpxtpx:hr>134</gpxtpx:hr>
          </gpxtpx:TrackPointExtension>
        </extensions>
      </trkpt>
      <trkpt lat="38.83650537282896" lon="121.5056403698536">
        <ele>7.853643710725009</ele>
        <time>2025-10-11T05:20:39Z</time>
        <extensions>
          <gpxtpx:TrackPointExtension>
            <gpxtpx:hr>136</gpxtpx:hr>
          </gpxtpx:TrackPointExtension>
        </extensions>
      </trkpt>
      <trkpt lat="38.83663488965372" lon="121.50528982282118">
        <ele>6.996444622054696</ele>
        <time>2025-10-11T05:20:51Z</time>
        <extensions>
          <gpxtpx:TrackPointExtension>
            <gpxtpx:hr>141</gpxtpx:hr>
          </gpxtpx:TrackPointExtension>
        </extensions>
      </trkpt>
      <trkpt lat="38.83673293588209" lon="121.50500559376887">
        <ele>9.785984497517347</ele>
        <time>2025-10-11T05:21:00Z</time>
        <extensions>
          <gpxtpx:TrackPointExtension>
            <gpxtpx:hr>144</gpxtpx:hr>
          </gpxtpx:TrackPointExtension>
        </extensions>
      </trkpt>
      <trkpt lat="38.8368422241359" lon="121.50465566832791">
        <ele>9.543851147405803</ele>
        <time>2025-10-11T05:21:12Z</time>
        <extensions>
          <gpxtpx:TrackPointExtension>
            <gpxtpx:hr>148</gpxtpx:hr>
          </gpxtpx:TrackPointExtension>
        </extensions>
      </trkpt>
      <trkpt lat="38.83689665576708" lon="121.50453736554718">
        <ele>9.822717637754977</ele>
        <time>2025-10-11T05:21:24Z</time>
        <extensions>
          <gpxtpx:TrackPointExtension>
            <gpxtpx:hr>149</gpxtpx:hr>
          </gpxtpx:TrackPointExtension>
        </extensions>
      </trkpt>
      <trkpt lat="38.83689665576708" lon="121.50453736554718">
        <ele>9.822717637754977</ele>
        <time>2025-10-11T05:21:27Z</time>
        <extensions>
          <gpxtpx:TrackPointExtension>
            <gpxtpx:hr>149</gpxtpx:hr>
          </gpxtpx:TrackPointExtension>
        </extensions>
      </trkpt>
    </trkseg>
  </trk>
</gpx>