<?xml version="1.0" encoding="UTF-8"?>
<gpx xmlns="http://www.topografix.com/GPX/1/1" xmlns:gpxtpx="http://www.garmin.com/xmlschemas/TrackPointExtension/v1" xmlns:xsi="http://www.w3.org/2001/XMLSchema-instance" xsi:schemaLocation="http://www.topografix.com/GPX/1/1 http://www.topografix.com/GPX/1/1/gpx.xsd" version="1.1" creator="gpx.py -- https://github.com/tkrajina/gpxpy">
  <trk>
    <name>gpx from keep</name>
    <type>Run</type>
    <trkseg>
      <trkpt lat="38.8332063517777" lon="121.50742353838098">
        <ele>3.8048145504220834</ele>
        <time>2025-08-27T05:22:24Z</time>
      </trkpt>
      <trkpt lat="38.83319268704212" lon="121.50741151052881">
        <ele>4.018004672601819</ele>
        <time>2025-08-27T05:22:37Z</time>
      </trkpt>
      <trkpt lat="38.83322408951517" lon="121.50729379001487">
        <ele>4.354915972799063</ele>
        <time>2025-08-27T05:23:00Z</time>
        <extensions>
          <gpxtpx:TrackPointExtension>
            <gpxtpx:hr>87</gpxtpx:hr>
          </gpxtpx:TrackPointExtension>
        </extensions>
      </trkpt>
      <trkpt lat="38.833111899386424" lon="121.5069728081947">
        <ele>2.3082976527512074</ele>
        <time>2025-08-27T05:23:15Z</time>
        <extensions>
          <gpxtpx:TrackPointExtension>
            <gpxtpx:hr>98</gpxtpx:hr>
          </gpxtpx:TrackPointExtension>
        </extensions>
      </trkpt>
      <trkpt lat="38.83292627369618" lon="121.5067100601667">
        <ele>2.582813940010965</ele>
        <time>2025-08-27T05:23:26Z</time>
        <extensions>
          <gpxtpx:TrackPointExtension>
            <gpxtpx:hr>105</gpxtpx:hr>
          </gpxtpx:TrackPointExtension>
        </extensions>
      </trkpt>
      <trkpt lat="38.832829746441575" lon="121.50659859823318">
        <ele>3.380577402189374</ele>
        <time>2025-08-27T05:23:33Z</time>
        <extensions>
          <gpxtpx:TrackPointExtension>
            <gpxtpx:hr>105</gpxtpx:hr>
          </gpxtpx:TrackPointExtension>
        </extensions>
      </trkpt>
      <trkpt lat="38.83275346927392" lon="121.50655002701781">
        <ele>4.280493430793285</ele>
        <time>2025-08-27T05:23:35Z</time>
        <extensions>
          <gpxtpx:TrackPointExtension>
            <gpxtpx:hr>107</gpxtpx:hr>
          </gpxtpx:TrackPointExtension>
        </extensions>
      </trkpt>
      <trkpt lat="38.832428414674155" lon="121.50649878262226">
        <ele>2.9475443102419376</ele>
        <time>2025-08-27T05:23:51Z</time>
        <extensions>
          <gpxtpx:TrackPointExtension>
            <gpxtpx:hr>107</gpxtpx:hr>
          </gpxtpx:TrackPointExtension>
        </extensions>
      </trkpt>
      <trkpt lat="38.8322142519379" lon="121.5063647506429">
        <ele>3.480785875581205</ele>
        <time>2025-08-27T05:24:05Z</time>
        <extensions>
          <gpxtpx:TrackPointExtension>
            <gpxtpx:hr>107</gpxtpx:hr>
          </gpxtpx:TrackPointExtension>
        </extensions>
      </trkpt>
      <trkpt lat="38.83211827276648" lon="121.50626624307806">
        <ele>3.0468136072158813</ele>
        <time>2025-08-27T05:24:11Z</time>
        <extensions>
          <gpxtpx:TrackPointExtension>
            <gpxtpx:hr>112</gpxtpx:hr>
          </gpxtpx:TrackPointExtension>
        </extensions>
      </trkpt>
      <trkpt lat="38.832007159123165" lon="121.50606974782261">
        <ele>2.6321424627676606</ele>
        <time>2025-08-27T05:24:21Z</time>
        <extensions>
          <gpxtpx:TrackPointExtension>
            <gpxtpx:hr>112</gpxtpx:hr>
          </gpxtpx:TrackPointExtension>
        </extensions>
      </trkpt>
      <trkpt lat="38.83194314543723" lon="121.50582098748049">
        <ele>3.602521274238825</ele>
        <time>2025-08-27T05:24:36Z</time>
        <extensions>
          <gpxtpx:TrackPointExtension>
            <gpxtpx:hr>118</gpxtpx:hr>
          </gpxtpx:TrackPointExtension>
        </extensions>
      </trkpt>
      <trkpt lat="38.83187488813087" lon="121.50568828944206">
        <ele>3.466316790319979</ele>
        <time>2025-08-27T05:24:43Z</time>
        <extensions>
          <gpxtpx:TrackPointExtension>
            <gpxtpx:hr>118</gpxtpx:hr>
          </gpxtpx:TrackPointExtension>
        </extensions>
      </trkpt>
      <trkpt lat="38.831649893724716" lon="121.50543627364117">
        <ele>3.6198102505877614</ele>
        <time>2025-08-27T05:24:58Z</time>
        <extensions>
          <gpxtpx:TrackPointExtension>
            <gpxtpx:hr>125</gpxtpx:hr>
          </gpxtpx:TrackPointExtension>
        </extensions>
      </trkpt>
      <trkpt lat="38.83146905973591" lon="121.50533624540172">
        <ele>3.349618428386748</ele>
        <time>2025-08-27T05:25:06Z</time>
        <extensions>
          <gpxtpx:TrackPointExtension>
            <gpxtpx:hr>126</gpxtpx:hr>
          </gpxtpx:TrackPointExtension>
        </extensions>
      </trkpt>
      <trkpt lat="38.83121631987183" lon="121.50530877953392">
        <ele>3.6726220082491636</ele>
        <time>2025-08-27T05:25:19Z</time>
        <extensions>
          <gpxtpx:TrackPointExtension>
            <gpxtpx:hr>125</gpxtpx:hr>
          </gpxtpx:TrackPointExtension>
        </extensions>
      </trkpt>
      <trkpt lat="38.831023839054204" lon="121.5053406780203">
        <ele>2.363254940137267</ele>
        <time>2025-08-27T05:25:27Z</time>
        <extensions>
          <gpxtpx:TrackPointExtension>
            <gpxtpx:hr>126</gpxtpx:hr>
          </gpxtpx:TrackPointExtension>
        </extensions>
      </trkpt>
      <trkpt lat="38.83087522309242" lon="121.50532170039291">
        <ele>2.4093496007844806</ele>
        <time>2025-08-27T05:25:33Z</time>
        <extensions>
          <gpxtpx:TrackPointExtension>
            <gpxtpx:hr>126</gpxtpx:hr>
          </gpxtpx:TrackPointExtension>
        </extensions>
      </trkpt>
      <trkpt lat="38.83063544665674" lon="121.50510981532538">
        <ele>2.2744912272319198</ele>
        <time>2025-08-27T05:25:47Z</time>
        <extensions>
          <gpxtpx:TrackPointExtension>
            <gpxtpx:hr>125</gpxtpx:hr>
          </gpxtpx:TrackPointExtension>
        </extensions>
      </trkpt>
      <trkpt lat="38.83051870125488" lon="121.50498927048437">
        <ele>3.035033319145441</ele>
        <time>2025-08-27T05:25:53Z</time>
        <extensions>
          <gpxtpx:TrackPointExtension>
            <gpxtpx:hr>124</gpxtpx:hr>
          </gpxtpx:TrackPointExtension>
        </extensions>
      </trkpt>
      <trkpt lat="38.83026383977071" lon="121.50484238883746">
        <ele>2.9528028666973114</ele>
        <time>2025-08-27T05:26:04Z</time>
        <extensions>
          <gpxtpx:TrackPointExtension>
            <gpxtpx:hr>125</gpxtpx:hr>
          </gpxtpx:TrackPointExtension>
        </extensions>
      </trkpt>
      <trkpt lat="38.83005469517745" lon="121.50475330964461">
        <ele>2.928639785386622</ele>
        <time>2025-08-27T05:26:14Z</time>
        <extensions>
          <gpxtpx:TrackPointExtension>
            <gpxtpx:hr>125</gpxtpx:hr>
          </gpxtpx:TrackPointExtension>
        </extensions>
      </trkpt>
      <trkpt lat="38.82992317540667" lon="121.50464947110692">
        <ele>2.5644971523433924</ele>
        <time>2025-08-27T05:26:19Z</time>
        <extensions>
          <gpxtpx:TrackPointExtension>
            <gpxtpx:hr>125</gpxtpx:hr>
          </gpxtpx:TrackPointExtension>
        </extensions>
      </trkpt>
      <trkpt lat="38.829779442970704" lon="121.5044456748003">
        <ele>2.411579634062946</ele>
        <time>2025-08-27T05:26:29Z</time>
        <extensions>
          <gpxtpx:TrackPointExtension>
            <gpxtpx:hr>127</gpxtpx:hr>
          </gpxtpx:TrackPointExtension>
        </extensions>
      </trkpt>
      <trkpt lat="38.82950719913375" lon="121.50418426243918">
        <ele>3.5702724987640977</ele>
        <time>2025-08-27T05:26:43Z</time>
        <extensions>
          <gpxtpx:TrackPointExtension>
            <gpxtpx:hr>124</gpxtpx:hr>
          </gpxtpx:TrackPointExtension>
        </extensions>
      </trkpt>
      <trkpt lat="38.829416910654984" lon="121.50412712351117">
        <ele>3.184857813641429</ele>
        <time>2025-08-27T05:26:46Z</time>
        <extensions>
          <gpxtpx:TrackPointExtension>
            <gpxtpx:hr>124</gpxtpx:hr>
          </gpxtpx:TrackPointExtension>
        </extensions>
      </trkpt>
      <trkpt lat="38.829131811522075" lon="121.50402256991349">
        <ele>3.1813567969948053</ele>
        <time>2025-08-27T05:27:00Z</time>
        <extensions>
          <gpxtpx:TrackPointExtension>
            <gpxtpx:hr>127</gpxtpx:hr>
          </gpxtpx:TrackPointExtension>
        </extensions>
      </trkpt>
      <trkpt lat="38.828927009089554" lon="121.50397528950845">
        <ele>4.721215664409101</ele>
        <time>2025-08-27T05:27:08Z</time>
        <extensions>
          <gpxtpx:TrackPointExtension>
            <gpxtpx:hr>128</gpxtpx:hr>
          </gpxtpx:TrackPointExtension>
        </extensions>
      </trkpt>
      <trkpt lat="38.828728530142726" lon="121.50399179964536">
        <ele>2.357460585422814</ele>
        <time>2025-08-27T05:27:17Z</time>
        <extensions>
          <gpxtpx:TrackPointExtension>
            <gpxtpx:hr>127</gpxtpx:hr>
          </gpxtpx:TrackPointExtension>
        </extensions>
      </trkpt>
      <trkpt lat="38.82868817508861" lon="121.5040239286829">
        <ele>2.5260826786980033</ele>
        <time>2025-08-27T05:27:21Z</time>
        <extensions>
          <gpxtpx:TrackPointExtension>
            <gpxtpx:hr>127</gpxtpx:hr>
          </gpxtpx:TrackPointExtension>
        </extensions>
      </trkpt>
      <trkpt lat="38.82840838187681" lon="121.50406893360022">
        <ele>2.4160941494628787</ele>
        <time>2025-08-27T05:27:32Z</time>
        <extensions>
          <gpxtpx:TrackPointExtension>
            <gpxtpx:hr>127</gpxtpx:hr>
          </gpxtpx:TrackPointExtension>
        </extensions>
      </trkpt>
      <trkpt lat="38.828214018503346" lon="121.50402280890154">
        <ele>2.3415924925357103</ele>
        <time>2025-08-27T05:27:42Z</time>
        <extensions>
          <gpxtpx:TrackPointExtension>
            <gpxtpx:hr>129</gpxtpx:hr>
          </gpxtpx:TrackPointExtension>
        </extensions>
      </trkpt>
      <trkpt lat="38.82798412175126" lon="121.50378728830661">
        <ele>2.450747308321297</ele>
        <time>2025-08-27T05:27:53Z</time>
        <extensions>
          <gpxtpx:TrackPointExtension>
            <gpxtpx:hr>130</gpxtpx:hr>
          </gpxtpx:TrackPointExtension>
        </extensions>
      </trkpt>
      <trkpt lat="38.8278874322137" lon="121.50355340285793">
        <ele>2.383123029023409</ele>
        <time>2025-08-27T05:28:02Z</time>
        <extensions>
          <gpxtpx:TrackPointExtension>
            <gpxtpx:hr>132</gpxtpx:hr>
          </gpxtpx:TrackPointExtension>
        </extensions>
      </trkpt>
      <trkpt lat="38.82784126263093" lon="121.50331397897354">
        <ele>2.533249125815928</ele>
        <time>2025-08-27T05:28:11Z</time>
        <extensions>
          <gpxtpx:TrackPointExtension>
            <gpxtpx:hr>130</gpxtpx:hr>
          </gpxtpx:TrackPointExtension>
        </extensions>
      </trkpt>
      <trkpt lat="38.827798415552785" lon="121.50322889679137">
        <ele>2.907911514863372</ele>
        <time>2025-08-27T05:28:14Z</time>
        <extensions>
          <gpxtpx:TrackPointExtension>
            <gpxtpx:hr>134</gpxtpx:hr>
          </gpxtpx:TrackPointExtension>
        </extensions>
      </trkpt>
      <trkpt lat="38.82774238303983" lon="121.5032172253276">
        <ele>3.898616610094905</ele>
        <time>2025-08-27T05:28:17Z</time>
        <extensions>
          <gpxtpx:TrackPointExtension>
            <gpxtpx:hr>134</gpxtpx:hr>
          </gpxtpx:TrackPointExtension>
        </extensions>
      </trkpt>
      <trkpt lat="38.82757045033045" lon="121.50305155154965">
        <ele>3.2780890008434653</ele>
        <time>2025-08-27T05:28:27Z</time>
        <extensions>
          <gpxtpx:TrackPointExtension>
            <gpxtpx:hr>129</gpxtpx:hr>
          </gpxtpx:TrackPointExtension>
        </extensions>
      </trkpt>
      <trkpt lat="38.827302963749624" lon="121.50298249732039">
        <ele>2.8176360903307796</ele>
        <time>2025-08-27T05:28:38Z</time>
        <extensions>
          <gpxtpx:TrackPointExtension>
            <gpxtpx:hr>129</gpxtpx:hr>
          </gpxtpx:TrackPointExtension>
        </extensions>
      </trkpt>
      <trkpt lat="38.82706614750289" lon="121.50309187595636">
        <ele>2.092757928185165</ele>
        <time>2025-08-27T05:28:49Z</time>
        <extensions>
          <gpxtpx:TrackPointExtension>
            <gpxtpx:hr>136</gpxtpx:hr>
          </gpxtpx:TrackPointExtension>
        </extensions>
      </trkpt>
      <trkpt lat="38.826832479865445" lon="121.50335540692079">
        <ele>3.6365796672180295</ele>
        <time>2025-08-27T05:29:01Z</time>
        <extensions>
          <gpxtpx:TrackPointExtension>
            <gpxtpx:hr>141</gpxtpx:hr>
          </gpxtpx:TrackPointExtension>
        </extensions>
      </trkpt>
      <trkpt lat="38.82667471039258" lon="121.50351511482903">
        <ele>2.681498126126826</ele>
        <time>2025-08-27T05:29:10Z</time>
        <extensions>
          <gpxtpx:TrackPointExtension>
            <gpxtpx:hr>141</gpxtpx:hr>
          </gpxtpx:TrackPointExtension>
        </extensions>
      </trkpt>
      <trkpt lat="38.826558388525775" lon="121.50376161451076">
        <ele>3.703059227205813</ele>
        <time>2025-08-27T05:29:19Z</time>
        <extensions>
          <gpxtpx:TrackPointExtension>
            <gpxtpx:hr>138</gpxtpx:hr>
          </gpxtpx:TrackPointExtension>
        </extensions>
      </trkpt>
      <trkpt lat="38.82651795895208" lon="121.50410979775914">
        <ele>3.797747545875609</ele>
        <time>2025-08-27T05:29:32Z</time>
        <extensions>
          <gpxtpx:TrackPointExtension>
            <gpxtpx:hr>139</gpxtpx:hr>
          </gpxtpx:TrackPointExtension>
        </extensions>
      </trkpt>
      <trkpt lat="38.82651597607052" lon="121.50427931113131">
        <ele>2.374472993426025</ele>
        <time>2025-08-27T05:29:37Z</time>
        <extensions>
          <gpxtpx:TrackPointExtension>
            <gpxtpx:hr>138</gpxtpx:hr>
          </gpxtpx:TrackPointExtension>
        </extensions>
      </trkpt>
      <trkpt lat="38.826445629611314" lon="121.50455081558921">
        <ele>2.5062244180589914</ele>
        <time>2025-08-27T05:29:46Z</time>
        <extensions>
          <gpxtpx:TrackPointExtension>
            <gpxtpx:hr>132</gpxtpx:hr>
          </gpxtpx:TrackPointExtension>
        </extensions>
      </trkpt>
      <trkpt lat="38.82645165841956" lon="121.50464589295912">
        <ele>2.7579221092164516</ele>
        <time>2025-08-27T05:29:50Z</time>
        <extensions>
          <gpxtpx:TrackPointExtension>
            <gpxtpx:hr>136</gpxtpx:hr>
          </gpxtpx:TrackPointExtension>
        </extensions>
      </trkpt>
      <trkpt lat="38.826421364235394" lon="121.50473776353084">
        <ele>2.6650692829862237</ele>
        <time>2025-08-27T05:29:52Z</time>
        <extensions>
          <gpxtpx:TrackPointExtension>
            <gpxtpx:hr>136</gpxtpx:hr>
          </gpxtpx:TrackPointExtension>
        </extensions>
      </trkpt>
      <trkpt lat="38.826185220586716" lon="121.50492516484812">
        <ele>2.5827239705249667</ele>
        <time>2025-08-27T05:30:04Z</time>
        <extensions>
          <gpxtpx:TrackPointExtension>
            <gpxtpx:hr>143</gpxtpx:hr>
          </gpxtpx:TrackPointExtension>
        </extensions>
      </trkpt>
      <trkpt lat="38.82610575426543" lon="121.50493027837334">
        <ele>2.502928682602942</ele>
        <time>2025-08-27T05:30:08Z</time>
        <extensions>
          <gpxtpx:TrackPointExtension>
            <gpxtpx:hr>143</gpxtpx:hr>
          </gpxtpx:TrackPointExtension>
        </extensions>
      </trkpt>
      <trkpt lat="38.82613517460159" lon="121.50483999353796">
        <ele>2.549969555810094</ele>
        <time>2025-08-27T05:30:13Z</time>
        <extensions>
          <gpxtpx:TrackPointExtension>
            <gpxtpx:hr>148</gpxtpx:hr>
          </gpxtpx:TrackPointExtension>
        </extensions>
      </trkpt>
      <trkpt lat="38.82620979906297" lon="121.50483773146101">
        <ele>2.9585800003260374</ele>
        <time>2025-08-27T05:30:16Z</time>
        <extensions>
          <gpxtpx:TrackPointExtension>
            <gpxtpx:hr>148</gpxtpx:hr>
          </gpxtpx:TrackPointExtension>
        </extensions>
      </trkpt>
      <trkpt lat="38.826274281512596" lon="121.5048122546762">
        <ele>2.0080219972878695</ele>
        <time>2025-08-27T05:30:19Z</time>
        <extensions>
          <gpxtpx:TrackPointExtension>
            <gpxtpx:hr>148</gpxtpx:hr>
          </gpxtpx:TrackPointExtension>
        </extensions>
      </trkpt>
      <trkpt lat="38.82637057885459" lon="121.50469083372168">
        <ele>2.5733858458697796</ele>
        <time>2025-08-27T05:30:25Z</time>
        <extensions>
          <gpxtpx:TrackPointExtension>
            <gpxtpx:hr>146</gpxtpx:hr>
          </gpxtpx:TrackPointExtension>
        </extensions>
      </trkpt>
      <trkpt lat="38.82641514201457" lon="121.50460492640568">
        <ele>2.4328631293028593</ele>
        <time>2025-08-27T05:30:28Z</time>
        <extensions>
          <gpxtpx:TrackPointExtension>
            <gpxtpx:hr>146</gpxtpx:hr>
          </gpxtpx:TrackPointExtension>
        </extensions>
      </trkpt>
      <trkpt lat="38.82643641495039" lon="121.50452565093924">
        <ele>2.6658490551635623</ele>
        <time>2025-08-27T05:30:31Z</time>
        <extensions>
          <gpxtpx:TrackPointExtension>
            <gpxtpx:hr>146</gpxtpx:hr>
          </gpxtpx:TrackPointExtension>
        </extensions>
      </trkpt>
      <trkpt lat="38.82649981668587" lon="121.50437686943629">
        <ele>2.046278686262667</ele>
        <time>2025-08-27T05:30:37Z</time>
        <extensions>
          <gpxtpx:TrackPointExtension>
            <gpxtpx:hr>146</gpxtpx:hr>
          </gpxtpx:TrackPointExtension>
        </extensions>
      </trkpt>
      <trkpt lat="38.826520874633005" lon="121.50427922059866">
        <ele>2.4905076967552304</ele>
        <time>2025-08-27T05:30:40Z</time>
        <extensions>
          <gpxtpx:TrackPointExtension>
            <gpxtpx:hr>147</gpxtpx:hr>
          </gpxtpx:TrackPointExtension>
        </extensions>
      </trkpt>
      <trkpt lat="38.82650753843543" lon="121.50417091205597">
        <ele>2.7056038193404675</ele>
        <time>2025-08-27T05:30:43Z</time>
        <extensions>
          <gpxtpx:TrackPointExtension>
            <gpxtpx:hr>147</gpxtpx:hr>
          </gpxtpx:TrackPointExtension>
        </extensions>
      </trkpt>
      <trkpt lat="38.826539465143306" lon="121.50396473134933">
        <ele>3.4455930832773447</ele>
        <time>2025-08-27T05:30:51Z</time>
        <extensions>
          <gpxtpx:TrackPointExtension>
            <gpxtpx:hr>147</gpxtpx:hr>
          </gpxtpx:TrackPointExtension>
        </extensions>
      </trkpt>
      <trkpt lat="38.826532747768994" lon="121.50383607713746">
        <ele>4.063843711279333</ele>
        <time>2025-08-27T05:30:55Z</time>
        <extensions>
          <gpxtpx:TrackPointExtension>
            <gpxtpx:hr>146</gpxtpx:hr>
          </gpxtpx:TrackPointExtension>
        </extensions>
      </trkpt>
      <trkpt lat="38.82659786770412" lon="121.50361952869902">
        <ele>2.65581822860986</ele>
        <time>2025-08-27T05:31:02Z</time>
        <extensions>
          <gpxtpx:TrackPointExtension>
            <gpxtpx:hr>147</gpxtpx:hr>
          </gpxtpx:TrackPointExtension>
        </extensions>
      </trkpt>
      <trkpt lat="38.82671622319439" lon="121.50349778263677">
        <ele>2.627036679536104</ele>
        <time>2025-08-27T05:31:09Z</time>
        <extensions>
          <gpxtpx:TrackPointExtension>
            <gpxtpx:hr>148</gpxtpx:hr>
          </gpxtpx:TrackPointExtension>
        </extensions>
      </trkpt>
      <trkpt lat="38.826754867475046" lon="121.50341678674042">
        <ele>3.427282752469182</ele>
        <time>2025-08-27T05:31:12Z</time>
        <extensions>
          <gpxtpx:TrackPointExtension>
            <gpxtpx:hr>148</gpxtpx:hr>
          </gpxtpx:TrackPointExtension>
        </extensions>
      </trkpt>
      <trkpt lat="38.82695004882668" lon="121.50322931474919">
        <ele>2.777399002574384</ele>
        <time>2025-08-27T05:31:22Z</time>
        <extensions>
          <gpxtpx:TrackPointExtension>
            <gpxtpx:hr>148</gpxtpx:hr>
          </gpxtpx:TrackPointExtension>
        </extensions>
      </trkpt>
      <trkpt lat="38.82699134531411" lon="121.50315786925886">
        <ele>2.6453931471332908</ele>
        <time>2025-08-27T05:31:24Z</time>
        <extensions>
          <gpxtpx:TrackPointExtension>
            <gpxtpx:hr>147</gpxtpx:hr>
          </gpxtpx:TrackPointExtension>
        </extensions>
      </trkpt>
      <trkpt lat="38.827182066782925" lon="121.50302234565022">
        <ele>2.5300751803442836</ele>
        <time>2025-08-27T05:31:34Z</time>
        <extensions>
          <gpxtpx:TrackPointExtension>
            <gpxtpx:hr>146</gpxtpx:hr>
          </gpxtpx:TrackPointExtension>
        </extensions>
      </trkpt>
      <trkpt lat="38.82725128552089" lon="121.50299410845314">
        <ele>3.2082901168614626</ele>
        <time>2025-08-27T05:31:37Z</time>
        <extensions>
          <gpxtpx:TrackPointExtension>
            <gpxtpx:hr>146</gpxtpx:hr>
          </gpxtpx:TrackPointExtension>
        </extensions>
      </trkpt>
      <trkpt lat="38.82746795410316" lon="121.50301320574546">
        <ele>1.992035884410143</ele>
        <time>2025-08-27T05:31:46Z</time>
        <extensions>
          <gpxtpx:TrackPointExtension>
            <gpxtpx:hr>144</gpxtpx:hr>
          </gpxtpx:TrackPointExtension>
        </extensions>
      </trkpt>
      <trkpt lat="38.82759887724119" lon="121.50307749876174">
        <ele>2.0556592689827085</ele>
        <time>2025-08-27T05:31:52Z</time>
        <extensions>
          <gpxtpx:TrackPointExtension>
            <gpxtpx:hr>145</gpxtpx:hr>
          </gpxtpx:TrackPointExtension>
        </extensions>
      </trkpt>
      <trkpt lat="38.82764832978731" lon="121.5031555254651">
        <ele>2.0141010330989957</ele>
        <time>2025-08-27T05:31:55Z</time>
        <extensions>
          <gpxtpx:TrackPointExtension>
            <gpxtpx:hr>147</gpxtpx:hr>
          </gpxtpx:TrackPointExtension>
        </extensions>
      </trkpt>
      <trkpt lat="38.82770656840564" lon="121.50321049441045">
        <ele>2.9918104596436024</ele>
        <time>2025-08-27T05:31:57Z</time>
        <extensions>
          <gpxtpx:TrackPointExtension>
            <gpxtpx:hr>147</gpxtpx:hr>
          </gpxtpx:TrackPointExtension>
        </extensions>
      </trkpt>
      <trkpt lat="38.827775855355064" lon="121.50323585260358">
        <ele>2.3420193158090115</ele>
        <time>2025-08-27T05:32:01Z</time>
        <extensions>
          <gpxtpx:TrackPointExtension>
            <gpxtpx:hr>149</gpxtpx:hr>
          </gpxtpx:TrackPointExtension>
        </extensions>
      </trkpt>
      <trkpt lat="38.82782619346507" lon="121.50330328464983">
        <ele>1.7778668608516455</ele>
        <time>2025-08-27T05:32:04Z</time>
        <extensions>
          <gpxtpx:TrackPointExtension>
            <gpxtpx:hr>149</gpxtpx:hr>
          </gpxtpx:TrackPointExtension>
        </extensions>
      </trkpt>
      <trkpt lat="38.8279297685485" lon="121.50367758743137">
        <ele>1.360960315912962</ele>
        <time>2025-08-27T05:32:15Z</time>
        <extensions>
          <gpxtpx:TrackPointExtension>
            <gpxtpx:hr>151</gpxtpx:hr>
          </gpxtpx:TrackPointExtension>
        </extensions>
      </trkpt>
      <trkpt lat="38.82796403233507" lon="121.50374989626664">
        <ele>1.5906557105481625</ele>
        <time>2025-08-27T05:32:18Z</time>
        <extensions>
          <gpxtpx:TrackPointExtension>
            <gpxtpx:hr>151</gpxtpx:hr>
          </gpxtpx:TrackPointExtension>
        </extensions>
      </trkpt>
      <trkpt lat="38.82812311214638" lon="121.50397044897547">
        <ele>2.111552300862968</ele>
        <time>2025-08-27T05:32:27Z</time>
        <extensions>
          <gpxtpx:TrackPointExtension>
            <gpxtpx:hr>152</gpxtpx:hr>
          </gpxtpx:TrackPointExtension>
        </extensions>
      </trkpt>
      <trkpt lat="38.828178886203965" lon="121.5040168327356">
        <ele>1.5215117875486612</ele>
        <time>2025-08-27T05:32:30Z</time>
        <extensions>
          <gpxtpx:TrackPointExtension>
            <gpxtpx:hr>152</gpxtpx:hr>
          </gpxtpx:TrackPointExtension>
        </extensions>
      </trkpt>
      <trkpt lat="38.82830782078767" lon="121.50406708159584">
        <ele>1.8221357315778732</ele>
        <time>2025-08-27T05:32:36Z</time>
        <extensions>
          <gpxtpx:TrackPointExtension>
            <gpxtpx:hr>152</gpxtpx:hr>
          </gpxtpx:TrackPointExtension>
        </extensions>
      </trkpt>
      <trkpt lat="38.82849930794598" lon="121.50407374472037">
        <ele>2.869677498936653</ele>
        <time>2025-08-27T05:32:45Z</time>
        <extensions>
          <gpxtpx:TrackPointExtension>
            <gpxtpx:hr>152</gpxtpx:hr>
          </gpxtpx:TrackPointExtension>
        </extensions>
      </trkpt>
      <trkpt lat="38.82872200471101" lon="121.50402031184812">
        <ele>2.2628593277186155</ele>
        <time>2025-08-27T05:32:54Z</time>
        <extensions>
          <gpxtpx:TrackPointExtension>
            <gpxtpx:hr>150</gpxtpx:hr>
          </gpxtpx:TrackPointExtension>
        </extensions>
      </trkpt>
      <trkpt lat="38.82879903967718" lon="121.50402410313136">
        <ele>2.427676385268569</ele>
        <time>2025-08-27T05:32:58Z</time>
        <extensions>
          <gpxtpx:TrackPointExtension>
            <gpxtpx:hr>150</gpxtpx:hr>
          </gpxtpx:TrackPointExtension>
        </extensions>
      </trkpt>
      <trkpt lat="38.82888985405414" lon="121.50396272192292">
        <ele>3.071156270802021</ele>
        <time>2025-08-27T05:33:02Z</time>
        <extensions>
          <gpxtpx:TrackPointExtension>
            <gpxtpx:hr>149</gpxtpx:hr>
          </gpxtpx:TrackPointExtension>
        </extensions>
      </trkpt>
      <trkpt lat="38.8289844037818" lon="121.50395983166655">
        <ele>3.1181664522737265</ele>
        <time>2025-08-27T05:33:06Z</time>
        <extensions>
          <gpxtpx:TrackPointExtension>
            <gpxtpx:hr>149</gpxtpx:hr>
          </gpxtpx:TrackPointExtension>
        </extensions>
      </trkpt>
      <trkpt lat="38.829150629586195" lon="121.50399397245532">
        <ele>3.250064318999648</ele>
        <time>2025-08-27T05:33:13Z</time>
        <extensions>
          <gpxtpx:TrackPointExtension>
            <gpxtpx:hr>149</gpxtpx:hr>
          </gpxtpx:TrackPointExtension>
        </extensions>
      </trkpt>
      <trkpt lat="38.82929452185792" lon="121.50406189545559">
        <ele>2.796612218953669</ele>
        <time>2025-08-27T05:33:19Z</time>
        <extensions>
          <gpxtpx:TrackPointExtension>
            <gpxtpx:hr>149</gpxtpx:hr>
          </gpxtpx:TrackPointExtension>
        </extensions>
      </trkpt>
      <trkpt lat="38.829344075368326" lon="121.504108457326">
        <ele>1.777776688337326</ele>
        <time>2025-08-27T05:33:22Z</time>
        <extensions>
          <gpxtpx:TrackPointExtension>
            <gpxtpx:hr>149</gpxtpx:hr>
          </gpxtpx:TrackPointExtension>
        </extensions>
      </trkpt>
      <trkpt lat="38.82954062020039" lon="121.5042289344355">
        <ele>3.094994939863682</ele>
        <time>2025-08-27T05:33:31Z</time>
        <extensions>
          <gpxtpx:TrackPointExtension>
            <gpxtpx:hr>151</gpxtpx:hr>
          </gpxtpx:TrackPointExtension>
        </extensions>
      </trkpt>
      <trkpt lat="38.8296643720636" lon="121.50433584114866">
        <ele>1.862914314493537</ele>
        <time>2025-08-27T05:33:37Z</time>
        <extensions>
          <gpxtpx:TrackPointExtension>
            <gpxtpx:hr>153</gpxtpx:hr>
          </gpxtpx:TrackPointExtension>
        </extensions>
      </trkpt>
      <trkpt lat="38.82972508549061" lon="121.50441207162838">
        <ele>2.4270348213613033</ele>
        <time>2025-08-27T05:33:41Z</time>
        <extensions>
          <gpxtpx:TrackPointExtension>
            <gpxtpx:hr>154</gpxtpx:hr>
          </gpxtpx:TrackPointExtension>
        </extensions>
      </trkpt>
      <trkpt lat="38.82978828935274" lon="121.50446022041314">
        <ele>1.7031518435105681</ele>
        <time>2025-08-27T05:33:43Z</time>
        <extensions>
          <gpxtpx:TrackPointExtension>
            <gpxtpx:hr>154</gpxtpx:hr>
          </gpxtpx:TrackPointExtension>
        </extensions>
      </trkpt>
      <trkpt lat="38.8300016104463" lon="121.50471576933842">
        <ele>1.9274825621396303</ele>
        <time>2025-08-27T05:33:56Z</time>
        <extensions>
          <gpxtpx:TrackPointExtension>
            <gpxtpx:hr>156</gpxtpx:hr>
          </gpxtpx:TrackPointExtension>
        </extensions>
      </trkpt>
      <trkpt lat="38.830200052842805" lon="121.504831702499">
        <ele>2.0141578149050474</ele>
        <time>2025-08-27T05:34:04Z</time>
        <extensions>
          <gpxtpx:TrackPointExtension>
            <gpxtpx:hr>156</gpxtpx:hr>
          </gpxtpx:TrackPointExtension>
        </extensions>
      </trkpt>
      <trkpt lat="38.830276126155624" lon="121.50484969172993">
        <ele>1.7983788223937154</ele>
        <time>2025-08-27T05:34:08Z</time>
        <extensions>
          <gpxtpx:TrackPointExtension>
            <gpxtpx:hr>156</gpxtpx:hr>
          </gpxtpx:TrackPointExtension>
        </extensions>
      </trkpt>
      <trkpt lat="38.83034077409316" lon="121.50489494215994">
        <ele>3.399074787274003</ele>
        <time>2025-08-27T05:34:10Z</time>
        <extensions>
          <gpxtpx:TrackPointExtension>
            <gpxtpx:hr>155</gpxtpx:hr>
          </gpxtpx:TrackPointExtension>
        </extensions>
      </trkpt>
      <trkpt lat="38.83041219481052" lon="121.50491690324759">
        <ele>1.2556754043325782</ele>
        <time>2025-08-27T05:34:14Z</time>
        <extensions>
          <gpxtpx:TrackPointExtension>
            <gpxtpx:hr>155</gpxtpx:hr>
          </gpxtpx:TrackPointExtension>
        </extensions>
      </trkpt>
      <trkpt lat="38.83065501975381" lon="121.50513883809352">
        <ele>2.083195922896266</ele>
        <time>2025-08-27T05:34:25Z</time>
        <extensions>
          <gpxtpx:TrackPointExtension>
            <gpxtpx:hr>157</gpxtpx:hr>
          </gpxtpx:TrackPointExtension>
        </extensions>
      </trkpt>
      <trkpt lat="38.830761500124446" lon="121.50526327354785">
        <ele>2.467836234718561</ele>
        <time>2025-08-27T05:34:32Z</time>
        <extensions>
          <gpxtpx:TrackPointExtension>
            <gpxtpx:hr>156</gpxtpx:hr>
          </gpxtpx:TrackPointExtension>
        </extensions>
      </trkpt>
      <trkpt lat="38.83082258745019" lon="121.50530626705067">
        <ele>-0.0738105084747076</ele>
        <time>2025-08-27T05:34:35Z</time>
        <extensions>
          <gpxtpx:TrackPointExtension>
            <gpxtpx:hr>156</gpxtpx:hr>
          </gpxtpx:TrackPointExtension>
        </extensions>
      </trkpt>
      <trkpt lat="38.830979095282636" lon="121.50534143634188">
        <ele>1.9632480405271053</ele>
        <time>2025-08-27T05:34:40Z</time>
        <extensions>
          <gpxtpx:TrackPointExtension>
            <gpxtpx:hr>156</gpxtpx:hr>
          </gpxtpx:TrackPointExtension>
        </extensions>
      </trkpt>
      <trkpt lat="38.83126375810465" lon="121.50529811919809">
        <ele>2.910050367936492</ele>
        <time>2025-08-27T05:34:53Z</time>
        <extensions>
          <gpxtpx:TrackPointExtension>
            <gpxtpx:hr>156</gpxtpx:hr>
          </gpxtpx:TrackPointExtension>
        </extensions>
      </trkpt>
      <trkpt lat="38.83140338771185" lon="121.50531984887884">
        <ele>1.707623708061874</ele>
        <time>2025-08-27T05:34:58Z</time>
        <extensions>
          <gpxtpx:TrackPointExtension>
            <gpxtpx:hr>155</gpxtpx:hr>
          </gpxtpx:TrackPointExtension>
        </extensions>
      </trkpt>
      <trkpt lat="38.83156585568929" lon="121.50538757357812">
        <ele>2.450297954492271</ele>
        <time>2025-08-27T05:35:05Z</time>
        <extensions>
          <gpxtpx:TrackPointExtension>
            <gpxtpx:hr>155</gpxtpx:hr>
          </gpxtpx:TrackPointExtension>
        </extensions>
      </trkpt>
      <trkpt lat="38.83171009808044" lon="121.50549979252739">
        <ele>2.272107359021902</ele>
        <time>2025-08-27T05:35:12Z</time>
        <extensions>
          <gpxtpx:TrackPointExtension>
            <gpxtpx:hr>155</gpxtpx:hr>
          </gpxtpx:TrackPointExtension>
        </extensions>
      </trkpt>
      <trkpt lat="38.83182258503863" lon="121.50563326246329">
        <ele>1.971978492103517</ele>
        <time>2025-08-27T05:35:19Z</time>
      </trkpt>
      <trkpt lat="38.831967788083176" lon="121.50594403707993">
        <ele>2.3478872887790203</ele>
        <time>2025-08-27T05:35:32Z</time>
      </trkpt>
      <trkpt lat="38.83201698722283" lon="121.50611912161921">
        <ele>2.18702756986022</ele>
        <time>2025-08-27T05:35:37Z</time>
      </trkpt>
      <trkpt lat="38.832086349255825" lon="121.50625264884378">
        <ele>2.6163327544927597</ele>
        <time>2025-08-27T05:35:44Z</time>
      </trkpt>
      <trkpt lat="38.832193551158426" lon="121.50636750343179">
        <ele>2.4504412868991494</ele>
        <time>2025-08-27T05:35:49Z</time>
      </trkpt>
      <trkpt lat="38.83238577850893" lon="121.50649367265643">
        <ele>1.5743983425199986</ele>
        <time>2025-08-27T05:35:58Z</time>
      </trkpt>
      <trkpt lat="38.83259713717082" lon="121.5065262102097">
        <ele>2.163110558874905</ele>
        <time>2025-08-27T05:36:07Z</time>
      </trkpt>
      <trkpt lat="38.83273872200606" lon="121.50657502974799">
        <ele>2.066529154777527</ele>
        <time>2025-08-27T05:36:13Z</time>
      </trkpt>
      <trkpt lat="38.83280589987269" lon="121.5066197876519">
        <ele>1.8808492217212915</ele>
        <time>2025-08-27T05:36:20Z</time>
      </trkpt>
    </trkseg>
  </trk>
</gpx>