<?xml version="1.0" encoding="UTF-8"?>
<gpx xmlns="http://www.topografix.com/GPX/1/1" xmlns:gpxtpx="http://www.garmin.com/xmlschemas/TrackPointExtension/v1" xmlns:xsi="http://www.w3.org/2001/XMLSchema-instance" xsi:schemaLocation="http://www.topografix.com/GPX/1/1 http://www.topografix.com/GPX/1/1/gpx.xsd" version="1.1" creator="gpx.py -- https://github.com/tkrajina/gpxpy">
  <trk>
    <name>gpx from keep</name>
    <type>Run</type>
    <trkseg>
      <trkpt lat="38.836844694502226" lon="121.50467121409342">
        <ele>9.125555662438273</ele>
        <time>2026-08-09T01:25:43Z</time>
      </trkpt>
      <trkpt lat="38.83674618836069" lon="121.50496792712839">
        <ele>10.69732849765569</ele>
        <time>2026-08-09T01:25:58Z</time>
      </trkpt>
      <trkpt lat="38.836751556177816" lon="121.50503456036556">
        <ele>11.808297831565142</ele>
        <time>2026-08-09T01:26:01Z</time>
      </trkpt>
      <trkpt lat="38.83665684843287" lon="121.50520204681033">
        <ele>10.748779875226319</ele>
        <time>2026-08-09T01:26:10Z</time>
      </trkpt>
      <trkpt lat="38.83665066405876" lon="121.50527041869245">
        <ele>11.778424974530935</ele>
        <time>2026-08-09T01:26:13Z</time>
      </trkpt>
      <trkpt lat="38.83652413880244" lon="121.50563090103539">
        <ele>9.923384739086032</ele>
        <time>2026-08-09T01:26:31Z</time>
      </trkpt>
      <trkpt lat="38.836457171562614" lon="121.50582893918043">
        <ele>9.470036740414798</ele>
        <time>2026-08-09T01:26:40Z</time>
      </trkpt>
      <trkpt lat="38.83641620939377" lon="121.50588847079904">
        <ele>10.265985142439604</ele>
        <time>2026-08-09T01:26:43Z</time>
      </trkpt>
      <trkpt lat="38.83629660329847" lon="121.50624560372968">
        <ele>9.523744753561914</ele>
        <time>2026-08-09T01:26:58Z</time>
      </trkpt>
      <trkpt lat="38.836191488318576" lon="121.50658124628224">
        <ele>9.962510861456394</ele>
        <time>2026-08-09T01:27:13Z</time>
      </trkpt>
      <trkpt lat="38.83614475909475" lon="121.50671415193865">
        <ele>10.153912222012877</ele>
        <time>2026-08-09T01:27:19Z</time>
      </trkpt>
      <trkpt lat="38.83614680117123" lon="121.50679552387408">
        <ele>10.423285643570125</ele>
        <time>2026-08-09T01:27:25Z</time>
      </trkpt>
      <trkpt lat="38.83601736898272" lon="121.50713587588054">
        <ele>10.113943281583488</ele>
        <time>2026-08-09T01:27:39Z</time>
      </trkpt>
      <trkpt lat="38.83588776875806" lon="121.50752892224943">
        <ele>10.4089444456622</ele>
        <time>2026-08-09T01:27:55Z</time>
      </trkpt>
      <trkpt lat="38.83584098360588" lon="121.50760993560839">
        <ele>10.896664932370186</ele>
        <time>2026-08-09T01:27:59Z</time>
      </trkpt>
      <trkpt lat="38.83578731424235" lon="121.50780352307603">
        <ele>11.62007769010961</ele>
        <time>2026-08-09T01:28:07Z</time>
      </trkpt>
      <trkpt lat="38.83578291660812" lon="121.50791552348491">
        <ele>11.44843892659992</ele>
        <time>2026-08-09T01:28:11Z</time>
      </trkpt>
      <trkpt lat="38.835658993733404" lon="121.50816607721286">
        <ele>10.974115137010813</ele>
        <time>2026-08-09T01:28:21Z</time>
      </trkpt>
      <trkpt lat="38.835567073568214" lon="121.50850941313023">
        <ele>10.830850635655224</ele>
        <time>2026-08-09T01:28:36Z</time>
      </trkpt>
      <trkpt lat="38.83550282208829" lon="121.50865155528635">
        <ele>10.833422814495862</ele>
        <time>2026-08-09T01:28:42Z</time>
      </trkpt>
      <trkpt lat="38.835425736159706" lon="121.50895151129552">
        <ele>10.403708958067</ele>
        <time>2026-08-09T01:28:54Z</time>
      </trkpt>
      <trkpt lat="38.83535899634566" lon="121.50907756073829">
        <ele>9.60491644591093</ele>
        <time>2026-08-09T01:29:00Z</time>
      </trkpt>
      <trkpt lat="38.83529418671581" lon="121.50928234734849">
        <ele>10.663748117163777</ele>
        <time>2026-08-09T01:29:09Z</time>
      </trkpt>
      <trkpt lat="38.835324865193456" lon="121.50936183435567">
        <ele>11.08543011546135</ele>
        <time>2026-08-09T01:29:12Z</time>
      </trkpt>
      <trkpt lat="38.83543224510004" lon="121.50943615075627">
        <ele>9.339515422470868</ele>
        <time>2026-08-09T01:29:18Z</time>
      </trkpt>
      <trkpt lat="38.83547689341759" lon="121.50946703708671">
        <ele>9.054542319849133</ele>
        <time>2026-08-09T01:29:21Z</time>
      </trkpt>
      <trkpt lat="38.83557199186339" lon="121.5096248782261">
        <ele>10.017235134728253</ele>
        <time>2026-08-09T01:29:30Z</time>
      </trkpt>
      <trkpt lat="38.83562684928972" lon="121.50965719546413">
        <ele>9.640545958653092</ele>
        <time>2026-08-09T01:29:33Z</time>
      </trkpt>
      <trkpt lat="38.83573853561395" lon="121.50979423953062">
        <ele>10.373483155854046</ele>
        <time>2026-08-09T01:29:40Z</time>
      </trkpt>
      <trkpt lat="38.8359378547831" lon="121.50997272503234">
        <ele>10.816731619648635</ele>
        <time>2026-08-09T01:29:52Z</time>
      </trkpt>
      <trkpt lat="38.83599431449864" lon="121.51015809103735">
        <ele>10.552989901974797</ele>
        <time>2026-08-09T01:30:00Z</time>
      </trkpt>
      <trkpt lat="38.83612972822837" lon="121.5102133756703">
        <ele>9.497684218920767</ele>
        <time>2026-08-09T01:30:07Z</time>
      </trkpt>
      <trkpt lat="38.83615692081151" lon="121.51028153039566">
        <ele>9.315886017866433</ele>
        <time>2026-08-09T01:30:10Z</time>
      </trkpt>
      <trkpt lat="38.8361987145713" lon="121.51033494742363">
        <ele>9.755091627128422</ele>
        <time>2026-08-09T01:30:13Z</time>
      </trkpt>
      <trkpt lat="38.836203739512555" lon="121.51039401263415">
        <ele>9.295309172943234</ele>
        <time>2026-08-09T01:30:16Z</time>
      </trkpt>
      <trkpt lat="38.8362587932435" lon="121.51055330433331">
        <ele>9.104432467371225</ele>
        <time>2026-08-09T01:30:22Z</time>
      </trkpt>
      <trkpt lat="38.83621135574609" lon="121.51081126643317">
        <ele>9.134397367015481</ele>
        <time>2026-08-09T01:30:31Z</time>
      </trkpt>
      <trkpt lat="38.83606563745894" lon="121.51110553622706">
        <ele>9.230119532905519</ele>
        <time>2026-08-09T01:30:43Z</time>
      </trkpt>
      <trkpt lat="38.83598255515172" lon="121.51130392748004">
        <ele>8.325619294308126</ele>
        <time>2026-08-09T01:30:52Z</time>
      </trkpt>
      <trkpt lat="38.835969163281845" lon="121.51154272368022">
        <ele>9.041385409422219</ele>
        <time>2026-08-09T01:31:01Z</time>
      </trkpt>
      <trkpt lat="38.836038825232365" lon="121.51174907502818">
        <ele>7.263390334323049</ele>
        <time>2026-08-09T01:31:10Z</time>
      </trkpt>
      <trkpt lat="38.83611943817103" lon="121.511874804707">
        <ele>7.535846024751663</ele>
        <time>2026-08-09T01:31:16Z</time>
      </trkpt>
      <trkpt lat="38.83630904305852" lon="121.5119514584333">
        <ele>7.150706237182021</ele>
        <time>2026-08-09T01:31:25Z</time>
      </trkpt>
      <trkpt lat="38.836611494016324" lon="121.51185248083154">
        <ele>7.6114734169095755</ele>
        <time>2026-08-09T01:31:51Z</time>
      </trkpt>
      <trkpt lat="38.83680263168157" lon="121.51165999436887">
        <ele>9.08577867783606</ele>
        <time>2026-08-09T01:32:02Z</time>
      </trkpt>
      <trkpt lat="38.83688159567865" lon="121.51153790865399">
        <ele>8.987344738095999</ele>
        <time>2026-08-09T01:32:08Z</time>
      </trkpt>
      <trkpt lat="38.836904461798184" lon="121.51146570477424">
        <ele>9.840168596245348</ele>
        <time>2026-08-09T01:32:11Z</time>
      </trkpt>
      <trkpt lat="38.83698329306173" lon="121.51133284160387">
        <ele>8.466354846954346</ele>
        <time>2026-08-09T01:32:17Z</time>
      </trkpt>
      <trkpt lat="38.83704431836263" lon="121.51107487269482">
        <ele>9.059251171536744</ele>
        <time>2026-08-09T01:32:26Z</time>
      </trkpt>
      <trkpt lat="38.83705162285857" lon="121.51097781487313">
        <ele>9.645758671686053</ele>
        <time>2026-08-09T01:32:29Z</time>
      </trkpt>
      <trkpt lat="38.83701740435627" lon="121.51090278241095">
        <ele>9.675100079737604</ele>
        <time>2026-08-09T01:32:32Z</time>
      </trkpt>
      <trkpt lat="38.83695942449829" lon="121.51085969883712">
        <ele>9.560980734415352</ele>
        <time>2026-08-09T01:32:35Z</time>
      </trkpt>
      <trkpt lat="38.836897977819675" lon="121.51071255479017">
        <ele>9.778836028650403</ele>
        <time>2026-08-09T01:32:41Z</time>
      </trkpt>
      <trkpt lat="38.83680402163438" lon="121.51057213064566">
        <ele>10.13627664744854</ele>
        <time>2026-08-09T01:32:47Z</time>
      </trkpt>
      <trkpt lat="38.83667646515912" lon="121.51047362289398">
        <ele>9.013267002999783</ele>
        <time>2026-08-09T01:32:53Z</time>
      </trkpt>
      <trkpt lat="38.83660480509376" lon="121.51043912693595">
        <ele>9.948766330257058</ele>
        <time>2026-08-09T01:32:56Z</time>
      </trkpt>
      <trkpt lat="38.83651250777537" lon="121.51029827129378">
        <ele>9.786856291815639</ele>
        <time>2026-08-09T01:33:02Z</time>
      </trkpt>
      <trkpt lat="38.83647440806671" lon="121.5101333393438">
        <ele>9.021548472344875</ele>
        <time>2026-08-09T01:33:08Z</time>
      </trkpt>
      <trkpt lat="38.83648826591881" lon="121.51004929027553">
        <ele>8.829410571604967</ele>
        <time>2026-08-09T01:33:11Z</time>
      </trkpt>
      <trkpt lat="38.83653583038076" lon="121.50997952288206">
        <ele>8.73904673755169</ele>
        <time>2026-08-09T01:33:14Z</time>
      </trkpt>
      <trkpt lat="38.836788635964986" lon="121.50991609898058">
        <ele>9.591594108380377</ele>
        <time>2026-08-09T01:33:26Z</time>
      </trkpt>
      <trkpt lat="38.83694257096589" lon="121.50978444764812">
        <ele>10.186299324966967</ele>
        <time>2026-08-09T01:33:35Z</time>
      </trkpt>
      <trkpt lat="38.83701661878136" lon="121.50963994551391">
        <ele>10.868668692186475</ele>
        <time>2026-08-09T01:33:41Z</time>
      </trkpt>
      <trkpt lat="38.83705381599742" lon="121.50949565757217">
        <ele>11.2364069102332</ele>
        <time>2026-08-09T01:33:47Z</time>
      </trkpt>
      <trkpt lat="38.83711174242816" lon="121.50939945807258">
        <ele>10.539949556812644</ele>
        <time>2026-08-09T01:33:51Z</time>
      </trkpt>
      <trkpt lat="38.837174322112496" lon="121.50918478199424">
        <ele>10.914102175273001</ele>
        <time>2026-08-09T01:33:59Z</time>
      </trkpt>
      <trkpt lat="38.83734475650487" lon="121.50881250238322">
        <ele>11.67114632576704</ele>
        <time>2026-08-09T01:34:15Z</time>
      </trkpt>
      <trkpt lat="38.83742365649483" lon="121.5086879300376">
        <ele>11.174893584102392</ele>
        <time>2026-08-09T01:34:21Z</time>
      </trkpt>
      <trkpt lat="38.83746884319351" lon="121.50854988243124">
        <ele>11.892475944012403</ele>
        <time>2026-08-09T01:34:27Z</time>
      </trkpt>
      <trkpt lat="38.837525854152126" lon="121.50849560534563">
        <ele>11.53800642490387</ele>
        <time>2026-08-09T01:34:30Z</time>
      </trkpt>
      <trkpt lat="38.83760619527944" lon="121.50836650971868">
        <ele>11.389863644726574</ele>
        <time>2026-08-09T01:34:36Z</time>
      </trkpt>
      <trkpt lat="38.837624454276096" lon="121.50829214824016">
        <ele>12.04768633004278</ele>
        <time>2026-08-09T01:34:42Z</time>
      </trkpt>
      <trkpt lat="38.83750919169675" lon="121.50820467659325">
        <ele>11.054250407963991</ele>
        <time>2026-08-09T01:34:54Z</time>
      </trkpt>
      <trkpt lat="38.83746780588404" lon="121.50815375803718">
        <ele>11.560624561272562</ele>
        <time>2026-08-09T01:35:00Z</time>
      </trkpt>
      <trkpt lat="38.837402873296675" lon="121.50821982904186">
        <ele>9.982544846832752</ele>
        <time>2026-08-09T01:35:03Z</time>
      </trkpt>
      <trkpt lat="38.83736950968622" lon="121.50806568782069">
        <ele>10.722244479693472</ele>
        <time>2026-08-09T01:35:09Z</time>
      </trkpt>
      <trkpt lat="38.8373228615715" lon="121.50802609830161">
        <ele>10.227374899201095</ele>
        <time>2026-08-09T01:35:12Z</time>
      </trkpt>
      <trkpt lat="38.837266932571694" lon="121.50792764811743">
        <ele>9.550504114478827</ele>
        <time>2026-08-09T01:35:15Z</time>
      </trkpt>
      <trkpt lat="38.83720367265131" lon="121.5079103249348">
        <ele>9.246896659955382</ele>
        <time>2026-08-09T01:35:18Z</time>
      </trkpt>
      <trkpt lat="38.83694651962634" lon="121.50774822457907">
        <ele>11.420699902810156</ele>
        <time>2026-08-09T01:35:30Z</time>
      </trkpt>
      <trkpt lat="38.83684793033502" lon="121.50763937101121">
        <ele>11.548594393767416</ele>
        <time>2026-08-09T01:35:36Z</time>
      </trkpt>
      <trkpt lat="38.83671056642361" lon="121.50743403776377">
        <ele>12.685667113400996</ele>
        <time>2026-08-09T01:35:45Z</time>
      </trkpt>
      <trkpt lat="38.83650371893293" lon="121.50729279694512">
        <ele>12.99886851105839</ele>
        <time>2026-08-09T01:35:54Z</time>
      </trkpt>
      <trkpt lat="38.836255895394146" lon="121.50709412358714">
        <ele>11.724032919853926</ele>
        <time>2026-08-09T01:36:06Z</time>
      </trkpt>
      <trkpt lat="38.836125075977236" lon="121.50696558693532">
        <ele>10.877053732052445</ele>
        <time>2026-08-09T01:36:13Z</time>
      </trkpt>
      <trkpt lat="38.83607709285565" lon="121.50689768989511">
        <ele>10.072256359271705</ele>
        <time>2026-08-09T01:36:52Z</time>
      </trkpt>
      <trkpt lat="38.83610781512198" lon="121.50684599947249">
        <ele>8.982884541153908</ele>
        <time>2026-08-09T01:36:55Z</time>
      </trkpt>
      <trkpt lat="38.83618666205162" lon="121.5068005756765">
        <ele>11.270007981918752</ele>
        <time>2026-08-09T01:37:01Z</time>
      </trkpt>
      <trkpt lat="38.83628478187811" lon="121.5068842200767">
        <ele>10.016139637678862</ele>
        <time>2026-08-09T01:37:07Z</time>
      </trkpt>
      <trkpt lat="38.836534923809374" lon="121.50703676810242">
        <ele>10.481419689953327</ele>
        <time>2026-08-09T01:37:19Z</time>
      </trkpt>
      <trkpt lat="38.83661451843449" lon="121.50709724149152">
        <ele>11.400238994508982</ele>
        <time>2026-08-09T01:37:23Z</time>
      </trkpt>
      <trkpt lat="38.83667577699227" lon="121.50717612948061">
        <ele>10.561700840480626</ele>
        <time>2026-08-09T01:37:26Z</time>
      </trkpt>
      <trkpt lat="38.83673935743378" lon="121.50720036795607">
        <ele>11.251072079874575</ele>
        <time>2026-08-09T01:37:29Z</time>
      </trkpt>
      <trkpt lat="38.83683780358754" lon="121.5071139663893">
        <ele>10.52258269302547</ele>
        <time>2026-08-09T01:37:35Z</time>
      </trkpt>
      <trkpt lat="38.83695953402668" lon="121.50689224186488">
        <ele>10.857577954418957</ele>
        <time>2026-08-09T01:37:44Z</time>
      </trkpt>
      <trkpt lat="38.83713490219132" lon="121.50674505068106">
        <ele>11.058092437684536</ele>
        <time>2026-08-09T01:37:53Z</time>
      </trkpt>
      <trkpt lat="38.837187732439084" lon="121.5067279673716">
        <ele>10.624286629259586</ele>
        <time>2026-08-09T01:37:56Z</time>
      </trkpt>
      <trkpt lat="38.837294595896694" lon="121.50657631706957">
        <ele>12.394651329144835</ele>
        <time>2026-08-09T01:38:03Z</time>
      </trkpt>
      <trkpt lat="38.837342493286265" lon="121.50641929831211">
        <ele>11.196582735516131</ele>
        <time>2026-08-09T01:38:09Z</time>
      </trkpt>
      <trkpt lat="38.83734760950844" lon="121.50633716357434">
        <ele>12.163680091500282</ele>
        <time>2026-08-09T01:38:12Z</time>
      </trkpt>
      <trkpt lat="38.83742983424917" lon="121.50609519598929">
        <ele>11.893044391646981</ele>
        <time>2026-08-09T01:38:21Z</time>
      </trkpt>
      <trkpt lat="38.83758567106644" lon="121.50581477667284">
        <ele>10.694070260040462</ele>
        <time>2026-08-09T01:38:33Z</time>
      </trkpt>
      <trkpt lat="38.837639563974946" lon="121.5057553274959">
        <ele>10.430875200778246</ele>
        <time>2026-08-09T01:38:36Z</time>
      </trkpt>
      <trkpt lat="38.83781005570043" lon="121.50539531563265">
        <ele>10.507535080425441</ele>
        <time>2026-08-09T01:38:51Z</time>
      </trkpt>
      <trkpt lat="38.837944359881604" lon="121.50515723186066">
        <ele>9.115299880504608</ele>
        <time>2026-08-09T01:39:00Z</time>
      </trkpt>
      <trkpt lat="38.83784333360305" lon="121.50507360204809">
        <ele>11.18270526919514</ele>
        <time>2026-08-09T01:39:06Z</time>
      </trkpt>
      <trkpt lat="38.837793885041336" lon="121.50498543773817">
        <ele>11.291793028824031</ele>
        <time>2026-08-09T01:39:09Z</time>
      </trkpt>
      <trkpt lat="38.837786875717406" lon="121.50490246553619">
        <ele>9.530715520493686</ele>
        <time>2026-08-09T01:39:12Z</time>
      </trkpt>
      <trkpt lat="38.837687534559855" lon="121.50478963036183">
        <ele>10.18967913184315</ele>
        <time>2026-08-09T01:39:18Z</time>
      </trkpt>
      <trkpt lat="38.83750809007236" lon="121.50465642119943">
        <ele>10.004251717589796</ele>
        <time>2026-08-09T01:39:27Z</time>
      </trkpt>
      <trkpt lat="38.83737697685545" lon="121.50459505348387">
        <ele>10.1060154363513</ele>
        <time>2026-08-09T01:39:33Z</time>
      </trkpt>
      <trkpt lat="38.83732980510477" lon="121.50452609281136">
        <ele>9.516690786927938</ele>
        <time>2026-08-09T01:39:36Z</time>
      </trkpt>
      <trkpt lat="38.83711765766477" lon="121.50430769599369">
        <ele>8.748763161711395</ele>
        <time>2026-08-09T01:39:48Z</time>
      </trkpt>
      <trkpt lat="38.83703802248074" lon="121.50427224065444">
        <ele>10.39586785249412</ele>
        <time>2026-08-09T01:39:51Z</time>
      </trkpt>
      <trkpt lat="38.83696913877164" lon="121.50431377368295">
        <ele>10.737553276121616</ele>
        <time>2026-08-09T01:39:54Z</time>
      </trkpt>
      <trkpt lat="38.836863739322865" lon="121.50461855230512">
        <ele>9.828284395858645</ele>
        <time>2026-08-09T01:40:06Z</time>
      </trkpt>
      <trkpt lat="38.836840257997935" lon="121.50475009983006">
        <ele>10.312267661094666</ele>
        <time>2026-08-09T01:40:10Z</time>
      </trkpt>
      <trkpt lat="38.83669231653815" lon="121.50511320937237">
        <ele>9.797515652142465</ele>
        <time>2026-08-09T01:40:25Z</time>
      </trkpt>
      <trkpt lat="38.836645007228455" lon="121.50517560193855">
        <ele>9.493781039491296</ele>
        <time>2026-08-09T01:40:28Z</time>
      </trkpt>
      <trkpt lat="38.83652395037015" lon="121.5055403054657">
        <ele>9.690115534700453</ele>
        <time>2026-08-09T01:40:40Z</time>
      </trkpt>
      <trkpt lat="38.83643791766663" lon="121.50579731700063">
        <ele>9.628527972847223</ele>
        <time>2026-08-09T01:40:49Z</time>
      </trkpt>
      <trkpt lat="38.83640535708565" lon="121.50597735991755">
        <ele>9.692278657108545</ele>
        <time>2026-08-09T01:40:55Z</time>
      </trkpt>
      <trkpt lat="38.836350560816555" lon="121.50615161353208">
        <ele>9.917854746803641</ele>
        <time>2026-08-09T01:41:01Z</time>
      </trkpt>
      <trkpt lat="38.836350560816555" lon="121.50615161353208">
        <ele>9.917854746803641</ele>
        <time>2026-08-09T01:41:06Z</time>
      </trkpt>
    </trkseg>
  </trk>
</gpx>