<?xml version="1.0" encoding="UTF-8"?>
<gpx xmlns="http://www.topografix.com/GPX/1/1" xmlns:gpxtpx="http://www.garmin.com/xmlschemas/TrackPointExtension/v1" xmlns:xsi="http://www.w3.org/2001/XMLSchema-instance" xsi:schemaLocation="http://www.topografix.com/GPX/1/1 http://www.topografix.com/GPX/1/1/gpx.xsd" version="1.1" creator="gpx.py -- https://github.com/tkrajina/gpxpy">
  <trk>
    <name>gpx from keep</name>
    <type>Hiking</type>
    <trkseg>
      <trkpt lat="38.83665809084434" lon="121.51047270744643">
        <ele>8.740978688770443</ele>
        <time>2025-07-14T11:40:43Z</time>
        <extensions>
          <gpxtpx:TrackPointExtension>
            <gpxtpx:hr>78</gpxtpx:hr>
          </gpxtpx:TrackPointExtension>
        </extensions>
      </trkpt>
      <trkpt lat="38.836648627523566" lon="121.51057204266259">
        <ele>8.974882699549198</ele>
        <time>2025-07-14T11:40:51Z</time>
        <extensions>
          <gpxtpx:TrackPointExtension>
            <gpxtpx:hr>78</gpxtpx:hr>
          </gpxtpx:TrackPointExtension>
        </extensions>
      </trkpt>
      <trkpt lat="38.83674152840071" lon="121.51053760533775">
        <ele>8.736878176219761</ele>
        <time>2025-07-14T11:40:58Z</time>
        <extensions>
          <gpxtpx:TrackPointExtension>
            <gpxtpx:hr>159</gpxtpx:hr>
          </gpxtpx:TrackPointExtension>
        </extensions>
      </trkpt>
      <trkpt lat="38.836846243404224" lon="121.51060645633267">
        <ele>8.443061217665672</ele>
        <time>2025-07-14T11:41:11Z</time>
        <extensions>
          <gpxtpx:TrackPointExtension>
            <gpxtpx:hr>159</gpxtpx:hr>
          </gpxtpx:TrackPointExtension>
        </extensions>
      </trkpt>
      <trkpt lat="38.836896926523444" lon="121.5107395462193">
        <ele>7.899238837882876</ele>
        <time>2025-07-14T11:41:23Z</time>
      </trkpt>
      <trkpt lat="38.83698649932728" lon="121.51085724158828">
        <ele>8.84559844341129</ele>
        <time>2025-07-14T11:41:36Z</time>
      </trkpt>
      <trkpt lat="38.83703190332568" lon="121.51086740728917">
        <ele>8.190073374658823</ele>
        <time>2025-07-14T11:41:42Z</time>
      </trkpt>
      <trkpt lat="38.8372068385134" lon="121.51057440497291">
        <ele>8.817288492806256</ele>
        <time>2025-07-14T11:42:12Z</time>
      </trkpt>
      <trkpt lat="38.837277952929966" lon="121.510481193397">
        <ele>9.179898675531149</ele>
        <time>2025-07-14T11:42:24Z</time>
      </trkpt>
      <trkpt lat="38.83752958149249" lon="121.5102706968148">
        <ele>9.80185366049409</ele>
        <time>2025-07-14T11:42:55Z</time>
      </trkpt>
      <trkpt lat="38.837656242885416" lon="121.5101681451145">
        <ele>9.998130122199655</ele>
        <time>2025-07-14T11:43:11Z</time>
      </trkpt>
      <trkpt lat="38.83772486043861" lon="121.51001742182723">
        <ele>9.023703438229859</ele>
        <time>2025-07-14T11:43:27Z</time>
      </trkpt>
      <trkpt lat="38.83772747883963" lon="121.50993030014573">
        <ele>9.241255613975227</ele>
        <time>2025-07-14T11:43:35Z</time>
      </trkpt>
      <trkpt lat="38.83769466090127" lon="121.50984571854364">
        <ele>9.695455682463944</ele>
        <time>2025-07-14T11:43:43Z</time>
      </trkpt>
      <trkpt lat="38.83763442998574" lon="121.50979089202792">
        <ele>9.89595548901707</ele>
        <time>2025-07-14T11:43:51Z</time>
      </trkpt>
      <trkpt lat="38.83750043416127" lon="121.50977570377214">
        <ele>10.79919017944485</ele>
        <time>2025-07-14T11:44:04Z</time>
      </trkpt>
      <trkpt lat="38.83742022486379" lon="121.50970504486145">
        <ele>9.230519818142056</ele>
        <time>2025-07-14T11:44:16Z</time>
      </trkpt>
      <trkpt lat="38.8373506257804" lon="121.50957610712906">
        <ele>9.42865099105984</ele>
        <time>2025-07-14T11:44:28Z</time>
      </trkpt>
      <trkpt lat="38.837272375397816" lon="121.50942924274885">
        <ele>9.057509066537023</ele>
        <time>2025-07-14T11:44:43Z</time>
      </trkpt>
      <trkpt lat="38.8371615896061" lon="121.50941208345397">
        <ele>10.251027674414217</ele>
        <time>2025-07-14T11:44:55Z</time>
        <extensions>
          <gpxtpx:TrackPointExtension>
            <gpxtpx:hr>79</gpxtpx:hr>
          </gpxtpx:TrackPointExtension>
        </extensions>
      </trkpt>
      <trkpt lat="38.83711788858839" lon="121.50943088369068">
        <ele>10.17709399946034</ele>
        <time>2025-07-14T11:44:59Z</time>
        <extensions>
          <gpxtpx:TrackPointExtension>
            <gpxtpx:hr>79</gpxtpx:hr>
          </gpxtpx:TrackPointExtension>
        </extensions>
      </trkpt>
      <trkpt lat="38.8370784424219" lon="121.50948084952073">
        <ele>9.092475617304444</ele>
        <time>2025-07-14T11:45:05Z</time>
        <extensions>
          <gpxtpx:TrackPointExtension>
            <gpxtpx:hr>79</gpxtpx:hr>
          </gpxtpx:TrackPointExtension>
        </extensions>
      </trkpt>
      <trkpt lat="38.836978303636435" lon="121.50974827385613">
        <ele>9.026333658024669</ele>
        <time>2025-07-14T11:45:30Z</time>
        <extensions>
          <gpxtpx:TrackPointExtension>
            <gpxtpx:hr>80</gpxtpx:hr>
          </gpxtpx:TrackPointExtension>
        </extensions>
      </trkpt>
      <trkpt lat="38.836849579363175" lon="121.5098984569875">
        <ele>8.576874469406903</ele>
        <time>2025-07-14T11:45:48Z</time>
        <extensions>
          <gpxtpx:TrackPointExtension>
            <gpxtpx:hr>79</gpxtpx:hr>
          </gpxtpx:TrackPointExtension>
        </extensions>
      </trkpt>
      <trkpt lat="38.8367263720121" lon="121.50996582758508">
        <ele>8.472985190339386</ele>
        <time>2025-07-14T11:46:03Z</time>
        <extensions>
          <gpxtpx:TrackPointExtension>
            <gpxtpx:hr>78</gpxtpx:hr>
          </gpxtpx:TrackPointExtension>
        </extensions>
      </trkpt>
      <trkpt lat="38.83657167113369" lon="121.50995752169713">
        <ele>7.44068971183151</ele>
        <time>2025-07-14T11:46:21Z</time>
        <extensions>
          <gpxtpx:TrackPointExtension>
            <gpxtpx:hr>77</gpxtpx:hr>
          </gpxtpx:TrackPointExtension>
        </extensions>
      </trkpt>
      <trkpt lat="38.83652241457702" lon="121.50999946692369">
        <ele>7.31205565482378</ele>
        <time>2025-07-14T11:46:28Z</time>
        <extensions>
          <gpxtpx:TrackPointExtension>
            <gpxtpx:hr>78</gpxtpx:hr>
          </gpxtpx:TrackPointExtension>
        </extensions>
      </trkpt>
      <trkpt lat="38.83649596677827" lon="121.51005505501765">
        <ele>7.971441065892577</ele>
        <time>2025-07-14T11:46:33Z</time>
        <extensions>
          <gpxtpx:TrackPointExtension>
            <gpxtpx:hr>78</gpxtpx:hr>
          </gpxtpx:TrackPointExtension>
        </extensions>
      </trkpt>
      <trkpt lat="38.83648482424459" lon="121.5101340217856">
        <ele>7.594136321917176</ele>
        <time>2025-07-14T11:46:39Z</time>
        <extensions>
          <gpxtpx:TrackPointExtension>
            <gpxtpx:hr>78</gpxtpx:hr>
          </gpxtpx:TrackPointExtension>
        </extensions>
      </trkpt>
      <trkpt lat="38.836497258378564" lon="121.51021680202498">
        <ele>7.951317746192217</ele>
        <time>2025-07-14T11:46:48Z</time>
        <extensions>
          <gpxtpx:TrackPointExtension>
            <gpxtpx:hr>78</gpxtpx:hr>
          </gpxtpx:TrackPointExtension>
        </extensions>
      </trkpt>
      <trkpt lat="38.83654133937631" lon="121.51029348202395">
        <ele>7.97876145131886</ele>
        <time>2025-07-14T11:46:54Z</time>
        <extensions>
          <gpxtpx:TrackPointExtension>
            <gpxtpx:hr>78</gpxtpx:hr>
          </gpxtpx:TrackPointExtension>
        </extensions>
      </trkpt>
      <trkpt lat="38.83655230062394" lon="121.51035722476506">
        <ele>6.126890872605145</ele>
        <time>2025-07-14T11:47:00Z</time>
      </trkpt>
      <trkpt lat="38.83668758340375" lon="121.51047785016456">
        <ele>9.815476930700243</ele>
        <time>2025-07-14T11:47:16Z</time>
      </trkpt>
      <trkpt lat="38.83674987299679" lon="121.51050881699098">
        <ele>7.946354757994413</ele>
        <time>2025-07-14T11:47:25Z</time>
      </trkpt>
      <trkpt lat="38.836873890037126" lon="121.51065798710893">
        <ele>7.843577145598829</ele>
        <time>2025-07-14T11:47:46Z</time>
      </trkpt>
      <trkpt lat="38.83695864243432" lon="121.51082911426562">
        <ele>7.86836276948452</ele>
        <time>2025-07-14T11:48:05Z</time>
      </trkpt>
      <trkpt lat="38.83699576676507" lon="121.51087516244274">
        <ele>7.449568580836058</ele>
        <time>2025-07-14T11:48:10Z</time>
      </trkpt>
      <trkpt lat="38.8370485157668" lon="121.51086674485704">
        <ele>6.92481171246618</ele>
        <time>2025-07-14T11:48:16Z</time>
      </trkpt>
      <trkpt lat="38.83715535670622" lon="121.51064752640258">
        <ele>8.091201621107757</ele>
        <time>2025-07-14T11:48:40Z</time>
      </trkpt>
      <trkpt lat="38.83726511395852" lon="121.51048020543969">
        <ele>9.144076524302363</ele>
        <time>2025-07-14T11:49:01Z</time>
      </trkpt>
      <trkpt lat="38.83751900379784" lon="121.51025306512516">
        <ele>8.451310338452458</ele>
        <time>2025-07-14T11:49:35Z</time>
      </trkpt>
      <trkpt lat="38.83765834095022" lon="121.51013562551901">
        <ele>9.308031219989061</ele>
        <time>2025-07-14T11:49:53Z</time>
      </trkpt>
      <trkpt lat="38.837701739273186" lon="121.51007397409583">
        <ele>8.990818057209253</ele>
        <time>2025-07-14T11:49:59Z</time>
      </trkpt>
      <trkpt lat="38.837722923916374" lon="121.50999326582765">
        <ele>9.494890098460019</ele>
        <time>2025-07-14T11:50:05Z</time>
      </trkpt>
      <trkpt lat="38.83771922268178" lon="121.50992550116557">
        <ele>9.89404383674264</ele>
        <time>2025-07-14T11:50:11Z</time>
      </trkpt>
      <trkpt lat="38.837692442701524" lon="121.5098503468176">
        <ele>9.973083017393947</ele>
        <time>2025-07-14T11:50:17Z</time>
      </trkpt>
      <trkpt lat="38.83759012290628" lon="121.5097796136049">
        <ele>9.926016706041992</ele>
        <time>2025-07-14T11:50:29Z</time>
      </trkpt>
      <trkpt lat="38.83753829647489" lon="121.50979367428833">
        <ele>10.283143701963127</ele>
        <time>2025-07-14T11:50:35Z</time>
      </trkpt>
      <trkpt lat="38.837420126546775" lon="121.50973765710138">
        <ele>9.956305727362633</ele>
        <time>2025-07-14T11:50:50Z</time>
      </trkpt>
      <trkpt lat="38.83737355803972" lon="121.50960536118123">
        <ele>10.444053146988153</ele>
        <time>2025-07-14T11:51:02Z</time>
        <extensions>
          <gpxtpx:TrackPointExtension>
            <gpxtpx:hr>84</gpxtpx:hr>
          </gpxtpx:TrackPointExtension>
        </extensions>
      </trkpt>
      <trkpt lat="38.83732853966651" lon="121.5095475224977">
        <ele>9.705708286724985</ele>
        <time>2025-07-14T11:51:08Z</time>
        <extensions>
          <gpxtpx:TrackPointExtension>
            <gpxtpx:hr>84</gpxtpx:hr>
          </gpxtpx:TrackPointExtension>
        </extensions>
      </trkpt>
      <trkpt lat="38.837287730054626" lon="121.50944409853872">
        <ele>6.98501087166369</ele>
        <time>2025-07-14T11:51:15Z</time>
        <extensions>
          <gpxtpx:TrackPointExtension>
            <gpxtpx:hr>84</gpxtpx:hr>
          </gpxtpx:TrackPointExtension>
        </extensions>
      </trkpt>
      <trkpt lat="38.83722101009263" lon="121.50939724515723">
        <ele>9.271779581904411</ele>
        <time>2025-07-14T11:51:24Z</time>
        <extensions>
          <gpxtpx:TrackPointExtension>
            <gpxtpx:hr>84</gpxtpx:hr>
          </gpxtpx:TrackPointExtension>
        </extensions>
      </trkpt>
      <trkpt lat="38.837151513142715" lon="121.50939732663791">
        <ele>10.271094774827361</ele>
        <time>2025-07-14T11:51:33Z</time>
        <extensions>
          <gpxtpx:TrackPointExtension>
            <gpxtpx:hr>83</gpxtpx:hr>
          </gpxtpx:TrackPointExtension>
        </extensions>
      </trkpt>
      <trkpt lat="38.837072934607384" lon="121.50950904781608">
        <ele>9.923156504519284</ele>
        <time>2025-07-14T11:51:45Z</time>
        <extensions>
          <gpxtpx:TrackPointExtension>
            <gpxtpx:hr>83</gpxtpx:hr>
          </gpxtpx:TrackPointExtension>
        </extensions>
      </trkpt>
      <trkpt lat="38.83702922840729" lon="121.50967897554351">
        <ele>9.765383552759886</ele>
        <time>2025-07-14T11:52:00Z</time>
        <extensions>
          <gpxtpx:TrackPointExtension>
            <gpxtpx:hr>82</gpxtpx:hr>
          </gpxtpx:TrackPointExtension>
        </extensions>
      </trkpt>
      <trkpt lat="38.83682974366373" lon="121.50991922836609">
        <ele>8.382867792621255</ele>
        <time>2025-07-14T11:52:33Z</time>
        <extensions>
          <gpxtpx:TrackPointExtension>
            <gpxtpx:hr>82</gpxtpx:hr>
          </gpxtpx:TrackPointExtension>
        </extensions>
      </trkpt>
      <trkpt lat="38.83673155429" lon="121.5099580769083">
        <ele>8.03231908660382</ele>
        <time>2025-07-14T11:52:45Z</time>
        <extensions>
          <gpxtpx:TrackPointExtension>
            <gpxtpx:hr>80</gpxtpx:hr>
          </gpxtpx:TrackPointExtension>
        </extensions>
      </trkpt>
      <trkpt lat="38.83663002108502" lon="121.50995269356689">
        <ele>7.036709311418235</ele>
        <time>2025-07-14T11:52:57Z</time>
        <extensions>
          <gpxtpx:TrackPointExtension>
            <gpxtpx:hr>78</gpxtpx:hr>
          </gpxtpx:TrackPointExtension>
        </extensions>
      </trkpt>
      <trkpt lat="38.836531708533336" lon="121.50999718711554">
        <ele>7.297150141559541</ele>
        <time>2025-07-14T11:53:09Z</time>
        <extensions>
          <gpxtpx:TrackPointExtension>
            <gpxtpx:hr>80</gpxtpx:hr>
          </gpxtpx:TrackPointExtension>
        </extensions>
      </trkpt>
      <trkpt lat="38.83649017031277" lon="121.51006092793298">
        <ele>8.000367035157979</ele>
        <time>2025-07-14T11:53:15Z</time>
        <extensions>
          <gpxtpx:TrackPointExtension>
            <gpxtpx:hr>80</gpxtpx:hr>
          </gpxtpx:TrackPointExtension>
        </extensions>
      </trkpt>
      <trkpt lat="38.83647114044835" lon="121.51014647901695">
        <ele>7.8480257503688335</ele>
        <time>2025-07-14T11:53:22Z</time>
        <extensions>
          <gpxtpx:TrackPointExtension>
            <gpxtpx:hr>80</gpxtpx:hr>
          </gpxtpx:TrackPointExtension>
        </extensions>
      </trkpt>
      <trkpt lat="38.83651456036058" lon="121.51034133470993">
        <ele>7.431673369370401</ele>
        <time>2025-07-14T11:53:40Z</time>
        <extensions>
          <gpxtpx:TrackPointExtension>
            <gpxtpx:hr>83</gpxtpx:hr>
          </gpxtpx:TrackPointExtension>
        </extensions>
      </trkpt>
      <trkpt lat="38.836783643859604" lon="121.51056279398502">
        <ele>8.18758404161781</ele>
        <time>2025-07-14T11:54:16Z</time>
        <extensions>
          <gpxtpx:TrackPointExtension>
            <gpxtpx:hr>82</gpxtpx:hr>
          </gpxtpx:TrackPointExtension>
        </extensions>
      </trkpt>
      <trkpt lat="38.83687811197253" lon="121.51067382736883">
        <ele>7.1145203448832035</ele>
        <time>2025-07-14T11:54:31Z</time>
        <extensions>
          <gpxtpx:TrackPointExtension>
            <gpxtpx:hr>78</gpxtpx:hr>
          </gpxtpx:TrackPointExtension>
        </extensions>
      </trkpt>
      <trkpt lat="38.83697413032343" lon="121.51085770051593">
        <ele>6.93207976501435</ele>
        <time>2025-07-14T11:54:49Z</time>
        <extensions>
          <gpxtpx:TrackPointExtension>
            <gpxtpx:hr>83</gpxtpx:hr>
          </gpxtpx:TrackPointExtension>
        </extensions>
      </trkpt>
      <trkpt lat="38.837050727783506" lon="121.51087820861788">
        <ele>7.763666988350451</ele>
        <time>2025-07-14T11:54:55Z</time>
        <extensions>
          <gpxtpx:TrackPointExtension>
            <gpxtpx:hr>81</gpxtpx:hr>
          </gpxtpx:TrackPointExtension>
        </extensions>
      </trkpt>
      <trkpt lat="38.83712775239327" lon="121.5108288889876">
        <ele>8.361799794249237</ele>
        <time>2025-07-14T11:55:02Z</time>
        <extensions>
          <gpxtpx:TrackPointExtension>
            <gpxtpx:hr>81</gpxtpx:hr>
          </gpxtpx:TrackPointExtension>
        </extensions>
      </trkpt>
      <trkpt lat="38.837182345423464" lon="121.51060750560123">
        <ele>8.24639461375773</ele>
        <time>2025-07-14T11:55:23Z</time>
        <extensions>
          <gpxtpx:TrackPointExtension>
            <gpxtpx:hr>82</gpxtpx:hr>
          </gpxtpx:TrackPointExtension>
        </extensions>
      </trkpt>
      <trkpt lat="38.83740811844631" lon="121.51035189513718">
        <ele>9.529162277467549</ele>
        <time>2025-07-14T11:55:56Z</time>
        <extensions>
          <gpxtpx:TrackPointExtension>
            <gpxtpx:hr>83</gpxtpx:hr>
          </gpxtpx:TrackPointExtension>
        </extensions>
      </trkpt>
      <trkpt lat="38.83765362200834" lon="121.51015322873462">
        <ele>8.788364219479263</ele>
        <time>2025-07-14T11:56:29Z</time>
        <extensions>
          <gpxtpx:TrackPointExtension>
            <gpxtpx:hr>82</gpxtpx:hr>
          </gpxtpx:TrackPointExtension>
        </extensions>
      </trkpt>
      <trkpt lat="38.83771960870984" lon="121.51003778241957">
        <ele>8.991348213516176</ele>
        <time>2025-07-14T11:56:41Z</time>
        <extensions>
          <gpxtpx:TrackPointExtension>
            <gpxtpx:hr>81</gpxtpx:hr>
          </gpxtpx:TrackPointExtension>
        </extensions>
      </trkpt>
      <trkpt lat="38.837728029108035" lon="121.50996804313908">
        <ele>8.940234475769103</ele>
        <time>2025-07-14T11:56:47Z</time>
        <extensions>
          <gpxtpx:TrackPointExtension>
            <gpxtpx:hr>82</gpxtpx:hr>
          </gpxtpx:TrackPointExtension>
        </extensions>
      </trkpt>
      <trkpt lat="38.8377598834935" lon="121.50992463543147">
        <ele>9.007540619000793</ele>
        <time>2025-07-14T11:56:53Z</time>
        <extensions>
          <gpxtpx:TrackPointExtension>
            <gpxtpx:hr>82</gpxtpx:hr>
          </gpxtpx:TrackPointExtension>
        </extensions>
      </trkpt>
      <trkpt lat="38.8378186875126" lon="121.50991305729914">
        <ele>8.41013016551733</ele>
        <time>2025-07-14T11:56:59Z</time>
        <extensions>
          <gpxtpx:TrackPointExtension>
            <gpxtpx:hr>82</gpxtpx:hr>
          </gpxtpx:TrackPointExtension>
        </extensions>
      </trkpt>
      <trkpt lat="38.83789736687261" lon="121.509830882578">
        <ele>9.271693327464163</ele>
        <time>2025-07-14T11:57:08Z</time>
        <extensions>
          <gpxtpx:TrackPointExtension>
            <gpxtpx:hr>81</gpxtpx:hr>
          </gpxtpx:TrackPointExtension>
        </extensions>
      </trkpt>
      <trkpt lat="38.83793881455488" lon="121.50975167812902">
        <ele>8.750491324812174</ele>
        <time>2025-07-14T11:57:17Z</time>
        <extensions>
          <gpxtpx:TrackPointExtension>
            <gpxtpx:hr>81</gpxtpx:hr>
          </gpxtpx:TrackPointExtension>
        </extensions>
      </trkpt>
      <trkpt lat="38.83800264394943" lon="121.50945097630081">
        <ele>9.97934264689684</ele>
        <time>2025-07-14T11:57:42Z</time>
        <extensions>
          <gpxtpx:TrackPointExtension>
            <gpxtpx:hr>83</gpxtpx:hr>
          </gpxtpx:TrackPointExtension>
        </extensions>
      </trkpt>
      <trkpt lat="38.83809697387035" lon="121.50931770911575">
        <ele>9.462161428295076</ele>
        <time>2025-07-14T11:58:00Z</time>
        <extensions>
          <gpxtpx:TrackPointExtension>
            <gpxtpx:hr>80</gpxtpx:hr>
          </gpxtpx:TrackPointExtension>
        </extensions>
      </trkpt>
      <trkpt lat="38.83825045298834" lon="121.50922015107935">
        <ele>10.346498456783593</ele>
        <time>2025-07-14T11:58:22Z</time>
        <extensions>
          <gpxtpx:TrackPointExtension>
            <gpxtpx:hr>81</gpxtpx:hr>
          </gpxtpx:TrackPointExtension>
        </extensions>
      </trkpt>
      <trkpt lat="38.83828423619879" lon="121.50907511547241">
        <ele>9.865173792466521</ele>
        <time>2025-07-14T11:58:30Z</time>
        <extensions>
          <gpxtpx:TrackPointExtension>
            <gpxtpx:hr>82</gpxtpx:hr>
          </gpxtpx:TrackPointExtension>
        </extensions>
      </trkpt>
      <trkpt lat="38.83838088294371" lon="121.50900157329724">
        <ele>10.443386195227504</ele>
        <time>2025-07-14T11:58:42Z</time>
        <extensions>
          <gpxtpx:TrackPointExtension>
            <gpxtpx:hr>82</gpxtpx:hr>
          </gpxtpx:TrackPointExtension>
        </extensions>
      </trkpt>
      <trkpt lat="38.838212842731835" lon="121.50889574540903">
        <ele>9.601728724315763</ele>
        <time>2025-07-14T11:59:40Z</time>
        <extensions>
          <gpxtpx:TrackPointExtension>
            <gpxtpx:hr>84</gpxtpx:hr>
          </gpxtpx:TrackPointExtension>
        </extensions>
      </trkpt>
      <trkpt lat="38.838005746254666" lon="121.50868665066704">
        <ele>11.072963395155966</ele>
        <time>2025-07-14T12:00:08Z</time>
        <extensions>
          <gpxtpx:TrackPointExtension>
            <gpxtpx:hr>81</gpxtpx:hr>
          </gpxtpx:TrackPointExtension>
        </extensions>
      </trkpt>
      <trkpt lat="38.837797793549626" lon="121.50853063863877">
        <ele>9.351794494315982</ele>
        <time>2025-07-14T12:00:38Z</time>
        <extensions>
          <gpxtpx:TrackPointExtension>
            <gpxtpx:hr>82</gpxtpx:hr>
          </gpxtpx:TrackPointExtension>
        </extensions>
      </trkpt>
      <trkpt lat="38.837770511069216" lon="121.50847848327402">
        <ele>9.728228183463216</ele>
        <time>2025-07-14T12:00:44Z</time>
        <extensions>
          <gpxtpx:TrackPointExtension>
            <gpxtpx:hr>82</gpxtpx:hr>
          </gpxtpx:TrackPointExtension>
        </extensions>
      </trkpt>
      <trkpt lat="38.83771821246433" lon="121.50843718848246">
        <ele>10.491798803210258</ele>
        <time>2025-07-14T12:00:50Z</time>
        <extensions>
          <gpxtpx:TrackPointExtension>
            <gpxtpx:hr>83</gpxtpx:hr>
          </gpxtpx:TrackPointExtension>
        </extensions>
      </trkpt>
      <trkpt lat="38.837552624440065" lon="121.50823989801245">
        <ele>9.878583976067603</ele>
        <time>2025-07-14T12:01:14Z</time>
        <extensions>
          <gpxtpx:TrackPointExtension>
            <gpxtpx:hr>84</gpxtpx:hr>
          </gpxtpx:TrackPointExtension>
        </extensions>
      </trkpt>
      <trkpt lat="38.83756381521049" lon="121.50817141196318">
        <ele>9.50372795946896</ele>
        <time>2025-07-14T12:01:20Z</time>
        <extensions>
          <gpxtpx:TrackPointExtension>
            <gpxtpx:hr>83</gpxtpx:hr>
          </gpxtpx:TrackPointExtension>
        </extensions>
      </trkpt>
      <trkpt lat="38.83773396646266" lon="121.50792472544761">
        <ele>9.581237437203526</ele>
        <time>2025-07-14T12:01:45Z</time>
        <extensions>
          <gpxtpx:TrackPointExtension>
            <gpxtpx:hr>87</gpxtpx:hr>
          </gpxtpx:TrackPointExtension>
        </extensions>
      </trkpt>
      <trkpt lat="38.837766446426706" lon="121.50783814518292">
        <ele>8.75603994447738</ele>
        <time>2025-07-14T12:01:53Z</time>
        <extensions>
          <gpxtpx:TrackPointExtension>
            <gpxtpx:hr>87</gpxtpx:hr>
          </gpxtpx:TrackPointExtension>
        </extensions>
      </trkpt>
      <trkpt lat="38.83781678947496" lon="121.50779362508577">
        <ele>9.47592029068619</ele>
        <time>2025-07-14T12:02:00Z</time>
        <extensions>
          <gpxtpx:TrackPointExtension>
            <gpxtpx:hr>86</gpxtpx:hr>
          </gpxtpx:TrackPointExtension>
        </extensions>
      </trkpt>
      <trkpt lat="38.83794965037947" lon="121.50755484601322">
        <ele>9.327980366535485</ele>
        <time>2025-07-14T12:02:24Z</time>
        <extensions>
          <gpxtpx:TrackPointExtension>
            <gpxtpx:hr>85</gpxtpx:hr>
          </gpxtpx:TrackPointExtension>
        </extensions>
      </trkpt>
      <trkpt lat="38.83799262886282" lon="121.50743852604705">
        <ele>9.516684171743691</ele>
        <time>2025-07-14T12:02:36Z</time>
        <extensions>
          <gpxtpx:TrackPointExtension>
            <gpxtpx:hr>85</gpxtpx:hr>
          </gpxtpx:TrackPointExtension>
        </extensions>
      </trkpt>
      <trkpt lat="38.83805115911323" lon="121.50732755182526">
        <ele>9.135499608702958</ele>
        <time>2025-07-14T12:02:48Z</time>
        <extensions>
          <gpxtpx:TrackPointExtension>
            <gpxtpx:hr>84</gpxtpx:hr>
          </gpxtpx:TrackPointExtension>
        </extensions>
      </trkpt>
      <trkpt lat="38.83809965457245" lon="121.50727995013139">
        <ele>9.775393743999302</ele>
        <time>2025-07-14T12:02:54Z</time>
        <extensions>
          <gpxtpx:TrackPointExtension>
            <gpxtpx:hr>84</gpxtpx:hr>
          </gpxtpx:TrackPointExtension>
        </extensions>
      </trkpt>
      <trkpt lat="38.83817132325665" lon="121.50728437111962">
        <ele>9.531071733683348</ele>
        <time>2025-07-14T12:03:00Z</time>
        <extensions>
          <gpxtpx:TrackPointExtension>
            <gpxtpx:hr>83</gpxtpx:hr>
          </gpxtpx:TrackPointExtension>
        </extensions>
      </trkpt>
      <trkpt lat="38.8382141773133" lon="121.50726259560047">
        <ele>9.709610804915428</ele>
        <time>2025-07-14T12:03:06Z</time>
        <extensions>
          <gpxtpx:TrackPointExtension>
            <gpxtpx:hr>83</gpxtpx:hr>
          </gpxtpx:TrackPointExtension>
        </extensions>
      </trkpt>
      <trkpt lat="38.83827805386749" lon="121.50713533179915">
        <ele>10.239518978632987</ele>
        <time>2025-07-14T12:03:21Z</time>
        <extensions>
          <gpxtpx:TrackPointExtension>
            <gpxtpx:hr>83</gpxtpx:hr>
          </gpxtpx:TrackPointExtension>
        </extensions>
      </trkpt>
      <trkpt lat="38.83828057412593" lon="121.50705532009897">
        <ele>10.632685594260693</ele>
        <time>2025-07-14T12:03:27Z</time>
        <extensions>
          <gpxtpx:TrackPointExtension>
            <gpxtpx:hr>83</gpxtpx:hr>
          </gpxtpx:TrackPointExtension>
        </extensions>
      </trkpt>
      <trkpt lat="38.83832494801263" lon="121.50700977190671">
        <ele>10.23327120859176</ele>
        <time>2025-07-14T12:03:33Z</time>
        <extensions>
          <gpxtpx:TrackPointExtension>
            <gpxtpx:hr>83</gpxtpx:hr>
          </gpxtpx:TrackPointExtension>
        </extensions>
      </trkpt>
      <trkpt lat="38.83839488484309" lon="121.50698722854486">
        <ele>11.113546676002443</ele>
        <time>2025-07-14T12:03:39Z</time>
        <extensions>
          <gpxtpx:TrackPointExtension>
            <gpxtpx:hr>82</gpxtpx:hr>
          </gpxtpx:TrackPointExtension>
        </extensions>
      </trkpt>
      <trkpt lat="38.838423028593596" lon="121.50693744526923">
        <ele>10.015125240199268</ele>
        <time>2025-07-14T12:03:45Z</time>
        <extensions>
          <gpxtpx:TrackPointExtension>
            <gpxtpx:hr>82</gpxtpx:hr>
          </gpxtpx:TrackPointExtension>
        </extensions>
      </trkpt>
      <trkpt lat="38.83842896234199" lon="121.50683656282403">
        <ele>10.035316930152476</ele>
        <time>2025-07-14T12:03:52Z</time>
        <extensions>
          <gpxtpx:TrackPointExtension>
            <gpxtpx:hr>82</gpxtpx:hr>
          </gpxtpx:TrackPointExtension>
        </extensions>
      </trkpt>
      <trkpt lat="38.83848315834588" lon="121.50678180445867">
        <ele>10.856381205841899</ele>
        <time>2025-07-14T12:03:58Z</time>
        <extensions>
          <gpxtpx:TrackPointExtension>
            <gpxtpx:hr>82</gpxtpx:hr>
          </gpxtpx:TrackPointExtension>
        </extensions>
      </trkpt>
      <trkpt lat="38.83848385403223" lon="121.50670446285392">
        <ele>10.0385457361117</ele>
        <time>2025-07-14T12:04:04Z</time>
        <extensions>
          <gpxtpx:TrackPointExtension>
            <gpxtpx:hr>83</gpxtpx:hr>
          </gpxtpx:TrackPointExtension>
        </extensions>
      </trkpt>
      <trkpt lat="38.83851378090838" lon="121.50665451701818">
        <ele>10.718866555020213</ele>
        <time>2025-07-14T12:04:10Z</time>
        <extensions>
          <gpxtpx:TrackPointExtension>
            <gpxtpx:hr>83</gpxtpx:hr>
          </gpxtpx:TrackPointExtension>
        </extensions>
      </trkpt>
      <trkpt lat="38.838526107939984" lon="121.50659486579832">
        <ele>10.915319788269699</ele>
        <time>2025-07-14T12:04:16Z</time>
        <extensions>
          <gpxtpx:TrackPointExtension>
            <gpxtpx:hr>82</gpxtpx:hr>
          </gpxtpx:TrackPointExtension>
        </extensions>
      </trkpt>
      <trkpt lat="38.83864999627635" lon="121.5064289081928">
        <ele>11.271739282645285</ele>
        <time>2025-07-14T12:04:34Z</time>
        <extensions>
          <gpxtpx:TrackPointExtension>
            <gpxtpx:hr>84</gpxtpx:hr>
          </gpxtpx:TrackPointExtension>
        </extensions>
      </trkpt>
      <trkpt lat="38.83870365867839" lon="121.5064150239312">
        <ele>11.344905214384198</ele>
        <time>2025-07-14T12:04:37Z</time>
        <extensions>
          <gpxtpx:TrackPointExtension>
            <gpxtpx:hr>84</gpxtpx:hr>
          </gpxtpx:TrackPointExtension>
        </extensions>
      </trkpt>
      <trkpt lat="38.83870657061627" lon="121.50625458042167">
        <ele>11.582999122329056</ele>
        <time>2025-07-14T12:04:49Z</time>
        <extensions>
          <gpxtpx:TrackPointExtension>
            <gpxtpx:hr>83</gpxtpx:hr>
          </gpxtpx:TrackPointExtension>
        </extensions>
      </trkpt>
      <trkpt lat="38.83877827475186" lon="121.50605346714254">
        <ele>10.832465074956417</ele>
        <time>2025-07-14T12:05:07Z</time>
        <extensions>
          <gpxtpx:TrackPointExtension>
            <gpxtpx:hr>83</gpxtpx:hr>
          </gpxtpx:TrackPointExtension>
        </extensions>
      </trkpt>
      <trkpt lat="38.83884636377477" lon="121.50603922981493">
        <ele>10.907444597221911</ele>
        <time>2025-07-14T12:05:13Z</time>
        <extensions>
          <gpxtpx:TrackPointExtension>
            <gpxtpx:hr>83</gpxtpx:hr>
          </gpxtpx:TrackPointExtension>
        </extensions>
      </trkpt>
      <trkpt lat="38.83910946314619" lon="121.50614188998932">
        <ele>10.880763664841652</ele>
        <time>2025-07-14T12:05:34Z</time>
        <extensions>
          <gpxtpx:TrackPointExtension>
            <gpxtpx:hr>84</gpxtpx:hr>
          </gpxtpx:TrackPointExtension>
        </extensions>
      </trkpt>
      <trkpt lat="38.839235123718986" lon="121.50618199930832">
        <ele>10.985798810608685</ele>
        <time>2025-07-14T12:05:46Z</time>
        <extensions>
          <gpxtpx:TrackPointExtension>
            <gpxtpx:hr>84</gpxtpx:hr>
          </gpxtpx:TrackPointExtension>
        </extensions>
      </trkpt>
      <trkpt lat="38.839275152122326" lon="121.50622739439088">
        <ele>11.915835206396878</ele>
        <time>2025-07-14T12:05:52Z</time>
        <extensions>
          <gpxtpx:TrackPointExtension>
            <gpxtpx:hr>84</gpxtpx:hr>
          </gpxtpx:TrackPointExtension>
        </extensions>
      </trkpt>
      <trkpt lat="38.839466644945844" lon="121.50629753956383">
        <ele>11.237432844005525</ele>
        <time>2025-07-14T12:06:12Z</time>
        <extensions>
          <gpxtpx:TrackPointExtension>
            <gpxtpx:hr>84</gpxtpx:hr>
          </gpxtpx:TrackPointExtension>
        </extensions>
      </trkpt>
      <trkpt lat="38.839553991542346" lon="121.50640450916403">
        <ele>11.5029785791412</ele>
        <time>2025-07-14T12:06:24Z</time>
        <extensions>
          <gpxtpx:TrackPointExtension>
            <gpxtpx:hr>84</gpxtpx:hr>
          </gpxtpx:TrackPointExtension>
        </extensions>
      </trkpt>
      <trkpt lat="38.839676682382844" lon="121.50647635710017">
        <ele>12.40344983432442</ele>
        <time>2025-07-14T12:06:39Z</time>
        <extensions>
          <gpxtpx:TrackPointExtension>
            <gpxtpx:hr>84</gpxtpx:hr>
          </gpxtpx:TrackPointExtension>
        </extensions>
      </trkpt>
      <trkpt lat="38.83975663552014" lon="121.50658171304224">
        <ele>11.55390559323132</ele>
        <time>2025-07-14T12:06:51Z</time>
        <extensions>
          <gpxtpx:TrackPointExtension>
            <gpxtpx:hr>85</gpxtpx:hr>
          </gpxtpx:TrackPointExtension>
        </extensions>
      </trkpt>
      <trkpt lat="38.83979702649966" lon="121.5065446100952">
        <ele>11.803170240484178</ele>
        <time>2025-07-14T12:06:57Z</time>
        <extensions>
          <gpxtpx:TrackPointExtension>
            <gpxtpx:hr>84</gpxtpx:hr>
          </gpxtpx:TrackPointExtension>
        </extensions>
      </trkpt>
      <trkpt lat="38.839815036405625" lon="121.50647064408274">
        <ele>12.981067780405283</ele>
        <time>2025-07-14T12:07:06Z</time>
        <extensions>
          <gpxtpx:TrackPointExtension>
            <gpxtpx:hr>84</gpxtpx:hr>
          </gpxtpx:TrackPointExtension>
        </extensions>
      </trkpt>
      <trkpt lat="38.83979780223505" lon="121.50653050350716">
        <ele>14.118743929080665</ele>
        <time>2025-07-14T12:07:18Z</time>
        <extensions>
          <gpxtpx:TrackPointExtension>
            <gpxtpx:hr>84</gpxtpx:hr>
          </gpxtpx:TrackPointExtension>
        </extensions>
      </trkpt>
      <trkpt lat="38.83975274356921" lon="121.50654655660827">
        <ele>12.811570605263114</ele>
        <time>2025-07-14T12:07:21Z</time>
        <extensions>
          <gpxtpx:TrackPointExtension>
            <gpxtpx:hr>87</gpxtpx:hr>
          </gpxtpx:TrackPointExtension>
        </extensions>
      </trkpt>
      <trkpt lat="38.839649719525724" lon="121.50652469232897">
        <ele>12.072387255728245</ele>
        <time>2025-07-14T12:07:33Z</time>
        <extensions>
          <gpxtpx:TrackPointExtension>
            <gpxtpx:hr>87</gpxtpx:hr>
          </gpxtpx:TrackPointExtension>
        </extensions>
      </trkpt>
      <trkpt lat="38.839607178704455" lon="121.50647664325106">
        <ele>11.924082066863775</ele>
        <time>2025-07-14T12:07:39Z</time>
        <extensions>
          <gpxtpx:TrackPointExtension>
            <gpxtpx:hr>86</gpxtpx:hr>
          </gpxtpx:TrackPointExtension>
        </extensions>
      </trkpt>
      <trkpt lat="38.839580449649326" lon="121.5064117807499">
        <ele>11.380370969884098</ele>
        <time>2025-07-14T12:07:45Z</time>
        <extensions>
          <gpxtpx:TrackPointExtension>
            <gpxtpx:hr>85</gpxtpx:hr>
          </gpxtpx:TrackPointExtension>
        </extensions>
      </trkpt>
      <trkpt lat="38.83949209231894" lon="121.50632458711827">
        <ele>11.319680917076766</ele>
        <time>2025-07-14T12:07:57Z</time>
        <extensions>
          <gpxtpx:TrackPointExtension>
            <gpxtpx:hr>85</gpxtpx:hr>
          </gpxtpx:TrackPointExtension>
        </extensions>
      </trkpt>
      <trkpt lat="38.839424884539774" lon="121.5062920980085">
        <ele>12.007799117825925</ele>
        <time>2025-07-14T12:08:04Z</time>
        <extensions>
          <gpxtpx:TrackPointExtension>
            <gpxtpx:hr>84</gpxtpx:hr>
          </gpxtpx:TrackPointExtension>
        </extensions>
      </trkpt>
      <trkpt lat="38.839370924238295" lon="121.50623747433225">
        <ele>12.338731692172587</ele>
        <time>2025-07-14T12:08:11Z</time>
        <extensions>
          <gpxtpx:TrackPointExtension>
            <gpxtpx:hr>84</gpxtpx:hr>
          </gpxtpx:TrackPointExtension>
        </extensions>
      </trkpt>
      <trkpt lat="38.83927707484136" lon="121.50619327400486">
        <ele>10.93051437381655</ele>
        <time>2025-07-14T12:08:24Z</time>
        <extensions>
          <gpxtpx:TrackPointExtension>
            <gpxtpx:hr>85</gpxtpx:hr>
          </gpxtpx:TrackPointExtension>
        </extensions>
      </trkpt>
      <trkpt lat="38.83922756439664" lon="121.50613352900588">
        <ele>11.778681827709079</ele>
        <time>2025-07-14T12:08:30Z</time>
        <extensions>
          <gpxtpx:TrackPointExtension>
            <gpxtpx:hr>85</gpxtpx:hr>
          </gpxtpx:TrackPointExtension>
        </extensions>
      </trkpt>
      <trkpt lat="38.83910995830039" lon="121.50608240829372">
        <ele>10.60936981625855</ele>
        <time>2025-07-14T12:08:43Z</time>
        <extensions>
          <gpxtpx:TrackPointExtension>
            <gpxtpx:hr>84</gpxtpx:hr>
          </gpxtpx:TrackPointExtension>
        </extensions>
      </trkpt>
      <trkpt lat="38.83894921598635" lon="121.50594049039633">
        <ele>10.021778387017548</ele>
        <time>2025-07-14T12:09:04Z</time>
        <extensions>
          <gpxtpx:TrackPointExtension>
            <gpxtpx:hr>85</gpxtpx:hr>
          </gpxtpx:TrackPointExtension>
        </extensions>
      </trkpt>
      <trkpt lat="38.83890951996039" lon="121.505870132458">
        <ele>9.948846135288477</ele>
        <time>2025-07-14T12:09:10Z</time>
        <extensions>
          <gpxtpx:TrackPointExtension>
            <gpxtpx:hr>84</gpxtpx:hr>
          </gpxtpx:TrackPointExtension>
        </extensions>
      </trkpt>
      <trkpt lat="38.8386444277608" lon="121.50564778087939">
        <ele>10.128489431925118</ele>
        <time>2025-07-14T12:09:40Z</time>
        <extensions>
          <gpxtpx:TrackPointExtension>
            <gpxtpx:hr>86</gpxtpx:hr>
          </gpxtpx:TrackPointExtension>
        </extensions>
      </trkpt>
      <trkpt lat="38.83837801398828" lon="121.50541113168016">
        <ele>10.13762440904975</ele>
        <time>2025-07-14T12:10:11Z</time>
        <extensions>
          <gpxtpx:TrackPointExtension>
            <gpxtpx:hr>86</gpxtpx:hr>
          </gpxtpx:TrackPointExtension>
        </extensions>
      </trkpt>
      <trkpt lat="38.83827440214991" lon="121.5052936234307">
        <ele>9.680897092446685</ele>
        <time>2025-07-14T12:10:23Z</time>
        <extensions>
          <gpxtpx:TrackPointExtension>
            <gpxtpx:hr>86</gpxtpx:hr>
          </gpxtpx:TrackPointExtension>
        </extensions>
      </trkpt>
      <trkpt lat="38.83809364355216" lon="121.50509514984178">
        <ele>9.466159016825259</ele>
        <time>2025-07-14T12:10:47Z</time>
        <extensions>
          <gpxtpx:TrackPointExtension>
            <gpxtpx:hr>87</gpxtpx:hr>
          </gpxtpx:TrackPointExtension>
        </extensions>
      </trkpt>
      <trkpt lat="38.83803796910618" lon="121.50506978418859">
        <ele>9.752697536721826</ele>
        <time>2025-07-14T12:10:53Z</time>
        <extensions>
          <gpxtpx:TrackPointExtension>
            <gpxtpx:hr>86</gpxtpx:hr>
          </gpxtpx:TrackPointExtension>
        </extensions>
      </trkpt>
      <trkpt lat="38.838002872510295" lon="121.50502061791951">
        <ele>8.953422982245684</ele>
        <time>2025-07-14T12:10:59Z</time>
        <extensions>
          <gpxtpx:TrackPointExtension>
            <gpxtpx:hr>85</gpxtpx:hr>
          </gpxtpx:TrackPointExtension>
        </extensions>
      </trkpt>
      <trkpt lat="38.83795053049101" lon="121.50500055158189">
        <ele>9.197678945027292</ele>
        <time>2025-07-14T12:11:05Z</time>
        <extensions>
          <gpxtpx:TrackPointExtension>
            <gpxtpx:hr>85</gpxtpx:hr>
          </gpxtpx:TrackPointExtension>
        </extensions>
      </trkpt>
      <trkpt lat="38.83787734702358" lon="121.50488988813078">
        <ele>9.01225396618247</ele>
        <time>2025-07-14T12:11:17Z</time>
        <extensions>
          <gpxtpx:TrackPointExtension>
            <gpxtpx:hr>87</gpxtpx:hr>
          </gpxtpx:TrackPointExtension>
        </extensions>
      </trkpt>
      <trkpt lat="38.83775660545199" lon="121.50478308687323">
        <ele>8.446476743556559</ele>
        <time>2025-07-14T12:11:29Z</time>
        <extensions>
          <gpxtpx:TrackPointExtension>
            <gpxtpx:hr>86</gpxtpx:hr>
          </gpxtpx:TrackPointExtension>
        </extensions>
      </trkpt>
      <trkpt lat="38.83764600809088" lon="121.50471220554488">
        <ele>8.473996852524579</ele>
        <time>2025-07-14T12:11:41Z</time>
        <extensions>
          <gpxtpx:TrackPointExtension>
            <gpxtpx:hr>86</gpxtpx:hr>
          </gpxtpx:TrackPointExtension>
        </extensions>
      </trkpt>
      <trkpt lat="38.83752756868148" lon="121.50450238132989">
        <ele>8.315390611998737</ele>
        <time>2025-07-14T12:11:59Z</time>
        <extensions>
          <gpxtpx:TrackPointExtension>
            <gpxtpx:hr>85</gpxtpx:hr>
          </gpxtpx:TrackPointExtension>
        </extensions>
      </trkpt>
      <trkpt lat="38.83751466663164" lon="121.50443837649051">
        <ele>10.38858247641474</ele>
        <time>2025-07-14T12:12:08Z</time>
        <extensions>
          <gpxtpx:TrackPointExtension>
            <gpxtpx:hr>85</gpxtpx:hr>
          </gpxtpx:TrackPointExtension>
        </extensions>
      </trkpt>
      <trkpt lat="38.83764147447419" lon="121.50439417930087">
        <ele>7.816584916785359</ele>
        <time>2025-07-14T12:12:23Z</time>
        <extensions>
          <gpxtpx:TrackPointExtension>
            <gpxtpx:hr>87</gpxtpx:hr>
          </gpxtpx:TrackPointExtension>
        </extensions>
      </trkpt>
      <trkpt lat="38.83775694384252" lon="121.50430742146017">
        <ele>8.391601313836873</ele>
        <time>2025-07-14T12:12:36Z</time>
        <extensions>
          <gpxtpx:TrackPointExtension>
            <gpxtpx:hr>86</gpxtpx:hr>
          </gpxtpx:TrackPointExtension>
        </extensions>
      </trkpt>
      <trkpt lat="38.83780785983909" lon="121.50429174033884">
        <ele>9.511094206012785</ele>
        <time>2025-07-14T12:12:39Z</time>
        <extensions>
          <gpxtpx:TrackPointExtension>
            <gpxtpx:hr>86</gpxtpx:hr>
          </gpxtpx:TrackPointExtension>
        </extensions>
      </trkpt>
      <trkpt lat="38.83786760983703" lon="121.50431642082827">
        <ele>8.989529867656529</ele>
        <time>2025-07-14T12:12:45Z</time>
        <extensions>
          <gpxtpx:TrackPointExtension>
            <gpxtpx:hr>86</gpxtpx:hr>
          </gpxtpx:TrackPointExtension>
        </extensions>
      </trkpt>
      <trkpt lat="38.83790198891792" lon="121.50424579309515">
        <ele>9.48515919689089</ele>
        <time>2025-07-14T12:12:51Z</time>
        <extensions>
          <gpxtpx:TrackPointExtension>
            <gpxtpx:hr>86</gpxtpx:hr>
          </gpxtpx:TrackPointExtension>
        </extensions>
      </trkpt>
      <trkpt lat="38.83801742328873" lon="121.50422034456741">
        <ele>8.63705663383007</ele>
        <time>2025-07-14T12:13:03Z</time>
        <extensions>
          <gpxtpx:TrackPointExtension>
            <gpxtpx:hr>86</gpxtpx:hr>
          </gpxtpx:TrackPointExtension>
        </extensions>
      </trkpt>
      <trkpt lat="38.838095086911245" lon="121.5042347461822">
        <ele>9.197528587654233</ele>
        <time>2025-07-14T12:13:09Z</time>
        <extensions>
          <gpxtpx:TrackPointExtension>
            <gpxtpx:hr>85</gpxtpx:hr>
          </gpxtpx:TrackPointExtension>
        </extensions>
      </trkpt>
      <trkpt lat="38.83815892078966" lon="121.50427928150621">
        <ele>9.521649001166224</ele>
        <time>2025-07-14T12:13:21Z</time>
        <extensions>
          <gpxtpx:TrackPointExtension>
            <gpxtpx:hr>85</gpxtpx:hr>
          </gpxtpx:TrackPointExtension>
        </extensions>
      </trkpt>
    </trkseg>
  </trk>
</gpx>