<?xml version="1.0" encoding="UTF-8"?>
<gpx xmlns="http://www.topografix.com/GPX/1/1" xmlns:gpxtpx="http://www.garmin.com/xmlschemas/TrackPointExtension/v1" xmlns:xsi="http://www.w3.org/2001/XMLSchema-instance" xsi:schemaLocation="http://www.topografix.com/GPX/1/1 http://www.topografix.com/GPX/1/1/gpx.xsd" version="1.1" creator="gpx.py -- https://github.com/tkrajina/gpxpy">
  <trk>
    <name>gpx from keep</name>
    <type>Run</type>
    <trkseg>
      <trkpt lat="39.76049820105322" lon="117.78662576103582">
        <ele>5.256242064310613</ele>
        <time>2026-02-27T15:13:35Z</time>
      </trkpt>
      <trkpt lat="39.760628779442854" lon="117.7866543728255">
        <ele>4.086352354846895</ele>
        <time>2026-02-27T15:13:46Z</time>
      </trkpt>
      <trkpt lat="39.76093828397844" lon="117.78664123994112">
        <ele>4.00968053471297</ele>
        <time>2026-02-27T15:14:02Z</time>
      </trkpt>
      <trkpt lat="39.76125961730803" lon="117.78666903857727">
        <ele>5.224754257127643</ele>
        <time>2026-02-27T15:14:18Z</time>
      </trkpt>
      <trkpt lat="39.76142415283317" lon="117.78664647085333">
        <ele>6.510816612280905</ele>
        <time>2026-02-27T15:14:25Z</time>
      </trkpt>
      <trkpt lat="39.76159609010806" lon="117.7866722138872">
        <ele>5.648035611025989</ele>
        <time>2026-02-27T15:14:29Z</time>
      </trkpt>
      <trkpt lat="39.76184573366903" lon="117.78663914533034">
        <ele>3.4856928614899516</ele>
        <time>2026-02-27T15:14:49Z</time>
      </trkpt>
      <trkpt lat="39.762148907270095" lon="117.78664278203512">
        <ele>4.0959013141691685</ele>
        <time>2026-02-27T15:15:04Z</time>
      </trkpt>
      <trkpt lat="39.76221121565829" lon="117.78663952456056">
        <ele>3.0161070516332984</ele>
        <time>2026-02-27T15:15:07Z</time>
      </trkpt>
      <trkpt lat="39.762274557357095" lon="117.78672548214922">
        <ele>-0.015683462843298912</ele>
        <time>2026-02-27T15:15:13Z</time>
      </trkpt>
      <trkpt lat="39.762321053461555" lon="117.786826133448">
        <ele>-1.7332852855324745</ele>
        <time>2026-02-27T15:15:19Z</time>
      </trkpt>
      <trkpt lat="39.76229823350638" lon="117.78706598124316">
        <ele>2.755414981395006</ele>
        <time>2026-02-27T15:15:28Z</time>
      </trkpt>
      <trkpt lat="39.76231990277158" lon="117.78720080341868">
        <ele>2.3306332817301154</ele>
        <time>2026-02-27T15:15:34Z</time>
      </trkpt>
      <trkpt lat="39.76236056410737" lon="117.78725476367437">
        <ele>3.6355433017015457</ele>
        <time>2026-02-27T15:15:37Z</time>
      </trkpt>
      <trkpt lat="39.76241909816936" lon="117.78725988609081">
        <ele>4.171754312701523</ele>
        <time>2026-02-27T15:15:40Z</time>
      </trkpt>
      <trkpt lat="39.76246136403778" lon="117.787298089803">
        <ele>4.132792700082064</ele>
        <time>2026-02-27T15:15:43Z</time>
      </trkpt>
      <trkpt lat="39.7624720714157" lon="117.78764302665316">
        <ele>2.9114979580044746</ele>
        <time>2026-02-27T15:15:56Z</time>
      </trkpt>
      <trkpt lat="39.76246102922941" lon="117.78772823073561">
        <ele>1.6636587092652917</ele>
        <time>2026-02-27T15:15:59Z</time>
      </trkpt>
      <trkpt lat="39.762357801555204" lon="117.78778337389247">
        <ele>0.6544751720502973</ele>
        <time>2026-02-27T15:16:05Z</time>
      </trkpt>
      <trkpt lat="39.76229590741825" lon="117.78776435275365">
        <ele>1.625497167930007</ele>
        <time>2026-02-27T15:16:08Z</time>
      </trkpt>
      <trkpt lat="39.76224439422466" lon="117.78772379055304">
        <ele>1.8146773464977741</ele>
        <time>2026-02-27T15:16:11Z</time>
      </trkpt>
      <trkpt lat="39.762230978976476" lon="117.78755339605287">
        <ele>2.8316304869949818</ele>
        <time>2026-02-27T15:16:17Z</time>
      </trkpt>
      <trkpt lat="39.76227248171298" lon="117.78740574275169">
        <ele>3.0877189552411437</ele>
        <time>2026-02-27T15:16:29Z</time>
      </trkpt>
      <trkpt lat="39.76230833113766" lon="117.78734250212194">
        <ele>2.1826910860836506</ele>
        <time>2026-02-27T15:16:35Z</time>
      </trkpt>
      <trkpt lat="39.762319263801785" lon="117.78727439344847">
        <ele>2.066115604713559</ele>
        <time>2026-02-27T15:16:38Z</time>
      </trkpt>
      <trkpt lat="39.762304660729235" lon="117.78721130564305">
        <ele>3.0823639472946525</ele>
        <time>2026-02-27T15:16:41Z</time>
      </trkpt>
      <trkpt lat="39.76232670397994" lon="117.78704387775129">
        <ele>1.9635316766798496</ele>
        <time>2026-02-27T15:16:47Z</time>
      </trkpt>
      <trkpt lat="39.76232062350221" lon="117.78681675906046">
        <ele>0.7136853560805321</ele>
        <time>2026-02-27T15:16:56Z</time>
      </trkpt>
      <trkpt lat="39.762175061002154" lon="117.78664221190652">
        <ele>0.9810121264308691</ele>
        <time>2026-02-27T15:17:05Z</time>
      </trkpt>
      <trkpt lat="39.76204081131247" lon="117.78666346802449">
        <ele>1.8589238366112113</ele>
        <time>2026-02-27T15:17:11Z</time>
      </trkpt>
      <trkpt lat="39.761756389672925" lon="117.78666697180525">
        <ele>3.0521780969575047</ele>
        <time>2026-02-27T15:17:26Z</time>
      </trkpt>
      <trkpt lat="39.76152387302494" lon="117.78669751201038">
        <ele>2.130567191168666</ele>
        <time>2026-02-27T15:17:38Z</time>
      </trkpt>
      <trkpt lat="39.76146476759357" lon="117.78668740465798">
        <ele>2.2638719025999308</ele>
        <time>2026-02-27T15:17:41Z</time>
      </trkpt>
      <trkpt lat="39.761414650159615" lon="117.78664904914875">
        <ele>4.113455417566001</ele>
        <time>2026-02-27T15:17:44Z</time>
      </trkpt>
      <trkpt lat="39.76127840343162" lon="117.78664469793337">
        <ele>5.796911342069507</ele>
        <time>2026-02-27T15:17:50Z</time>
      </trkpt>
      <trkpt lat="39.761180144990604" lon="117.78658864049561">
        <ele>5.088124081492424</ele>
        <time>2026-02-27T15:17:54Z</time>
      </trkpt>
      <trkpt lat="39.76098472232008" lon="117.78657637949034">
        <ele>6.584194569848478</ele>
        <time>2026-02-27T15:17:58Z</time>
      </trkpt>
      <trkpt lat="39.76094385782526" lon="117.78663058321855">
        <ele>2.8261613501235843</ele>
        <time>2026-02-27T15:18:05Z</time>
      </trkpt>
      <trkpt lat="39.76060053405021" lon="117.78663357389962">
        <ele>1.8752773040905595</ele>
        <time>2026-02-27T15:18:20Z</time>
      </trkpt>
      <trkpt lat="39.760334354853846" lon="117.78661243733455">
        <ele>1.5239051189273596</ele>
        <time>2026-02-27T15:18:35Z</time>
      </trkpt>
      <trkpt lat="39.76028760834095" lon="117.78659067673696">
        <ele>2.4154085591435432</ele>
        <time>2026-02-27T15:18:41Z</time>
      </trkpt>
      <trkpt lat="39.760266431581805" lon="117.7865188179098">
        <ele>2.7055744314566255</ele>
        <time>2026-02-27T15:18:47Z</time>
      </trkpt>
      <trkpt lat="39.76027150667051" lon="117.78626070650023">
        <ele>3.5077126836404204</ele>
        <time>2026-02-27T15:18:59Z</time>
      </trkpt>
      <trkpt lat="39.76028735501586" lon="117.78613832701362">
        <ele>2.527496666647494</ele>
        <time>2026-02-27T15:19:05Z</time>
      </trkpt>
      <trkpt lat="39.76019902103667" lon="117.785735473098">
        <ele>4.674703954719007</ele>
        <time>2026-02-27T15:19:20Z</time>
      </trkpt>
      <trkpt lat="39.76016435057501" lon="117.78566761165305">
        <ele>3.5117719396948814</ele>
        <time>2026-02-27T15:19:23Z</time>
      </trkpt>
      <trkpt lat="39.76015703415341" lon="117.78559223803613">
        <ele>3.749567896127701</ele>
        <time>2026-02-27T15:19:26Z</time>
      </trkpt>
      <trkpt lat="39.760175527719134" lon="117.78551774223422">
        <ele>3.1365351201966405</ele>
        <time>2026-02-27T15:19:29Z</time>
      </trkpt>
      <trkpt lat="39.760284555848784" lon="117.78555361434356">
        <ele>3.3555283695459366</ele>
        <time>2026-02-27T15:19:35Z</time>
      </trkpt>
      <trkpt lat="39.760328152973116" lon="117.78560723295654">
        <ele>2.7320741675794125</ele>
        <time>2026-02-27T15:19:41Z</time>
      </trkpt>
      <trkpt lat="39.76033332589205" lon="117.78569804526006">
        <ele>2.626870053820312</ele>
        <time>2026-02-27T15:19:47Z</time>
      </trkpt>
      <trkpt lat="39.76027641925039" lon="117.78610471031742">
        <ele>3.1597969084978104</ele>
        <time>2026-02-27T15:20:11Z</time>
      </trkpt>
      <trkpt lat="39.760264921954295" lon="117.78619840425479">
        <ele>3.013661414384842</ele>
        <time>2026-02-27T15:20:17Z</time>
      </trkpt>
      <trkpt lat="39.76027900968805" lon="117.78647994024787">
        <ele>2.0779440328478813</ele>
        <time>2026-02-27T15:20:35Z</time>
      </trkpt>
      <trkpt lat="39.76032815130136" lon="117.78661791024959">
        <ele>1.4704129425808787</ele>
        <time>2026-02-27T15:20:47Z</time>
      </trkpt>
      <trkpt lat="39.76030469062524" lon="117.78667496843353">
        <ele>2.2639418886974454</ele>
        <time>2026-02-27T15:21:44Z</time>
      </trkpt>
    </trkseg>
  </trk>
</gpx>