<?xml version="1.0" encoding="UTF-8"?>
<gpx xmlns="http://www.topografix.com/GPX/1/1" xmlns:gpxtpx="http://www.garmin.com/xmlschemas/TrackPointExtension/v1" xmlns:xsi="http://www.w3.org/2001/XMLSchema-instance" xsi:schemaLocation="http://www.topografix.com/GPX/1/1 http://www.topografix.com/GPX/1/1/gpx.xsd" version="1.1" creator="gpx.py -- https://github.com/tkrajina/gpxpy">
  <trk>
    <name>gpx from keep</name>
    <type>Run</type>
    <trkseg>
      <trkpt lat="38.83323593400147" lon="121.5073793808119">
        <ele>4.130810672349343</ele>
        <time>2025-07-07T04:43:07Z</time>
      </trkpt>
      <trkpt lat="38.83320050753598" lon="121.50717635080399">
        <ele>3.002898583388669</ele>
        <time>2025-07-07T04:43:15Z</time>
      </trkpt>
      <trkpt lat="38.83305289690515" lon="121.50688348518413">
        <ele>3.447404257953167</ele>
        <time>2025-07-07T04:43:26Z</time>
      </trkpt>
      <trkpt lat="38.8329074636387" lon="121.50667420740031">
        <ele>2.84690582100302</ele>
        <time>2025-07-07T04:43:35Z</time>
      </trkpt>
      <trkpt lat="38.83271034151848" lon="121.50657281486609">
        <ele>5.11553462035954</ele>
        <time>2025-07-07T04:43:44Z</time>
      </trkpt>
      <trkpt lat="38.832578712181196" lon="121.50653974584262">
        <ele>4.685626522637904</ele>
        <time>2025-07-07T04:43:50Z</time>
      </trkpt>
      <trkpt lat="38.8324360753041" lon="121.50652532160728">
        <ele>4.936155513860285</ele>
        <time>2025-07-07T04:43:56Z</time>
      </trkpt>
      <trkpt lat="38.832307158037366" lon="121.50646874476728">
        <ele>4.534367475658655</ele>
        <time>2025-07-07T04:44:02Z</time>
      </trkpt>
      <trkpt lat="38.83211898642661" lon="121.50631233072313">
        <ele>4.428085649386048</ele>
        <time>2025-07-07T04:44:14Z</time>
      </trkpt>
      <trkpt lat="38.832005748843855" lon="121.50607956748784">
        <ele>4.049698202870786</ele>
        <time>2025-07-07T04:44:23Z</time>
      </trkpt>
      <trkpt lat="38.83191934276958" lon="121.50580875344009">
        <ele>5.196717219427228</ele>
        <time>2025-07-07T04:44:32Z</time>
      </trkpt>
      <trkpt lat="38.83184503745747" lon="121.50566091670684">
        <ele>5.299751803278923</ele>
        <time>2025-07-07T04:44:38Z</time>
      </trkpt>
      <trkpt lat="38.83172742581815" lon="121.50552652181901">
        <ele>6.411202345974743</ele>
        <time>2025-07-07T04:44:50Z</time>
      </trkpt>
      <trkpt lat="38.831695700121784" lon="121.50545822280056">
        <ele>4.553994142450392</ele>
        <time>2025-07-07T04:44:59Z</time>
      </trkpt>
      <trkpt lat="38.83156864861574" lon="121.5053716202592">
        <ele>4.731350743211806</ele>
        <time>2025-07-07T04:45:05Z</time>
      </trkpt>
      <trkpt lat="38.83126035073862" lon="121.50531076865276">
        <ele>4.703445192426443</ele>
        <time>2025-07-07T04:45:18Z</time>
      </trkpt>
      <trkpt lat="38.830977606035766" lon="121.50535281289146">
        <ele>4.524787183851004</ele>
        <time>2025-07-07T04:45:30Z</time>
      </trkpt>
      <trkpt lat="38.83081037929689" lon="121.50531275121884">
        <ele>3.7124905912205577</ele>
        <time>2025-07-07T04:45:38Z</time>
      </trkpt>
      <trkpt lat="38.83058884441943" lon="121.50507897538884">
        <ele>5.350427475757897</ele>
        <time>2025-07-07T04:45:50Z</time>
      </trkpt>
      <trkpt lat="38.83030790691656" lon="121.50486098084886">
        <ele>5.105735276825726</ele>
        <time>2025-07-07T04:46:03Z</time>
      </trkpt>
      <trkpt lat="38.83010268563895" lon="121.50479223688468">
        <ele>4.560111233964562</ele>
        <time>2025-07-07T04:46:12Z</time>
      </trkpt>
      <trkpt lat="38.82991329501927" lon="121.50463490973728">
        <ele>3.5517105497419834</ele>
        <time>2025-07-07T04:46:21Z</time>
      </trkpt>
      <trkpt lat="38.829693807126354" lon="121.50436369157765">
        <ele>4.749061909504235</ele>
        <time>2025-07-07T04:46:33Z</time>
      </trkpt>
      <trkpt lat="38.82964756220342" lon="121.50430779459154">
        <ele>4.865281589329243</ele>
        <time>2025-07-07T04:46:36Z</time>
      </trkpt>
      <trkpt lat="38.829569399432" lon="121.50428489841664">
        <ele>4.905395505018532</ele>
        <time>2025-07-07T04:46:39Z</time>
      </trkpt>
      <trkpt lat="38.82946016640441" lon="121.50417991379315">
        <ele>4.242358835414052</ele>
        <time>2025-07-07T04:46:45Z</time>
      </trkpt>
      <trkpt lat="38.82921189768747" lon="121.50404168911945">
        <ele>6.137900210916996</ele>
        <time>2025-07-07T04:47:00Z</time>
      </trkpt>
      <trkpt lat="38.82913295502578" lon="121.50400419381138">
        <ele>5.084333742968738</ele>
        <time>2025-07-07T04:47:03Z</time>
      </trkpt>
      <trkpt lat="38.82907938558034" lon="121.50402307197456">
        <ele>4.566515405662358</ele>
        <time>2025-07-07T04:47:06Z</time>
      </trkpt>
      <trkpt lat="38.828872269819925" lon="121.50393427250789">
        <ele>3.9967331402003765</ele>
        <time>2025-07-07T04:47:15Z</time>
      </trkpt>
      <trkpt lat="38.82880188867568" lon="121.50398375186475">
        <ele>4.460590051487088</ele>
        <time>2025-07-07T04:47:18Z</time>
      </trkpt>
      <trkpt lat="38.82875709764606" lon="121.5040479046636">
        <ele>3.7924053696915507</ele>
        <time>2025-07-07T04:47:21Z</time>
      </trkpt>
      <trkpt lat="38.82845742654953" lon="121.50410060279425">
        <ele>3.0026045395061374</ele>
        <time>2025-07-07T04:47:34Z</time>
      </trkpt>
      <trkpt lat="38.828383807783446" lon="121.50409763054704">
        <ele>3.9140379521995783</ele>
        <time>2025-07-07T04:47:37Z</time>
      </trkpt>
      <trkpt lat="38.828324694962184" lon="121.50406441223394">
        <ele>4.401549565605819</ele>
        <time>2025-07-07T04:47:40Z</time>
      </trkpt>
      <trkpt lat="38.828161335157816" lon="121.50402050309278">
        <ele>4.123635136522353</ele>
        <time>2025-07-07T04:47:46Z</time>
      </trkpt>
      <trkpt lat="38.8281058366049" lon="121.50397976101337">
        <ele>4.1279418068006635</ele>
        <time>2025-07-07T04:47:49Z</time>
      </trkpt>
      <trkpt lat="38.82796675518306" lon="121.50377079252596">
        <ele>4.88823714479804</ele>
        <time>2025-07-07T04:47:58Z</time>
      </trkpt>
      <trkpt lat="38.82785918610396" lon="121.50350796387424">
        <ele>4.258395152166486</ele>
        <time>2025-07-07T04:48:07Z</time>
      </trkpt>
      <trkpt lat="38.82785328019168" lon="121.50342561693473">
        <ele>3.19157403241843</ele>
        <time>2025-07-07T04:48:10Z</time>
      </trkpt>
      <trkpt lat="38.82776740726742" lon="121.50325146505695">
        <ele>4.20296820346266</ele>
        <time>2025-07-07T04:48:16Z</time>
      </trkpt>
      <trkpt lat="38.82775042537323" lon="121.5031739116822">
        <ele>3.044175240211189</ele>
        <time>2025-07-07T04:48:19Z</time>
      </trkpt>
      <trkpt lat="38.82763883776748" lon="121.5030567219113">
        <ele>3.306148790754378</ele>
        <time>2025-07-07T04:48:25Z</time>
      </trkpt>
      <trkpt lat="38.82741460483085" lon="121.50299335355733">
        <ele>3.329487906768918</ele>
        <time>2025-07-07T04:48:34Z</time>
      </trkpt>
      <trkpt lat="38.82733430380147" lon="121.50300637570332">
        <ele>3.7410326981917024</ele>
        <time>2025-07-07T04:48:37Z</time>
      </trkpt>
      <trkpt lat="38.827269120676135" lon="121.50299191601528">
        <ele>3.1631920924410224</ele>
        <time>2025-07-07T04:48:40Z</time>
      </trkpt>
      <trkpt lat="38.82703690727499" lon="121.50311943262336">
        <ele>4.831468514166772</ele>
        <time>2025-07-07T04:48:49Z</time>
      </trkpt>
      <trkpt lat="38.82680942835039" lon="121.50337712253487">
        <ele>4.178476489149034</ele>
        <time>2025-07-07T04:49:01Z</time>
      </trkpt>
      <trkpt lat="38.82669378756589" lon="121.50349961548156">
        <ele>3.660757881589234</ele>
        <time>2025-07-07T04:49:07Z</time>
      </trkpt>
      <trkpt lat="38.82659915426015" lon="121.50380690721036">
        <ele>3.0360282864421606</ele>
        <time>2025-07-07T04:49:19Z</time>
      </trkpt>
      <trkpt lat="38.82658339447074" lon="121.50401863355111">
        <ele>3.4262340487912297</ele>
        <time>2025-07-07T04:49:25Z</time>
      </trkpt>
      <trkpt lat="38.826599408346034" lon="121.50412949019518">
        <ele>2.3717075223103166</ele>
        <time>2025-07-07T04:49:29Z</time>
      </trkpt>
      <trkpt lat="38.826557412208174" lon="121.50440309045034">
        <ele>2.152198006398976</ele>
        <time>2025-07-07T04:49:40Z</time>
      </trkpt>
      <trkpt lat="38.82652744306528" lon="121.50450258569386">
        <ele>3.6821561474353075</ele>
        <time>2025-07-07T04:49:43Z</time>
      </trkpt>
      <trkpt lat="38.826441402983896" lon="121.50451530499151">
        <ele>3.8246141662821174</ele>
        <time>2025-07-07T04:49:47Z</time>
      </trkpt>
      <trkpt lat="38.826383606523834" lon="121.50470746621532">
        <ele>3.6915468676015735</ele>
        <time>2025-07-07T04:49:53Z</time>
      </trkpt>
      <trkpt lat="38.82632348001173" lon="121.50478815259765">
        <ele>4.2221238082274795</ele>
        <time>2025-07-07T04:49:56Z</time>
      </trkpt>
      <trkpt lat="38.826271055813656" lon="121.50482850838685">
        <ele>4.457169876433909</ele>
        <time>2025-07-07T04:49:59Z</time>
      </trkpt>
      <trkpt lat="38.826293652572645" lon="121.50469888823443">
        <ele>5.384812205098569</ele>
        <time>2025-07-07T04:50:02Z</time>
      </trkpt>
      <trkpt lat="38.82641165972344" lon="121.50458029537067">
        <ele>4.355321550741792</ele>
        <time>2025-07-07T04:50:08Z</time>
      </trkpt>
      <trkpt lat="38.82645873391874" lon="121.50450549146511">
        <ele>4.110146540217102</ele>
        <time>2025-07-07T04:50:11Z</time>
      </trkpt>
      <trkpt lat="38.82653579120077" lon="121.50442728809595">
        <ele>3.2094143871217966</ele>
        <time>2025-07-07T04:50:14Z</time>
      </trkpt>
      <trkpt lat="38.82657636864183" lon="121.5041288123119">
        <ele>4.022292145527899</ele>
        <time>2025-07-07T04:50:26Z</time>
      </trkpt>
      <trkpt lat="38.82656091754405" lon="121.5039375217752">
        <ele>2.9913164284080267</ele>
        <time>2025-07-07T04:50:32Z</time>
      </trkpt>
      <trkpt lat="38.82665006310566" lon="121.5035837697204">
        <ele>4.457942593842745</ele>
        <time>2025-07-07T04:50:44Z</time>
      </trkpt>
      <trkpt lat="38.826681843853414" lon="121.50349404117152">
        <ele>4.295197770930827</ele>
        <time>2025-07-07T04:50:47Z</time>
      </trkpt>
      <trkpt lat="38.82678486204015" lon="121.50336697087684">
        <ele>4.512339385226369</ele>
        <time>2025-07-07T04:50:53Z</time>
      </trkpt>
      <trkpt lat="38.826846001927684" lon="121.50332694909007">
        <ele>2.8343895878642797</ele>
        <time>2025-07-07T04:50:56Z</time>
      </trkpt>
      <trkpt lat="38.82700030745843" lon="121.50310939767378">
        <ele>5.347551237791777</ele>
        <time>2025-07-07T04:51:05Z</time>
      </trkpt>
      <trkpt lat="38.827269015131655" lon="121.50297772785167">
        <ele>5.341572603210807</ele>
        <time>2025-07-07T04:51:17Z</time>
      </trkpt>
      <trkpt lat="38.82743608906798" lon="121.50298826247567">
        <ele>4.343847326003015</ele>
        <time>2025-07-07T04:51:23Z</time>
      </trkpt>
      <trkpt lat="38.82758705557526" lon="121.50305392191423">
        <ele>3.5975639233365655</ele>
        <time>2025-07-07T04:51:29Z</time>
      </trkpt>
      <trkpt lat="38.82771750493163" lon="121.50318362527346">
        <ele>4.978751080110669</ele>
        <time>2025-07-07T04:51:36Z</time>
      </trkpt>
      <trkpt lat="38.82778891852276" lon="121.50322103812013">
        <ele>5.235264346003532</ele>
        <time>2025-07-07T04:51:39Z</time>
      </trkpt>
      <trkpt lat="38.82788558587111" lon="121.50342668563161">
        <ele>2.976968959905207</ele>
        <time>2025-07-07T04:51:47Z</time>
      </trkpt>
      <trkpt lat="38.82792050118037" lon="121.50363653115471">
        <ele>4.434944042004645</ele>
        <time>2025-07-07T04:51:53Z</time>
      </trkpt>
      <trkpt lat="38.82798034337458" lon="121.50377909186791">
        <ele>3.829189923591912</ele>
        <time>2025-07-07T04:51:59Z</time>
      </trkpt>
      <trkpt lat="38.82813915967477" lon="121.50398944208207">
        <ele>4.15088078007102</ele>
        <time>2025-07-07T04:52:08Z</time>
      </trkpt>
      <trkpt lat="38.828200003768856" lon="121.50404154589188">
        <ele>3.2865663953125477</ele>
        <time>2025-07-07T04:52:11Z</time>
      </trkpt>
      <trkpt lat="38.828413196253905" lon="121.50408287446808">
        <ele>4.0025332272052765</ele>
        <time>2025-07-07T04:52:20Z</time>
      </trkpt>
      <trkpt lat="38.828636878790796" lon="121.50405493448305">
        <ele>4.623963724821806</ele>
        <time>2025-07-07T04:52:29Z</time>
      </trkpt>
      <trkpt lat="38.82871513234862" lon="121.50401418037052">
        <ele>5.292806144803762</ele>
        <time>2025-07-07T04:52:32Z</time>
      </trkpt>
      <trkpt lat="38.82883360681029" lon="121.50400662336664">
        <ele>4.546412423253059</ele>
        <time>2025-07-07T04:52:38Z</time>
      </trkpt>
      <trkpt lat="38.82888929002112" lon="121.50403881241564">
        <ele>3.2280614115297794</ele>
        <time>2025-07-07T04:52:41Z</time>
      </trkpt>
      <trkpt lat="38.82898733682349" lon="121.50405478839185">
        <ele>2.416770115494728</ele>
        <time>2025-07-07T04:52:44Z</time>
      </trkpt>
      <trkpt lat="38.82904117238784" lon="121.50401181244318">
        <ele>3.658387992531061</ele>
        <time>2025-07-07T04:52:47Z</time>
      </trkpt>
      <trkpt lat="38.82919321305764" lon="121.50403129118511">
        <ele>3.2602393683046103</ele>
        <time>2025-07-07T04:52:53Z</time>
      </trkpt>
      <trkpt lat="38.82948629120122" lon="121.5041833276784">
        <ele>4.459151548333466</ele>
        <time>2025-07-07T04:53:05Z</time>
      </trkpt>
      <trkpt lat="38.82961307146725" lon="121.50427400650756">
        <ele>3.4580239299684763</ele>
        <time>2025-07-07T04:53:11Z</time>
      </trkpt>
      <trkpt lat="38.82979331664486" lon="121.50446164591735">
        <ele>4.119444411247969</ele>
        <time>2025-07-07T04:53:20Z</time>
      </trkpt>
      <trkpt lat="38.829941610645406" lon="121.50468210828684">
        <ele>3.368008871562779</ele>
        <time>2025-07-07T04:53:29Z</time>
      </trkpt>
      <trkpt lat="38.830074039662094" lon="121.50476126163963">
        <ele>4.886404701508582</ele>
        <time>2025-07-07T04:53:35Z</time>
      </trkpt>
      <trkpt lat="38.83032896142363" lon="121.50484397225486">
        <ele>4.771422834135592</ele>
        <time>2025-07-07T04:53:45Z</time>
      </trkpt>
      <trkpt lat="38.83045803750117" lon="121.50494748058843">
        <ele>4.004734149202704</ele>
        <time>2025-07-07T04:53:51Z</time>
      </trkpt>
      <trkpt lat="38.83054003870753" lon="121.50498334481513">
        <ele>4.186358259990811</ele>
        <time>2025-07-07T04:53:54Z</time>
      </trkpt>
      <trkpt lat="38.83073548729803" lon="121.50515467192186">
        <ele>2.7503463523462415</ele>
        <time>2025-07-07T04:54:03Z</time>
      </trkpt>
      <trkpt lat="38.830842131342536" lon="121.50531596362403">
        <ele>4.589894282631576</ele>
        <time>2025-07-07T04:54:09Z</time>
      </trkpt>
      <trkpt lat="38.830923599321665" lon="121.50531638881539">
        <ele>3.8729811310768127</ele>
        <time>2025-07-07T04:54:12Z</time>
      </trkpt>
      <trkpt lat="38.83098421992746" lon="121.50534793655012">
        <ele>5.492289829067886</ele>
        <time>2025-07-07T04:54:15Z</time>
      </trkpt>
      <trkpt lat="38.831301996430774" lon="121.50529936278969">
        <ele>3.938088508322835</ele>
        <time>2025-07-07T04:54:27Z</time>
      </trkpt>
      <trkpt lat="38.8313609747328" lon="121.50529609247276">
        <ele>3.4562966153025627</ele>
        <time>2025-07-07T04:54:30Z</time>
      </trkpt>
      <trkpt lat="38.8316647599076" lon="121.50544120953316">
        <ele>5.067417592741549</ele>
        <time>2025-07-07T04:54:42Z</time>
      </trkpt>
      <trkpt lat="38.83178656888686" lon="121.50555531396815">
        <ele>5.14018795080483</ele>
        <time>2025-07-07T04:54:48Z</time>
      </trkpt>
      <trkpt lat="38.83188530692593" lon="121.5056833989469">
        <ele>5.593446823768318</ele>
        <time>2025-07-07T04:54:54Z</time>
      </trkpt>
      <trkpt lat="38.83190725830701" lon="121.50577148051069">
        <ele>5.861153498291969</ele>
        <time>2025-07-07T04:54:57Z</time>
      </trkpt>
      <trkpt lat="38.83198609770012" lon="121.5059255728268">
        <ele>1.7605435652658343</ele>
        <time>2025-07-07T04:55:03Z</time>
      </trkpt>
      <trkpt lat="38.83202143533363" lon="121.50610812183419">
        <ele>3.1210641553625464</ele>
        <time>2025-07-07T04:55:09Z</time>
      </trkpt>
      <trkpt lat="38.83210223805969" lon="121.50625170237932">
        <ele>4.497908023186028</ele>
        <time>2025-07-07T04:55:15Z</time>
      </trkpt>
      <trkpt lat="38.83221812302931" lon="121.50636676405385">
        <ele>4.146519050002098</ele>
        <time>2025-07-07T04:55:21Z</time>
      </trkpt>
      <trkpt lat="38.83227865331964" lon="121.5063939003098">
        <ele>3.9117690920829773</ele>
        <time>2025-07-07T04:55:24Z</time>
      </trkpt>
      <trkpt lat="38.83232790859641" lon="121.50645122897834">
        <ele>3.09423459880054</ele>
        <time>2025-07-07T04:55:27Z</time>
      </trkpt>
      <trkpt lat="38.83247789509438" lon="121.50652884299424">
        <ele>3.6782238017767668</ele>
        <time>2025-07-07T04:55:33Z</time>
      </trkpt>
      <trkpt lat="38.83270942111639" lon="121.50655739697946">
        <ele>2.806971370242536</ele>
        <time>2025-07-07T04:55:42Z</time>
      </trkpt>
      <trkpt lat="38.83277843368795" lon="121.50658539515989">
        <ele>3.3902391837909818</ele>
        <time>2025-07-07T04:55:45Z</time>
      </trkpt>
      <trkpt lat="38.832911205517966" lon="121.50669115200836">
        <ele>3.66661440115422</ele>
        <time>2025-07-07T04:55:52Z</time>
      </trkpt>
      <trkpt lat="38.83296891877307" lon="121.50676993383176">
        <ele>4.253029966726899</ele>
        <time>2025-07-07T04:55:55Z</time>
      </trkpt>
      <trkpt lat="38.83303957524732" lon="121.50683188130313">
        <ele>5.102696901187301</ele>
        <time>2025-07-07T04:55:58Z</time>
      </trkpt>
      <trkpt lat="38.833080084138736" lon="121.50692563610676">
        <ele>5.248267997056246</ele>
        <time>2025-07-07T04:56:01Z</time>
      </trkpt>
      <trkpt lat="38.83317797917366" lon="121.50708208466557">
        <ele>3.7513746544718742</ele>
        <time>2025-07-07T04:56:07Z</time>
      </trkpt>
      <trkpt lat="38.83322540972933" lon="121.50726762070222">
        <ele>4.130561109632254</ele>
        <time>2025-07-07T04:56:13Z</time>
      </trkpt>
    </trkseg>
  </trk>
</gpx>