<?xml version="1.0" encoding="UTF-8"?>
<gpx xmlns="http://www.topografix.com/GPX/1/1" xmlns:gpxtpx="http://www.garmin.com/xmlschemas/TrackPointExtension/v1" xmlns:xsi="http://www.w3.org/2001/XMLSchema-instance" xsi:schemaLocation="http://www.topografix.com/GPX/1/1 http://www.topografix.com/GPX/1/1/gpx.xsd" version="1.1" creator="gpx.py -- https://github.com/tkrajina/gpxpy">
  <trk>
    <name>gpx from keep</name>
    <type>Run</type>
    <trkseg>
      <trkpt lat="38.837176984186684" lon="121.50442384247351">
        <ele>9.443117930685602</ele>
        <time>2026-02-13T12:34:41Z</time>
      </trkpt>
      <trkpt lat="38.83711110447522" lon="121.50430114490447">
        <ele>9.132175222941449</ele>
        <time>2026-02-13T12:34:51Z</time>
      </trkpt>
      <trkpt lat="38.83705549826933" lon="121.5042791618245">
        <ele>9.370297480374575</ele>
        <time>2026-02-13T12:34:55Z</time>
      </trkpt>
      <trkpt lat="38.83696882959788" lon="121.50430556222476">
        <ele>9.558418314903975</ele>
        <time>2026-02-13T12:34:59Z</time>
      </trkpt>
      <trkpt lat="38.836923501639134" lon="121.50437677970707">
        <ele>9.818766260519624</ele>
        <time>2026-02-13T12:35:03Z</time>
      </trkpt>
      <trkpt lat="38.83687892547674" lon="121.50454845865853">
        <ele>9.458447706885636</ele>
        <time>2026-02-13T12:35:11Z</time>
      </trkpt>
      <trkpt lat="38.836879225190806" lon="121.50464011002789">
        <ele>10.559079487808049</ele>
        <time>2026-02-13T12:35:15Z</time>
      </trkpt>
      <trkpt lat="38.83675522912379" lon="121.50500235523805">
        <ele>9.51476105954498</ele>
        <time>2026-02-13T12:35:33Z</time>
        <extensions>
          <gpxtpx:TrackPointExtension>
            <gpxtpx:hr>83</gpxtpx:hr>
          </gpxtpx:TrackPointExtension>
        </extensions>
      </trkpt>
      <trkpt lat="38.8366304226168" lon="121.50536478808142">
        <ele>10.307318016886711</ele>
        <time>2026-02-13T12:35:54Z</time>
        <extensions>
          <gpxtpx:TrackPointExtension>
            <gpxtpx:hr>83</gpxtpx:hr>
          </gpxtpx:TrackPointExtension>
        </extensions>
      </trkpt>
      <trkpt lat="38.836515514404226" lon="121.50569104545245">
        <ele>9.732179905287921</ele>
        <time>2026-02-13T12:36:09Z</time>
      </trkpt>
      <trkpt lat="38.836405573990845" lon="121.5060369273879">
        <ele>10.481781301088631</ele>
        <time>2026-02-13T12:36:33Z</time>
        <extensions>
          <gpxtpx:TrackPointExtension>
            <gpxtpx:hr>112</gpxtpx:hr>
          </gpxtpx:TrackPointExtension>
        </extensions>
      </trkpt>
      <trkpt lat="38.83630998504851" lon="121.50637644158374">
        <ele>8.935845077037811</ele>
        <time>2026-02-13T12:36:48Z</time>
        <extensions>
          <gpxtpx:TrackPointExtension>
            <gpxtpx:hr>114</gpxtpx:hr>
          </gpxtpx:TrackPointExtension>
        </extensions>
      </trkpt>
      <trkpt lat="38.836202234120506" lon="121.50671952136841">
        <ele>8.303028569556773</ele>
        <time>2026-02-13T12:37:03Z</time>
        <extensions>
          <gpxtpx:TrackPointExtension>
            <gpxtpx:hr>110</gpxtpx:hr>
          </gpxtpx:TrackPointExtension>
        </extensions>
      </trkpt>
      <trkpt lat="38.83622358944791" lon="121.50681012200454">
        <ele>8.602158949710429</ele>
        <time>2026-02-13T12:37:07Z</time>
        <extensions>
          <gpxtpx:TrackPointExtension>
            <gpxtpx:hr>110</gpxtpx:hr>
          </gpxtpx:TrackPointExtension>
        </extensions>
      </trkpt>
      <trkpt lat="38.83633170002251" lon="121.5068889710386">
        <ele>6.764277654699981</ele>
        <time>2026-02-13T12:37:15Z</time>
        <extensions>
          <gpxtpx:TrackPointExtension>
            <gpxtpx:hr>108</gpxtpx:hr>
          </gpxtpx:TrackPointExtension>
        </extensions>
      </trkpt>
      <trkpt lat="38.83649782036907" lon="121.50705030872228">
        <ele>6.37892428226769</ele>
        <time>2026-02-13T12:37:27Z</time>
        <extensions>
          <gpxtpx:TrackPointExtension>
            <gpxtpx:hr>114</gpxtpx:hr>
          </gpxtpx:TrackPointExtension>
        </extensions>
      </trkpt>
      <trkpt lat="38.83665973319975" lon="121.50717464109024">
        <ele>8.527033748105168</ele>
        <time>2026-02-13T12:37:36Z</time>
        <extensions>
          <gpxtpx:TrackPointExtension>
            <gpxtpx:hr>118</gpxtpx:hr>
          </gpxtpx:TrackPointExtension>
        </extensions>
      </trkpt>
      <trkpt lat="38.836726067628774" lon="121.50720206209768">
        <ele>9.603485965169966</ele>
        <time>2026-02-13T12:37:39Z</time>
        <extensions>
          <gpxtpx:TrackPointExtension>
            <gpxtpx:hr>118</gpxtpx:hr>
          </gpxtpx:TrackPointExtension>
        </extensions>
      </trkpt>
      <trkpt lat="38.836991451555754" lon="121.50743344461516">
        <ele>10.487346215173602</ele>
        <time>2026-02-13T12:37:54Z</time>
        <extensions>
          <gpxtpx:TrackPointExtension>
            <gpxtpx:hr>126</gpxtpx:hr>
          </gpxtpx:TrackPointExtension>
        </extensions>
      </trkpt>
      <trkpt lat="38.83722289424918" lon="121.5076675880535">
        <ele>10.28900762181729</ele>
        <time>2026-02-13T12:38:09Z</time>
        <extensions>
          <gpxtpx:TrackPointExtension>
            <gpxtpx:hr>127</gpxtpx:hr>
          </gpxtpx:TrackPointExtension>
        </extensions>
      </trkpt>
      <trkpt lat="38.837456620328425" lon="121.50785854861739">
        <ele>10.478472201153636</ele>
        <time>2026-02-13T12:38:24Z</time>
        <extensions>
          <gpxtpx:TrackPointExtension>
            <gpxtpx:hr>129</gpxtpx:hr>
          </gpxtpx:TrackPointExtension>
        </extensions>
      </trkpt>
      <trkpt lat="38.837630213641965" lon="121.5080242607848">
        <ele>11.053474450483918</ele>
        <time>2026-02-13T12:38:36Z</time>
        <extensions>
          <gpxtpx:TrackPointExtension>
            <gpxtpx:hr>128</gpxtpx:hr>
          </gpxtpx:TrackPointExtension>
        </extensions>
      </trkpt>
      <trkpt lat="38.83769219885877" lon="121.50804358188628">
        <ele>10.973118104040623</ele>
        <time>2026-02-13T12:38:39Z</time>
        <extensions>
          <gpxtpx:TrackPointExtension>
            <gpxtpx:hr>128</gpxtpx:hr>
          </gpxtpx:TrackPointExtension>
        </extensions>
      </trkpt>
      <trkpt lat="38.83784514431732" lon="121.50823529321951">
        <ele>9.956108395010233</ele>
        <time>2026-02-13T12:38:51Z</time>
        <extensions>
          <gpxtpx:TrackPointExtension>
            <gpxtpx:hr>129</gpxtpx:hr>
          </gpxtpx:TrackPointExtension>
        </extensions>
      </trkpt>
      <trkpt lat="38.8378978904909" lon="121.5082610481359">
        <ele>9.290698679164052</ele>
        <time>2026-02-13T12:38:54Z</time>
        <extensions>
          <gpxtpx:TrackPointExtension>
            <gpxtpx:hr>129</gpxtpx:hr>
          </gpxtpx:TrackPointExtension>
        </extensions>
      </trkpt>
      <trkpt lat="38.83813578100189" lon="121.50848164487802">
        <ele>8.811883881688118</ele>
        <time>2026-02-13T12:39:09Z</time>
        <extensions>
          <gpxtpx:TrackPointExtension>
            <gpxtpx:hr>130</gpxtpx:hr>
          </gpxtpx:TrackPointExtension>
        </extensions>
      </trkpt>
      <trkpt lat="38.83838585881732" lon="121.50871558119456">
        <ele>7.4930204236879945</ele>
        <time>2026-02-13T12:39:25Z</time>
        <extensions>
          <gpxtpx:TrackPointExtension>
            <gpxtpx:hr>128</gpxtpx:hr>
          </gpxtpx:TrackPointExtension>
        </extensions>
      </trkpt>
      <trkpt lat="38.83855991519017" lon="121.50884461405433">
        <ele>7.5833747228607535</ele>
        <time>2026-02-13T12:39:37Z</time>
        <extensions>
          <gpxtpx:TrackPointExtension>
            <gpxtpx:hr>131</gpxtpx:hr>
          </gpxtpx:TrackPointExtension>
        </extensions>
      </trkpt>
      <trkpt lat="38.83871124617153" lon="121.50906840772575">
        <ele>9.835448903031647</ele>
        <time>2026-02-13T12:39:49Z</time>
        <extensions>
          <gpxtpx:TrackPointExtension>
            <gpxtpx:hr>127</gpxtpx:hr>
          </gpxtpx:TrackPointExtension>
        </extensions>
      </trkpt>
      <trkpt lat="38.83886580030701" lon="121.50910168053693">
        <ele>7.355078738182783</ele>
        <time>2026-02-13T12:39:58Z</time>
        <extensions>
          <gpxtpx:TrackPointExtension>
            <gpxtpx:hr>126</gpxtpx:hr>
          </gpxtpx:TrackPointExtension>
        </extensions>
      </trkpt>
      <trkpt lat="38.83907213112533" lon="121.50925695057238">
        <ele>5.847140229307115</ele>
        <time>2026-02-13T12:40:10Z</time>
        <extensions>
          <gpxtpx:TrackPointExtension>
            <gpxtpx:hr>125</gpxtpx:hr>
          </gpxtpx:TrackPointExtension>
        </extensions>
      </trkpt>
      <trkpt lat="38.83913496486615" lon="121.50927599997044">
        <ele>6.09662508033216</ele>
        <time>2026-02-13T12:40:13Z</time>
        <extensions>
          <gpxtpx:TrackPointExtension>
            <gpxtpx:hr>125</gpxtpx:hr>
          </gpxtpx:TrackPointExtension>
        </extensions>
      </trkpt>
      <trkpt lat="38.83917750791461" lon="121.50932040098125">
        <ele>5.727358233183622</ele>
        <time>2026-02-13T12:40:16Z</time>
        <extensions>
          <gpxtpx:TrackPointExtension>
            <gpxtpx:hr>126</gpxtpx:hr>
          </gpxtpx:TrackPointExtension>
        </extensions>
      </trkpt>
      <trkpt lat="38.83923682027898" lon="121.50934471853368">
        <ele>5.366216068156064</ele>
        <time>2026-02-13T12:40:19Z</time>
        <extensions>
          <gpxtpx:TrackPointExtension>
            <gpxtpx:hr>126</gpxtpx:hr>
          </gpxtpx:TrackPointExtension>
        </extensions>
      </trkpt>
      <trkpt lat="38.83944993935241" lon="121.50957401818577">
        <ele>6.066054107621312</ele>
        <time>2026-02-13T12:40:34Z</time>
        <extensions>
          <gpxtpx:TrackPointExtension>
            <gpxtpx:hr>127</gpxtpx:hr>
          </gpxtpx:TrackPointExtension>
        </extensions>
      </trkpt>
      <trkpt lat="38.839551586921424" lon="121.50974566026392">
        <ele>5.738901652395725</ele>
        <time>2026-02-13T12:40:43Z</time>
        <extensions>
          <gpxtpx:TrackPointExtension>
            <gpxtpx:hr>127</gpxtpx:hr>
          </gpxtpx:TrackPointExtension>
        </extensions>
      </trkpt>
      <trkpt lat="38.83970167321225" lon="121.50986417089241">
        <ele>6.056744113564491</ele>
        <time>2026-02-13T12:40:52Z</time>
        <extensions>
          <gpxtpx:TrackPointExtension>
            <gpxtpx:hr>128</gpxtpx:hr>
          </gpxtpx:TrackPointExtension>
        </extensions>
      </trkpt>
      <trkpt lat="38.8397693545639" lon="121.50988010067809">
        <ele>5.335811677388847</ele>
        <time>2026-02-13T12:40:55Z</time>
        <extensions>
          <gpxtpx:TrackPointExtension>
            <gpxtpx:hr>128</gpxtpx:hr>
          </gpxtpx:TrackPointExtension>
        </extensions>
      </trkpt>
      <trkpt lat="38.83994155289778" lon="121.510031021977">
        <ele>6.579512627795339</ele>
        <time>2026-02-13T12:41:05Z</time>
        <extensions>
          <gpxtpx:TrackPointExtension>
            <gpxtpx:hr>126</gpxtpx:hr>
          </gpxtpx:TrackPointExtension>
        </extensions>
      </trkpt>
      <trkpt lat="38.83999633248973" lon="121.51005364368031">
        <ele>6.183316092006862</ele>
        <time>2026-02-13T12:41:08Z</time>
        <extensions>
          <gpxtpx:TrackPointExtension>
            <gpxtpx:hr>126</gpxtpx:hr>
          </gpxtpx:TrackPointExtension>
        </extensions>
      </trkpt>
      <trkpt lat="38.84004583108723" lon="121.51014062134458">
        <ele>5.646963017992675</ele>
        <time>2026-02-13T12:41:12Z</time>
        <extensions>
          <gpxtpx:TrackPointExtension>
            <gpxtpx:hr>125</gpxtpx:hr>
          </gpxtpx:TrackPointExtension>
        </extensions>
      </trkpt>
      <trkpt lat="38.84024854867942" lon="121.51029906390524">
        <ele>5.309837670996785</ele>
        <time>2026-02-13T12:41:24Z</time>
        <extensions>
          <gpxtpx:TrackPointExtension>
            <gpxtpx:hr>126</gpxtpx:hr>
          </gpxtpx:TrackPointExtension>
        </extensions>
      </trkpt>
      <trkpt lat="38.84030358069392" lon="121.5103054709482">
        <ele>6.780922060832381</ele>
        <time>2026-02-13T12:41:28Z</time>
        <extensions>
          <gpxtpx:TrackPointExtension>
            <gpxtpx:hr>126</gpxtpx:hr>
          </gpxtpx:TrackPointExtension>
        </extensions>
      </trkpt>
      <trkpt lat="38.84037640949863" lon="121.51028513659081">
        <ele>7.802449615672231</ele>
        <time>2026-02-13T12:41:34Z</time>
        <extensions>
          <gpxtpx:TrackPointExtension>
            <gpxtpx:hr>127</gpxtpx:hr>
          </gpxtpx:TrackPointExtension>
        </extensions>
      </trkpt>
      <trkpt lat="38.84038140648044" lon="121.51041436311405">
        <ele>6.682286809198558</ele>
        <time>2026-02-13T12:41:40Z</time>
        <extensions>
          <gpxtpx:TrackPointExtension>
            <gpxtpx:hr>125</gpxtpx:hr>
          </gpxtpx:TrackPointExtension>
        </extensions>
      </trkpt>
      <trkpt lat="38.84040029175586" lon="121.51047342889143">
        <ele>6.502469795756042</ele>
        <time>2026-02-13T12:41:43Z</time>
        <extensions>
          <gpxtpx:TrackPointExtension>
            <gpxtpx:hr>125</gpxtpx:hr>
          </gpxtpx:TrackPointExtension>
        </extensions>
      </trkpt>
      <trkpt lat="38.84039963230379" lon="121.51056095255508">
        <ele>6.7960648369044065</ele>
        <time>2026-02-13T12:41:46Z</time>
        <extensions>
          <gpxtpx:TrackPointExtension>
            <gpxtpx:hr>125</gpxtpx:hr>
          </gpxtpx:TrackPointExtension>
        </extensions>
      </trkpt>
      <trkpt lat="38.84047215742736" lon="121.51074062311068">
        <ele>7.0975875817239285</ele>
        <time>2026-02-13T12:41:52Z</time>
        <extensions>
          <gpxtpx:TrackPointExtension>
            <gpxtpx:hr>126</gpxtpx:hr>
          </gpxtpx:TrackPointExtension>
        </extensions>
      </trkpt>
      <trkpt lat="38.840534139636766" lon="121.51106066487567">
        <ele>9.167017230764031</ele>
        <time>2026-02-13T12:42:04Z</time>
        <extensions>
          <gpxtpx:TrackPointExtension>
            <gpxtpx:hr>126</gpxtpx:hr>
          </gpxtpx:TrackPointExtension>
        </extensions>
      </trkpt>
      <trkpt lat="38.84062801372951" lon="121.511132252949">
        <ele>9.947107512503862</ele>
        <time>2026-02-13T12:42:10Z</time>
        <extensions>
          <gpxtpx:TrackPointExtension>
            <gpxtpx:hr>125</gpxtpx:hr>
          </gpxtpx:TrackPointExtension>
        </extensions>
      </trkpt>
      <trkpt lat="38.8406990878447" lon="121.51113796990184">
        <ele>10.545265986584127</ele>
        <time>2026-02-13T12:42:16Z</time>
        <extensions>
          <gpxtpx:TrackPointExtension>
            <gpxtpx:hr>128</gpxtpx:hr>
          </gpxtpx:TrackPointExtension>
        </extensions>
      </trkpt>
      <trkpt lat="38.84095078014562" lon="121.51094731091814">
        <ele>9.459877846762538</ele>
        <time>2026-02-13T12:42:31Z</time>
        <extensions>
          <gpxtpx:TrackPointExtension>
            <gpxtpx:hr>129</gpxtpx:hr>
          </gpxtpx:TrackPointExtension>
        </extensions>
      </trkpt>
      <trkpt lat="38.841096008583634" lon="121.51080078967232">
        <ele>9.756776900030673</ele>
        <time>2026-02-13T12:42:40Z</time>
        <extensions>
          <gpxtpx:TrackPointExtension>
            <gpxtpx:hr>128</gpxtpx:hr>
          </gpxtpx:TrackPointExtension>
        </extensions>
      </trkpt>
      <trkpt lat="38.84128083740698" lon="121.51071825072194">
        <ele>8.771686066873372</ele>
        <time>2026-02-13T12:42:49Z</time>
        <extensions>
          <gpxtpx:TrackPointExtension>
            <gpxtpx:hr>135</gpxtpx:hr>
          </gpxtpx:TrackPointExtension>
        </extensions>
      </trkpt>
      <trkpt lat="38.84146105321372" lon="121.51074100189328">
        <ele>15.03556100744754</ele>
        <time>2026-02-13T12:42:58Z</time>
        <extensions>
          <gpxtpx:TrackPointExtension>
            <gpxtpx:hr>132</gpxtpx:hr>
          </gpxtpx:TrackPointExtension>
        </extensions>
      </trkpt>
      <trkpt lat="38.84158626200924" lon="121.51086349519213">
        <ele>12.449603040702641</ele>
        <time>2026-02-13T12:43:07Z</time>
        <extensions>
          <gpxtpx:TrackPointExtension>
            <gpxtpx:hr>133</gpxtpx:hr>
          </gpxtpx:TrackPointExtension>
        </extensions>
      </trkpt>
      <trkpt lat="38.84165533782965" lon="121.51088138418591">
        <ele>12.42091455962509</ele>
        <time>2026-02-13T12:43:11Z</time>
        <extensions>
          <gpxtpx:TrackPointExtension>
            <gpxtpx:hr>130</gpxtpx:hr>
          </gpxtpx:TrackPointExtension>
        </extensions>
      </trkpt>
      <trkpt lat="38.84179645317652" lon="121.51085484970172">
        <ele>12.270678729750216</ele>
        <time>2026-02-13T12:43:19Z</time>
        <extensions>
          <gpxtpx:TrackPointExtension>
            <gpxtpx:hr>130</gpxtpx:hr>
          </gpxtpx:TrackPointExtension>
        </extensions>
      </trkpt>
      <trkpt lat="38.84208993091671" lon="121.51074868399179">
        <ele>12.71471734251827</ele>
        <time>2026-02-13T12:43:34Z</time>
        <extensions>
          <gpxtpx:TrackPointExtension>
            <gpxtpx:hr>128</gpxtpx:hr>
          </gpxtpx:TrackPointExtension>
        </extensions>
      </trkpt>
      <trkpt lat="38.84235785392235" lon="121.51059446909842">
        <ele>15.519546481780708</ele>
        <time>2026-02-13T12:43:49Z</time>
        <extensions>
          <gpxtpx:TrackPointExtension>
            <gpxtpx:hr>133</gpxtpx:hr>
          </gpxtpx:TrackPointExtension>
        </extensions>
      </trkpt>
      <trkpt lat="38.84257916973159" lon="121.510470597142">
        <ele>15.123611708171666</ele>
        <time>2026-02-13T12:44:01Z</time>
        <extensions>
          <gpxtpx:TrackPointExtension>
            <gpxtpx:hr>133</gpxtpx:hr>
          </gpxtpx:TrackPointExtension>
        </extensions>
      </trkpt>
      <trkpt lat="38.84268197453053" lon="121.51036092936307">
        <ele>14.483817870728672</ele>
        <time>2026-02-13T12:44:07Z</time>
        <extensions>
          <gpxtpx:TrackPointExtension>
            <gpxtpx:hr>133</gpxtpx:hr>
          </gpxtpx:TrackPointExtension>
        </extensions>
      </trkpt>
      <trkpt lat="38.84274475651619" lon="121.51021630103803">
        <ele>15.602127188816667</ele>
        <time>2026-02-13T12:44:16Z</time>
        <extensions>
          <gpxtpx:TrackPointExtension>
            <gpxtpx:hr>139</gpxtpx:hr>
          </gpxtpx:TrackPointExtension>
        </extensions>
      </trkpt>
      <trkpt lat="38.84274135696578" lon="121.51013014704887">
        <ele>15.754824634641409</ele>
        <time>2026-02-13T12:44:19Z</time>
        <extensions>
          <gpxtpx:TrackPointExtension>
            <gpxtpx:hr>139</gpxtpx:hr>
          </gpxtpx:TrackPointExtension>
        </extensions>
      </trkpt>
      <trkpt lat="38.84268201957761" lon="121.50999527500018">
        <ele>16.79357996303588</ele>
        <time>2026-02-13T12:44:25Z</time>
        <extensions>
          <gpxtpx:TrackPointExtension>
            <gpxtpx:hr>139</gpxtpx:hr>
          </gpxtpx:TrackPointExtension>
        </extensions>
      </trkpt>
      <trkpt lat="38.842704994208205" lon="121.50993986032482">
        <ele>16.483106777071953</ele>
        <time>2026-02-13T12:44:28Z</time>
        <extensions>
          <gpxtpx:TrackPointExtension>
            <gpxtpx:hr>137</gpxtpx:hr>
          </gpxtpx:TrackPointExtension>
        </extensions>
      </trkpt>
      <trkpt lat="38.84261880865929" lon="121.50969039655956">
        <ele>14.244287764653563</ele>
        <time>2026-02-13T12:44:40Z</time>
        <extensions>
          <gpxtpx:TrackPointExtension>
            <gpxtpx:hr>138</gpxtpx:hr>
          </gpxtpx:TrackPointExtension>
        </extensions>
      </trkpt>
      <trkpt lat="38.84245578526051" lon="121.509588295192">
        <ele>12.720113036222756</ele>
        <time>2026-02-13T12:44:49Z</time>
        <extensions>
          <gpxtpx:TrackPointExtension>
            <gpxtpx:hr>136</gpxtpx:hr>
          </gpxtpx:TrackPointExtension>
        </extensions>
      </trkpt>
      <trkpt lat="38.84225184532048" lon="121.50924863304043">
        <ele>8.894802957773209</ele>
        <time>2026-02-13T12:45:04Z</time>
        <extensions>
          <gpxtpx:TrackPointExtension>
            <gpxtpx:hr>137</gpxtpx:hr>
          </gpxtpx:TrackPointExtension>
        </extensions>
      </trkpt>
      <trkpt lat="38.842089677610616" lon="121.50894741917847">
        <ele>10.6989102140069</ele>
        <time>2026-02-13T12:45:17Z</time>
        <extensions>
          <gpxtpx:TrackPointExtension>
            <gpxtpx:hr>136</gpxtpx:hr>
          </gpxtpx:TrackPointExtension>
        </extensions>
      </trkpt>
      <trkpt lat="38.84193825049574" lon="121.50857996118332">
        <ele>11.482197733595967</ele>
        <time>2026-02-13T12:45:32Z</time>
        <extensions>
          <gpxtpx:TrackPointExtension>
            <gpxtpx:hr>137</gpxtpx:hr>
          </gpxtpx:TrackPointExtension>
        </extensions>
      </trkpt>
      <trkpt lat="38.841793782122366" lon="121.5082898179563">
        <ele>10.320933038368821</ele>
        <time>2026-02-13T12:45:44Z</time>
        <extensions>
          <gpxtpx:TrackPointExtension>
            <gpxtpx:hr>135</gpxtpx:hr>
          </gpxtpx:TrackPointExtension>
        </extensions>
      </trkpt>
      <trkpt lat="38.84178621237565" lon="121.50821513508743">
        <ele>10.92613691650331</ele>
        <time>2026-02-13T12:45:47Z</time>
        <extensions>
          <gpxtpx:TrackPointExtension>
            <gpxtpx:hr>138</gpxtpx:hr>
          </gpxtpx:TrackPointExtension>
        </extensions>
      </trkpt>
      <trkpt lat="38.84174386780399" lon="121.50813625167186">
        <ele>11.392786518670619</ele>
        <time>2026-02-13T12:45:50Z</time>
        <extensions>
          <gpxtpx:TrackPointExtension>
            <gpxtpx:hr>138</gpxtpx:hr>
          </gpxtpx:TrackPointExtension>
        </extensions>
      </trkpt>
      <trkpt lat="38.84163492903122" lon="121.50780610599966">
        <ele>11.568006810732186</ele>
        <time>2026-02-13T12:46:02Z</time>
        <extensions>
          <gpxtpx:TrackPointExtension>
            <gpxtpx:hr>139</gpxtpx:hr>
          </gpxtpx:TrackPointExtension>
        </extensions>
      </trkpt>
      <trkpt lat="38.84151168167919" lon="121.5075065674646">
        <ele>13.551388388499618</ele>
        <time>2026-02-13T12:46:14Z</time>
        <extensions>
          <gpxtpx:TrackPointExtension>
            <gpxtpx:hr>141</gpxtpx:hr>
          </gpxtpx:TrackPointExtension>
        </extensions>
      </trkpt>
      <trkpt lat="38.84145618972718" lon="121.50714362424608">
        <ele>13.574679670855403</ele>
        <time>2026-02-13T12:46:26Z</time>
        <extensions>
          <gpxtpx:TrackPointExtension>
            <gpxtpx:hr>140</gpxtpx:hr>
          </gpxtpx:TrackPointExtension>
        </extensions>
      </trkpt>
      <trkpt lat="38.841432573351014" lon="121.50673905520748">
        <ele>10.39538208115846</ele>
        <time>2026-02-13T12:46:41Z</time>
        <extensions>
          <gpxtpx:TrackPointExtension>
            <gpxtpx:hr>140</gpxtpx:hr>
          </gpxtpx:TrackPointExtension>
        </extensions>
      </trkpt>
      <trkpt lat="38.841427539443075" lon="121.50665587449384">
        <ele>10.386299915611744</ele>
        <time>2026-02-13T12:46:44Z</time>
        <extensions>
          <gpxtpx:TrackPointExtension>
            <gpxtpx:hr>140</gpxtpx:hr>
          </gpxtpx:TrackPointExtension>
        </extensions>
      </trkpt>
      <trkpt lat="38.84136350221771" lon="121.50651646427978">
        <ele>10.102648274041712</ele>
        <time>2026-02-13T12:46:50Z</time>
        <extensions>
          <gpxtpx:TrackPointExtension>
            <gpxtpx:hr>139</gpxtpx:hr>
          </gpxtpx:TrackPointExtension>
        </extensions>
      </trkpt>
      <trkpt lat="38.84115127287813" lon="121.50633044873425">
        <ele>10.492745491676033</ele>
        <time>2026-02-13T12:47:02Z</time>
        <extensions>
          <gpxtpx:TrackPointExtension>
            <gpxtpx:hr>140</gpxtpx:hr>
          </gpxtpx:TrackPointExtension>
        </extensions>
      </trkpt>
      <trkpt lat="38.84110596373338" lon="121.50626179037039">
        <ele>10.246427306905389</ele>
        <time>2026-02-13T12:47:05Z</time>
        <extensions>
          <gpxtpx:TrackPointExtension>
            <gpxtpx:hr>142</gpxtpx:hr>
          </gpxtpx:TrackPointExtension>
        </extensions>
      </trkpt>
      <trkpt lat="38.8408443842052" lon="121.50600771207496">
        <ele>11.261905880644917</ele>
        <time>2026-02-13T12:47:20Z</time>
        <extensions>
          <gpxtpx:TrackPointExtension>
            <gpxtpx:hr>144</gpxtpx:hr>
          </gpxtpx:TrackPointExtension>
        </extensions>
      </trkpt>
      <trkpt lat="38.84060709132732" lon="121.50580428617317">
        <ele>11.215932725928724</ele>
        <time>2026-02-13T12:47:32Z</time>
        <extensions>
          <gpxtpx:TrackPointExtension>
            <gpxtpx:hr>144</gpxtpx:hr>
          </gpxtpx:TrackPointExtension>
        </extensions>
      </trkpt>
      <trkpt lat="38.84052820024235" lon="121.50563200603914">
        <ele>11.93584343791008</ele>
        <time>2026-02-13T12:47:39Z</time>
        <extensions>
          <gpxtpx:TrackPointExtension>
            <gpxtpx:hr>146</gpxtpx:hr>
          </gpxtpx:TrackPointExtension>
        </extensions>
      </trkpt>
      <trkpt lat="38.84055551673557" lon="121.50547972302527">
        <ele>11.22045953758061</ele>
        <time>2026-02-13T12:47:45Z</time>
        <extensions>
          <gpxtpx:TrackPointExtension>
            <gpxtpx:hr>146</gpxtpx:hr>
          </gpxtpx:TrackPointExtension>
        </extensions>
      </trkpt>
      <trkpt lat="38.84055755127717" lon="121.50538029986465">
        <ele>11.467953492887318</ele>
        <time>2026-02-13T12:47:48Z</time>
        <extensions>
          <gpxtpx:TrackPointExtension>
            <gpxtpx:hr>144</gpxtpx:hr>
          </gpxtpx:TrackPointExtension>
        </extensions>
      </trkpt>
      <trkpt lat="38.84059237159641" lon="121.50521484684725">
        <ele>10.857751308940351</ele>
        <time>2026-02-13T12:47:54Z</time>
        <extensions>
          <gpxtpx:TrackPointExtension>
            <gpxtpx:hr>144</gpxtpx:hr>
          </gpxtpx:TrackPointExtension>
        </extensions>
      </trkpt>
      <trkpt lat="38.84062069626302" lon="121.50514562519058">
        <ele>10.365571247413754</ele>
        <time>2026-02-13T12:47:57Z</time>
        <extensions>
          <gpxtpx:TrackPointExtension>
            <gpxtpx:hr>144</gpxtpx:hr>
          </gpxtpx:TrackPointExtension>
        </extensions>
      </trkpt>
      <trkpt lat="38.84068341724416" lon="121.50509655823254">
        <ele>10.044948463328183</ele>
        <time>2026-02-13T12:48:00Z</time>
        <extensions>
          <gpxtpx:TrackPointExtension>
            <gpxtpx:hr>144</gpxtpx:hr>
          </gpxtpx:TrackPointExtension>
        </extensions>
      </trkpt>
      <trkpt lat="38.840871077625565" lon="121.50482808825707">
        <ele>7.359112641774118</ele>
        <time>2026-02-13T12:48:15Z</time>
        <extensions>
          <gpxtpx:TrackPointExtension>
            <gpxtpx:hr>143</gpxtpx:hr>
          </gpxtpx:TrackPointExtension>
        </extensions>
      </trkpt>
      <trkpt lat="38.84106709760872" lon="121.50451841231263">
        <ele>8.47965376265347</ele>
        <time>2026-02-13T12:48:30Z</time>
        <extensions>
          <gpxtpx:TrackPointExtension>
            <gpxtpx:hr>142</gpxtpx:hr>
          </gpxtpx:TrackPointExtension>
        </extensions>
      </trkpt>
      <trkpt lat="38.841076460044704" lon="121.50410591929092">
        <ele>7.265398378483951</ele>
        <time>2026-02-13T12:48:45Z</time>
        <extensions>
          <gpxtpx:TrackPointExtension>
            <gpxtpx:hr>143</gpxtpx:hr>
          </gpxtpx:TrackPointExtension>
        </extensions>
      </trkpt>
      <trkpt lat="38.84108633279205" lon="121.50369018915683">
        <ele>7.464922199957073</ele>
        <time>2026-02-13T12:49:00Z</time>
        <extensions>
          <gpxtpx:TrackPointExtension>
            <gpxtpx:hr>142</gpxtpx:hr>
          </gpxtpx:TrackPointExtension>
        </extensions>
      </trkpt>
      <trkpt lat="38.84108122570228" lon="121.50352058600517">
        <ele>7.392361979931593</ele>
        <time>2026-02-13T12:49:06Z</time>
        <extensions>
          <gpxtpx:TrackPointExtension>
            <gpxtpx:hr>142</gpxtpx:hr>
          </gpxtpx:TrackPointExtension>
        </extensions>
      </trkpt>
      <trkpt lat="38.84101633692694" lon="121.50346259543733">
        <ele>8.842598398216069</ele>
        <time>2026-02-13T12:49:09Z</time>
        <extensions>
          <gpxtpx:TrackPointExtension>
            <gpxtpx:hr>142</gpxtpx:hr>
          </gpxtpx:TrackPointExtension>
        </extensions>
      </trkpt>
      <trkpt lat="38.84094958524568" lon="121.50345422936473">
        <ele>8.900438295677304</ele>
        <time>2026-02-13T12:49:12Z</time>
        <extensions>
          <gpxtpx:TrackPointExtension>
            <gpxtpx:hr>141</gpxtpx:hr>
          </gpxtpx:TrackPointExtension>
        </extensions>
      </trkpt>
      <trkpt lat="38.84077397726951" lon="121.5033881900474">
        <ele>6.792651538737118</ele>
        <time>2026-02-13T12:49:21Z</time>
        <extensions>
          <gpxtpx:TrackPointExtension>
            <gpxtpx:hr>141</gpxtpx:hr>
          </gpxtpx:TrackPointExtension>
        </extensions>
      </trkpt>
      <trkpt lat="38.84046900022203" lon="121.50342171874978">
        <ele>8.528822436928749</ele>
        <time>2026-02-13T12:49:35Z</time>
        <extensions>
          <gpxtpx:TrackPointExtension>
            <gpxtpx:hr>140</gpxtpx:hr>
          </gpxtpx:TrackPointExtension>
        </extensions>
      </trkpt>
      <trkpt lat="38.84040507202781" lon="121.50342902997839">
        <ele>10.069838184863329</ele>
        <time>2026-02-13T12:49:39Z</time>
        <extensions>
          <gpxtpx:TrackPointExtension>
            <gpxtpx:hr>140</gpxtpx:hr>
          </gpxtpx:TrackPointExtension>
        </extensions>
      </trkpt>
      <trkpt lat="38.840107485544806" lon="121.50337060674524">
        <ele>8.825842106714845</ele>
        <time>2026-02-13T12:49:54Z</time>
        <extensions>
          <gpxtpx:TrackPointExtension>
            <gpxtpx:hr>138</gpxtpx:hr>
          </gpxtpx:TrackPointExtension>
        </extensions>
      </trkpt>
      <trkpt lat="38.839985139643915" lon="121.50332303623414">
        <ele>9.408347171731293</ele>
        <time>2026-02-13T12:50:00Z</time>
        <extensions>
          <gpxtpx:TrackPointExtension>
            <gpxtpx:hr>139</gpxtpx:hr>
          </gpxtpx:TrackPointExtension>
        </extensions>
      </trkpt>
      <trkpt lat="38.839847626513134" lon="121.5033471365616">
        <ele>9.469734894111753</ele>
        <time>2026-02-13T12:50:06Z</time>
        <extensions>
          <gpxtpx:TrackPointExtension>
            <gpxtpx:hr>138</gpxtpx:hr>
          </gpxtpx:TrackPointExtension>
        </extensions>
      </trkpt>
      <trkpt lat="38.83971643773271" lon="121.50332832163703">
        <ele>10.002803872339427</ele>
        <time>2026-02-13T12:50:12Z</time>
        <extensions>
          <gpxtpx:TrackPointExtension>
            <gpxtpx:hr>137</gpxtpx:hr>
          </gpxtpx:TrackPointExtension>
        </extensions>
      </trkpt>
      <trkpt lat="38.83965984541096" lon="121.5033372073031">
        <ele>10.027361489832401</ele>
        <time>2026-02-13T12:50:15Z</time>
        <extensions>
          <gpxtpx:TrackPointExtension>
            <gpxtpx:hr>137</gpxtpx:hr>
          </gpxtpx:TrackPointExtension>
        </extensions>
      </trkpt>
      <trkpt lat="38.83941165817039" lon="121.50330003249971">
        <ele>8.88016820512712</ele>
        <time>2026-02-13T12:50:27Z</time>
        <extensions>
          <gpxtpx:TrackPointExtension>
            <gpxtpx:hr>138</gpxtpx:hr>
          </gpxtpx:TrackPointExtension>
        </extensions>
      </trkpt>
      <trkpt lat="38.83923435388869" lon="121.50324416201073">
        <ele>8.3891168711707</ele>
        <time>2026-02-13T12:50:36Z</time>
        <extensions>
          <gpxtpx:TrackPointExtension>
            <gpxtpx:hr>140</gpxtpx:hr>
          </gpxtpx:TrackPointExtension>
        </extensions>
      </trkpt>
      <trkpt lat="38.83917327471663" lon="121.50326705096776">
        <ele>8.624749446287751</ele>
        <time>2026-02-13T12:50:39Z</time>
        <extensions>
          <gpxtpx:TrackPointExtension>
            <gpxtpx:hr>140</gpxtpx:hr>
          </gpxtpx:TrackPointExtension>
        </extensions>
      </trkpt>
      <trkpt lat="38.839120955003274" lon="121.50325830132496">
        <ele>8.726554254069924</ele>
        <time>2026-02-13T12:50:42Z</time>
        <extensions>
          <gpxtpx:TrackPointExtension>
            <gpxtpx:hr>138</gpxtpx:hr>
          </gpxtpx:TrackPointExtension>
        </extensions>
      </trkpt>
      <trkpt lat="38.838992363137" lon="121.50329728510896">
        <ele>7.157541244290769</ele>
        <time>2026-02-13T12:50:48Z</time>
        <extensions>
          <gpxtpx:TrackPointExtension>
            <gpxtpx:hr>140</gpxtpx:hr>
          </gpxtpx:TrackPointExtension>
        </extensions>
      </trkpt>
      <trkpt lat="38.838921809896775" lon="121.50329262210684">
        <ele>6.968908345326781</ele>
        <time>2026-02-13T12:50:51Z</time>
        <extensions>
          <gpxtpx:TrackPointExtension>
            <gpxtpx:hr>140</gpxtpx:hr>
          </gpxtpx:TrackPointExtension>
        </extensions>
      </trkpt>
      <trkpt lat="38.83872887338418" lon="121.50339796494835">
        <ele>7.8886596374213696</ele>
        <time>2026-02-13T12:51:00Z</time>
        <extensions>
          <gpxtpx:TrackPointExtension>
            <gpxtpx:hr>142</gpxtpx:hr>
          </gpxtpx:TrackPointExtension>
        </extensions>
      </trkpt>
      <trkpt lat="38.83870713412715" lon="121.50346581031536">
        <ele>7.8394962614402175</ele>
        <time>2026-02-13T12:51:03Z</time>
        <extensions>
          <gpxtpx:TrackPointExtension>
            <gpxtpx:hr>142</gpxtpx:hr>
          </gpxtpx:TrackPointExtension>
        </extensions>
      </trkpt>
      <trkpt lat="38.83874169309533" lon="121.50353480820932">
        <ele>7.688228094950318</ele>
        <time>2026-02-13T12:51:06Z</time>
        <extensions>
          <gpxtpx:TrackPointExtension>
            <gpxtpx:hr>142</gpxtpx:hr>
          </gpxtpx:TrackPointExtension>
        </extensions>
      </trkpt>
      <trkpt lat="38.838766762918745" lon="121.503923626893">
        <ele>7.785899779759347</ele>
        <time>2026-02-13T12:51:21Z</time>
        <extensions>
          <gpxtpx:TrackPointExtension>
            <gpxtpx:hr>141</gpxtpx:hr>
          </gpxtpx:TrackPointExtension>
        </extensions>
      </trkpt>
      <trkpt lat="38.83878276597586" lon="121.50407539535314">
        <ele>9.047210856340826</ele>
        <time>2026-02-13T12:51:27Z</time>
        <extensions>
          <gpxtpx:TrackPointExtension>
            <gpxtpx:hr>140</gpxtpx:hr>
          </gpxtpx:TrackPointExtension>
        </extensions>
      </trkpt>
      <trkpt lat="38.838588391580366" lon="121.5043738685358">
        <ele>8.77719556260854</ele>
        <time>2026-02-13T12:51:43Z</time>
        <extensions>
          <gpxtpx:TrackPointExtension>
            <gpxtpx:hr>141</gpxtpx:hr>
          </gpxtpx:TrackPointExtension>
        </extensions>
      </trkpt>
      <trkpt lat="38.83850548777" lon="121.50449849157829">
        <ele>8.800754074007273</ele>
        <time>2026-02-13T12:51:49Z</time>
        <extensions>
          <gpxtpx:TrackPointExtension>
            <gpxtpx:hr>140</gpxtpx:hr>
          </gpxtpx:TrackPointExtension>
        </extensions>
      </trkpt>
      <trkpt lat="38.83842725485738" lon="121.50459084885806">
        <ele>9.288347685709596</ele>
        <time>2026-02-13T12:51:55Z</time>
        <extensions>
          <gpxtpx:TrackPointExtension>
            <gpxtpx:hr>140</gpxtpx:hr>
          </gpxtpx:TrackPointExtension>
        </extensions>
      </trkpt>
      <trkpt lat="38.838335730245255" lon="121.50480153224663">
        <ele>9.892095423303545</ele>
        <time>2026-02-13T12:52:04Z</time>
        <extensions>
          <gpxtpx:TrackPointExtension>
            <gpxtpx:hr>141</gpxtpx:hr>
          </gpxtpx:TrackPointExtension>
        </extensions>
      </trkpt>
      <trkpt lat="38.83832802291134" lon="121.50488446037487">
        <ele>10.561032950878143</ele>
        <time>2026-02-13T12:52:07Z</time>
        <extensions>
          <gpxtpx:TrackPointExtension>
            <gpxtpx:hr>141</gpxtpx:hr>
          </gpxtpx:TrackPointExtension>
        </extensions>
      </trkpt>
      <trkpt lat="38.8382977205755" lon="121.50494355342167">
        <ele>10.125464818440378</ele>
        <time>2026-02-13T12:52:10Z</time>
        <extensions>
          <gpxtpx:TrackPointExtension>
            <gpxtpx:hr>141</gpxtpx:hr>
          </gpxtpx:TrackPointExtension>
        </extensions>
      </trkpt>
      <trkpt lat="38.838205408610726" lon="121.50504860433227">
        <ele>10.088916612789035</ele>
        <time>2026-02-13T12:52:16Z</time>
        <extensions>
          <gpxtpx:TrackPointExtension>
            <gpxtpx:hr>140</gpxtpx:hr>
          </gpxtpx:TrackPointExtension>
        </extensions>
      </trkpt>
      <trkpt lat="38.838178485277" lon="121.50512086716417">
        <ele>10.949400078505278</ele>
        <time>2026-02-13T12:52:19Z</time>
        <extensions>
          <gpxtpx:TrackPointExtension>
            <gpxtpx:hr>140</gpxtpx:hr>
          </gpxtpx:TrackPointExtension>
        </extensions>
      </trkpt>
      <trkpt lat="38.83819225768104" lon="121.50525343790021">
        <ele>10.408222339116037</ele>
        <time>2026-02-13T12:52:25Z</time>
        <extensions>
          <gpxtpx:TrackPointExtension>
            <gpxtpx:hr>141</gpxtpx:hr>
          </gpxtpx:TrackPointExtension>
        </extensions>
      </trkpt>
      <trkpt lat="38.838231047854656" lon="121.50528960329693">
        <ele>8.874531778506935</ele>
        <time>2026-02-13T12:52:28Z</time>
        <extensions>
          <gpxtpx:TrackPointExtension>
            <gpxtpx:hr>141</gpxtpx:hr>
          </gpxtpx:TrackPointExtension>
        </extensions>
      </trkpt>
      <trkpt lat="38.838271135684224" lon="121.50542180604128">
        <ele>9.888852532021701</ele>
        <time>2026-02-13T12:52:34Z</time>
        <extensions>
          <gpxtpx:TrackPointExtension>
            <gpxtpx:hr>141</gpxtpx:hr>
          </gpxtpx:TrackPointExtension>
        </extensions>
      </trkpt>
      <trkpt lat="38.838441163572476" lon="121.50561792679933">
        <ele>11.015024964697659</ele>
        <time>2026-02-13T12:52:46Z</time>
        <extensions>
          <gpxtpx:TrackPointExtension>
            <gpxtpx:hr>142</gpxtpx:hr>
          </gpxtpx:TrackPointExtension>
        </extensions>
      </trkpt>
      <trkpt lat="38.83852719572059" lon="121.50568769773307">
        <ele>10.10493921674788</ele>
        <time>2026-02-13T12:52:55Z</time>
        <extensions>
          <gpxtpx:TrackPointExtension>
            <gpxtpx:hr>144</gpxtpx:hr>
          </gpxtpx:TrackPointExtension>
        </extensions>
      </trkpt>
    </trkseg>
  </trk>
</gpx>