<?xml version="1.0" encoding="UTF-8"?>
<gpx xmlns="http://www.topografix.com/GPX/1/1" xmlns:gpxtpx="http://www.garmin.com/xmlschemas/TrackPointExtension/v1" xmlns:xsi="http://www.w3.org/2001/XMLSchema-instance" xsi:schemaLocation="http://www.topografix.com/GPX/1/1 http://www.topografix.com/GPX/1/1/gpx.xsd" version="1.1" creator="gpx.py -- https://github.com/tkrajina/gpxpy">
  <trk>
    <name>gpx from keep</name>
    <type>Run</type>
    <trkseg>
      <trkpt lat="38.83884117253775" lon="121.50587368679255">
        <ele>12.96831464767456</ele>
        <time>2024-11-13T15:35:09Z</time>
      </trkpt>
      <trkpt lat="38.838865511769306" lon="121.50593078060326">
        <ele>11.592948470264673</ele>
        <time>2024-11-13T15:35:15Z</time>
      </trkpt>
      <trkpt lat="38.838801620925274" lon="121.50620855584157">
        <ele>13.97557819262147</ele>
        <time>2024-11-13T15:35:27Z</time>
      </trkpt>
      <trkpt lat="38.838742175943686" lon="121.50628141039851">
        <ele>12.479421120136976</ele>
        <time>2024-11-13T15:35:30Z</time>
      </trkpt>
      <trkpt lat="38.83867728808656" lon="121.50631269410053">
        <ele>11.729609424248338</ele>
        <time>2024-11-13T15:35:33Z</time>
      </trkpt>
      <trkpt lat="38.83863865478231" lon="121.50637832250456">
        <ele>12.102638418786228</ele>
        <time>2024-11-13T15:35:36Z</time>
      </trkpt>
      <trkpt lat="38.838571910035505" lon="121.50641451540467">
        <ele>11.484691457822919</ele>
        <time>2024-11-13T15:35:39Z</time>
      </trkpt>
      <trkpt lat="38.83856756079666" lon="121.50649858282067">
        <ele>11.539353005588055</ele>
        <time>2024-11-13T15:35:42Z</time>
      </trkpt>
      <trkpt lat="38.83853931801112" lon="121.50658480127446">
        <ele>12.722818705253303</ele>
        <time>2024-11-13T15:35:45Z</time>
      </trkpt>
      <trkpt lat="38.83834996494276" lon="121.50690404249883">
        <ele>11.370035941712558</ele>
        <time>2024-11-13T15:36:00Z</time>
      </trkpt>
      <trkpt lat="38.83820063254778" lon="121.50717462742155">
        <ele>11.442312313243747</ele>
        <time>2024-11-13T15:36:12Z</time>
      </trkpt>
      <trkpt lat="38.83803352061438" lon="121.50742662018068">
        <ele>10.545732719823718</ele>
        <time>2024-11-13T15:36:24Z</time>
      </trkpt>
      <trkpt lat="38.837996246319236" lon="121.50753717097327">
        <ele>10.70524261239916</ele>
        <time>2024-11-13T15:36:28Z</time>
      </trkpt>
      <trkpt lat="38.83778562580943" lon="121.50789659596045">
        <ele>9.348707815632224</ele>
        <time>2024-11-13T15:36:44Z</time>
      </trkpt>
      <trkpt lat="38.83768429435908" lon="121.50807979650254">
        <ele>10.408223348669708</ele>
        <time>2024-11-13T15:36:52Z</time>
      </trkpt>
      <trkpt lat="38.83758503109044" lon="121.5081522177818">
        <ele>10.857852307148278</ele>
        <time>2024-11-13T15:37:04Z</time>
      </trkpt>
      <trkpt lat="38.83755634388008" lon="121.50824387508082">
        <ele>10.319350203499198</ele>
        <time>2024-11-13T15:37:08Z</time>
      </trkpt>
      <trkpt lat="38.837591105450755" lon="121.50832946342186">
        <ele>10.72631258238107</ele>
        <time>2024-11-13T15:37:11Z</time>
      </trkpt>
      <trkpt lat="38.837648014971485" lon="121.50841261911259">
        <ele>10.3653669282794</ele>
        <time>2024-11-13T15:37:15Z</time>
      </trkpt>
      <trkpt lat="38.837497648059454" lon="121.50882998801104">
        <ele>8.866600289009511</ele>
        <time>2024-11-13T15:37:31Z</time>
      </trkpt>
      <trkpt lat="38.83737945417842" lon="121.50901855460685">
        <ele>10.050538058392704</ele>
        <time>2024-11-13T15:37:39Z</time>
      </trkpt>
      <trkpt lat="38.837191891314696" lon="121.50923596332117">
        <ele>9.526543708518147</ele>
        <time>2024-11-13T15:37:51Z</time>
      </trkpt>
      <trkpt lat="38.83705667679906" lon="121.50951607069369">
        <ele>9.791347870603204</ele>
        <time>2024-11-13T15:38:03Z</time>
      </trkpt>
      <trkpt lat="38.83699107698647" lon="121.50972347745969">
        <ele>10.771080620586872</ele>
        <time>2024-11-13T15:38:11Z</time>
      </trkpt>
      <trkpt lat="38.836865333402734" lon="121.50989324864042">
        <ele>10.71100040152669</ele>
        <time>2024-11-13T15:38:19Z</time>
      </trkpt>
      <trkpt lat="38.83654623204912" lon="121.51000415913228">
        <ele>10.636143172159791</ele>
        <time>2024-11-13T15:38:35Z</time>
      </trkpt>
      <trkpt lat="38.83649790979711" lon="121.51009914619462">
        <ele>9.324006975628436</ele>
        <time>2024-11-13T15:38:39Z</time>
      </trkpt>
      <trkpt lat="38.83653295604452" lon="121.51031115134786">
        <ele>9.328165552578866</ele>
        <time>2024-11-13T15:38:47Z</time>
      </trkpt>
      <trkpt lat="38.836581379755195" lon="121.5104050434261">
        <ele>8.516930159181356</ele>
        <time>2024-11-13T15:38:51Z</time>
      </trkpt>
      <trkpt lat="38.83675725541827" lon="121.51051976077055">
        <ele>9.269523423165083</ele>
        <time>2024-11-13T15:38:59Z</time>
      </trkpt>
      <trkpt lat="38.8368844942655" lon="121.51066848516895">
        <ele>8.533136113546789</ele>
        <time>2024-11-13T15:39:07Z</time>
      </trkpt>
      <trkpt lat="38.83696368796928" lon="121.51084589466295">
        <ele>7.788825511932373</ele>
        <time>2024-11-13T15:39:14Z</time>
      </trkpt>
      <trkpt lat="38.83701132405606" lon="121.51089175896907">
        <ele>6.131008055061102</ele>
        <time>2024-11-13T15:39:17Z</time>
      </trkpt>
      <trkpt lat="38.837093566370534" lon="121.51081292077599">
        <ele>7.129897698760033</ele>
        <time>2024-11-13T15:39:21Z</time>
      </trkpt>
      <trkpt lat="38.83718929994496" lon="121.51063736180603">
        <ele>9.011088044382632</ele>
        <time>2024-11-13T15:39:28Z</time>
      </trkpt>
      <trkpt lat="38.837379534496264" lon="121.5103902736583">
        <ele>10.968222165480256</ele>
        <time>2024-11-13T15:39:40Z</time>
      </trkpt>
      <trkpt lat="38.83752333358962" lon="121.51023670564554">
        <ele>9.595780149102211</ele>
        <time>2024-11-13T15:39:48Z</time>
      </trkpt>
      <trkpt lat="38.837675472280196" lon="121.51011674991605">
        <ele>9.916405417956412</ele>
        <time>2024-11-13T15:39:56Z</time>
      </trkpt>
      <trkpt lat="38.83772840846192" lon="121.51000920669465">
        <ele>11.31916562281549</ele>
        <time>2024-11-13T15:40:00Z</time>
      </trkpt>
      <trkpt lat="38.83772650143394" lon="121.50989892181185">
        <ele>11.588017008267343</ele>
        <time>2024-11-13T15:40:04Z</time>
      </trkpt>
      <trkpt lat="38.8376804853471" lon="121.50979779248478">
        <ele>11.0598683077842</ele>
        <time>2024-11-13T15:40:08Z</time>
      </trkpt>
      <trkpt lat="38.8374937565296" lon="121.50974203910087">
        <ele>10.549912959337234</ele>
        <time>2024-11-13T15:40:16Z</time>
      </trkpt>
      <trkpt lat="38.83741621004392" lon="121.50966677628125">
        <ele>10.075724406167865</ele>
        <time>2024-11-13T15:40:20Z</time>
      </trkpt>
      <trkpt lat="38.837301954308245" lon="121.50947780968568">
        <ele>10.123086798936129</ele>
        <time>2024-11-13T15:40:28Z</time>
      </trkpt>
      <trkpt lat="38.837220230353545" lon="121.50939019623821">
        <ele>9.906218566000462</ele>
        <time>2024-11-13T15:40:32Z</time>
      </trkpt>
      <trkpt lat="38.83720008191582" lon="121.50927062572035">
        <ele>9.49445808492601</ele>
        <time>2024-11-13T15:40:36Z</time>
      </trkpt>
      <trkpt lat="38.837235305669324" lon="121.50913441087917">
        <ele>9.791910137049854</ele>
        <time>2024-11-13T15:40:40Z</time>
      </trkpt>
      <trkpt lat="38.83744595491588" lon="121.50889176357538">
        <ele>10.050550496205688</ele>
        <time>2024-11-13T15:40:52Z</time>
      </trkpt>
      <trkpt lat="38.83754040991818" lon="121.50868465742114">
        <ele>10.336645846255124</ele>
        <time>2024-11-13T15:41:00Z</time>
      </trkpt>
      <trkpt lat="38.837603003077604" lon="121.50845415133097">
        <ele>10.633964955806732</ele>
        <time>2024-11-13T15:41:08Z</time>
      </trkpt>
      <trkpt lat="38.8376564723383" lon="121.50833585412138">
        <ele>11.700322543270886</ele>
        <time>2024-11-13T15:41:12Z</time>
      </trkpt>
      <trkpt lat="38.83759442617635" lon="121.50824303900556">
        <ele>11.065145193599164</ele>
        <time>2024-11-13T15:41:16Z</time>
      </trkpt>
      <trkpt lat="38.837590695815805" lon="121.50812874502392">
        <ele>10.512559636496007</ele>
        <time>2024-11-13T15:41:20Z</time>
      </trkpt>
      <trkpt lat="38.837681978351085" lon="121.50805096630063">
        <ele>10.478734330274165</ele>
        <time>2024-11-13T15:41:24Z</time>
      </trkpt>
      <trkpt lat="38.83781476181481" lon="121.50787613548881">
        <ele>11.088347029872239</ele>
        <time>2024-11-13T15:41:32Z</time>
      </trkpt>
      <trkpt lat="38.837972814634384" lon="121.50757042058967">
        <ele>10.332622316665947</ele>
        <time>2024-11-13T15:41:44Z</time>
      </trkpt>
      <trkpt lat="38.838150260529076" lon="121.50727320336692">
        <ele>11.392143981531262</ele>
        <time>2024-11-13T15:41:56Z</time>
      </trkpt>
      <trkpt lat="38.83836867989933" lon="121.5068957440316">
        <ele>11.644838944077492</ele>
        <time>2024-11-13T15:42:12Z</time>
      </trkpt>
      <trkpt lat="38.83854465853741" lon="121.50658787152487">
        <ele>10.92711176816374</ele>
        <time>2024-11-13T15:42:24Z</time>
      </trkpt>
      <trkpt lat="38.83861097244765" lon="121.50647858602042">
        <ele>11.742820887826383</ele>
        <time>2024-11-13T15:42:28Z</time>
      </trkpt>
      <trkpt lat="38.83865043641039" lon="121.50636215648129">
        <ele>11.255633361637592</ele>
        <time>2024-11-13T15:42:32Z</time>
      </trkpt>
      <trkpt lat="38.83867504709882" lon="121.5062290112433">
        <ele>12.664388056844473</ele>
        <time>2024-11-13T15:42:36Z</time>
      </trkpt>
      <trkpt lat="38.838820958420285" lon="121.50602807843337">
        <ele>11.951846879906952</ele>
        <time>2024-11-13T15:42:44Z</time>
      </trkpt>
      <trkpt lat="38.83886487871253" lon="121.50590800968911">
        <ele>10.262817895039916</ele>
        <time>2024-11-13T15:42:48Z</time>
      </trkpt>
      <trkpt lat="38.838680959901644" lon="121.50578331847427">
        <ele>10.980827490799129</ele>
        <time>2024-11-13T15:42:56Z</time>
      </trkpt>
      <trkpt lat="38.83842574015973" lon="121.50552718023185">
        <ele>11.331208106130362</ele>
        <time>2024-11-13T15:43:08Z</time>
      </trkpt>
      <trkpt lat="38.838274458500834" lon="121.5053881064519">
        <ele>10.661550515331328</ele>
        <time>2024-11-13T15:43:16Z</time>
      </trkpt>
      <trkpt lat="38.83804582256088" lon="121.50514632167821">
        <ele>10.66677417140454</ele>
        <time>2024-11-13T15:43:27Z</time>
      </trkpt>
      <trkpt lat="38.83780020428968" lon="121.5048962238581">
        <ele>9.444680099375546</ele>
        <time>2024-11-13T15:43:39Z</time>
      </trkpt>
      <trkpt lat="38.83757806368188" lon="121.50462284857937">
        <ele>9.47725678049028</ele>
        <time>2024-11-13T15:43:51Z</time>
      </trkpt>
      <trkpt lat="38.83754648211587" lon="121.50458062360309">
        <ele>10.188394647091627</ele>
        <time>2024-11-13T15:43:55Z</time>
      </trkpt>
    </trkseg>
  </trk>
</gpx>