<?xml version="1.0" encoding="UTF-8"?>
<gpx xmlns="http://www.topografix.com/GPX/1/1" xmlns:gpxtpx="http://www.garmin.com/xmlschemas/TrackPointExtension/v1" xmlns:xsi="http://www.w3.org/2001/XMLSchema-instance" xsi:schemaLocation="http://www.topografix.com/GPX/1/1 http://www.topografix.com/GPX/1/1/gpx.xsd" version="1.1" creator="gpx.py -- https://github.com/tkrajina/gpxpy">
  <trk>
    <name>gpx from keep</name>
    <type>Run</type>
    <trkseg>
      <trkpt lat="38.836333446773175" lon="121.51179319577177">
        <ele>7.885085213059142</ele>
        <time>2026-01-09T00:02:50Z</time>
      </trkpt>
      <trkpt lat="38.83616206904209" lon="121.51191046382559">
        <ele>4.5939768720418215</ele>
        <time>2026-01-09T00:03:05Z</time>
      </trkpt>
      <trkpt lat="38.836373917192276" lon="121.51195161484388">
        <ele>5.177139597944915</ele>
        <time>2026-01-09T00:03:17Z</time>
      </trkpt>
      <trkpt lat="38.83654685760217" lon="121.51187015092887">
        <ele>5.455356139689684</ele>
        <time>2026-01-09T00:03:29Z</time>
      </trkpt>
      <trkpt lat="38.836664453610055" lon="121.51178269171987">
        <ele>5.9771154299378395</ele>
        <time>2026-01-09T00:03:39Z</time>
      </trkpt>
      <trkpt lat="38.83673445601732" lon="121.51170794435743">
        <ele>6.487049127928913</ele>
        <time>2026-01-09T00:03:45Z</time>
      </trkpt>
      <trkpt lat="38.836894392022835" lon="121.51146242659117">
        <ele>6.870657372288406</ele>
        <time>2026-01-09T00:04:03Z</time>
      </trkpt>
      <trkpt lat="38.836995448423416" lon="121.51121564430295">
        <ele>6.676416519097984</ele>
        <time>2026-01-09T00:04:18Z</time>
      </trkpt>
      <trkpt lat="38.83701370499442" lon="121.511133079728">
        <ele>7.222596667706966</ele>
        <time>2026-01-09T00:04:24Z</time>
      </trkpt>
      <trkpt lat="38.837014481983644" lon="121.51104272132643">
        <ele>7.87129280064255</ele>
        <time>2026-01-09T00:04:30Z</time>
      </trkpt>
      <trkpt lat="38.83710772881556" lon="121.51074684771596">
        <ele>8.545396852307022</ele>
        <time>2026-01-09T00:04:48Z</time>
      </trkpt>
      <trkpt lat="38.83731090506413" lon="121.51047146856428">
        <ele>8.751838689669967</ele>
        <time>2026-01-09T00:05:11Z</time>
      </trkpt>
      <trkpt lat="38.837475992427535" lon="121.51030283207314">
        <ele>8.99400273244828</ele>
        <time>2026-01-09T00:05:27Z</time>
      </trkpt>
      <trkpt lat="38.83761268241936" lon="121.51021344085922">
        <ele>9.517920779064298</ele>
        <time>2026-01-09T00:05:39Z</time>
      </trkpt>
      <trkpt lat="38.837673480694406" lon="121.51014795099104">
        <ele>8.863997330889106</ele>
        <time>2026-01-09T00:05:45Z</time>
      </trkpt>
      <trkpt lat="38.837745275787" lon="121.50993278110354">
        <ele>9.720401300117373</ele>
        <time>2026-01-09T00:05:57Z</time>
      </trkpt>
      <trkpt lat="38.83784833562155" lon="121.50988855593631">
        <ele>9.201415973715484</ele>
        <time>2026-01-09T00:06:03Z</time>
      </trkpt>
      <trkpt lat="38.83793987713496" lon="121.50971248573103">
        <ele>9.675899755209684</ele>
        <time>2026-01-09T00:06:12Z</time>
      </trkpt>
      <trkpt lat="38.8380222277059" lon="121.50940022988719">
        <ele>10.620779811404645</ele>
        <time>2026-01-09T00:06:27Z</time>
      </trkpt>
      <trkpt lat="38.838148500782424" lon="121.50927002637658">
        <ele>9.489111284725368</ele>
        <time>2026-01-09T00:06:36Z</time>
        <extensions>
          <gpxtpx:TrackPointExtension>
            <gpxtpx:hr>120</gpxtpx:hr>
          </gpxtpx:TrackPointExtension>
        </extensions>
      </trkpt>
      <trkpt lat="38.838241469454616" lon="121.50921532486224">
        <ele>9.172067829407752</ele>
        <time>2026-01-09T00:06:42Z</time>
        <extensions>
          <gpxtpx:TrackPointExtension>
            <gpxtpx:hr>120</gpxtpx:hr>
          </gpxtpx:TrackPointExtension>
        </extensions>
      </trkpt>
      <trkpt lat="38.83830299945096" lon="121.50910479478492">
        <ele>10.715378109365702</ele>
        <time>2026-01-09T00:06:48Z</time>
        <extensions>
          <gpxtpx:TrackPointExtension>
            <gpxtpx:hr>120</gpxtpx:hr>
          </gpxtpx:TrackPointExtension>
        </extensions>
      </trkpt>
      <trkpt lat="38.838293922513934" lon="121.50904789567767">
        <ele>10.046033238060772</ele>
        <time>2026-01-09T00:06:51Z</time>
        <extensions>
          <gpxtpx:TrackPointExtension>
            <gpxtpx:hr>120</gpxtpx:hr>
          </gpxtpx:TrackPointExtension>
        </extensions>
      </trkpt>
      <trkpt lat="38.838190683605106" lon="121.50894794972325">
        <ele>11.262191805057228</ele>
        <time>2026-01-09T00:06:57Z</time>
        <extensions>
          <gpxtpx:TrackPointExtension>
            <gpxtpx:hr>118</gpxtpx:hr>
          </gpxtpx:TrackPointExtension>
        </extensions>
      </trkpt>
      <trkpt lat="38.8380254432568" lon="121.50889518892257">
        <ele>13.08520633354783</ele>
        <time>2026-01-09T00:07:06Z</time>
        <extensions>
          <gpxtpx:TrackPointExtension>
            <gpxtpx:hr>119</gpxtpx:hr>
          </gpxtpx:TrackPointExtension>
        </extensions>
      </trkpt>
      <trkpt lat="38.83790743899924" lon="121.50880006852026">
        <ele>11.814693383872509</ele>
        <time>2026-01-09T00:07:14Z</time>
        <extensions>
          <gpxtpx:TrackPointExtension>
            <gpxtpx:hr>119</gpxtpx:hr>
          </gpxtpx:TrackPointExtension>
        </extensions>
      </trkpt>
      <trkpt lat="38.83782117583788" lon="121.50866637818704">
        <ele>10.988006927073002</ele>
        <time>2026-01-09T00:07:21Z</time>
        <extensions>
          <gpxtpx:TrackPointExtension>
            <gpxtpx:hr>119</gpxtpx:hr>
          </gpxtpx:TrackPointExtension>
        </extensions>
      </trkpt>
      <trkpt lat="38.837796945381626" lon="121.50859119474637">
        <ele>11.189083226025105</ele>
        <time>2026-01-09T00:07:24Z</time>
        <extensions>
          <gpxtpx:TrackPointExtension>
            <gpxtpx:hr>119</gpxtpx:hr>
          </gpxtpx:TrackPointExtension>
        </extensions>
      </trkpt>
      <trkpt lat="38.83769698715346" lon="121.508504779704">
        <ele>12.292429056018591</ele>
        <time>2026-01-09T00:07:30Z</time>
        <extensions>
          <gpxtpx:TrackPointExtension>
            <gpxtpx:hr>122</gpxtpx:hr>
          </gpxtpx:TrackPointExtension>
        </extensions>
      </trkpt>
      <trkpt lat="38.83764632145419" lon="121.50849843721839">
        <ele>10.435654948465526</ele>
        <time>2026-01-09T00:07:33Z</time>
        <extensions>
          <gpxtpx:TrackPointExtension>
            <gpxtpx:hr>122</gpxtpx:hr>
          </gpxtpx:TrackPointExtension>
        </extensions>
      </trkpt>
      <trkpt lat="38.83761761892967" lon="121.50856819934756">
        <ele>9.725691393949091</ele>
        <time>2026-01-09T00:07:36Z</time>
        <extensions>
          <gpxtpx:TrackPointExtension>
            <gpxtpx:hr>119</gpxtpx:hr>
          </gpxtpx:TrackPointExtension>
        </extensions>
      </trkpt>
      <trkpt lat="38.83757244987544" lon="121.5086168061056">
        <ele>10.162607328034937</ele>
        <time>2026-01-09T00:07:39Z</time>
        <extensions>
          <gpxtpx:TrackPointExtension>
            <gpxtpx:hr>119</gpxtpx:hr>
          </gpxtpx:TrackPointExtension>
        </extensions>
      </trkpt>
      <trkpt lat="38.83746848084816" lon="121.50889282741146">
        <ele>10.610396035015583</ele>
        <time>2026-01-09T00:07:51Z</time>
        <extensions>
          <gpxtpx:TrackPointExtension>
            <gpxtpx:hr>120</gpxtpx:hr>
          </gpxtpx:TrackPointExtension>
        </extensions>
      </trkpt>
      <trkpt lat="38.837283524128416" lon="121.5090908067209">
        <ele>10.913694466464221</ele>
        <time>2026-01-09T00:08:03Z</time>
        <extensions>
          <gpxtpx:TrackPointExtension>
            <gpxtpx:hr>121</gpxtpx:hr>
          </gpxtpx:TrackPointExtension>
        </extensions>
      </trkpt>
      <trkpt lat="38.83712383732399" lon="121.50943598187135">
        <ele>10.734022322110832</ele>
        <time>2026-01-09T00:08:18Z</time>
        <extensions>
          <gpxtpx:TrackPointExtension>
            <gpxtpx:hr>119</gpxtpx:hr>
          </gpxtpx:TrackPointExtension>
        </extensions>
      </trkpt>
      <trkpt lat="38.83697914922633" lon="121.50974799139384">
        <ele>9.772569473832846</ele>
        <time>2026-01-09T00:08:33Z</time>
        <extensions>
          <gpxtpx:TrackPointExtension>
            <gpxtpx:hr>122</gpxtpx:hr>
          </gpxtpx:TrackPointExtension>
        </extensions>
      </trkpt>
      <trkpt lat="38.83689608209902" lon="121.5098525023784">
        <ele>9.537441668100655</ele>
        <time>2026-01-09T00:08:39Z</time>
        <extensions>
          <gpxtpx:TrackPointExtension>
            <gpxtpx:hr>121</gpxtpx:hr>
          </gpxtpx:TrackPointExtension>
        </extensions>
      </trkpt>
      <trkpt lat="38.83673441656394" lon="121.50993229647466">
        <ele>8.719322352670133</ele>
        <time>2026-01-09T00:08:48Z</time>
        <extensions>
          <gpxtpx:TrackPointExtension>
            <gpxtpx:hr>122</gpxtpx:hr>
          </gpxtpx:TrackPointExtension>
        </extensions>
      </trkpt>
      <trkpt lat="38.83643885133128" lon="121.50993221464692">
        <ele>8.861410254612565</ele>
        <time>2026-01-09T00:09:03Z</time>
        <extensions>
          <gpxtpx:TrackPointExtension>
            <gpxtpx:hr>125</gpxtpx:hr>
          </gpxtpx:TrackPointExtension>
        </extensions>
      </trkpt>
      <trkpt lat="38.83631912841961" lon="121.51000173759796">
        <ele>8.842061430215836</ele>
        <time>2026-01-09T00:09:09Z</time>
        <extensions>
          <gpxtpx:TrackPointExtension>
            <gpxtpx:hr>123</gpxtpx:hr>
          </gpxtpx:TrackPointExtension>
        </extensions>
      </trkpt>
      <trkpt lat="38.8361774150307" lon="121.51004620493754">
        <ele>8.72611450124532</ele>
        <time>2026-01-09T00:09:16Z</time>
        <extensions>
          <gpxtpx:TrackPointExtension>
            <gpxtpx:hr>122</gpxtpx:hr>
          </gpxtpx:TrackPointExtension>
        </extensions>
      </trkpt>
      <trkpt lat="38.83612784516938" lon="121.51008275349906">
        <ele>9.289766615256667</ele>
        <time>2026-01-09T00:09:19Z</time>
        <extensions>
          <gpxtpx:TrackPointExtension>
            <gpxtpx:hr>122</gpxtpx:hr>
          </gpxtpx:TrackPointExtension>
        </extensions>
      </trkpt>
      <trkpt lat="38.836091044352436" lon="121.51015187732614">
        <ele>8.980464643798769</ele>
        <time>2026-01-09T00:09:22Z</time>
        <extensions>
          <gpxtpx:TrackPointExtension>
            <gpxtpx:hr>122</gpxtpx:hr>
          </gpxtpx:TrackPointExtension>
        </extensions>
      </trkpt>
      <trkpt lat="38.8362188511668" lon="121.51049837950444">
        <ele>8.045769633725286</ele>
        <time>2026-01-09T00:09:37Z</time>
        <extensions>
          <gpxtpx:TrackPointExtension>
            <gpxtpx:hr>122</gpxtpx:hr>
          </gpxtpx:TrackPointExtension>
        </extensions>
      </trkpt>
      <trkpt lat="38.836219765720784" lon="121.51073534860586">
        <ele>7.063967550173402</ele>
        <time>2026-01-09T00:09:46Z</time>
        <extensions>
          <gpxtpx:TrackPointExtension>
            <gpxtpx:hr>122</gpxtpx:hr>
          </gpxtpx:TrackPointExtension>
        </extensions>
      </trkpt>
      <trkpt lat="38.8361753400152" lon="121.51088273553054">
        <ele>6.898022323846817</ele>
        <time>2026-01-09T00:09:52Z</time>
        <extensions>
          <gpxtpx:TrackPointExtension>
            <gpxtpx:hr>123</gpxtpx:hr>
          </gpxtpx:TrackPointExtension>
        </extensions>
      </trkpt>
      <trkpt lat="38.83601212864084" lon="121.51122209564666">
        <ele>6.375845645554364</ele>
        <time>2026-01-09T00:10:07Z</time>
        <extensions>
          <gpxtpx:TrackPointExtension>
            <gpxtpx:hr>126</gpxtpx:hr>
          </gpxtpx:TrackPointExtension>
        </extensions>
      </trkpt>
      <trkpt lat="38.83597146186906" lon="121.5113802278944">
        <ele>6.555396480485797</ele>
        <time>2026-01-09T00:10:13Z</time>
        <extensions>
          <gpxtpx:TrackPointExtension>
            <gpxtpx:hr>126</gpxtpx:hr>
          </gpxtpx:TrackPointExtension>
        </extensions>
      </trkpt>
      <trkpt lat="38.83597465700116" lon="121.51152405100255">
        <ele>4.977482872083783</ele>
        <time>2026-01-09T00:10:19Z</time>
        <extensions>
          <gpxtpx:TrackPointExtension>
            <gpxtpx:hr>127</gpxtpx:hr>
          </gpxtpx:TrackPointExtension>
        </extensions>
      </trkpt>
      <trkpt lat="38.83604294361512" lon="121.51174133059966">
        <ele>4.796953207813203</ele>
        <time>2026-01-09T00:10:28Z</time>
        <extensions>
          <gpxtpx:TrackPointExtension>
            <gpxtpx:hr>126</gpxtpx:hr>
          </gpxtpx:TrackPointExtension>
        </extensions>
      </trkpt>
      <trkpt lat="38.83611004154702" lon="121.51186060403496">
        <ele>4.360155064612627</ele>
        <time>2026-01-09T00:10:34Z</time>
        <extensions>
          <gpxtpx:TrackPointExtension>
            <gpxtpx:hr>126</gpxtpx:hr>
          </gpxtpx:TrackPointExtension>
        </extensions>
      </trkpt>
      <trkpt lat="38.836224070273694" lon="121.5119371054729">
        <ele>4.1820944948121905</ele>
        <time>2026-01-09T00:10:40Z</time>
        <extensions>
          <gpxtpx:TrackPointExtension>
            <gpxtpx:hr>123</gpxtpx:hr>
          </gpxtpx:TrackPointExtension>
        </extensions>
      </trkpt>
      <trkpt lat="38.836361452821315" lon="121.51193920132955">
        <ele>4.903097472153604</ele>
        <time>2026-01-09T00:10:46Z</time>
        <extensions>
          <gpxtpx:TrackPointExtension>
            <gpxtpx:hr>123</gpxtpx:hr>
          </gpxtpx:TrackPointExtension>
        </extensions>
      </trkpt>
      <trkpt lat="38.8364261303176" lon="121.51192109488855">
        <ele>5.531701158732176</ele>
        <time>2026-01-09T00:10:49Z</time>
        <extensions>
          <gpxtpx:TrackPointExtension>
            <gpxtpx:hr>122</gpxtpx:hr>
          </gpxtpx:TrackPointExtension>
        </extensions>
      </trkpt>
      <trkpt lat="38.83648147964344" lon="121.51187948567154">
        <ele>5.596702151931822</ele>
        <time>2026-01-09T00:10:52Z</time>
        <extensions>
          <gpxtpx:TrackPointExtension>
            <gpxtpx:hr>122</gpxtpx:hr>
          </gpxtpx:TrackPointExtension>
        </extensions>
      </trkpt>
      <trkpt lat="38.83654650123282" lon="121.51186266670751">
        <ele>5.3562925942242146</ele>
        <time>2026-01-09T00:10:55Z</time>
        <extensions>
          <gpxtpx:TrackPointExtension>
            <gpxtpx:hr>122</gpxtpx:hr>
          </gpxtpx:TrackPointExtension>
        </extensions>
      </trkpt>
      <trkpt lat="38.836666121059636" lon="121.51178446818034">
        <ele>5.914564012549818</ele>
        <time>2026-01-09T00:11:01Z</time>
        <extensions>
          <gpxtpx:TrackPointExtension>
            <gpxtpx:hr>122</gpxtpx:hr>
          </gpxtpx:TrackPointExtension>
        </extensions>
      </trkpt>
      <trkpt lat="38.836861114296845" lon="121.51145569813335">
        <ele>7.946871932595968</ele>
        <time>2026-01-09T00:11:16Z</time>
        <extensions>
          <gpxtpx:TrackPointExtension>
            <gpxtpx:hr>122</gpxtpx:hr>
          </gpxtpx:TrackPointExtension>
        </extensions>
      </trkpt>
      <trkpt lat="38.83698733376479" lon="121.51119288333865">
        <ele>7.167805696837604</ele>
        <time>2026-01-09T00:11:29Z</time>
        <extensions>
          <gpxtpx:TrackPointExtension>
            <gpxtpx:hr>123</gpxtpx:hr>
          </gpxtpx:TrackPointExtension>
        </extensions>
      </trkpt>
      <trkpt lat="38.83708404851749" lon="121.51084771514344">
        <ele>8.173034625127912</ele>
        <time>2026-01-09T00:11:44Z</time>
        <extensions>
          <gpxtpx:TrackPointExtension>
            <gpxtpx:hr>123</gpxtpx:hr>
          </gpxtpx:TrackPointExtension>
        </extensions>
      </trkpt>
      <trkpt lat="38.83714163668313" lon="121.51071745798029">
        <ele>8.522065977565944</ele>
        <time>2026-01-09T00:11:50Z</time>
        <extensions>
          <gpxtpx:TrackPointExtension>
            <gpxtpx:hr>125</gpxtpx:hr>
          </gpxtpx:TrackPointExtension>
        </extensions>
      </trkpt>
      <trkpt lat="38.83734995287694" lon="121.51045628901176">
        <ele>6.82749680429697</ele>
        <time>2026-01-09T00:12:05Z</time>
        <extensions>
          <gpxtpx:TrackPointExtension>
            <gpxtpx:hr>129</gpxtpx:hr>
          </gpxtpx:TrackPointExtension>
        </extensions>
      </trkpt>
      <trkpt lat="38.83737966132826" lon="121.51040676662312">
        <ele>7.131495865993202</ele>
        <time>2026-01-09T00:12:08Z</time>
        <extensions>
          <gpxtpx:TrackPointExtension>
            <gpxtpx:hr>129</gpxtpx:hr>
          </gpxtpx:TrackPointExtension>
        </extensions>
      </trkpt>
      <trkpt lat="38.83754302628726" lon="121.51023150907847">
        <ele>8.353602075017989</ele>
        <time>2026-01-09T00:12:20Z</time>
        <extensions>
          <gpxtpx:TrackPointExtension>
            <gpxtpx:hr>132</gpxtpx:hr>
          </gpxtpx:TrackPointExtension>
        </extensions>
      </trkpt>
      <trkpt lat="38.83764261290297" lon="121.51015035385477">
        <ele>8.440064410679042</ele>
        <time>2026-01-09T00:12:26Z</time>
        <extensions>
          <gpxtpx:TrackPointExtension>
            <gpxtpx:hr>132</gpxtpx:hr>
          </gpxtpx:TrackPointExtension>
        </extensions>
      </trkpt>
      <trkpt lat="38.83771015288181" lon="121.51004004368991">
        <ele>8.361049233935773</ele>
        <time>2026-01-09T00:12:32Z</time>
        <extensions>
          <gpxtpx:TrackPointExtension>
            <gpxtpx:hr>133</gpxtpx:hr>
          </gpxtpx:TrackPointExtension>
        </extensions>
      </trkpt>
      <trkpt lat="38.837764380615376" lon="121.50990696252404">
        <ele>9.416045183315873</ele>
        <time>2026-01-09T00:12:38Z</time>
        <extensions>
          <gpxtpx:TrackPointExtension>
            <gpxtpx:hr>133</gpxtpx:hr>
          </gpxtpx:TrackPointExtension>
        </extensions>
      </trkpt>
      <trkpt lat="38.837830237950676" lon="121.50992500708642">
        <ele>9.174261615611613</ele>
        <time>2026-01-09T00:12:41Z</time>
        <extensions>
          <gpxtpx:TrackPointExtension>
            <gpxtpx:hr>134</gpxtpx:hr>
          </gpxtpx:TrackPointExtension>
        </extensions>
      </trkpt>
      <trkpt lat="38.837850819576225" lon="121.50983850246001">
        <ele>9.256108671426773</ele>
        <time>2026-01-09T00:12:44Z</time>
        <extensions>
          <gpxtpx:TrackPointExtension>
            <gpxtpx:hr>133</gpxtpx:hr>
          </gpxtpx:TrackPointExtension>
        </extensions>
      </trkpt>
      <trkpt lat="38.8379221518202" lon="121.50973256673402">
        <ele>7.422860779799521</ele>
        <time>2026-01-09T00:12:50Z</time>
        <extensions>
          <gpxtpx:TrackPointExtension>
            <gpxtpx:hr>131</gpxtpx:hr>
          </gpxtpx:TrackPointExtension>
        </extensions>
      </trkpt>
      <trkpt lat="38.83798653270468" lon="121.50940874046643">
        <ele>9.504916690289974</ele>
        <time>2026-01-09T00:13:05Z</time>
        <extensions>
          <gpxtpx:TrackPointExtension>
            <gpxtpx:hr>131</gpxtpx:hr>
          </gpxtpx:TrackPointExtension>
        </extensions>
      </trkpt>
      <trkpt lat="38.83806464774067" lon="121.50930244637166">
        <ele>10.484605882316828</ele>
        <time>2026-01-09T00:13:11Z</time>
        <extensions>
          <gpxtpx:TrackPointExtension>
            <gpxtpx:hr>130</gpxtpx:hr>
          </gpxtpx:TrackPointExtension>
        </extensions>
      </trkpt>
      <trkpt lat="38.838117439075575" lon="121.50928435535774">
        <ele>11.012984321452677</ele>
        <time>2026-01-09T00:13:14Z</time>
        <extensions>
          <gpxtpx:TrackPointExtension>
            <gpxtpx:hr>130</gpxtpx:hr>
          </gpxtpx:TrackPointExtension>
        </extensions>
      </trkpt>
      <trkpt lat="38.83825027578621" lon="121.50916340303698">
        <ele>10.393259709700942</ele>
        <time>2026-01-09T00:13:23Z</time>
        <extensions>
          <gpxtpx:TrackPointExtension>
            <gpxtpx:hr>128</gpxtpx:hr>
          </gpxtpx:TrackPointExtension>
        </extensions>
      </trkpt>
      <trkpt lat="38.838296691612534" lon="121.50909986240505">
        <ele>10.748304302804172</ele>
        <time>2026-01-09T00:13:27Z</time>
        <extensions>
          <gpxtpx:TrackPointExtension>
            <gpxtpx:hr>131</gpxtpx:hr>
          </gpxtpx:TrackPointExtension>
        </extensions>
      </trkpt>
      <trkpt lat="38.83828234698677" lon="121.50903712154854">
        <ele>10.35676921904087</ele>
        <time>2026-01-09T00:13:30Z</time>
        <extensions>
          <gpxtpx:TrackPointExtension>
            <gpxtpx:hr>131</gpxtpx:hr>
          </gpxtpx:TrackPointExtension>
        </extensions>
      </trkpt>
      <trkpt lat="38.83823824536629" lon="121.50897111674625">
        <ele>11.633546995930374</ele>
        <time>2026-01-09T00:13:33Z</time>
        <extensions>
          <gpxtpx:TrackPointExtension>
            <gpxtpx:hr>133</gpxtpx:hr>
          </gpxtpx:TrackPointExtension>
        </extensions>
      </trkpt>
      <trkpt lat="38.837995243154246" lon="121.50876311774267">
        <ele>11.51301716081798</ele>
        <time>2026-01-09T00:13:48Z</time>
        <extensions>
          <gpxtpx:TrackPointExtension>
            <gpxtpx:hr>133</gpxtpx:hr>
          </gpxtpx:TrackPointExtension>
        </extensions>
      </trkpt>
      <trkpt lat="38.837815408456606" lon="121.50858755129917">
        <ele>11.652333187870681</ele>
        <time>2026-01-09T00:14:00Z</time>
        <extensions>
          <gpxtpx:TrackPointExtension>
            <gpxtpx:hr>133</gpxtpx:hr>
          </gpxtpx:TrackPointExtension>
        </extensions>
      </trkpt>
      <trkpt lat="38.83769942986827" lon="121.50852486753762">
        <ele>11.337967783212662</ele>
        <time>2026-01-09T00:14:06Z</time>
        <extensions>
          <gpxtpx:TrackPointExtension>
            <gpxtpx:hr>134</gpxtpx:hr>
          </gpxtpx:TrackPointExtension>
        </extensions>
      </trkpt>
      <trkpt lat="38.837643451037025" lon="121.50851916028566">
        <ele>11.55409203376621</ele>
        <time>2026-01-09T00:14:09Z</time>
        <extensions>
          <gpxtpx:TrackPointExtension>
            <gpxtpx:hr>134</gpxtpx:hr>
          </gpxtpx:TrackPointExtension>
        </extensions>
      </trkpt>
      <trkpt lat="38.83759670358062" lon="121.50857095132679">
        <ele>9.376211915165186</ele>
        <time>2026-01-09T00:14:12Z</time>
        <extensions>
          <gpxtpx:TrackPointExtension>
            <gpxtpx:hr>134</gpxtpx:hr>
          </gpxtpx:TrackPointExtension>
        </extensions>
      </trkpt>
      <trkpt lat="38.837584902083336" lon="121.50865559842566">
        <ele>10.144652757793665</ele>
        <time>2026-01-09T00:14:15Z</time>
        <extensions>
          <gpxtpx:TrackPointExtension>
            <gpxtpx:hr>134</gpxtpx:hr>
          </gpxtpx:TrackPointExtension>
        </extensions>
      </trkpt>
      <trkpt lat="38.837473609043805" lon="121.5089304959967">
        <ele>9.68178544472903</ele>
        <time>2026-01-09T00:14:27Z</time>
        <extensions>
          <gpxtpx:TrackPointExtension>
            <gpxtpx:hr>134</gpxtpx:hr>
          </gpxtpx:TrackPointExtension>
        </extensions>
      </trkpt>
      <trkpt lat="38.837239426411806" lon="121.50916716683932">
        <ele>9.697000239044428</ele>
        <time>2026-01-09T00:14:42Z</time>
        <extensions>
          <gpxtpx:TrackPointExtension>
            <gpxtpx:hr>133</gpxtpx:hr>
          </gpxtpx:TrackPointExtension>
        </extensions>
      </trkpt>
      <trkpt lat="38.8371452600588" lon="121.50936432872939">
        <ele>9.224319442175329</ele>
        <time>2026-01-09T00:14:51Z</time>
        <extensions>
          <gpxtpx:TrackPointExtension>
            <gpxtpx:hr>132</gpxtpx:hr>
          </gpxtpx:TrackPointExtension>
        </extensions>
      </trkpt>
      <trkpt lat="38.83706506374461" lon="121.50948002026811">
        <ele>10.030728212557733</ele>
        <time>2026-01-09T00:14:57Z</time>
        <extensions>
          <gpxtpx:TrackPointExtension>
            <gpxtpx:hr>132</gpxtpx:hr>
          </gpxtpx:TrackPointExtension>
        </extensions>
      </trkpt>
      <trkpt lat="38.83702328311049" lon="121.5096276097412">
        <ele>9.445248044095933</ele>
        <time>2026-01-09T00:15:03Z</time>
        <extensions>
          <gpxtpx:TrackPointExtension>
            <gpxtpx:hr>130</gpxtpx:hr>
          </gpxtpx:TrackPointExtension>
        </extensions>
      </trkpt>
      <trkpt lat="38.8368989015047" lon="121.50980521088269">
        <ele>8.857341649010777</ele>
        <time>2026-01-09T00:15:12Z</time>
        <extensions>
          <gpxtpx:TrackPointExtension>
            <gpxtpx:hr>131</gpxtpx:hr>
          </gpxtpx:TrackPointExtension>
        </extensions>
      </trkpt>
      <trkpt lat="38.83678967400942" lon="121.50989050640212">
        <ele>7.247044000774622</ele>
        <time>2026-01-09T00:15:18Z</time>
        <extensions>
          <gpxtpx:TrackPointExtension>
            <gpxtpx:hr>130</gpxtpx:hr>
          </gpxtpx:TrackPointExtension>
        </extensions>
      </trkpt>
      <trkpt lat="38.83647654173257" lon="121.50994795482617">
        <ele>7.906865771859884</ele>
        <time>2026-01-09T00:15:34Z</time>
        <extensions>
          <gpxtpx:TrackPointExtension>
            <gpxtpx:hr>132</gpxtpx:hr>
          </gpxtpx:TrackPointExtension>
        </extensions>
      </trkpt>
      <trkpt lat="38.83617894893217" lon="121.51006419847688">
        <ele>8.1423383327201</ele>
        <time>2026-01-09T00:15:50Z</time>
        <extensions>
          <gpxtpx:TrackPointExtension>
            <gpxtpx:hr>132</gpxtpx:hr>
          </gpxtpx:TrackPointExtension>
        </extensions>
      </trkpt>
      <trkpt lat="38.836127574993334" lon="121.5101033742667">
        <ele>8.436016995459795</ele>
        <time>2026-01-09T00:15:53Z</time>
        <extensions>
          <gpxtpx:TrackPointExtension>
            <gpxtpx:hr>132</gpxtpx:hr>
          </gpxtpx:TrackPointExtension>
        </extensions>
      </trkpt>
      <trkpt lat="38.83608885098171" lon="121.5101600277341">
        <ele>8.46844323258847</ele>
        <time>2026-01-09T00:15:56Z</time>
        <extensions>
          <gpxtpx:TrackPointExtension>
            <gpxtpx:hr>133</gpxtpx:hr>
          </gpxtpx:TrackPointExtension>
        </extensions>
      </trkpt>
      <trkpt lat="38.836231212203906" lon="121.51050697059598">
        <ele>9.323763396590948</ele>
        <time>2026-01-09T00:16:11Z</time>
        <extensions>
          <gpxtpx:TrackPointExtension>
            <gpxtpx:hr>132</gpxtpx:hr>
          </gpxtpx:TrackPointExtension>
        </extensions>
      </trkpt>
      <trkpt lat="38.83623896538505" lon="121.51067470122445">
        <ele>7.77491132542491</ele>
        <time>2026-01-09T00:16:17Z</time>
        <extensions>
          <gpxtpx:TrackPointExtension>
            <gpxtpx:hr>131</gpxtpx:hr>
          </gpxtpx:TrackPointExtension>
        </extensions>
      </trkpt>
      <trkpt lat="38.836197102208345" lon="121.51085081487696">
        <ele>7.361959933303297</ele>
        <time>2026-01-09T00:16:24Z</time>
        <extensions>
          <gpxtpx:TrackPointExtension>
            <gpxtpx:hr>131</gpxtpx:hr>
          </gpxtpx:TrackPointExtension>
        </extensions>
      </trkpt>
      <trkpt lat="38.83604939123943" lon="121.5111093413766">
        <ele>7.149418991990387</ele>
        <time>2026-01-09T00:16:36Z</time>
        <extensions>
          <gpxtpx:TrackPointExtension>
            <gpxtpx:hr>133</gpxtpx:hr>
          </gpxtpx:TrackPointExtension>
        </extensions>
      </trkpt>
      <trkpt lat="38.83596784724057" lon="121.51140443219165">
        <ele>6.285570606589317</ele>
        <time>2026-01-09T00:16:48Z</time>
        <extensions>
          <gpxtpx:TrackPointExtension>
            <gpxtpx:hr>133</gpxtpx:hr>
          </gpxtpx:TrackPointExtension>
        </extensions>
      </trkpt>
      <trkpt lat="38.835962967007276" lon="121.51147740944096">
        <ele>5.649074926041067</ele>
        <time>2026-01-09T00:16:51Z</time>
        <extensions>
          <gpxtpx:TrackPointExtension>
            <gpxtpx:hr>132</gpxtpx:hr>
          </gpxtpx:TrackPointExtension>
        </extensions>
      </trkpt>
      <trkpt lat="38.83604093200623" lon="121.51175877451348">
        <ele>5.725161790847778</ele>
        <time>2026-01-09T00:17:03Z</time>
        <extensions>
          <gpxtpx:TrackPointExtension>
            <gpxtpx:hr>133</gpxtpx:hr>
          </gpxtpx:TrackPointExtension>
        </extensions>
      </trkpt>
      <trkpt lat="38.83611338868105" lon="121.51187100582615">
        <ele>5.471207463182509</ele>
        <time>2026-01-09T00:17:09Z</time>
        <extensions>
          <gpxtpx:TrackPointExtension>
            <gpxtpx:hr>132</gpxtpx:hr>
          </gpxtpx:TrackPointExtension>
        </extensions>
      </trkpt>
      <trkpt lat="38.83622357596399" lon="121.5119311069408">
        <ele>6.12852946575731</ele>
        <time>2026-01-09T00:17:15Z</time>
        <extensions>
          <gpxtpx:TrackPointExtension>
            <gpxtpx:hr>135</gpxtpx:hr>
          </gpxtpx:TrackPointExtension>
        </extensions>
      </trkpt>
      <trkpt lat="38.8364110049503" lon="121.51191937988692">
        <ele>5.211794693022966</ele>
        <time>2026-01-09T00:17:24Z</time>
        <extensions>
          <gpxtpx:TrackPointExtension>
            <gpxtpx:hr>135</gpxtpx:hr>
          </gpxtpx:TrackPointExtension>
        </extensions>
      </trkpt>
      <trkpt lat="38.836639034591116" lon="121.51182122780189">
        <ele>5.928824204020202</ele>
        <time>2026-01-09T00:17:36Z</time>
        <extensions>
          <gpxtpx:TrackPointExtension>
            <gpxtpx:hr>134</gpxtpx:hr>
          </gpxtpx:TrackPointExtension>
        </extensions>
      </trkpt>
      <trkpt lat="38.8368632252379" lon="121.51153484771866">
        <ele>7.305391041561961</ele>
        <time>2026-01-09T00:17:51Z</time>
        <extensions>
          <gpxtpx:TrackPointExtension>
            <gpxtpx:hr>133</gpxtpx:hr>
          </gpxtpx:TrackPointExtension>
        </extensions>
      </trkpt>
      <trkpt lat="38.83696874586616" lon="121.51133399101433">
        <ele>8.179844117723405</ele>
        <time>2026-01-09T00:18:00Z</time>
        <extensions>
          <gpxtpx:TrackPointExtension>
            <gpxtpx:hr>133</gpxtpx:hr>
          </gpxtpx:TrackPointExtension>
        </extensions>
      </trkpt>
      <trkpt lat="38.83699617629328" lon="121.51117242996246">
        <ele>7.238637614063919</ele>
        <time>2026-01-09T00:18:06Z</time>
        <extensions>
          <gpxtpx:TrackPointExtension>
            <gpxtpx:hr>135</gpxtpx:hr>
          </gpxtpx:TrackPointExtension>
        </extensions>
      </trkpt>
      <trkpt lat="38.836992512143794" lon="121.51109073966953">
        <ele>7.166671463288367</ele>
        <time>2026-01-09T00:18:09Z</time>
        <extensions>
          <gpxtpx:TrackPointExtension>
            <gpxtpx:hr>135</gpxtpx:hr>
          </gpxtpx:TrackPointExtension>
        </extensions>
      </trkpt>
      <trkpt lat="38.83706152377616" lon="121.51083614641425">
        <ele>7.121921198442578</ele>
        <time>2026-01-09T00:18:18Z</time>
        <extensions>
          <gpxtpx:TrackPointExtension>
            <gpxtpx:hr>140</gpxtpx:hr>
          </gpxtpx:TrackPointExtension>
        </extensions>
      </trkpt>
      <trkpt lat="38.83722613625987" lon="121.51056005921765">
        <ele>7.922928309068084</ele>
        <time>2026-01-09T00:18:30Z</time>
        <extensions>
          <gpxtpx:TrackPointExtension>
            <gpxtpx:hr>144</gpxtpx:hr>
          </gpxtpx:TrackPointExtension>
        </extensions>
      </trkpt>
      <trkpt lat="38.83745884839782" lon="121.51029904459963">
        <ele>8.660428461618721</ele>
        <time>2026-01-09T00:18:45Z</time>
        <extensions>
          <gpxtpx:TrackPointExtension>
            <gpxtpx:hr>140</gpxtpx:hr>
          </gpxtpx:TrackPointExtension>
        </extensions>
      </trkpt>
      <trkpt lat="38.837672363581106" lon="121.5101032702003">
        <ele>8.275170891545713</ele>
        <time>2026-01-09T00:18:57Z</time>
        <extensions>
          <gpxtpx:TrackPointExtension>
            <gpxtpx:hr>144</gpxtpx:hr>
          </gpxtpx:TrackPointExtension>
        </extensions>
      </trkpt>
      <trkpt lat="38.83771291376087" lon="121.51003490489646">
        <ele>7.973652357235551</ele>
        <time>2026-01-09T00:19:00Z</time>
        <extensions>
          <gpxtpx:TrackPointExtension>
            <gpxtpx:hr>144</gpxtpx:hr>
          </gpxtpx:TrackPointExtension>
        </extensions>
      </trkpt>
      <trkpt lat="38.837759812491" lon="121.50981201410615">
        <ele>9.208511848933995</ele>
        <time>2026-01-09T00:19:09Z</time>
        <extensions>
          <gpxtpx:TrackPointExtension>
            <gpxtpx:hr>142</gpxtpx:hr>
          </gpxtpx:TrackPointExtension>
        </extensions>
      </trkpt>
      <trkpt lat="38.83775109960563" lon="121.50940911785666">
        <ele>9.256318370811641</ele>
        <time>2026-01-09T00:19:24Z</time>
        <extensions>
          <gpxtpx:TrackPointExtension>
            <gpxtpx:hr>141</gpxtpx:hr>
          </gpxtpx:TrackPointExtension>
        </extensions>
      </trkpt>
      <trkpt lat="38.83773606657374" lon="121.50903026914672">
        <ele>10.904925693757832</ele>
        <time>2026-01-09T00:19:39Z</time>
        <extensions>
          <gpxtpx:TrackPointExtension>
            <gpxtpx:hr>142</gpxtpx:hr>
          </gpxtpx:TrackPointExtension>
        </extensions>
      </trkpt>
      <trkpt lat="38.83774132480675" lon="121.50895863939756">
        <ele>10.141721376217902</ele>
        <time>2026-01-09T00:19:42Z</time>
        <extensions>
          <gpxtpx:TrackPointExtension>
            <gpxtpx:hr>142</gpxtpx:hr>
          </gpxtpx:TrackPointExtension>
        </extensions>
      </trkpt>
      <trkpt lat="38.83770874152858" lon="121.50856825729937">
        <ele>10.727164381183684</ele>
        <time>2026-01-09T00:19:57Z</time>
        <extensions>
          <gpxtpx:TrackPointExtension>
            <gpxtpx:hr>145</gpxtpx:hr>
          </gpxtpx:TrackPointExtension>
        </extensions>
      </trkpt>
      <trkpt lat="38.83768367703944" lon="121.50851129169017">
        <ele>10.252271390520036</ele>
        <time>2026-01-09T00:20:00Z</time>
        <extensions>
          <gpxtpx:TrackPointExtension>
            <gpxtpx:hr>145</gpxtpx:hr>
          </gpxtpx:TrackPointExtension>
        </extensions>
      </trkpt>
      <trkpt lat="38.837638731229305" lon="121.5084613065636">
        <ele>10.48548295814544</ele>
        <time>2026-01-09T00:20:03Z</time>
        <extensions>
          <gpxtpx:TrackPointExtension>
            <gpxtpx:hr>145</gpxtpx:hr>
          </gpxtpx:TrackPointExtension>
        </extensions>
      </trkpt>
      <trkpt lat="38.83760467274349" lon="121.50834379602357">
        <ele>11.604497466236353</ele>
        <time>2026-01-09T00:20:12Z</time>
        <extensions>
          <gpxtpx:TrackPointExtension>
            <gpxtpx:hr>146</gpxtpx:hr>
          </gpxtpx:TrackPointExtension>
        </extensions>
      </trkpt>
    </trkseg>
  </trk>
</gpx>