<?xml version="1.0" encoding="UTF-8"?>
<gpx xmlns="http://www.topografix.com/GPX/1/1" xmlns:gpxtpx="http://www.garmin.com/xmlschemas/TrackPointExtension/v1" xmlns:xsi="http://www.w3.org/2001/XMLSchema-instance" xsi:schemaLocation="http://www.topografix.com/GPX/1/1 http://www.topografix.com/GPX/1/1/gpx.xsd" version="1.1" creator="gpx.py -- https://github.com/tkrajina/gpxpy">
  <trk>
    <name>gpx from keep</name>
    <type>Run</type>
    <trkseg>
      <trkpt lat="38.83567864492206" lon="121.50677220482227">
        <ele>15.43492841720581</ele>
        <time>2024-11-04T06:15:50Z</time>
      </trkpt>
      <trkpt lat="38.83555622660029" lon="121.50678628549248">
        <ele>14.62071943283081</ele>
        <time>2024-11-04T06:15:54Z</time>
      </trkpt>
      <trkpt lat="38.83527004001399" lon="121.5065983941287">
        <ele>13.26140620186925</ele>
        <time>2024-11-04T06:16:06Z</time>
      </trkpt>
      <trkpt lat="38.83508960930829" lon="121.50645475382991">
        <ele>10.882988013327122</ele>
        <time>2024-11-04T06:16:15Z</time>
      </trkpt>
      <trkpt lat="38.83498029983633" lon="121.50628989901807">
        <ele>8.386893057264388</ele>
        <time>2024-11-04T06:16:21Z</time>
      </trkpt>
      <trkpt lat="38.834911015439204" lon="121.50628470607104">
        <ele>8.290798066183925</ele>
        <time>2024-11-04T06:16:24Z</time>
      </trkpt>
      <trkpt lat="38.834865710344836" lon="121.5062283632121">
        <ele>8.841448616236448</ele>
        <time>2024-11-04T06:16:27Z</time>
      </trkpt>
      <trkpt lat="38.834804950940615" lon="121.50619406776644">
        <ele>8.685709038749337</ele>
        <time>2024-11-04T06:16:30Z</time>
      </trkpt>
      <trkpt lat="38.83472057587185" lon="121.50621192400423">
        <ele>8.317083694972098</ele>
        <time>2024-11-04T06:16:33Z</time>
      </trkpt>
      <trkpt lat="38.83458542344229" lon="121.50609719292314">
        <ele>8.55062972009182</ele>
        <time>2024-11-04T06:16:39Z</time>
      </trkpt>
      <trkpt lat="38.83453219090356" lon="121.50602369237266">
        <ele>9.01846903283149</ele>
        <time>2024-11-04T06:16:42Z</time>
      </trkpt>
      <trkpt lat="38.834290934456455" lon="121.50585300389702">
        <ele>9.070136939175427</ele>
        <time>2024-11-04T06:16:54Z</time>
      </trkpt>
      <trkpt lat="38.834036325160994" lon="121.50566197657348">
        <ele>8.660113498568535</ele>
        <time>2024-11-04T06:17:07Z</time>
      </trkpt>
      <trkpt lat="38.83395373688838" lon="121.50562481163624">
        <ele>8.33223879802972</ele>
        <time>2024-11-04T06:17:11Z</time>
      </trkpt>
      <trkpt lat="38.8337076725525" lon="121.5054189467322">
        <ele>9.071752936579287</ele>
        <time>2024-11-04T06:17:23Z</time>
      </trkpt>
      <trkpt lat="38.833625136743564" lon="121.50536085159537">
        <ele>8.640043671242893</ele>
        <time>2024-11-04T06:17:27Z</time>
      </trkpt>
      <trkpt lat="38.83356248686552" lon="121.50540426824183">
        <ele>7.750128844752908</ele>
        <time>2024-11-04T06:17:31Z</time>
      </trkpt>
      <trkpt lat="38.833388560837825" lon="121.50567132484025">
        <ele>7.072762111201882</ele>
        <time>2024-11-04T06:17:43Z</time>
      </trkpt>
      <trkpt lat="38.83330559148158" lon="121.5058506712527">
        <ele>6.1083819372579455</ele>
        <time>2024-11-04T06:17:51Z</time>
      </trkpt>
      <trkpt lat="38.833199058367406" lon="121.50615252814667">
        <ele>5.631130141206086</ele>
        <time>2024-11-04T06:18:02Z</time>
      </trkpt>
      <trkpt lat="38.833163063930876" lon="121.5062904577539">
        <ele>6.773544851690531</ele>
        <time>2024-11-04T06:18:22Z</time>
      </trkpt>
      <trkpt lat="38.83303925164385" lon="121.50652528095017">
        <ele>2.9492310909554362</ele>
        <time>2024-11-04T06:18:33Z</time>
      </trkpt>
      <trkpt lat="38.832974110841704" lon="121.50659618889604">
        <ele>1.8717819470912218</ele>
        <time>2024-11-04T06:18:37Z</time>
      </trkpt>
      <trkpt lat="38.83288684163603" lon="121.5066164493263">
        <ele>2.8405546601861715</ele>
        <time>2024-11-04T06:18:41Z</time>
      </trkpt>
      <trkpt lat="38.832728504803576" lon="121.50654336820116">
        <ele>2.1328908540308475</ele>
        <time>2024-11-04T06:18:49Z</time>
      </trkpt>
      <trkpt lat="38.83254149490654" lon="121.506514122618">
        <ele>2.4794887006282806</ele>
        <time>2024-11-04T06:18:57Z</time>
      </trkpt>
      <trkpt lat="38.832312984181364" lon="121.50636541911686">
        <ele>2.855599444359541</ele>
        <time>2024-11-04T06:19:09Z</time>
      </trkpt>
      <trkpt lat="38.83215414043436" lon="121.5061880872945">
        <ele>3.999778900295496</ele>
        <time>2024-11-04T06:19:17Z</time>
      </trkpt>
      <trkpt lat="38.832014257450574" lon="121.50582762694067">
        <ele>6.058641632087529</ele>
        <time>2024-11-04T06:19:29Z</time>
      </trkpt>
      <trkpt lat="38.831972515546006" lon="121.50572581004029">
        <ele>5.529343117959797</ele>
        <time>2024-11-04T06:19:33Z</time>
      </trkpt>
      <trkpt lat="38.83178620903648" lon="121.50547858322483">
        <ele>5.663316451013088</ele>
        <time>2024-11-04T06:19:45Z</time>
      </trkpt>
      <trkpt lat="38.83163261207402" lon="121.50535581869289">
        <ele>4.765278423205018</ele>
        <time>2024-11-04T06:19:53Z</time>
      </trkpt>
      <trkpt lat="38.83146945056084" lon="121.50526859988848">
        <ele>5.869215657003224</ele>
        <time>2024-11-04T06:20:01Z</time>
      </trkpt>
      <trkpt lat="38.83119248908532" lon="121.50526708748313">
        <ele>5.604562586173415</ele>
        <time>2024-11-04T06:20:13Z</time>
      </trkpt>
      <trkpt lat="38.8309346798179" lon="121.50523759081173">
        <ele>5.582554780878127</ele>
        <time>2024-11-04T06:20:24Z</time>
      </trkpt>
      <trkpt lat="38.83068128819762" lon="121.50508390506735">
        <ele>5.871054857969284</ele>
        <time>2024-11-04T06:20:36Z</time>
      </trkpt>
      <trkpt lat="38.83062333321251" lon="121.50500712642368">
        <ele>4.7546997256577015</ele>
        <time>2024-11-04T06:20:40Z</time>
      </trkpt>
      <trkpt lat="38.83046661139739" lon="121.50488491100228">
        <ele>5.231464428827167</ele>
        <time>2024-11-04T06:20:48Z</time>
      </trkpt>
      <trkpt lat="38.83013397010283" lon="121.50471677581996">
        <ele>5.548331571742892</ele>
        <time>2024-11-04T06:21:04Z</time>
      </trkpt>
      <trkpt lat="38.82991328602068" lon="121.50449865429063">
        <ele>5.561417474411428</ele>
        <time>2024-11-04T06:21:16Z</time>
      </trkpt>
      <trkpt lat="38.82971272470681" lon="121.50427844825946">
        <ele>3.9124707709997892</ele>
        <time>2024-11-04T06:21:28Z</time>
      </trkpt>
      <trkpt lat="38.8295504495405" lon="121.50415646646368">
        <ele>4.301851278170943</ele>
        <time>2024-11-04T06:21:36Z</time>
      </trkpt>
      <trkpt lat="38.82945578744855" lon="121.5041440432439">
        <ele>5.599266918376088</ele>
        <time>2024-11-04T06:21:40Z</time>
      </trkpt>
      <trkpt lat="38.829196611117865" lon="121.50403146718742">
        <ele>6.648014225065708</ele>
        <time>2024-11-04T06:21:52Z</time>
      </trkpt>
      <trkpt lat="38.82904057499331" lon="121.50398418043498">
        <ele>5.845805102959275</ele>
        <time>2024-11-04T06:22:00Z</time>
      </trkpt>
      <trkpt lat="38.82885474626165" lon="121.5039915401623">
        <ele>6.158905630931258</ele>
        <time>2024-11-04T06:22:08Z</time>
      </trkpt>
      <trkpt lat="38.82878815671509" lon="121.50403963573368">
        <ele>7.109658107161522</ele>
        <time>2024-11-04T06:22:11Z</time>
      </trkpt>
      <trkpt lat="38.82856675001629" lon="121.50408934736691">
        <ele>5.750286140479147</ele>
        <time>2024-11-04T06:22:21Z</time>
      </trkpt>
      <trkpt lat="38.82828388173167" lon="121.50403697325511">
        <ele>5.5302273547276855</ele>
        <time>2024-11-04T06:22:37Z</time>
      </trkpt>
      <trkpt lat="38.82811391533833" lon="121.50391581055983">
        <ele>5.336306110955775</ele>
        <time>2024-11-04T06:22:45Z</time>
      </trkpt>
      <trkpt lat="38.82798637996714" lon="121.50374834270447">
        <ele>4.6213203351944685</ele>
        <time>2024-11-04T06:22:53Z</time>
      </trkpt>
      <trkpt lat="38.828175845334776" lon="121.50395073997906">
        <ele>2.83767697121948</ele>
        <time>2024-11-04T06:23:05Z</time>
      </trkpt>
      <trkpt lat="38.82824839854704" lon="121.50399931770889">
        <ele>2.8796667736023664</ele>
        <time>2024-11-04T06:23:09Z</time>
      </trkpt>
      <trkpt lat="38.82844301874668" lon="121.50405408272702">
        <ele>4.345600415952504</ele>
        <time>2024-11-04T06:23:17Z</time>
      </trkpt>
      <trkpt lat="38.828778209946826" lon="121.50397913911098">
        <ele>4.430571345612407</ele>
        <time>2024-11-04T06:23:33Z</time>
      </trkpt>
      <trkpt lat="38.828861729389615" lon="121.50393950337876">
        <ele>3.6377883292734623</ele>
        <time>2024-11-04T06:23:37Z</time>
      </trkpt>
      <trkpt lat="38.82904670808416" lon="121.50393436430583">
        <ele>4.628040600568056</ele>
        <time>2024-11-04T06:23:45Z</time>
      </trkpt>
      <trkpt lat="38.829252889913576" lon="121.50398535599389">
        <ele>4.423477695323527</ele>
        <time>2024-11-04T06:23:53Z</time>
      </trkpt>
      <trkpt lat="38.82952154712961" lon="121.50410421195623">
        <ele>3.3822929840534925</ele>
        <time>2024-11-04T06:24:05Z</time>
      </trkpt>
      <trkpt lat="38.82974510068932" lon="121.50430425598843">
        <ele>2.043442154303193</ele>
        <time>2024-11-04T06:24:16Z</time>
      </trkpt>
      <trkpt lat="38.82988874928394" lon="121.50444373868449">
        <ele>2.359147047623992</ele>
        <time>2024-11-04T06:24:23Z</time>
      </trkpt>
      <trkpt lat="38.829932380982136" lon="121.50451741527614">
        <ele>2.3335986519232392</ele>
        <time>2024-11-04T06:24:26Z</time>
      </trkpt>
      <trkpt lat="38.830167580033574" lon="121.5047276790966">
        <ele>2.9340782212093472</ele>
        <time>2024-11-04T06:24:38Z</time>
      </trkpt>
      <trkpt lat="38.830429713608815" lon="121.50485699791876">
        <ele>3.8618102986365557</ele>
        <time>2024-11-04T06:24:50Z</time>
      </trkpt>
      <trkpt lat="38.83067683212233" lon="121.50502558562793">
        <ele>3.7247239351272583</ele>
        <time>2024-11-04T06:25:02Z</time>
      </trkpt>
      <trkpt lat="38.83091914124198" lon="121.50521658907788">
        <ele>3.6154615273699164</ele>
        <time>2024-11-04T06:25:14Z</time>
      </trkpt>
      <trkpt lat="38.83108537186202" lon="121.50525283476036">
        <ele>2.7884622868150473</ele>
        <time>2024-11-04T06:25:22Z</time>
      </trkpt>
      <trkpt lat="38.831443753608546" lon="121.50526661586417">
        <ele>3.9769355868920684</ele>
        <time>2024-11-04T06:25:38Z</time>
      </trkpt>
      <trkpt lat="38.8316375401832" lon="121.50534322190416">
        <ele>3.527786433696747</ele>
        <time>2024-11-04T06:25:46Z</time>
      </trkpt>
      <trkpt lat="38.83172603998134" lon="121.50534777675699">
        <ele>3.543189284391701</ele>
        <time>2024-11-04T06:25:50Z</time>
      </trkpt>
      <trkpt lat="38.83180566133934" lon="121.5052658175263">
        <ele>4.370529981330037</ele>
        <time>2024-11-04T06:25:54Z</time>
      </trkpt>
      <trkpt lat="38.831989526132645" lon="121.50486311100244">
        <ele>8.414789630100131</ele>
        <time>2024-11-04T06:26:10Z</time>
      </trkpt>
      <trkpt lat="38.83215972514055" lon="121.50452666121875">
        <ele>8.403248271904886</ele>
        <time>2024-11-04T06:26:24Z</time>
      </trkpt>
      <trkpt lat="38.83224829079715" lon="121.50453319279762">
        <ele>7.758283372968435</ele>
        <time>2024-11-04T06:26:27Z</time>
      </trkpt>
      <trkpt lat="38.832451052969105" lon="121.50469811299315">
        <ele>9.242669616825879</ele>
        <time>2024-11-04T06:26:39Z</time>
      </trkpt>
      <trkpt lat="38.83250691317886" lon="121.5047777681494">
        <ele>7.775323363952339</ele>
        <time>2024-11-04T06:26:43Z</time>
      </trkpt>
      <trkpt lat="38.832598858773515" lon="121.504808504275">
        <ele>7.641915587708354</ele>
        <time>2024-11-04T06:26:47Z</time>
      </trkpt>
      <trkpt lat="38.83285010160944" lon="121.50495122733462">
        <ele>8.338492965325713</ele>
        <time>2024-11-04T06:26:59Z</time>
      </trkpt>
      <trkpt lat="38.832926691006335" lon="121.50487434025241">
        <ele>7.435302332043648</ele>
        <time>2024-11-04T06:27:03Z</time>
      </trkpt>
      <trkpt lat="38.83301256250062" lon="121.50483234909726">
        <ele>9.000778236426413</ele>
        <time>2024-11-04T06:27:07Z</time>
      </trkpt>
      <trkpt lat="38.83329235472351" lon="121.50488627825335">
        <ele>7.33175156544894</ele>
        <time>2024-11-04T06:27:19Z</time>
      </trkpt>
      <trkpt lat="38.833395691382556" lon="121.5048688206811">
        <ele>6.680947884917259</ele>
        <time>2024-11-04T06:27:23Z</time>
      </trkpt>
      <trkpt lat="38.8334616745113" lon="121.50494532739255">
        <ele>8.10628018528223</ele>
        <time>2024-11-04T06:27:27Z</time>
      </trkpt>
      <trkpt lat="38.83371610898768" lon="121.50513490233838">
        <ele>9.507923210039735</ele>
        <time>2024-11-04T06:27:39Z</time>
      </trkpt>
      <trkpt lat="38.83388336649277" lon="121.50526081951797">
        <ele>8.804346366785467</ele>
        <time>2024-11-04T06:27:47Z</time>
      </trkpt>
      <trkpt lat="38.83394937054372" lon="121.50537493028064">
        <ele>9.69533339701593</ele>
        <time>2024-11-04T06:27:55Z</time>
      </trkpt>
      <trkpt lat="38.83426950248648" lon="121.50556216470915">
        <ele>7.844451270066202</ele>
        <time>2024-11-04T06:28:11Z</time>
      </trkpt>
      <trkpt lat="38.83433607887628" lon="121.50562969817636">
        <ele>7.149646191857755</ele>
        <time>2024-11-04T06:28:15Z</time>
      </trkpt>
      <trkpt lat="38.83450818160941" lon="121.50575386007924">
        <ele>7.94726284313947</ele>
        <time>2024-11-04T06:28:23Z</time>
      </trkpt>
      <trkpt lat="38.83461068471902" lon="121.50579558143572">
        <ele>6.220616985112429</ele>
        <time>2024-11-04T06:28:27Z</time>
      </trkpt>
      <trkpt lat="38.834715249780366" lon="121.5059307659992">
        <ele>7.254764088429511</ele>
        <time>2024-11-04T06:28:33Z</time>
      </trkpt>
      <trkpt lat="38.834789408026445" lon="121.50598574414754">
        <ele>6.5418560625985265</ele>
        <time>2024-11-04T06:28:37Z</time>
      </trkpt>
      <trkpt lat="38.834836851000354" lon="121.50604749138785">
        <ele>7.074312855489552</ele>
        <time>2024-11-04T06:28:41Z</time>
      </trkpt>
      <trkpt lat="38.83505109876019" lon="121.50612674607457">
        <ele>6.385631717741489</ele>
        <time>2024-11-04T06:28:49Z</time>
      </trkpt>
      <trkpt lat="38.83524003756623" lon="121.50632904376005">
        <ele>7.91082051768899</ele>
        <time>2024-11-04T06:29:01Z</time>
      </trkpt>
      <trkpt lat="38.835405454878185" lon="121.50645543913042">
        <ele>9.162263682112098</ele>
        <time>2024-11-04T06:29:09Z</time>
      </trkpt>
      <trkpt lat="38.835502781561445" lon="121.50648941702694">
        <ele>7.693197716958821</ele>
        <time>2024-11-04T06:29:13Z</time>
      </trkpt>
      <trkpt lat="38.83573218832815" lon="121.50643344471695">
        <ele>12.021199158392847</ele>
        <time>2024-11-04T06:29:25Z</time>
      </trkpt>
      <trkpt lat="38.83573218832815" lon="121.50643344471695">
        <ele>12.021199158392847</ele>
        <time>2024-11-04T06:29:27Z</time>
      </trkpt>
    </trkseg>
  </trk>
</gpx>