<?xml version="1.0" encoding="UTF-8"?>
<gpx xmlns="http://www.topografix.com/GPX/1/1" xmlns:gpxtpx="http://www.garmin.com/xmlschemas/TrackPointExtension/v1" xmlns:xsi="http://www.w3.org/2001/XMLSchema-instance" xsi:schemaLocation="http://www.topografix.com/GPX/1/1 http://www.topografix.com/GPX/1/1/gpx.xsd" version="1.1" creator="gpx.py -- https://github.com/tkrajina/gpxpy">
  <trk>
    <name>gpx from keep</name>
    <type>Run</type>
    <trkseg>
      <trkpt lat="38.83754956366456" lon="121.50471851475102">
        <ele>9.109232526272535</ele>
        <time>2025-08-10T00:31:34Z</time>
      </trkpt>
      <trkpt lat="38.83763685879999" lon="121.50470893287071">
        <ele>8.978911122307181</ele>
        <time>2025-08-10T00:31:38Z</time>
      </trkpt>
      <trkpt lat="38.83781231377013" lon="121.50481610560801">
        <ele>8.603391828015447</ele>
        <time>2025-08-10T00:31:50Z</time>
      </trkpt>
      <trkpt lat="38.83793072158645" lon="121.50495870070904">
        <ele>9.79068158287555</ele>
        <time>2025-08-10T00:31:59Z</time>
      </trkpt>
      <trkpt lat="38.83802169662139" lon="121.50502798484614">
        <ele>9.745390427298844</ele>
        <time>2025-08-10T00:32:05Z</time>
      </trkpt>
      <trkpt lat="38.837958982105924" lon="121.5051602914809">
        <ele>9.98538083396852</ele>
        <time>2025-08-10T00:32:14Z</time>
      </trkpt>
      <trkpt lat="38.837867941925374" lon="121.50525245370245">
        <ele>10.149820984341204</ele>
        <time>2025-08-10T00:32:20Z</time>
      </trkpt>
      <trkpt lat="38.837838637698354" lon="121.50532881703391">
        <ele>9.66377834789455</ele>
        <time>2025-08-10T00:32:23Z</time>
      </trkpt>
      <trkpt lat="38.83774444994174" lon="121.50544583346642">
        <ele>10.626571412198246</ele>
        <time>2025-08-10T00:32:29Z</time>
      </trkpt>
      <trkpt lat="38.83771667036702" lon="121.5055279921326">
        <ele>10.339035321958363</ele>
        <time>2025-08-10T00:32:32Z</time>
      </trkpt>
      <trkpt lat="38.83755524145621" lon="121.50585034784524">
        <ele>10.966494286432862</ele>
        <time>2025-08-10T00:32:47Z</time>
      </trkpt>
      <trkpt lat="38.83751830896389" lon="121.50590916366009">
        <ele>11.40110048558563</ele>
        <time>2025-08-10T00:32:50Z</time>
      </trkpt>
      <trkpt lat="38.837504217781515" lon="121.50598087231604">
        <ele>11.230193591676652</ele>
        <time>2025-08-10T00:32:53Z</time>
      </trkpt>
      <trkpt lat="38.837441477389945" lon="121.50611908152315">
        <ele>11.46579472720623</ele>
        <time>2025-08-10T00:32:59Z</time>
      </trkpt>
      <trkpt lat="38.83734923356856" lon="121.50623119720095">
        <ele>11.367188544943929</ele>
        <time>2025-08-10T00:33:05Z</time>
      </trkpt>
      <trkpt lat="38.8373182701238" lon="121.50629979757895">
        <ele>11.270429737865925</ele>
        <time>2025-08-10T00:33:08Z</time>
      </trkpt>
      <trkpt lat="38.83734056465607" lon="121.50637398403926">
        <ele>11.161841347813606</ele>
        <time>2025-08-10T00:33:11Z</time>
      </trkpt>
      <trkpt lat="38.83731241071556" lon="121.50644070069393">
        <ele>11.177018808200955</ele>
        <time>2025-08-10T00:33:14Z</time>
      </trkpt>
      <trkpt lat="38.837091164998725" lon="121.50676216155924">
        <ele>10.912914086133242</ele>
        <time>2025-08-10T00:33:30Z</time>
      </trkpt>
      <trkpt lat="38.837056714494096" lon="121.5068405072907">
        <ele>11.654477004893124</ele>
        <time>2025-08-10T00:33:34Z</time>
      </trkpt>
      <trkpt lat="38.837017693297" lon="121.50688102268083">
        <ele>11.248929804190993</ele>
        <time>2025-08-10T00:33:38Z</time>
      </trkpt>
      <trkpt lat="38.83697896481806" lon="121.5069684379988">
        <ele>11.24515527766198</ele>
        <time>2025-08-10T00:33:46Z</time>
      </trkpt>
      <trkpt lat="38.83693043186587" lon="121.50703020109083">
        <ele>10.66334181651473</ele>
        <time>2025-08-10T00:33:54Z</time>
      </trkpt>
      <trkpt lat="38.836900621305006" lon="121.50711470251143">
        <ele>10.095829846337438</ele>
        <time>2025-08-10T00:34:02Z</time>
      </trkpt>
      <trkpt lat="38.83678070175857" lon="121.50713097544407">
        <ele>10.515810852870345</ele>
        <time>2025-08-10T00:34:06Z</time>
      </trkpt>
      <trkpt lat="38.836479086750046" lon="121.50705286067006">
        <ele>10.379208955913782</ele>
        <time>2025-08-10T00:34:19Z</time>
      </trkpt>
      <trkpt lat="38.83637533549717" lon="121.50698526910337">
        <ele>10.174258805811405</ele>
        <time>2025-08-10T00:34:25Z</time>
      </trkpt>
      <trkpt lat="38.83624199194225" lon="121.50693866566797">
        <ele>9.82942923065275</ele>
        <time>2025-08-10T00:34:31Z</time>
      </trkpt>
      <trkpt lat="38.836182348135424" lon="121.50688124888192">
        <ele>10.075793546624482</ele>
        <time>2025-08-10T00:34:34Z</time>
      </trkpt>
      <trkpt lat="38.83615137611007" lon="121.50680218803231">
        <ele>9.859895604662597</ele>
        <time>2025-08-10T00:34:37Z</time>
      </trkpt>
      <trkpt lat="38.83620785090576" lon="121.50647967083083">
        <ele>9.250947932712734</ele>
        <time>2025-08-10T00:34:49Z</time>
      </trkpt>
      <trkpt lat="38.83624524794137" lon="121.50632223488685">
        <ele>9.630881299264729</ele>
        <time>2025-08-10T00:34:55Z</time>
      </trkpt>
      <trkpt lat="38.836247349984724" lon="121.50623405707213">
        <ele>9.793398031964898</ele>
        <time>2025-08-10T00:34:58Z</time>
      </trkpt>
      <trkpt lat="38.836323661263435" lon="121.50587442202094">
        <ele>8.879758603870869</ele>
        <time>2025-08-10T00:35:13Z</time>
      </trkpt>
      <trkpt lat="38.83642089374762" lon="121.5055918315737">
        <ele>9.772670109756291</ele>
        <time>2025-08-10T00:35:25Z</time>
      </trkpt>
      <trkpt lat="38.83645741811748" lon="121.5055327630575">
        <ele>9.474881486967206</ele>
        <time>2025-08-10T00:35:28Z</time>
      </trkpt>
      <trkpt lat="38.83651754423526" lon="121.50524748223647">
        <ele>8.653644983656704</ele>
        <time>2025-08-10T00:35:39Z</time>
      </trkpt>
      <trkpt lat="38.83664396488241" lon="121.50486814881651">
        <ele>8.41694310400635</ele>
        <time>2025-08-10T00:35:55Z</time>
      </trkpt>
      <trkpt lat="38.836734548499635" lon="121.50446733744872">
        <ele>9.506408143788576</ele>
        <time>2025-08-10T00:36:11Z</time>
      </trkpt>
      <trkpt lat="38.836761022194466" lon="121.5043906642412">
        <ele>9.134403659030795</ele>
        <time>2025-08-10T00:36:15Z</time>
      </trkpt>
      <trkpt lat="38.83680724651699" lon="121.5043336867619">
        <ele>8.750884708948433</ele>
        <time>2025-08-10T00:36:19Z</time>
      </trkpt>
      <trkpt lat="38.83696537150095" lon="121.50437964223937">
        <ele>9.304858683608472</ele>
        <time>2025-08-10T00:36:31Z</time>
      </trkpt>
      <trkpt lat="38.837121589923875" lon="121.50445915426204">
        <ele>9.15731865633279</ele>
        <time>2025-08-10T00:36:39Z</time>
      </trkpt>
      <trkpt lat="38.83724661769636" lon="121.50455592817072">
        <ele>8.615189540199935</ele>
        <time>2025-08-10T00:36:46Z</time>
      </trkpt>
      <trkpt lat="38.83756781104162" lon="121.50468734493246">
        <ele>8.218801348470151</ele>
        <time>2025-08-10T00:36:55Z</time>
      </trkpt>
      <trkpt lat="38.83785623860152" lon="121.5049011537979">
        <ele>8.945994675159454</ele>
        <time>2025-08-10T00:37:07Z</time>
      </trkpt>
      <trkpt lat="38.83796414240508" lon="121.5050057833647">
        <ele>7.953553885221481</ele>
        <time>2025-08-10T00:37:13Z</time>
      </trkpt>
      <trkpt lat="38.838015016522945" lon="121.50507943446972">
        <ele>8.656687161885202</ele>
        <time>2025-08-10T00:37:16Z</time>
      </trkpt>
      <trkpt lat="38.83807827241017" lon="121.50513009604045">
        <ele>9.449820291250944</ele>
        <time>2025-08-10T00:37:19Z</time>
      </trkpt>
      <trkpt lat="38.83806443075091" lon="121.50523696062204">
        <ele>10.193975455127656</ele>
        <time>2025-08-10T00:37:22Z</time>
      </trkpt>
      <trkpt lat="38.837852901191816" lon="121.50553209751124">
        <ele>10.639860325492918</ele>
        <time>2025-08-10T00:37:34Z</time>
      </trkpt>
      <trkpt lat="38.83780822547613" lon="121.50558551203494">
        <ele>10.681562849320471</ele>
        <time>2025-08-10T00:37:37Z</time>
      </trkpt>
      <trkpt lat="38.83772867178031" lon="121.50563852672282">
        <ele>10.936265888623893</ele>
        <time>2025-08-10T00:37:41Z</time>
      </trkpt>
      <trkpt lat="38.837548079674136" lon="121.5060499751397">
        <ele>10.641239708289504</ele>
        <time>2025-08-10T00:37:57Z</time>
      </trkpt>
      <trkpt lat="38.83746230988569" lon="121.50619859238333">
        <ele>10.727653292007744</ele>
        <time>2025-08-10T00:38:05Z</time>
      </trkpt>
      <trkpt lat="38.837353764064" lon="121.5063325402673">
        <ele>11.062631507404149</ele>
        <time>2025-08-10T00:38:13Z</time>
      </trkpt>
      <trkpt lat="38.83728293183717" lon="121.50645618102857">
        <ele>10.964757516048849</ele>
        <time>2025-08-10T00:38:20Z</time>
      </trkpt>
      <trkpt lat="38.837203982977506" lon="121.50654333518051">
        <ele>11.187407298013568</ele>
        <time>2025-08-10T00:38:24Z</time>
      </trkpt>
      <trkpt lat="38.837114056067385" lon="121.50670061020017">
        <ele>10.723697741515934</ele>
        <time>2025-08-10T00:38:28Z</time>
      </trkpt>
      <trkpt lat="38.83704582943168" lon="121.50692543671879">
        <ele>11.37748322635889</ele>
        <time>2025-08-10T00:38:40Z</time>
      </trkpt>
      <trkpt lat="38.83706871973739" lon="121.50698549360405">
        <ele>10.769347843714058</ele>
        <time>2025-08-10T00:38:44Z</time>
      </trkpt>
      <trkpt lat="38.837231491467605" lon="121.5066777144864">
        <ele>11.242456099949777</ele>
        <time>2025-08-10T00:39:03Z</time>
      </trkpt>
      <trkpt lat="38.83738445841019" lon="121.50639068883392">
        <ele>10.738059932366014</ele>
        <time>2025-08-10T00:39:19Z</time>
      </trkpt>
      <trkpt lat="38.837430286729486" lon="121.50630284321076">
        <ele>10.431868168525398</ele>
        <time>2025-08-10T00:39:23Z</time>
      </trkpt>
      <trkpt lat="38.8375823460448" lon="121.50611419682023">
        <ele>11.408962436951697</ele>
        <time>2025-08-10T00:39:31Z</time>
      </trkpt>
      <trkpt lat="38.83767677770327" lon="121.50595050064375">
        <ele>10.65096275229007</ele>
        <time>2025-08-10T00:39:39Z</time>
      </trkpt>
      <trkpt lat="38.837704718551215" lon="121.5058349858137">
        <ele>11.923895051702857</ele>
        <time>2025-08-10T00:39:43Z</time>
      </trkpt>
      <trkpt lat="38.83778945419753" lon="121.50567906290807">
        <ele>11.05463590938598</ele>
        <time>2025-08-10T00:39:54Z</time>
      </trkpt>
      <trkpt lat="38.837824578021305" lon="121.5055692531041">
        <ele>10.825998686254025</ele>
        <time>2025-08-10T00:39:58Z</time>
      </trkpt>
      <trkpt lat="38.83789598022261" lon="121.50546740572351">
        <ele>10.337468149140477</ele>
        <time>2025-08-10T00:40:02Z</time>
      </trkpt>
      <trkpt lat="38.83796423701751" lon="121.50512558395471">
        <ele>9.657328240573406</ele>
        <time>2025-08-10T00:40:14Z</time>
      </trkpt>
      <trkpt lat="38.83782886578763" lon="121.50486021461401">
        <ele>9.505171932280064</ele>
        <time>2025-08-10T00:40:26Z</time>
      </trkpt>
      <trkpt lat="38.837507587947506" lon="121.5046253398006">
        <ele>8.90889301430434</ele>
        <time>2025-08-10T00:40:38Z</time>
      </trkpt>
      <trkpt lat="38.83731775527386" lon="121.50442967322977">
        <ele>8.774472382850945</ele>
        <time>2025-08-10T00:40:50Z</time>
      </trkpt>
      <trkpt lat="38.8372737635829" lon="121.50435192565304">
        <ele>9.162000353448093</ele>
        <time>2025-08-10T00:40:54Z</time>
      </trkpt>
      <trkpt lat="38.83718448203337" lon="121.50432697025548">
        <ele>8.701105050742626</ele>
        <time>2025-08-10T00:40:58Z</time>
      </trkpt>
      <trkpt lat="38.83712918745517" lon="121.50426617600266">
        <ele>9.275171423330903</ele>
        <time>2025-08-10T00:41:02Z</time>
      </trkpt>
      <trkpt lat="38.837052090163674" lon="121.50427184513023">
        <ele>8.84120833594352</ele>
        <time>2025-08-10T00:41:06Z</time>
      </trkpt>
      <trkpt lat="38.83698536463809" lon="121.50436204533631">
        <ele>9.74290114082396</ele>
        <time>2025-08-10T00:41:10Z</time>
      </trkpt>
      <trkpt lat="38.836963152694466" lon="121.50446379363451">
        <ele>9.69403572101146</ele>
        <time>2025-08-10T00:41:14Z</time>
      </trkpt>
      <trkpt lat="38.836804450658015" lon="121.50478276089879">
        <ele>10.419279540888965</ele>
        <time>2025-08-10T00:41:26Z</time>
      </trkpt>
      <trkpt lat="38.83672551003684" lon="121.50498615390303">
        <ele>9.330278802663088</ele>
        <time>2025-08-10T00:41:34Z</time>
      </trkpt>
      <trkpt lat="38.83670261153641" lon="121.50509898775313">
        <ele>9.144929196685553</ele>
        <time>2025-08-10T00:41:38Z</time>
      </trkpt>
      <trkpt lat="38.836609624819225" lon="121.50530637968053">
        <ele>10.016904722899199</ele>
        <time>2025-08-10T00:41:46Z</time>
      </trkpt>
      <trkpt lat="38.836486653724975" lon="121.50564570728308">
        <ele>9.005999102257192</ele>
        <time>2025-08-10T00:41:57Z</time>
      </trkpt>
      <trkpt lat="38.83632045532516" lon="121.50599527154314">
        <ele>8.765018329955637</ele>
        <time>2025-08-10T00:42:09Z</time>
      </trkpt>
      <trkpt lat="38.83620597302892" lon="121.50634444156378">
        <ele>9.189408732578158</ele>
        <time>2025-08-10T00:42:21Z</time>
      </trkpt>
      <trkpt lat="38.83620216109923" lon="121.50660312943856">
        <ele>9.22681079339236</ele>
        <time>2025-08-10T00:42:29Z</time>
      </trkpt>
      <trkpt lat="38.836228928709176" lon="121.50670809792767">
        <ele>8.420236977748573</ele>
        <time>2025-08-10T00:42:33Z</time>
      </trkpt>
      <trkpt lat="38.83641417448785" lon="121.50699630899396">
        <ele>9.426181631162763</ele>
        <time>2025-08-10T00:42:45Z</time>
      </trkpt>
      <trkpt lat="38.83655378424776" lon="121.5071237091687">
        <ele>9.26178387645632</ele>
        <time>2025-08-10T00:42:53Z</time>
      </trkpt>
      <trkpt lat="38.83663717802433" lon="121.5071740248823">
        <ele>10.715616596862674</ele>
        <time>2025-08-10T00:42:57Z</time>
      </trkpt>
      <trkpt lat="38.83673849210437" lon="121.5071754007244">
        <ele>11.029445305466652</ele>
        <time>2025-08-10T00:43:01Z</time>
      </trkpt>
      <trkpt lat="38.836958538784444" lon="121.50690162856996">
        <ele>10.946006519719958</ele>
        <time>2025-08-10T00:43:13Z</time>
      </trkpt>
      <trkpt lat="38.83701892133346" lon="121.50680640377456">
        <ele>10.811684076674283</ele>
        <time>2025-08-10T00:43:17Z</time>
      </trkpt>
      <trkpt lat="38.83710503306191" lon="121.50674076212992">
        <ele>11.012548959814012</ele>
        <time>2025-08-10T00:43:21Z</time>
      </trkpt>
      <trkpt lat="38.83712276650983" lon="121.50663608257379">
        <ele>10.457643547095358</ele>
        <time>2025-08-10T00:43:25Z</time>
      </trkpt>
      <trkpt lat="38.837175587327984" lon="121.506534615895">
        <ele>11.437731310725212</ele>
        <time>2025-08-10T00:43:29Z</time>
      </trkpt>
      <trkpt lat="38.83730895386294" lon="121.50636216719154">
        <ele>10.770088225603104</ele>
        <time>2025-08-10T00:43:45Z</time>
      </trkpt>
      <trkpt lat="38.837324945319864" lon="121.5062977270212">
        <ele>10.711945769377053</ele>
        <time>2025-08-10T00:43:56Z</time>
      </trkpt>
      <trkpt lat="38.83736102096842" lon="121.5062541124955">
        <ele>10.832338540814817</ele>
        <time>2025-08-10T00:44:00Z</time>
      </trkpt>
      <trkpt lat="38.83749187753348" lon="121.50592095147388">
        <ele>10.14527605008334</ele>
        <time>2025-08-10T00:44:16Z</time>
      </trkpt>
      <trkpt lat="38.83766752142199" lon="121.50562182545401">
        <ele>10.098488492891192</ele>
        <time>2025-08-10T00:44:28Z</time>
      </trkpt>
      <trkpt lat="38.837806068385575" lon="121.50543131365225">
        <ele>10.677673133090138</ele>
        <time>2025-08-10T00:44:36Z</time>
      </trkpt>
      <trkpt lat="38.83786288445081" lon="121.50531603475338">
        <ele>9.910807902924716</ele>
        <time>2025-08-10T00:44:40Z</time>
      </trkpt>
      <trkpt lat="38.83793791340258" lon="121.50522758553892">
        <ele>9.956753877922893</ele>
        <time>2025-08-10T00:44:44Z</time>
      </trkpt>
      <trkpt lat="38.837954055817065" lon="121.50512458482031">
        <ele>9.485699040815234</ele>
        <time>2025-08-10T00:44:48Z</time>
      </trkpt>
      <trkpt lat="38.83790734101988" lon="121.50495570698942">
        <ele>8.953500738367438</ele>
        <time>2025-08-10T00:44:56Z</time>
      </trkpt>
      <trkpt lat="38.83758961450142" lon="121.50471584990598">
        <ele>8.124156629666686</ele>
        <time>2025-08-10T00:45:08Z</time>
      </trkpt>
      <trkpt lat="38.837511384942765" lon="121.50461021358494">
        <ele>8.635091681033373</ele>
        <time>2025-08-10T00:45:12Z</time>
      </trkpt>
      <trkpt lat="38.8374347007158" lon="121.50454141174986">
        <ele>8.787063470110297</ele>
        <time>2025-08-10T00:45:16Z</time>
      </trkpt>
      <trkpt lat="38.83732056888139" lon="121.50439011761014">
        <ele>8.350731179118156</ele>
        <time>2025-08-10T00:45:24Z</time>
      </trkpt>
      <trkpt lat="38.83733543294003" lon="121.50431178878723">
        <ele>8.708950638771057</ele>
        <time>2025-08-10T00:45:28Z</time>
      </trkpt>
      <trkpt lat="38.83725216717582" lon="121.5042205340542">
        <ele>7.786917686462402</ele>
        <time>2025-08-10T00:45:36Z</time>
      </trkpt>
      <trkpt lat="38.837153320148744" lon="121.50423334575598">
        <ele>8.143203425221145</ele>
        <time>2025-08-10T00:45:40Z</time>
      </trkpt>
      <trkpt lat="38.83705201560178" lon="121.50432226568002">
        <ele>9.815533608198166</ele>
        <time>2025-08-10T00:45:48Z</time>
      </trkpt>
      <trkpt lat="38.836916316709974" lon="121.50463544368344">
        <ele>10.623623687773943</ele>
        <time>2025-08-10T00:46:00Z</time>
      </trkpt>
      <trkpt lat="38.836783673571794" lon="121.50494719892501">
        <ele>9.60682326555252</ele>
        <time>2025-08-10T00:46:11Z</time>
      </trkpt>
      <trkpt lat="38.83674499971907" lon="121.5050781277729">
        <ele>8.873127965256572</ele>
        <time>2025-08-10T00:46:15Z</time>
      </trkpt>
      <trkpt lat="38.83671213113666" lon="121.50513660756535">
        <ele>9.721720573492348</ele>
        <time>2025-08-10T00:46:19Z</time>
      </trkpt>
      <trkpt lat="38.83671213113666" lon="121.50513660756535">
        <ele>9.721720573492348</ele>
        <time>2025-08-10T00:46:22Z</time>
      </trkpt>
    </trkseg>
  </trk>
</gpx>