<?xml version="1.0" encoding="UTF-8"?>
<gpx xmlns="http://www.topografix.com/GPX/1/1" xmlns:gpxtpx="http://www.garmin.com/xmlschemas/TrackPointExtension/v1" xmlns:xsi="http://www.w3.org/2001/XMLSchema-instance" xsi:schemaLocation="http://www.topografix.com/GPX/1/1 http://www.topografix.com/GPX/1/1/gpx.xsd" version="1.1" creator="gpx.py -- https://github.com/tkrajina/gpxpy">
  <trk>
    <name>gpx from keep</name>
    <type>Run</type>
    <trkseg>
      <trkpt lat="38.83309719920111" lon="121.50695201836788">
        <ele>1.823011115193367</ele>
        <time>2025-06-12T22:39:48Z</time>
      </trkpt>
      <trkpt lat="38.83290035096535" lon="121.50668369386077">
        <ele>1.9977445853874087</ele>
        <time>2025-06-12T22:40:06Z</time>
      </trkpt>
      <trkpt lat="38.83266763610025" lon="121.50653919690238">
        <ele>-0.6941648721694946</ele>
        <time>2025-06-12T22:40:18Z</time>
      </trkpt>
      <trkpt lat="38.83244436287753" lon="121.5065140365016">
        <ele>0.23895228561013937</ele>
        <time>2025-06-12T22:40:27Z</time>
      </trkpt>
      <trkpt lat="38.832234773824176" lon="121.50641951107778">
        <ele>0.7041470361873507</ele>
        <time>2025-06-12T22:40:36Z</time>
      </trkpt>
      <trkpt lat="38.832033868645766" lon="121.50615225776697">
        <ele>0.6597690982744098</ele>
        <time>2025-06-12T22:40:48Z</time>
      </trkpt>
      <trkpt lat="38.831912162309585" lon="121.50577204423705">
        <ele>0.9413927737623453</ele>
        <time>2025-06-12T22:41:02Z</time>
      </trkpt>
      <trkpt lat="38.83182377182569" lon="121.50561376814892">
        <ele>2.4746392825618386</ele>
        <time>2025-06-12T22:41:08Z</time>
      </trkpt>
      <trkpt lat="38.83170980471419" lon="121.50551057504084">
        <ele>1.1867745956405997</ele>
        <time>2025-06-12T22:41:14Z</time>
      </trkpt>
      <trkpt lat="38.83166660968787" lon="121.50544649225584">
        <ele>1.3803345020860434</ele>
        <time>2025-06-12T22:41:17Z</time>
      </trkpt>
      <trkpt lat="38.83135328521785" lon="121.50529723735973">
        <ele>1.5151945184916258</ele>
        <time>2025-06-12T22:41:32Z</time>
      </trkpt>
      <trkpt lat="38.83107584977779" lon="121.50533720770393">
        <ele>0.5750205228105187</ele>
        <time>2025-06-12T22:41:44Z</time>
      </trkpt>
      <trkpt lat="38.83087099054724" lon="121.50532816880502">
        <ele>1.098684411495924</ele>
        <time>2025-06-12T22:41:53Z</time>
      </trkpt>
      <trkpt lat="38.83080648698942" lon="121.50530711492748">
        <ele>0.16768837068229914</ele>
        <time>2025-06-12T22:41:56Z</time>
      </trkpt>
      <trkpt lat="38.83059096027873" lon="121.5050707542747">
        <ele>2.349691281095147</ele>
        <time>2025-06-12T22:42:08Z</time>
      </trkpt>
      <trkpt lat="38.83034921448348" lon="121.50490133461635">
        <ele>1.233707063831389</ele>
        <time>2025-06-12T22:42:20Z</time>
      </trkpt>
      <trkpt lat="38.83022515287467" lon="121.50482826719475">
        <ele>-0.09924966283142567</ele>
        <time>2025-06-12T22:42:26Z</time>
      </trkpt>
      <trkpt lat="38.83008329645783" lon="121.50478181376141">
        <ele>1.1299520125612617</ele>
        <time>2025-06-12T22:42:32Z</time>
      </trkpt>
      <trkpt lat="38.82991348456385" lon="121.50464372195121">
        <ele>0.8648112844675779</ele>
        <time>2025-06-12T22:42:41Z</time>
      </trkpt>
      <trkpt lat="38.82971840779756" lon="121.50438937056215">
        <ele>0.8293709037825465</ele>
        <time>2025-06-12T22:42:53Z</time>
      </trkpt>
      <trkpt lat="38.82966779737589" lon="121.5043240648625">
        <ele>0.8024820825085044</ele>
        <time>2025-06-12T22:42:56Z</time>
      </trkpt>
      <trkpt lat="38.829537169472104" lon="121.50421271337491">
        <ele>1.039916637353599</ele>
        <time>2025-06-12T22:43:03Z</time>
      </trkpt>
      <trkpt lat="38.829303442635904" lon="121.50409408715282">
        <ele>0.2072572661563754</ele>
        <time>2025-06-12T22:43:14Z</time>
      </trkpt>
      <trkpt lat="38.82903865332763" lon="121.50403291075607">
        <ele>0.12268284894526005</ele>
        <time>2025-06-12T22:43:26Z</time>
      </trkpt>
      <trkpt lat="38.828966816333626" lon="121.50408525649273">
        <ele>0.694421548396349</ele>
        <time>2025-06-12T22:43:29Z</time>
      </trkpt>
      <trkpt lat="38.82889941139927" lon="121.50407324400305">
        <ele>0.4352670544758439</ele>
        <time>2025-06-12T22:43:32Z</time>
      </trkpt>
      <trkpt lat="38.82883851029666" lon="121.50402258322698">
        <ele>-0.574667508713901</ele>
        <time>2025-06-12T22:43:35Z</time>
      </trkpt>
      <trkpt lat="38.82856172917649" lon="121.5040752516605">
        <ele>0.6427347594872117</ele>
        <time>2025-06-12T22:43:47Z</time>
      </trkpt>
      <trkpt lat="38.828349833448655" lon="121.50409633971795">
        <ele>1.3201798601076007</ele>
        <time>2025-06-12T22:43:56Z</time>
      </trkpt>
      <trkpt lat="38.828292130744394" lon="121.50406387406484">
        <ele>1.7496307017281651</ele>
        <time>2025-06-12T22:43:59Z</time>
      </trkpt>
      <trkpt lat="38.82820430949815" lon="121.50405320301215">
        <ele>1.3436604486778378</ele>
        <time>2025-06-12T22:44:02Z</time>
      </trkpt>
      <trkpt lat="38.82806524918746" lon="121.50393007026321">
        <ele>1.4860829152166843</ele>
        <time>2025-06-12T22:44:09Z</time>
      </trkpt>
      <trkpt lat="38.8279357921247" lon="121.50372061609232">
        <ele>1.2793692220002413</ele>
        <time>2025-06-12T22:44:18Z</time>
      </trkpt>
      <trkpt lat="38.82785692493028" lon="121.50338247239213">
        <ele>0.24999807681888342</ele>
        <time>2025-06-12T22:44:30Z</time>
      </trkpt>
      <trkpt lat="38.82777065231921" lon="121.50323721471058">
        <ele>1.2830351954326034</ele>
        <time>2025-06-12T22:44:36Z</time>
      </trkpt>
      <trkpt lat="38.827703655087056" lon="121.5032024091119">
        <ele>1.3743654983118176</ele>
        <time>2025-06-12T22:44:39Z</time>
      </trkpt>
      <trkpt lat="38.82759837525408" lon="121.50307200004627">
        <ele>1.1263966960832477</ele>
        <time>2025-06-12T22:44:45Z</time>
      </trkpt>
      <trkpt lat="38.82746554858873" lon="121.50302085017323">
        <ele>0.18596667889505625</ele>
        <time>2025-06-12T22:44:51Z</time>
      </trkpt>
      <trkpt lat="38.82725194329086" lon="121.50299621596218">
        <ele>0.7890025498345494</ele>
        <time>2025-06-12T22:45:00Z</time>
      </trkpt>
      <trkpt lat="38.82709744851355" lon="121.50307314928634">
        <ele>0.7031554691493511</ele>
        <time>2025-06-12T22:45:07Z</time>
      </trkpt>
      <trkpt lat="38.82694962569325" lon="121.50320017103127">
        <ele>0.8941405154764652</ele>
        <time>2025-06-12T22:45:14Z</time>
      </trkpt>
      <trkpt lat="38.82689178425122" lon="121.50329890111234">
        <ele>1.631582953967154</ele>
        <time>2025-06-12T22:45:18Z</time>
      </trkpt>
      <trkpt lat="38.826772898199074" lon="121.50340619513726">
        <ele>1.1002069804817438</ele>
        <time>2025-06-12T22:45:24Z</time>
      </trkpt>
      <trkpt lat="38.82667899493695" lon="121.50353737023235">
        <ele>1.1842373358085752</ele>
        <time>2025-06-12T22:45:30Z</time>
      </trkpt>
      <trkpt lat="38.82658329717222" lon="121.50377726986478">
        <ele>1.7179645597934723</ele>
        <time>2025-06-12T22:45:39Z</time>
      </trkpt>
      <trkpt lat="38.82657386366486" lon="121.50414207933228">
        <ele>0.6614679526537657</ele>
        <time>2025-06-12T22:45:51Z</time>
      </trkpt>
      <trkpt lat="38.82656453234172" lon="121.50433035801545">
        <ele>0.6854504337534308</ele>
        <time>2025-06-12T22:45:57Z</time>
      </trkpt>
      <trkpt lat="38.82649441622138" lon="121.50457769049338">
        <ele>1.0551784122362733</ele>
        <time>2025-06-12T22:46:06Z</time>
      </trkpt>
      <trkpt lat="38.826444801255185" lon="121.50466232034657">
        <ele>1.652003612369299</ele>
        <time>2025-06-12T22:46:09Z</time>
      </trkpt>
      <trkpt lat="38.82641992068614" lon="121.5047467777645">
        <ele>0.5270161349326372</ele>
        <time>2025-06-12T22:46:12Z</time>
      </trkpt>
      <trkpt lat="38.826312044548274" lon="121.50488308290059">
        <ele>1.5276876725256443</ele>
        <time>2025-06-12T22:46:18Z</time>
      </trkpt>
      <trkpt lat="38.826270601940095" lon="121.5049137997701">
        <ele>0.569926057010889</ele>
        <time>2025-06-12T22:46:21Z</time>
      </trkpt>
      <trkpt lat="38.82620511384961" lon="121.5048854589048">
        <ele>0.6825936445966363</ele>
        <time>2025-06-12T22:46:24Z</time>
      </trkpt>
      <trkpt lat="38.826220573244946" lon="121.50480019551598">
        <ele>3.6634692875668406</ele>
        <time>2025-06-12T22:46:27Z</time>
      </trkpt>
      <trkpt lat="38.82628563060094" lon="121.50478124148087">
        <ele>3.8996223770081997</ele>
        <time>2025-06-12T22:46:30Z</time>
      </trkpt>
      <trkpt lat="38.826342145530575" lon="121.50473536315283">
        <ele>1.9321727938950062</ele>
        <time>2025-06-12T22:46:33Z</time>
      </trkpt>
      <trkpt lat="38.82637357543662" lon="121.50464122770666">
        <ele>2.0846435874700546</ele>
        <time>2025-06-12T22:46:36Z</time>
      </trkpt>
      <trkpt lat="38.826478878127" lon="121.50451352489377">
        <ele>0.7487377943471074</ele>
        <time>2025-06-12T22:46:42Z</time>
      </trkpt>
      <trkpt lat="38.826477844514706" lon="121.50442841927287">
        <ele>0.17032582871615887</ele>
        <time>2025-06-12T22:46:45Z</time>
      </trkpt>
      <trkpt lat="38.82653667405256" lon="121.5042464235708">
        <ele>2.088760646060109</ele>
        <time>2025-06-12T22:46:51Z</time>
      </trkpt>
      <trkpt lat="38.82657947417304" lon="121.50417074199223">
        <ele>1.7464619865640998</ele>
        <time>2025-06-12T22:46:54Z</time>
      </trkpt>
      <trkpt lat="38.82657115553934" lon="121.50399470102568">
        <ele>1.647823461331427</ele>
        <time>2025-06-12T22:47:00Z</time>
      </trkpt>
      <trkpt lat="38.82659783872243" lon="121.50375146365255">
        <ele>0.3122216435149312</ele>
        <time>2025-06-12T22:47:09Z</time>
      </trkpt>
      <trkpt lat="38.82668449091664" lon="121.50352548667193">
        <ele>1.1945064133033156</ele>
        <time>2025-06-12T22:47:17Z</time>
      </trkpt>
      <trkpt lat="38.82682154520794" lon="121.50334628189098">
        <ele>2.169809731654823</ele>
        <time>2025-06-12T22:47:25Z</time>
      </trkpt>
      <trkpt lat="38.82693750077006" lon="121.50324172373737">
        <ele>1.8754905248060822</ele>
        <time>2025-06-12T22:47:31Z</time>
      </trkpt>
      <trkpt lat="38.827039018841106" lon="121.50311837686237">
        <ele>1.7133898185566068</ele>
        <time>2025-06-12T22:47:37Z</time>
      </trkpt>
      <trkpt lat="38.82723917865668" lon="121.50299231833388">
        <ele>2.282132713124156</ele>
        <time>2025-06-12T22:47:46Z</time>
      </trkpt>
      <trkpt lat="38.82731677036199" lon="121.50297899248778">
        <ele>2.707005973905325</ele>
        <time>2025-06-12T22:47:49Z</time>
      </trkpt>
      <trkpt lat="38.82754137225461" lon="121.50301600500141">
        <ele>2.3473949832841754</ele>
        <time>2025-06-12T22:47:58Z</time>
      </trkpt>
      <trkpt lat="38.82760286524738" lon="121.50306414774988">
        <ele>2.6115879425778985</ele>
        <time>2025-06-12T22:48:01Z</time>
      </trkpt>
      <trkpt lat="38.827645888160895" lon="121.50313896483162">
        <ele>2.851752416230738</ele>
        <time>2025-06-12T22:48:04Z</time>
      </trkpt>
      <trkpt lat="38.827671796529096" lon="121.5032369106109">
        <ele>2.006481627933681</ele>
        <time>2025-06-12T22:48:07Z</time>
      </trkpt>
      <trkpt lat="38.82773223105518" lon="121.50328327143339">
        <ele>1.892328861169517</ele>
        <time>2025-06-12T22:48:10Z</time>
      </trkpt>
      <trkpt lat="38.82779770150678" lon="121.5032542990435">
        <ele>1.1864850409328938</ele>
        <time>2025-06-12T22:48:13Z</time>
      </trkpt>
      <trkpt lat="38.8278529194159" lon="121.50329263795291">
        <ele>1.1840252364054322</ele>
        <time>2025-06-12T22:48:16Z</time>
      </trkpt>
      <trkpt lat="38.82790045545317" lon="121.50359475860111">
        <ele>1.467824543826282</ele>
        <time>2025-06-12T22:48:25Z</time>
      </trkpt>
      <trkpt lat="38.82795505811139" lon="121.5037673897229">
        <ele>2.2464501643553376</ele>
        <time>2025-06-12T22:48:31Z</time>
      </trkpt>
      <trkpt lat="38.82806082351362" lon="121.5039154535525">
        <ele>1.1944934455677867</ele>
        <time>2025-06-12T22:48:37Z</time>
      </trkpt>
      <trkpt lat="38.828198212499345" lon="121.5040184206565">
        <ele>1.5920355543494225</ele>
        <time>2025-06-12T22:48:43Z</time>
      </trkpt>
      <trkpt lat="38.82846912285858" lon="121.50410754240275">
        <ele>1.827973971143365</ele>
        <time>2025-06-12T22:48:55Z</time>
      </trkpt>
      <trkpt lat="38.82869117941117" lon="121.50404212053039">
        <ele>2.7122906213626266</ele>
        <time>2025-06-12T22:49:04Z</time>
      </trkpt>
      <trkpt lat="38.82884322339303" lon="121.50401899160016">
        <ele>2.50566834397614</ele>
        <time>2025-06-12T22:49:10Z</time>
      </trkpt>
      <trkpt lat="38.828918879432784" lon="121.50405677688354">
        <ele>2.540161089040339</ele>
        <time>2025-06-12T22:49:13Z</time>
      </trkpt>
      <trkpt lat="38.82917194734285" lon="121.5040114651236">
        <ele>2.26291302125901</ele>
        <time>2025-06-12T22:49:23Z</time>
      </trkpt>
      <trkpt lat="38.82925391895484" lon="121.50404085334122">
        <ele>3.4206703640520573</ele>
        <time>2025-06-12T22:49:26Z</time>
      </trkpt>
      <trkpt lat="38.829309047732565" lon="121.50409717304996">
        <ele>3.703687245026231</ele>
        <time>2025-06-12T22:49:29Z</time>
      </trkpt>
      <trkpt lat="38.829456862698514" lon="121.50414601142661">
        <ele>3.0075263315811753</ele>
        <time>2025-06-12T22:49:35Z</time>
      </trkpt>
      <trkpt lat="38.82951801796845" lon="121.50419158490857">
        <ele>2.868264657445252</ele>
        <time>2025-06-12T22:49:38Z</time>
      </trkpt>
      <trkpt lat="38.82958995944256" lon="121.50421161195678">
        <ele>3.3381509110331535</ele>
        <time>2025-06-12T22:49:41Z</time>
      </trkpt>
      <trkpt lat="38.82974278962866" lon="121.5044117503782">
        <ele>1.5506500536575913</ele>
        <time>2025-06-12T22:49:50Z</time>
      </trkpt>
      <trkpt lat="38.82996708212869" lon="121.50467815785312">
        <ele>2.549733765423298</ele>
        <time>2025-06-12T22:50:02Z</time>
      </trkpt>
      <trkpt lat="38.83016216518168" lon="121.50480308790623">
        <ele>2.032397298142314</ele>
        <time>2025-06-12T22:50:11Z</time>
      </trkpt>
      <trkpt lat="38.83044815986574" lon="121.50495083300422">
        <ele>2.172706830315292</ele>
        <time>2025-06-12T22:50:26Z</time>
      </trkpt>
      <trkpt lat="38.83051977174657" lon="121.50498854881215">
        <ele>1.7479746621102095</ele>
        <time>2025-06-12T22:50:29Z</time>
      </trkpt>
      <trkpt lat="38.830778803944064" lon="121.50522553533254">
        <ele>3.1213584383949637</ele>
        <time>2025-06-12T22:50:41Z</time>
      </trkpt>
      <trkpt lat="38.83085815378867" lon="121.50533184230375">
        <ele>1.0297666946426034</ele>
        <time>2025-06-12T22:50:53Z</time>
      </trkpt>
      <trkpt lat="38.830901858073055" lon="121.5053555537034">
        <ele>1.6534637324512005</ele>
        <time>2025-06-12T22:50:59Z</time>
      </trkpt>
      <trkpt lat="38.83122983624345" lon="121.50530595325722">
        <ele>2.1138587100431323</ele>
        <time>2025-06-12T22:51:24Z</time>
      </trkpt>
      <trkpt lat="38.83130607018115" lon="121.50528896823585">
        <ele>2.9725418286398053</ele>
        <time>2025-06-12T22:51:27Z</time>
      </trkpt>
      <trkpt lat="38.8314223294138" lon="121.50530618265468">
        <ele>3.649878998287022</ele>
        <time>2025-06-12T22:51:31Z</time>
      </trkpt>
      <trkpt lat="38.83159698361441" lon="121.50539613943097">
        <ele>2.8200020166113973</ele>
        <time>2025-06-12T22:51:38Z</time>
      </trkpt>
      <trkpt lat="38.83174002551131" lon="121.50550377496047">
        <ele>2.5161858797073364</ele>
        <time>2025-06-12T22:51:44Z</time>
      </trkpt>
      <trkpt lat="38.83179366425538" lon="121.50556342103937">
        <ele>2.812654599547386</ele>
        <time>2025-06-12T22:51:47Z</time>
      </trkpt>
      <trkpt lat="38.83188806829586" lon="121.50571570768528">
        <ele>2.7265281127765775</ele>
        <time>2025-06-12T22:51:53Z</time>
      </trkpt>
      <trkpt lat="38.83198740262234" lon="121.50599237288424">
        <ele>2.897090553306043</ele>
        <time>2025-06-12T22:52:02Z</time>
      </trkpt>
      <trkpt lat="38.83202831725598" lon="121.50616690142719">
        <ele>0.4521506344899535</ele>
        <time>2025-06-12T22:52:08Z</time>
      </trkpt>
      <trkpt lat="38.83207523919202" lon="121.50625045942537">
        <ele>0.5519876461476088</ele>
        <time>2025-06-12T22:52:11Z</time>
      </trkpt>
      <trkpt lat="38.832267318895795" lon="121.50643287735006">
        <ele>1.713078343309462</ele>
        <time>2025-06-12T22:52:20Z</time>
      </trkpt>
      <trkpt lat="38.83240579550853" lon="121.50651307444257">
        <ele>2.3387319752946496</ele>
        <time>2025-06-12T22:52:26Z</time>
      </trkpt>
      <trkpt lat="38.83263133068456" lon="121.50653487812596">
        <ele>3.0027795238420367</ele>
        <time>2025-06-12T22:52:35Z</time>
      </trkpt>
      <trkpt lat="38.83278133764707" lon="121.5065944853332">
        <ele>1.908611106686294</ele>
        <time>2025-06-12T22:52:41Z</time>
      </trkpt>
      <trkpt lat="38.83291811741859" lon="121.50670150215672">
        <ele>1.4601576458662748</ele>
        <time>2025-06-12T22:52:47Z</time>
      </trkpt>
      <trkpt lat="38.83309145878198" lon="121.50688279352907">
        <ele>4.17994278576225</ele>
        <time>2025-06-12T22:52:59Z</time>
      </trkpt>
      <trkpt lat="38.83309145878198" lon="121.50688279352907">
        <ele>4.17994278576225</ele>
        <time>2025-06-12T22:53:02Z</time>
      </trkpt>
    </trkseg>
  </trk>
</gpx>