<?xml version="1.0" encoding="UTF-8"?>
<gpx xmlns="http://www.topografix.com/GPX/1/1" xmlns:gpxtpx="http://www.garmin.com/xmlschemas/TrackPointExtension/v1" xmlns:xsi="http://www.w3.org/2001/XMLSchema-instance" xsi:schemaLocation="http://www.topografix.com/GPX/1/1 http://www.topografix.com/GPX/1/1/gpx.xsd" version="1.1" creator="gpx.py -- https://github.com/tkrajina/gpxpy">
  <trk>
    <name>gpx from keep</name>
    <type>Run</type>
    <trkseg>
      <trkpt lat="38.83323043796257" lon="121.50730011908031">
        <ele>4.220937570939919</ele>
        <time>2025-05-12T01:00:10Z</time>
      </trkpt>
      <trkpt lat="38.833234172179026" lon="121.50722082941246">
        <ele>3.6289702549177427</ele>
        <time>2025-05-12T01:00:14Z</time>
      </trkpt>
      <trkpt lat="38.833210941233894" lon="121.50711093810449">
        <ele>3.9432439981028438</ele>
        <time>2025-05-12T01:00:18Z</time>
      </trkpt>
      <trkpt lat="38.83310132940054" lon="121.50688488574596">
        <ele>3.2635928727686405</ele>
        <time>2025-05-12T01:00:26Z</time>
      </trkpt>
      <trkpt lat="38.83285788141299" lon="121.50666140389644">
        <ele>1.914610454812646</ele>
        <time>2025-05-12T01:00:39Z</time>
      </trkpt>
      <trkpt lat="38.83260590210307" lon="121.50654887114108">
        <ele>1.104579545557499</ele>
        <time>2025-05-12T01:00:51Z</time>
      </trkpt>
      <trkpt lat="38.83247079297878" lon="121.50653715844773">
        <ele>1.8609569938853383</ele>
        <time>2025-05-12T01:00:57Z</time>
      </trkpt>
      <trkpt lat="38.832268476413454" lon="121.5064548056945">
        <ele>2.101225644350052</ele>
        <time>2025-05-12T01:01:06Z</time>
      </trkpt>
      <trkpt lat="38.83214862300622" lon="121.50634838699271">
        <ele>2.1395652340725064</ele>
        <time>2025-05-12T01:01:12Z</time>
      </trkpt>
      <trkpt lat="38.83201926681331" lon="121.50612810214963">
        <ele>1.9345375960692763</ele>
        <time>2025-05-12T01:01:21Z</time>
      </trkpt>
      <trkpt lat="38.83188176993939" lon="121.5057447510743">
        <ele>1.2164630284532905</ele>
        <time>2025-05-12T01:01:36Z</time>
      </trkpt>
      <trkpt lat="38.8317376735085" lon="121.5055305711498">
        <ele>2.390505579300225</ele>
        <time>2025-05-12T01:01:45Z</time>
      </trkpt>
      <trkpt lat="38.83148746849648" lon="121.50536288187764">
        <ele>2.671261206269264</ele>
        <time>2025-05-12T01:01:57Z</time>
      </trkpt>
      <trkpt lat="38.83136286293931" lon="121.50531182168548">
        <ele>2.574319769628346</ele>
        <time>2025-05-12T01:02:03Z</time>
      </trkpt>
      <trkpt lat="38.83115890985632" lon="121.50530825567192">
        <ele>2.644910001195967</ele>
        <time>2025-05-12T01:02:12Z</time>
      </trkpt>
      <trkpt lat="38.831013317330196" lon="121.50535103500413">
        <ele>1.976309522986412</ele>
        <time>2025-05-12T01:02:19Z</time>
      </trkpt>
      <trkpt lat="38.830855737319304" lon="121.50534763473271">
        <ele>1.6839880244806409</ele>
        <time>2025-05-12T01:02:26Z</time>
      </trkpt>
      <trkpt lat="38.83077169890205" lon="121.50529000875548">
        <ele>1.064995041117072</ele>
        <time>2025-05-12T01:02:30Z</time>
      </trkpt>
      <trkpt lat="38.83062625131076" lon="121.50510053469216">
        <ele>2.79440606944263</ele>
        <time>2025-05-12T01:02:39Z</time>
      </trkpt>
      <trkpt lat="38.830552195106996" lon="121.50496268581324">
        <ele>2.747710006311536</ele>
        <time>2025-05-12T01:02:45Z</time>
      </trkpt>
      <trkpt lat="38.83049260757704" lon="121.50492665474947">
        <ele>2.3393952306360006</ele>
        <time>2025-05-12T01:02:48Z</time>
      </trkpt>
      <trkpt lat="38.83041851624198" lon="121.50492837444197">
        <ele>2.280781808309257</ele>
        <time>2025-05-12T01:02:51Z</time>
      </trkpt>
      <trkpt lat="38.83014615168685" lon="121.50480897661186">
        <ele>1.5949819702655077</ele>
        <time>2025-05-12T01:03:09Z</time>
      </trkpt>
      <trkpt lat="38.830011803204165" lon="121.5047325363705">
        <ele>2.479958923533559</ele>
        <time>2025-05-12T01:03:15Z</time>
      </trkpt>
      <trkpt lat="38.829857878261926" lon="121.50457617852116">
        <ele>2.163705740123987</ele>
        <time>2025-05-12T01:03:24Z</time>
      </trkpt>
      <trkpt lat="38.829673429540286" lon="121.50431963468304">
        <ele>1.4185080956667662</ele>
        <time>2025-05-12T01:03:36Z</time>
      </trkpt>
      <trkpt lat="38.829613665616094" lon="121.50426384426433">
        <ele>1.2722149826586246</ele>
        <time>2025-05-12T01:03:39Z</time>
      </trkpt>
      <trkpt lat="38.829349755271245" lon="121.50410890312803">
        <ele>1.4978575864806771</ele>
        <time>2025-05-12T01:03:51Z</time>
      </trkpt>
      <trkpt lat="38.829018225215044" lon="121.50401148980745">
        <ele>2.1349570294842124</ele>
        <time>2025-05-12T01:04:06Z</time>
      </trkpt>
      <trkpt lat="38.82887206885099" lon="121.50399281043305">
        <ele>3.2946475194767118</ele>
        <time>2025-05-12T01:04:12Z</time>
      </trkpt>
      <trkpt lat="38.82880725433719" lon="121.50402941447248">
        <ele>3.1162207862362266</ele>
        <time>2025-05-12T01:04:15Z</time>
      </trkpt>
      <trkpt lat="38.82873908870818" lon="121.50402436801336">
        <ele>3.087070303969085</ele>
        <time>2025-05-12T01:04:18Z</time>
      </trkpt>
      <trkpt lat="38.82849335467274" lon="121.50408487726625">
        <ele>1.5966553799808025</ele>
        <time>2025-05-12T01:04:29Z</time>
      </trkpt>
      <trkpt lat="38.82830526069207" lon="121.50407962822257">
        <ele>2.011041831225157</ele>
        <time>2025-05-12T01:04:37Z</time>
      </trkpt>
      <trkpt lat="38.82817497198912" lon="121.50402544548399">
        <ele>1.8699874952435493</ele>
        <time>2025-05-12T01:04:43Z</time>
      </trkpt>
      <trkpt lat="38.828137630638004" lon="121.50395857837589">
        <ele>2.1695438446477056</ele>
        <time>2025-05-12T01:04:46Z</time>
      </trkpt>
      <trkpt lat="38.828007045456935" lon="121.50386054916379">
        <ele>1.9494098611176014</ele>
        <time>2025-05-12T01:04:52Z</time>
      </trkpt>
      <trkpt lat="38.82793107370335" lon="121.50371518650446">
        <ele>1.4784142430871725</ele>
        <time>2025-05-12T01:04:58Z</time>
      </trkpt>
      <trkpt lat="38.827879364406925" lon="121.50345860442431">
        <ele>1.813527156598866</ele>
        <time>2025-05-12T01:05:07Z</time>
      </trkpt>
      <trkpt lat="38.82781251491577" lon="121.5032981971711">
        <ele>2.4557492872700095</ele>
        <time>2025-05-12T01:05:13Z</time>
      </trkpt>
      <trkpt lat="38.82776796670399" lon="121.50323409941636">
        <ele>1.8074043421074748</ele>
        <time>2025-05-12T01:05:16Z</time>
      </trkpt>
      <trkpt lat="38.82768570386791" lon="121.50321593511853">
        <ele>2.2127610072493553</ele>
        <time>2025-05-12T01:05:19Z</time>
      </trkpt>
      <trkpt lat="38.827640300562656" lon="121.5031260740298">
        <ele>1.708314597606659</ele>
        <time>2025-05-12T01:05:22Z</time>
      </trkpt>
      <trkpt lat="38.827522061753974" lon="121.5030454072758">
        <ele>2.0254638101905584</ele>
        <time>2025-05-12T01:05:28Z</time>
      </trkpt>
      <trkpt lat="38.82726609413028" lon="121.50300701775434">
        <ele>2.475788694806397</ele>
        <time>2025-05-12T01:05:40Z</time>
      </trkpt>
      <trkpt lat="38.82707540007278" lon="121.5030976303461">
        <ele>1.8017192780971527</ele>
        <time>2025-05-12T01:05:49Z</time>
      </trkpt>
      <trkpt lat="38.8268656699737" lon="121.50332571750576">
        <ele>2.0041183112189174</ele>
        <time>2025-05-12T01:06:01Z</time>
      </trkpt>
      <trkpt lat="38.82666138332417" lon="121.50357068293944">
        <ele>2.0392143381759524</ele>
        <time>2025-05-12T01:06:13Z</time>
      </trkpt>
      <trkpt lat="38.82658526203825" lon="121.50381233398143">
        <ele>1.449825368821621</ele>
        <time>2025-05-12T01:06:22Z</time>
      </trkpt>
      <trkpt lat="38.82658378604019" lon="121.50420154674501">
        <ele>2.3050356470048428</ele>
        <time>2025-05-12T01:06:35Z</time>
      </trkpt>
      <trkpt lat="38.82653652006949" lon="121.5044860135151">
        <ele>2.1700920052826405</ele>
        <time>2025-05-12T01:06:44Z</time>
      </trkpt>
      <trkpt lat="38.82639906947199" lon="121.50479953424801">
        <ele>2.4334772750735283</ele>
        <time>2025-05-12T01:06:56Z</time>
      </trkpt>
      <trkpt lat="38.82630795711305" lon="121.50491914279019">
        <ele>1.2184200193732977</ele>
        <time>2025-05-12T01:07:02Z</time>
      </trkpt>
      <trkpt lat="38.82623550796298" lon="121.50496882174141">
        <ele>1.5383077068254352</ele>
        <time>2025-05-12T01:07:05Z</time>
      </trkpt>
      <trkpt lat="38.82618448712748" lon="121.50492239381963">
        <ele>0.3967152740806341</ele>
        <time>2025-05-12T01:07:08Z</time>
      </trkpt>
      <trkpt lat="38.826427909253105" lon="121.50467854216478">
        <ele>0.5348336417227983</ele>
        <time>2025-05-12T01:07:20Z</time>
      </trkpt>
      <trkpt lat="38.82647960214641" lon="121.50461345192834">
        <ele>1.1138445204123855</ele>
        <time>2025-05-12T01:07:23Z</time>
      </trkpt>
      <trkpt lat="38.82653967518816" lon="121.50446829749579">
        <ele>1.7898918176069856</ele>
        <time>2025-05-12T01:07:29Z</time>
      </trkpt>
      <trkpt lat="38.8265789757194" lon="121.5042060919672">
        <ele>1.5526369269937277</ele>
        <time>2025-05-12T01:07:38Z</time>
      </trkpt>
      <trkpt lat="38.82656685738975" lon="121.50394076256282">
        <ele>0.6784697836264968</ele>
        <time>2025-05-12T01:07:47Z</time>
      </trkpt>
      <trkpt lat="38.82658392219398" lon="121.50376045971787">
        <ele>1.364395223557949</ele>
        <time>2025-05-12T01:07:53Z</time>
      </trkpt>
      <trkpt lat="38.82674586142826" lon="121.50344928341272">
        <ele>1.788562897592783</ele>
        <time>2025-05-12T01:08:05Z</time>
      </trkpt>
      <trkpt lat="38.82695866483666" lon="121.5032065305016">
        <ele>1.6117289029061794</ele>
        <time>2025-05-12T01:08:17Z</time>
      </trkpt>
      <trkpt lat="38.82706919472427" lon="121.50308023036777">
        <ele>1.8247495079413056</ele>
        <time>2025-05-12T01:08:23Z</time>
      </trkpt>
      <trkpt lat="38.82713434656093" lon="121.50304281943356">
        <ele>1.6772567192092538</ele>
        <time>2025-05-12T01:08:26Z</time>
      </trkpt>
      <trkpt lat="38.827287507284225" lon="121.50299833657314">
        <ele>1.9226892683655024</ele>
        <time>2025-05-12T01:08:33Z</time>
      </trkpt>
      <trkpt lat="38.82757445346649" lon="121.50305251174443">
        <ele>2.549167351797223</ele>
        <time>2025-05-12T01:08:45Z</time>
      </trkpt>
      <trkpt lat="38.82763210025515" lon="121.50310080156977">
        <ele>2.2560564130544662</ele>
        <time>2025-05-12T01:08:48Z</time>
      </trkpt>
      <trkpt lat="38.827665439703495" lon="121.50318577876916">
        <ele>1.5274912398308516</ele>
        <time>2025-05-12T01:08:51Z</time>
      </trkpt>
      <trkpt lat="38.82773626959112" lon="121.50323572566855">
        <ele>1.9138894975185394</ele>
        <time>2025-05-12T01:08:54Z</time>
      </trkpt>
      <trkpt lat="38.82779117705795" lon="121.50325045318932">
        <ele>1.0837064543738961</ele>
        <time>2025-05-12T01:08:57Z</time>
      </trkpt>
      <trkpt lat="38.827842287422285" lon="121.50332322574067">
        <ele>2.0104435617104173</ele>
        <time>2025-05-12T01:09:00Z</time>
      </trkpt>
      <trkpt lat="38.82793262323993" lon="121.50366351139489">
        <ele>2.1039616661146283</ele>
        <time>2025-05-12T01:09:12Z</time>
      </trkpt>
      <trkpt lat="38.82799571611198" lon="121.50380973560937">
        <ele>1.0552845606580377</ele>
        <time>2025-05-12T01:09:18Z</time>
      </trkpt>
      <trkpt lat="38.82809923795725" lon="121.50392298730856">
        <ele>1.1353479074314237</ele>
        <time>2025-05-12T01:09:24Z</time>
      </trkpt>
      <trkpt lat="38.82835065673423" lon="121.5040919447265">
        <ele>1.4424544796347618</ele>
        <time>2025-05-12T01:09:36Z</time>
      </trkpt>
      <trkpt lat="38.82855707602177" lon="121.50409203088557">
        <ele>2.1213703071698546</ele>
        <time>2025-05-12T01:09:45Z</time>
      </trkpt>
      <trkpt lat="38.8288364800524" lon="121.50400774505">
        <ele>2.0470537720248103</ele>
        <time>2025-05-12T01:09:57Z</time>
      </trkpt>
      <trkpt lat="38.82890155854606" lon="121.5039805912805">
        <ele>1.3229373907670379</ele>
        <time>2025-05-12T01:10:00Z</time>
      </trkpt>
      <trkpt lat="38.82920891189849" lon="121.5040367682152">
        <ele>2.981670221313834</ele>
        <time>2025-05-12T01:10:12Z</time>
      </trkpt>
      <trkpt lat="38.82926588248031" lon="121.50408947980102">
        <ele>2.572625508531928</ele>
        <time>2025-05-12T01:10:15Z</time>
      </trkpt>
      <trkpt lat="38.8293348949389" lon="121.50409923074753">
        <ele>2.3565345676615834</ele>
        <time>2025-05-12T01:10:18Z</time>
      </trkpt>
      <trkpt lat="38.82958423942789" lon="121.5042610758004">
        <ele>1.980464774183929</ele>
        <time>2025-05-12T01:10:30Z</time>
      </trkpt>
      <trkpt lat="38.829655251007225" lon="121.50430923417244">
        <ele>1.7130795791745186</ele>
        <time>2025-05-12T01:10:33Z</time>
      </trkpt>
      <trkpt lat="38.82969659038012" lon="121.50437047360744">
        <ele>1.1285842498764396</ele>
        <time>2025-05-12T01:10:36Z</time>
      </trkpt>
      <trkpt lat="38.82994776930671" lon="121.50466302057579">
        <ele>2.1495946869254112</ele>
        <time>2025-05-12T01:10:50Z</time>
      </trkpt>
      <trkpt lat="38.83000790456994" lon="121.50469418616215">
        <ele>1.540098729543388</ele>
        <time>2025-05-12T01:10:53Z</time>
      </trkpt>
      <trkpt lat="38.83013043899677" lon="121.50479949316781">
        <ele>1.7542411498725414</ele>
        <time>2025-05-12T01:10:59Z</time>
      </trkpt>
      <trkpt lat="38.83040712240661" lon="121.50486548771656">
        <ele>3.2828078102320433</ele>
        <time>2025-05-12T01:11:11Z</time>
      </trkpt>
      <trkpt lat="38.83053509277679" lon="121.50491758555481">
        <ele>3.8044527862221003</ele>
        <time>2025-05-12T01:11:17Z</time>
      </trkpt>
      <trkpt lat="38.830585942914844" lon="121.50496492767695">
        <ele>4.33474304433912</ele>
        <time>2025-05-12T01:11:20Z</time>
      </trkpt>
      <trkpt lat="38.83071193216396" lon="121.50519283085045">
        <ele>2.5595852341502905</ele>
        <time>2025-05-12T01:11:29Z</time>
      </trkpt>
      <trkpt lat="38.83081530382538" lon="121.50530456392755">
        <ele>3.017302501015365</ele>
        <time>2025-05-12T01:11:35Z</time>
      </trkpt>
      <trkpt lat="38.83087933721252" lon="121.50534528573014">
        <ele>2.457259975373745</ele>
        <time>2025-05-12T01:11:38Z</time>
      </trkpt>
      <trkpt lat="38.8310595467863" lon="121.50534529370918">
        <ele>1.5353328185155988</ele>
        <time>2025-05-12T01:11:47Z</time>
      </trkpt>
      <trkpt lat="38.831335250021866" lon="121.50529083385538">
        <ele>2.5346487257629633</ele>
        <time>2025-05-12T01:11:59Z</time>
      </trkpt>
      <trkpt lat="38.831403058795196" lon="121.50529967292668">
        <ele>2.6415964597836137</ele>
        <time>2025-05-12T01:12:02Z</time>
      </trkpt>
      <trkpt lat="38.8316526324445" lon="121.50545162260654">
        <ele>2.227777563035488</ele>
        <time>2025-05-12T01:12:14Z</time>
      </trkpt>
      <trkpt lat="38.83182913033141" lon="121.50561776075243">
        <ele>2.7855329364538193</ele>
        <time>2025-05-12T01:12:23Z</time>
      </trkpt>
      <trkpt lat="38.83193890110271" lon="121.50583630246655">
        <ele>3.7260169005021453</ele>
        <time>2025-05-12T01:12:32Z</time>
      </trkpt>
      <trkpt lat="38.83204654621747" lon="121.50617649513853">
        <ele>1.425364869646728</ele>
        <time>2025-05-12T01:12:45Z</time>
      </trkpt>
      <trkpt lat="38.832163217298906" lon="121.50634344800122">
        <ele>1.3355649905279279</ele>
        <time>2025-05-12T01:12:53Z</time>
      </trkpt>
      <trkpt lat="38.832231671793345" lon="121.50640440000087">
        <ele>1.6392631027847528</ele>
        <time>2025-05-12T01:12:56Z</time>
      </trkpt>
      <trkpt lat="38.832302467864146" lon="121.50641429178921">
        <ele>1.5382774863392115</ele>
        <time>2025-05-12T01:12:59Z</time>
      </trkpt>
      <trkpt lat="38.832432742084876" lon="121.50651944133655">
        <ele>1.5900650536641479</ele>
        <time>2025-05-12T01:13:05Z</time>
      </trkpt>
      <trkpt lat="38.832727936080495" lon="121.50657493897295">
        <ele>2.134474645368755</ele>
        <time>2025-05-12T01:13:17Z</time>
      </trkpt>
      <trkpt lat="38.83292936477405" lon="121.50670309561583">
        <ele>2.740246175788343</ele>
        <time>2025-05-12T01:13:26Z</time>
      </trkpt>
      <trkpt lat="38.833007217120304" lon="121.50681918247174">
        <ele>2.0364410411566496</ele>
        <time>2025-05-12T01:13:32Z</time>
      </trkpt>
      <trkpt lat="38.833007217120304" lon="121.50681918247174">
        <ele>2.0364410411566496</ele>
        <time>2025-05-12T01:13:35Z</time>
      </trkpt>
    </trkseg>
  </trk>
</gpx>