<?xml version="1.0" encoding="UTF-8"?>
<gpx xmlns="http://www.topografix.com/GPX/1/1" xmlns:gpxtpx="http://www.garmin.com/xmlschemas/TrackPointExtension/v1" xmlns:xsi="http://www.w3.org/2001/XMLSchema-instance" xsi:schemaLocation="http://www.topografix.com/GPX/1/1 http://www.topografix.com/GPX/1/1/gpx.xsd" version="1.1" creator="gpx.py -- https://github.com/tkrajina/gpxpy">
  <trk>
    <name>gpx from keep</name>
    <type>Run</type>
    <trkseg>
      <trkpt lat="38.83694602567778" lon="121.50436631850854">
        <ele>9.628340283408761</ele>
        <time>2025-08-31T01:08:12Z</time>
      </trkpt>
      <trkpt lat="38.83683890737155" lon="121.50469405979635">
        <ele>9.060447652824223</ele>
        <time>2025-08-31T01:08:32Z</time>
      </trkpt>
      <trkpt lat="38.836719264692185" lon="121.50504464743464">
        <ele>10.35141394007951</ele>
        <time>2025-08-31T01:08:52Z</time>
        <extensions>
          <gpxtpx:TrackPointExtension>
            <gpxtpx:hr>124</gpxtpx:hr>
          </gpxtpx:TrackPointExtension>
        </extensions>
      </trkpt>
      <trkpt lat="38.83658609912647" lon="121.50545539896291">
        <ele>9.179571435786784</ele>
        <time>2025-08-31T01:09:15Z</time>
        <extensions>
          <gpxtpx:TrackPointExtension>
            <gpxtpx:hr>103</gpxtpx:hr>
          </gpxtpx:TrackPointExtension>
        </extensions>
      </trkpt>
      <trkpt lat="38.83652672264398" lon="121.50557027887767">
        <ele>9.256581597961485</ele>
        <time>2025-08-31T01:09:21Z</time>
        <extensions>
          <gpxtpx:TrackPointExtension>
            <gpxtpx:hr>106</gpxtpx:hr>
          </gpxtpx:TrackPointExtension>
        </extensions>
      </trkpt>
      <trkpt lat="38.83652094047959" lon="121.5056335467257">
        <ele>8.956073657609522</ele>
        <time>2025-08-31T01:09:24Z</time>
        <extensions>
          <gpxtpx:TrackPointExtension>
            <gpxtpx:hr>106</gpxtpx:hr>
          </gpxtpx:TrackPointExtension>
        </extensions>
      </trkpt>
      <trkpt lat="38.83639597098214" lon="121.50599503538061">
        <ele>9.531527280807495</ele>
        <time>2025-08-31T01:09:39Z</time>
        <extensions>
          <gpxtpx:TrackPointExtension>
            <gpxtpx:hr>106</gpxtpx:hr>
          </gpxtpx:TrackPointExtension>
        </extensions>
      </trkpt>
      <trkpt lat="38.836271837578465" lon="121.50632479964192">
        <ele>10.311862902715802</ele>
        <time>2025-08-31T01:09:54Z</time>
      </trkpt>
      <trkpt lat="38.836208920805994" lon="121.5065318413936">
        <ele>10.327312752604485</ele>
        <time>2025-08-31T01:10:03Z</time>
      </trkpt>
      <trkpt lat="38.836203011952264" lon="121.50663025098262">
        <ele>9.522249199450016</ele>
        <time>2025-08-31T01:10:07Z</time>
      </trkpt>
      <trkpt lat="38.83617498034346" lon="121.50669677705136">
        <ele>10.171926947310567</ele>
        <time>2025-08-31T01:10:10Z</time>
      </trkpt>
      <trkpt lat="38.836164427962515" lon="121.5067842807372">
        <ele>9.52109376899898</ele>
        <time>2025-08-31T01:10:13Z</time>
      </trkpt>
      <trkpt lat="38.83612363594709" lon="121.50687044098112">
        <ele>9.34746287483722</ele>
        <time>2025-08-31T01:10:16Z</time>
      </trkpt>
      <trkpt lat="38.83611084469224" lon="121.50697154001014">
        <ele>9.437837359495461</ele>
        <time>2025-08-31T01:10:19Z</time>
      </trkpt>
      <trkpt lat="38.83636495096908" lon="121.50719513053934">
        <ele>8.441671051084995</ele>
        <time>2025-08-31T01:10:37Z</time>
        <extensions>
          <gpxtpx:TrackPointExtension>
            <gpxtpx:hr>117</gpxtpx:hr>
          </gpxtpx:TrackPointExtension>
        </extensions>
      </trkpt>
      <trkpt lat="38.83660291744219" lon="121.50738507666173">
        <ele>9.834910636767745</ele>
        <time>2025-08-31T01:10:52Z</time>
        <extensions>
          <gpxtpx:TrackPointExtension>
            <gpxtpx:hr>120</gpxtpx:hr>
          </gpxtpx:TrackPointExtension>
        </extensions>
      </trkpt>
      <trkpt lat="38.836695414252155" lon="121.50746345075851">
        <ele>8.695906448177993</ele>
        <time>2025-08-31T01:10:58Z</time>
        <extensions>
          <gpxtpx:TrackPointExtension>
            <gpxtpx:hr>122</gpxtpx:hr>
          </gpxtpx:TrackPointExtension>
        </extensions>
      </trkpt>
      <trkpt lat="38.836737638942324" lon="121.50752107019862">
        <ele>9.874592678621411</ele>
        <time>2025-08-31T01:11:01Z</time>
        <extensions>
          <gpxtpx:TrackPointExtension>
            <gpxtpx:hr>122</gpxtpx:hr>
          </gpxtpx:TrackPointExtension>
        </extensions>
      </trkpt>
      <trkpt lat="38.836925465110674" lon="121.50766767040133">
        <ele>10.597714296542108</ele>
        <time>2025-08-31T01:11:13Z</time>
        <extensions>
          <gpxtpx:TrackPointExtension>
            <gpxtpx:hr>125</gpxtpx:hr>
          </gpxtpx:TrackPointExtension>
        </extensions>
      </trkpt>
      <trkpt lat="38.83713965760655" lon="121.50788499388062">
        <ele>11.28215013537556</ele>
        <time>2025-08-31T01:11:25Z</time>
        <extensions>
          <gpxtpx:TrackPointExtension>
            <gpxtpx:hr>124</gpxtpx:hr>
          </gpxtpx:TrackPointExtension>
        </extensions>
      </trkpt>
      <trkpt lat="38.83719712051475" lon="121.50794727905703">
        <ele>10.662953693419695</ele>
        <time>2025-08-31T01:11:28Z</time>
        <extensions>
          <gpxtpx:TrackPointExtension>
            <gpxtpx:hr>126</gpxtpx:hr>
          </gpxtpx:TrackPointExtension>
        </extensions>
      </trkpt>
      <trkpt lat="38.83726022701827" lon="121.50798523632137">
        <ele>10.97244567796588</ele>
        <time>2025-08-31T01:11:31Z</time>
        <extensions>
          <gpxtpx:TrackPointExtension>
            <gpxtpx:hr>126</gpxtpx:hr>
          </gpxtpx:TrackPointExtension>
        </extensions>
      </trkpt>
      <trkpt lat="38.837499916079" lon="121.50822352940222">
        <ele>9.904109167866409</ele>
        <time>2025-08-31T01:11:46Z</time>
        <extensions>
          <gpxtpx:TrackPointExtension>
            <gpxtpx:hr>127</gpxtpx:hr>
          </gpxtpx:TrackPointExtension>
        </extensions>
      </trkpt>
      <trkpt lat="38.837602747877995" lon="121.50831567091281">
        <ele>10.23610709886998</ele>
        <time>2025-08-31T01:11:52Z</time>
        <extensions>
          <gpxtpx:TrackPointExtension>
            <gpxtpx:hr>127</gpxtpx:hr>
          </gpxtpx:TrackPointExtension>
        </extensions>
      </trkpt>
      <trkpt lat="38.83762769783316" lon="121.50836750995987">
        <ele>11.288090661168098</ele>
        <time>2025-08-31T01:11:55Z</time>
        <extensions>
          <gpxtpx:TrackPointExtension>
            <gpxtpx:hr>126</gpxtpx:hr>
          </gpxtpx:TrackPointExtension>
        </extensions>
      </trkpt>
      <trkpt lat="38.83754786606175" lon="121.508516274979">
        <ele>10.340013924054801</ele>
        <time>2025-08-31T01:12:01Z</time>
        <extensions>
          <gpxtpx:TrackPointExtension>
            <gpxtpx:hr>130</gpxtpx:hr>
          </gpxtpx:TrackPointExtension>
        </extensions>
      </trkpt>
      <trkpt lat="38.837403347111305" lon="121.50869611224164">
        <ele>10.809365178458393</ele>
        <time>2025-08-31T01:12:10Z</time>
        <extensions>
          <gpxtpx:TrackPointExtension>
            <gpxtpx:hr>129</gpxtpx:hr>
          </gpxtpx:TrackPointExtension>
        </extensions>
      </trkpt>
      <trkpt lat="38.83732509056139" lon="121.5088746156974">
        <ele>10.099645787850022</ele>
        <time>2025-08-31T01:12:18Z</time>
        <extensions>
          <gpxtpx:TrackPointExtension>
            <gpxtpx:hr>128</gpxtpx:hr>
          </gpxtpx:TrackPointExtension>
        </extensions>
      </trkpt>
      <trkpt lat="38.837221279970805" lon="121.5090467368119">
        <ele>10.480985795147717</ele>
        <time>2025-08-31T01:12:26Z</time>
        <extensions>
          <gpxtpx:TrackPointExtension>
            <gpxtpx:hr>125</gpxtpx:hr>
          </gpxtpx:TrackPointExtension>
        </extensions>
      </trkpt>
      <trkpt lat="38.83718078064808" lon="121.50918993776561">
        <ele>10.296266523189843</ele>
        <time>2025-08-31T01:12:36Z</time>
        <extensions>
          <gpxtpx:TrackPointExtension>
            <gpxtpx:hr>126</gpxtpx:hr>
          </gpxtpx:TrackPointExtension>
        </extensions>
      </trkpt>
      <trkpt lat="38.83714773123451" lon="121.50924696737401">
        <ele>9.839311476796865</ele>
        <time>2025-08-31T01:12:39Z</time>
        <extensions>
          <gpxtpx:TrackPointExtension>
            <gpxtpx:hr>126</gpxtpx:hr>
          </gpxtpx:TrackPointExtension>
        </extensions>
      </trkpt>
      <trkpt lat="38.83703020520827" lon="121.50958864365434">
        <ele>10.14777834713459</ele>
        <time>2025-08-31T01:12:54Z</time>
        <extensions>
          <gpxtpx:TrackPointExtension>
            <gpxtpx:hr>121</gpxtpx:hr>
          </gpxtpx:TrackPointExtension>
        </extensions>
      </trkpt>
      <trkpt lat="38.836930472137695" lon="121.50979560370331">
        <ele>8.340070203877985</ele>
        <time>2025-08-31T01:13:03Z</time>
        <extensions>
          <gpxtpx:TrackPointExtension>
            <gpxtpx:hr>112</gpxtpx:hr>
          </gpxtpx:TrackPointExtension>
        </extensions>
      </trkpt>
      <trkpt lat="38.836785343189376" lon="121.5099412215747">
        <ele>8.564993683248758</ele>
        <time>2025-08-31T01:13:12Z</time>
        <extensions>
          <gpxtpx:TrackPointExtension>
            <gpxtpx:hr>112</gpxtpx:hr>
          </gpxtpx:TrackPointExtension>
        </extensions>
      </trkpt>
      <trkpt lat="38.83673109480114" lon="121.50997173515863">
        <ele>8.170709206722677</ele>
        <time>2025-08-31T01:13:15Z</time>
        <extensions>
          <gpxtpx:TrackPointExtension>
            <gpxtpx:hr>118</gpxtpx:hr>
          </gpxtpx:TrackPointExtension>
        </extensions>
      </trkpt>
      <trkpt lat="38.83648427147754" lon="121.50998057112497">
        <ele>7.135350881144404</ele>
        <time>2025-08-31T01:13:27Z</time>
        <extensions>
          <gpxtpx:TrackPointExtension>
            <gpxtpx:hr>122</gpxtpx:hr>
          </gpxtpx:TrackPointExtension>
        </extensions>
      </trkpt>
      <trkpt lat="38.83623637591735" lon="121.51005016967645">
        <ele>7.772702364251018</ele>
        <time>2025-08-31T01:13:39Z</time>
        <extensions>
          <gpxtpx:TrackPointExtension>
            <gpxtpx:hr>124</gpxtpx:hr>
          </gpxtpx:TrackPointExtension>
        </extensions>
      </trkpt>
      <trkpt lat="38.83610702518013" lon="121.51012839741391">
        <ele>8.03469501528889</ele>
        <time>2025-08-31T01:13:45Z</time>
        <extensions>
          <gpxtpx:TrackPointExtension>
            <gpxtpx:hr>125</gpxtpx:hr>
          </gpxtpx:TrackPointExtension>
        </extensions>
      </trkpt>
      <trkpt lat="38.83608792481432" lon="121.51020952774407">
        <ele>8.37239936273545</ele>
        <time>2025-08-31T01:13:48Z</time>
        <extensions>
          <gpxtpx:TrackPointExtension>
            <gpxtpx:hr>125</gpxtpx:hr>
          </gpxtpx:TrackPointExtension>
        </extensions>
      </trkpt>
      <trkpt lat="38.836206453101816" lon="121.51040235888554">
        <ele>7.238729739561677</ele>
        <time>2025-08-31T01:13:57Z</time>
        <extensions>
          <gpxtpx:TrackPointExtension>
            <gpxtpx:hr>126</gpxtpx:hr>
          </gpxtpx:TrackPointExtension>
        </extensions>
      </trkpt>
      <trkpt lat="38.83625461718552" lon="121.51055133154894">
        <ele>6.899838168174028</ele>
        <time>2025-08-31T01:14:03Z</time>
        <extensions>
          <gpxtpx:TrackPointExtension>
            <gpxtpx:hr>126</gpxtpx:hr>
          </gpxtpx:TrackPointExtension>
        </extensions>
      </trkpt>
      <trkpt lat="38.836241899521376" lon="121.51071864544502">
        <ele>6.630209634080529</ele>
        <time>2025-08-31T01:14:09Z</time>
        <extensions>
          <gpxtpx:TrackPointExtension>
            <gpxtpx:hr>126</gpxtpx:hr>
          </gpxtpx:TrackPointExtension>
        </extensions>
      </trkpt>
      <trkpt lat="38.836156581118175" lon="121.51095436539103">
        <ele>6.574768031015992</ele>
        <time>2025-08-31T01:14:19Z</time>
      </trkpt>
      <trkpt lat="38.83601036488157" lon="121.51124563374104">
        <ele>6.166506176814437</ele>
        <time>2025-08-31T01:14:31Z</time>
      </trkpt>
      <trkpt lat="38.83597047437897" lon="121.51142177995695">
        <ele>6.2566774394363165</ele>
        <time>2025-08-31T01:14:38Z</time>
      </trkpt>
      <trkpt lat="38.83598339784329" lon="121.51158998257807">
        <ele>6.014298971742392</ele>
        <time>2025-08-31T01:14:44Z</time>
        <extensions>
          <gpxtpx:TrackPointExtension>
            <gpxtpx:hr>129</gpxtpx:hr>
          </gpxtpx:TrackPointExtension>
        </extensions>
      </trkpt>
      <trkpt lat="38.83606989949578" lon="121.51181071841104">
        <ele>5.638313599862158</ele>
        <time>2025-08-31T01:14:54Z</time>
        <extensions>
          <gpxtpx:TrackPointExtension>
            <gpxtpx:hr>129</gpxtpx:hr>
          </gpxtpx:TrackPointExtension>
        </extensions>
      </trkpt>
      <trkpt lat="38.83611610352702" lon="121.51187256698044">
        <ele>5.6316387774422765</ele>
        <time>2025-08-31T01:14:57Z</time>
        <extensions>
          <gpxtpx:TrackPointExtension>
            <gpxtpx:hr>129</gpxtpx:hr>
          </gpxtpx:TrackPointExtension>
        </extensions>
      </trkpt>
      <trkpt lat="38.8362409205122" lon="121.51194712580322">
        <ele>5.411115871742368</ele>
        <time>2025-08-31T01:15:03Z</time>
        <extensions>
          <gpxtpx:TrackPointExtension>
            <gpxtpx:hr>126</gpxtpx:hr>
          </gpxtpx:TrackPointExtension>
        </extensions>
      </trkpt>
      <trkpt lat="38.836434104852486" lon="121.51193739722878">
        <ele>6.504017770290375</ele>
        <time>2025-08-31T01:15:12Z</time>
        <extensions>
          <gpxtpx:TrackPointExtension>
            <gpxtpx:hr>131</gpxtpx:hr>
          </gpxtpx:TrackPointExtension>
        </extensions>
      </trkpt>
      <trkpt lat="38.83667330763509" lon="121.51181059746075">
        <ele>7.050610536709428</ele>
        <time>2025-08-31T01:15:24Z</time>
        <extensions>
          <gpxtpx:TrackPointExtension>
            <gpxtpx:hr>132</gpxtpx:hr>
          </gpxtpx:TrackPointExtension>
        </extensions>
      </trkpt>
      <trkpt lat="38.83673422140552" lon="121.51182296857712">
        <ele>7.010772594250739</ele>
        <time>2025-08-31T01:15:27Z</time>
        <extensions>
          <gpxtpx:TrackPointExtension>
            <gpxtpx:hr>132</gpxtpx:hr>
          </gpxtpx:TrackPointExtension>
        </extensions>
      </trkpt>
      <trkpt lat="38.83676419767787" lon="121.51188434693965">
        <ele>7.338654324412346</ele>
        <time>2025-08-31T01:15:30Z</time>
        <extensions>
          <gpxtpx:TrackPointExtension>
            <gpxtpx:hr>134</gpxtpx:hr>
          </gpxtpx:TrackPointExtension>
        </extensions>
      </trkpt>
      <trkpt lat="38.83690644320706" lon="121.51170540950382">
        <ele>6.524824419058859</ele>
        <time>2025-08-31T01:15:39Z</time>
        <extensions>
          <gpxtpx:TrackPointExtension>
            <gpxtpx:hr>133</gpxtpx:hr>
          </gpxtpx:TrackPointExtension>
        </extensions>
      </trkpt>
      <trkpt lat="38.83703348252857" lon="121.51150436041884">
        <ele>7.152461366727948</ele>
        <time>2025-08-31T01:15:48Z</time>
        <extensions>
          <gpxtpx:TrackPointExtension>
            <gpxtpx:hr>133</gpxtpx:hr>
          </gpxtpx:TrackPointExtension>
        </extensions>
      </trkpt>
      <trkpt lat="38.83708149429263" lon="121.51146806360912">
        <ele>7.347858682274818</ele>
        <time>2025-08-31T01:15:51Z</time>
        <extensions>
          <gpxtpx:TrackPointExtension>
            <gpxtpx:hr>133</gpxtpx:hr>
          </gpxtpx:TrackPointExtension>
        </extensions>
      </trkpt>
      <trkpt lat="38.83712318792615" lon="121.51140142195766">
        <ele>6.8508523888885975</ele>
        <time>2025-08-31T01:15:54Z</time>
        <extensions>
          <gpxtpx:TrackPointExtension>
            <gpxtpx:hr>133</gpxtpx:hr>
          </gpxtpx:TrackPointExtension>
        </extensions>
      </trkpt>
      <trkpt lat="38.83704368746551" lon="121.51111077310091">
        <ele>7.264357380568981</ele>
        <time>2025-08-31T01:16:03Z</time>
        <extensions>
          <gpxtpx:TrackPointExtension>
            <gpxtpx:hr>134</gpxtpx:hr>
          </gpxtpx:TrackPointExtension>
        </extensions>
      </trkpt>
      <trkpt lat="38.83706316299744" lon="121.51095762496817">
        <ele>7.593118865042925</ele>
        <time>2025-08-31T01:16:09Z</time>
        <extensions>
          <gpxtpx:TrackPointExtension>
            <gpxtpx:hr>137</gpxtpx:hr>
          </gpxtpx:TrackPointExtension>
        </extensions>
      </trkpt>
      <trkpt lat="38.83718761929739" lon="121.51067182256412">
        <ele>7.623472085222602</ele>
        <time>2025-08-31T01:16:21Z</time>
        <extensions>
          <gpxtpx:TrackPointExtension>
            <gpxtpx:hr>136</gpxtpx:hr>
          </gpxtpx:TrackPointExtension>
        </extensions>
      </trkpt>
      <trkpt lat="38.837405355693264" lon="121.51037452073749">
        <ele>9.021952025592327</ele>
        <time>2025-08-31T01:16:36Z</time>
        <extensions>
          <gpxtpx:TrackPointExtension>
            <gpxtpx:hr>137</gpxtpx:hr>
          </gpxtpx:TrackPointExtension>
        </extensions>
      </trkpt>
      <trkpt lat="38.83767072691264" lon="121.51017163103948">
        <ele>9.756175910122693</ele>
        <time>2025-08-31T01:16:51Z</time>
        <extensions>
          <gpxtpx:TrackPointExtension>
            <gpxtpx:hr>129</gpxtpx:hr>
          </gpxtpx:TrackPointExtension>
        </extensions>
      </trkpt>
      <trkpt lat="38.83771889132745" lon="121.5101021485498">
        <ele>9.918922591023147</ele>
        <time>2025-08-31T01:16:54Z</time>
        <extensions>
          <gpxtpx:TrackPointExtension>
            <gpxtpx:hr>129</gpxtpx:hr>
          </gpxtpx:TrackPointExtension>
        </extensions>
      </trkpt>
      <trkpt lat="38.83775136302416" lon="121.50994902366926">
        <ele>9.785437949933112</ele>
        <time>2025-08-31T01:17:00Z</time>
        <extensions>
          <gpxtpx:TrackPointExtension>
            <gpxtpx:hr>129</gpxtpx:hr>
          </gpxtpx:TrackPointExtension>
        </extensions>
      </trkpt>
      <trkpt lat="38.83783177676357" lon="121.50992958908712">
        <ele>8.863457946106791</ele>
        <time>2025-08-31T01:17:03Z</time>
        <extensions>
          <gpxtpx:TrackPointExtension>
            <gpxtpx:hr>129</gpxtpx:hr>
          </gpxtpx:TrackPointExtension>
        </extensions>
      </trkpt>
      <trkpt lat="38.83790721476938" lon="121.50979438289792">
        <ele>9.220800545066595</ele>
        <time>2025-08-31T01:17:09Z</time>
        <extensions>
          <gpxtpx:TrackPointExtension>
            <gpxtpx:hr>137</gpxtpx:hr>
          </gpxtpx:TrackPointExtension>
        </extensions>
      </trkpt>
      <trkpt lat="38.837954998155006" lon="121.50974007468761">
        <ele>8.876015507616103</ele>
        <time>2025-08-31T01:17:12Z</time>
        <extensions>
          <gpxtpx:TrackPointExtension>
            <gpxtpx:hr>137</gpxtpx:hr>
          </gpxtpx:TrackPointExtension>
        </extensions>
      </trkpt>
      <trkpt lat="38.83797352585791" lon="121.50957834406762">
        <ele>10.422841850668192</ele>
        <time>2025-08-31T01:17:18Z</time>
        <extensions>
          <gpxtpx:TrackPointExtension>
            <gpxtpx:hr>136</gpxtpx:hr>
          </gpxtpx:TrackPointExtension>
        </extensions>
      </trkpt>
      <trkpt lat="38.83802069830002" lon="121.50942180330004">
        <ele>8.925012758001685</ele>
        <time>2025-08-31T01:17:24Z</time>
        <extensions>
          <gpxtpx:TrackPointExtension>
            <gpxtpx:hr>131</gpxtpx:hr>
          </gpxtpx:TrackPointExtension>
        </extensions>
      </trkpt>
      <trkpt lat="38.838113007426905" lon="121.50930465842028">
        <ele>9.887149863876402</ele>
        <time>2025-08-31T01:17:30Z</time>
        <extensions>
          <gpxtpx:TrackPointExtension>
            <gpxtpx:hr>132</gpxtpx:hr>
          </gpxtpx:TrackPointExtension>
        </extensions>
      </trkpt>
      <trkpt lat="38.83836927312137" lon="121.5090741234142">
        <ele>10.513212922029197</ele>
        <time>2025-08-31T01:17:45Z</time>
        <extensions>
          <gpxtpx:TrackPointExtension>
            <gpxtpx:hr>132</gpxtpx:hr>
          </gpxtpx:TrackPointExtension>
        </extensions>
      </trkpt>
      <trkpt lat="38.83835926581335" lon="121.50901321778174">
        <ele>11.531627275981009</ele>
        <time>2025-08-31T01:17:54Z</time>
      </trkpt>
      <trkpt lat="38.8384631525703" lon="121.50893639436211">
        <ele>10.806341307237744</ele>
        <time>2025-08-31T01:19:51Z</time>
        <extensions>
          <gpxtpx:TrackPointExtension>
            <gpxtpx:hr>109</gpxtpx:hr>
          </gpxtpx:TrackPointExtension>
        </extensions>
      </trkpt>
      <trkpt lat="38.838540653231306" lon="121.50891258847071">
        <ele>10.33999100793153</ele>
        <time>2025-08-31T01:19:54Z</time>
        <extensions>
          <gpxtpx:TrackPointExtension>
            <gpxtpx:hr>109</gpxtpx:hr>
          </gpxtpx:TrackPointExtension>
        </extensions>
      </trkpt>
      <trkpt lat="38.83863443613694" lon="121.50880583535415">
        <ele>9.16113705560565</ele>
        <time>2025-08-31T01:20:03Z</time>
        <extensions>
          <gpxtpx:TrackPointExtension>
            <gpxtpx:hr>113</gpxtpx:hr>
          </gpxtpx:TrackPointExtension>
        </extensions>
      </trkpt>
      <trkpt lat="38.83868467075314" lon="121.5086743498041">
        <ele>8.707008516415954</ele>
        <time>2025-08-31T01:20:18Z</time>
        <extensions>
          <gpxtpx:TrackPointExtension>
            <gpxtpx:hr>107</gpxtpx:hr>
          </gpxtpx:TrackPointExtension>
        </extensions>
      </trkpt>
      <trkpt lat="38.83868842073926" lon="121.5086123654736">
        <ele>9.18561511579901</ele>
        <time>2025-08-31T01:20:24Z</time>
        <extensions>
          <gpxtpx:TrackPointExtension>
            <gpxtpx:hr>108</gpxtpx:hr>
          </gpxtpx:TrackPointExtension>
        </extensions>
      </trkpt>
      <trkpt lat="38.838738314517194" lon="121.50854143703144">
        <ele>9.51277878973633</ele>
        <time>2025-08-31T01:20:27Z</time>
        <extensions>
          <gpxtpx:TrackPointExtension>
            <gpxtpx:hr>107</gpxtpx:hr>
          </gpxtpx:TrackPointExtension>
        </extensions>
      </trkpt>
      <trkpt lat="38.83873432036454" lon="121.50844699390656">
        <ele>8.679724739864469</ele>
        <time>2025-08-31T01:20:30Z</time>
        <extensions>
          <gpxtpx:TrackPointExtension>
            <gpxtpx:hr>107</gpxtpx:hr>
          </gpxtpx:TrackPointExtension>
        </extensions>
      </trkpt>
      <trkpt lat="38.83892949705413" lon="121.50813881782875">
        <ele>8.595989376306534</ele>
        <time>2025-08-31T01:20:44Z</time>
        <extensions>
          <gpxtpx:TrackPointExtension>
            <gpxtpx:hr>114</gpxtpx:hr>
          </gpxtpx:TrackPointExtension>
        </extensions>
      </trkpt>
      <trkpt lat="38.839087222346706" lon="121.50799946234494">
        <ele>7.4250538079068065</ele>
        <time>2025-08-31T01:20:54Z</time>
        <extensions>
          <gpxtpx:TrackPointExtension>
            <gpxtpx:hr>120</gpxtpx:hr>
          </gpxtpx:TrackPointExtension>
        </extensions>
      </trkpt>
      <trkpt lat="38.839217121481845" lon="121.50776047376347">
        <ele>9.008392414078116</ele>
        <time>2025-08-31T01:21:03Z</time>
        <extensions>
          <gpxtpx:TrackPointExtension>
            <gpxtpx:hr>120</gpxtpx:hr>
          </gpxtpx:TrackPointExtension>
        </extensions>
      </trkpt>
      <trkpt lat="38.839310901911205" lon="121.50764818946432">
        <ele>8.593955671414733</ele>
        <time>2025-08-31T01:21:09Z</time>
        <extensions>
          <gpxtpx:TrackPointExtension>
            <gpxtpx:hr>125</gpxtpx:hr>
          </gpxtpx:TrackPointExtension>
        </extensions>
      </trkpt>
      <trkpt lat="38.83938843188827" lon="121.50750789436796">
        <ele>9.369237908162177</ele>
        <time>2025-08-31T01:21:18Z</time>
        <extensions>
          <gpxtpx:TrackPointExtension>
            <gpxtpx:hr>126</gpxtpx:hr>
          </gpxtpx:TrackPointExtension>
        </extensions>
      </trkpt>
      <trkpt lat="38.83943811658852" lon="121.50733830437578">
        <ele>9.269637587480247</ele>
        <time>2025-08-31T01:21:24Z</time>
        <extensions>
          <gpxtpx:TrackPointExtension>
            <gpxtpx:hr>125</gpxtpx:hr>
          </gpxtpx:TrackPointExtension>
        </extensions>
      </trkpt>
      <trkpt lat="38.83954365426977" lon="121.5072102238383">
        <ele>9.398958578705788</ele>
        <time>2025-08-31T01:21:31Z</time>
        <extensions>
          <gpxtpx:TrackPointExtension>
            <gpxtpx:hr>127</gpxtpx:hr>
          </gpxtpx:TrackPointExtension>
        </extensions>
      </trkpt>
      <trkpt lat="38.83971658636779" lon="121.50691936287976">
        <ele>9.918802658095956</ele>
        <time>2025-08-31T01:21:42Z</time>
        <extensions>
          <gpxtpx:TrackPointExtension>
            <gpxtpx:hr>133</gpxtpx:hr>
          </gpxtpx:TrackPointExtension>
        </extensions>
      </trkpt>
      <trkpt lat="38.83975231567818" lon="121.50677372072083">
        <ele>10.891803269274533</ele>
        <time>2025-08-31T01:21:48Z</time>
        <extensions>
          <gpxtpx:TrackPointExtension>
            <gpxtpx:hr>135</gpxtpx:hr>
          </gpxtpx:TrackPointExtension>
        </extensions>
      </trkpt>
      <trkpt lat="38.83979914126279" lon="121.5067196133995">
        <ele>10.527482020668685</ele>
        <time>2025-08-31T01:21:51Z</time>
        <extensions>
          <gpxtpx:TrackPointExtension>
            <gpxtpx:hr>135</gpxtpx:hr>
          </gpxtpx:TrackPointExtension>
        </extensions>
      </trkpt>
      <trkpt lat="38.8397985374512" lon="121.50664859207143">
        <ele>11.268524044193327</ele>
        <time>2025-08-31T01:21:54Z</time>
        <extensions>
          <gpxtpx:TrackPointExtension>
            <gpxtpx:hr>135</gpxtpx:hr>
          </gpxtpx:TrackPointExtension>
        </extensions>
      </trkpt>
      <trkpt lat="38.8399180775447" lon="121.50635131553443">
        <ele>12.179355365224183</ele>
        <time>2025-08-31T01:22:06Z</time>
        <extensions>
          <gpxtpx:TrackPointExtension>
            <gpxtpx:hr>135</gpxtpx:hr>
          </gpxtpx:TrackPointExtension>
        </extensions>
      </trkpt>
      <trkpt lat="38.84010844410616" lon="121.50601265758728">
        <ele>12.273443323560059</ele>
        <time>2025-08-31T01:22:18Z</time>
        <extensions>
          <gpxtpx:TrackPointExtension>
            <gpxtpx:hr>137</gpxtpx:hr>
          </gpxtpx:TrackPointExtension>
        </extensions>
      </trkpt>
      <trkpt lat="38.84013149325163" lon="121.5059553199195">
        <ele>12.297115109860897</ele>
        <time>2025-08-31T01:22:21Z</time>
        <extensions>
          <gpxtpx:TrackPointExtension>
            <gpxtpx:hr>136</gpxtpx:hr>
          </gpxtpx:TrackPointExtension>
        </extensions>
      </trkpt>
      <trkpt lat="38.84030537637373" lon="121.50575708769911">
        <ele>11.74196659680456</ele>
        <time>2025-08-31T01:22:30Z</time>
        <extensions>
          <gpxtpx:TrackPointExtension>
            <gpxtpx:hr>138</gpxtpx:hr>
          </gpxtpx:TrackPointExtension>
        </extensions>
      </trkpt>
      <trkpt lat="38.840327069270664" lon="121.50570026243258">
        <ele>11.129434975795448</ele>
        <time>2025-08-31T01:22:33Z</time>
        <extensions>
          <gpxtpx:TrackPointExtension>
            <gpxtpx:hr>138</gpxtpx:hr>
          </gpxtpx:TrackPointExtension>
        </extensions>
      </trkpt>
      <trkpt lat="38.840566589181535" lon="121.50537630708779">
        <ele>10.054587847553194</ele>
        <time>2025-08-31T01:22:47Z</time>
        <extensions>
          <gpxtpx:TrackPointExtension>
            <gpxtpx:hr>139</gpxtpx:hr>
          </gpxtpx:TrackPointExtension>
        </extensions>
      </trkpt>
      <trkpt lat="38.84062818603815" lon="121.50520566087827">
        <ele>9.986006857827306</ele>
        <time>2025-08-31T01:22:54Z</time>
        <extensions>
          <gpxtpx:TrackPointExtension>
            <gpxtpx:hr>140</gpxtpx:hr>
          </gpxtpx:TrackPointExtension>
        </extensions>
      </trkpt>
      <trkpt lat="38.84071441241354" lon="121.50512422347029">
        <ele>10.100093306042254</ele>
        <time>2025-08-31T01:22:58Z</time>
        <extensions>
          <gpxtpx:TrackPointExtension>
            <gpxtpx:hr>140</gpxtpx:hr>
          </gpxtpx:TrackPointExtension>
        </extensions>
      </trkpt>
      <trkpt lat="38.8407703146672" lon="121.50501458846435">
        <ele>8.995035291649401</ele>
        <time>2025-08-31T01:23:02Z</time>
        <extensions>
          <gpxtpx:TrackPointExtension>
            <gpxtpx:hr>141</gpxtpx:hr>
          </gpxtpx:TrackPointExtension>
        </extensions>
      </trkpt>
      <trkpt lat="38.84082853426924" lon="121.50494837257826">
        <ele>7.370239888317883</ele>
        <time>2025-08-31T01:23:05Z</time>
        <extensions>
          <gpxtpx:TrackPointExtension>
            <gpxtpx:hr>141</gpxtpx:hr>
          </gpxtpx:TrackPointExtension>
        </extensions>
      </trkpt>
      <trkpt lat="38.84100739503216" lon="121.50463089123824">
        <ele>7.653291197493672</ele>
        <time>2025-08-31T01:23:17Z</time>
        <extensions>
          <gpxtpx:TrackPointExtension>
            <gpxtpx:hr>142</gpxtpx:hr>
          </gpxtpx:TrackPointExtension>
        </extensions>
      </trkpt>
      <trkpt lat="38.84105996010567" lon="121.50457246235182">
        <ele>7.394071606919169</ele>
        <time>2025-08-31T01:23:20Z</time>
        <extensions>
          <gpxtpx:TrackPointExtension>
            <gpxtpx:hr>142</gpxtpx:hr>
          </gpxtpx:TrackPointExtension>
        </extensions>
      </trkpt>
      <trkpt lat="38.841096821384454" lon="121.50448192682785">
        <ele>7.2906347047537565</ele>
        <time>2025-08-31T01:23:23Z</time>
        <extensions>
          <gpxtpx:TrackPointExtension>
            <gpxtpx:hr>143</gpxtpx:hr>
          </gpxtpx:TrackPointExtension>
        </extensions>
      </trkpt>
      <trkpt lat="38.84109244011553" lon="121.50441198730417">
        <ele>7.153815010562539</ele>
        <time>2025-08-31T01:23:26Z</time>
        <extensions>
          <gpxtpx:TrackPointExtension>
            <gpxtpx:hr>143</gpxtpx:hr>
          </gpxtpx:TrackPointExtension>
        </extensions>
      </trkpt>
      <trkpt lat="38.84112058775129" lon="121.50431414943736">
        <ele>7.4849069975316525</ele>
        <time>2025-08-31T01:23:29Z</time>
        <extensions>
          <gpxtpx:TrackPointExtension>
            <gpxtpx:hr>143</gpxtpx:hr>
          </gpxtpx:TrackPointExtension>
        </extensions>
      </trkpt>
      <trkpt lat="38.84111837839757" lon="121.50393971670503">
        <ele>7.330164415761828</ele>
        <time>2025-08-31T01:23:41Z</time>
        <extensions>
          <gpxtpx:TrackPointExtension>
            <gpxtpx:hr>143</gpxtpx:hr>
          </gpxtpx:TrackPointExtension>
        </extensions>
      </trkpt>
      <trkpt lat="38.84110625203658" lon="121.50384122891641">
        <ele>8.423299049027264</ele>
        <time>2025-08-31T01:23:44Z</time>
        <extensions>
          <gpxtpx:TrackPointExtension>
            <gpxtpx:hr>143</gpxtpx:hr>
          </gpxtpx:TrackPointExtension>
        </extensions>
      </trkpt>
      <trkpt lat="38.84106462397826" lon="121.50378885326798">
        <ele>7.726988769136369</ele>
        <time>2025-08-31T01:23:47Z</time>
        <extensions>
          <gpxtpx:TrackPointExtension>
            <gpxtpx:hr>142</gpxtpx:hr>
          </gpxtpx:TrackPointExtension>
        </extensions>
      </trkpt>
      <trkpt lat="38.84105863002081" lon="121.50355383178328">
        <ele>7.359041822142899</ele>
        <time>2025-08-31T01:23:56Z</time>
        <extensions>
          <gpxtpx:TrackPointExtension>
            <gpxtpx:hr>141</gpxtpx:hr>
          </gpxtpx:TrackPointExtension>
        </extensions>
      </trkpt>
      <trkpt lat="38.8409887599018" lon="121.50345332827933">
        <ele>7.536791876889765</ele>
        <time>2025-08-31T01:23:59Z</time>
        <extensions>
          <gpxtpx:TrackPointExtension>
            <gpxtpx:hr>141</gpxtpx:hr>
          </gpxtpx:TrackPointExtension>
        </extensions>
      </trkpt>
      <trkpt lat="38.84065974285758" lon="121.50341966367566">
        <ele>6.784706232137978</ele>
        <time>2025-08-31T01:24:14Z</time>
        <extensions>
          <gpxtpx:TrackPointExtension>
            <gpxtpx:hr>142</gpxtpx:hr>
          </gpxtpx:TrackPointExtension>
        </extensions>
      </trkpt>
      <trkpt lat="38.84059491621418" lon="121.50338757808255">
        <ele>8.079244427382946</ele>
        <time>2025-08-31T01:24:17Z</time>
        <extensions>
          <gpxtpx:TrackPointExtension>
            <gpxtpx:hr>143</gpxtpx:hr>
          </gpxtpx:TrackPointExtension>
        </extensions>
      </trkpt>
      <trkpt lat="38.84026928205771" lon="121.50336846223105">
        <ele>9.178609885275364</ele>
        <time>2025-08-31T01:24:29Z</time>
        <extensions>
          <gpxtpx:TrackPointExtension>
            <gpxtpx:hr>144</gpxtpx:hr>
          </gpxtpx:TrackPointExtension>
        </extensions>
      </trkpt>
      <trkpt lat="38.840126603504224" lon="121.50332754051041">
        <ele>9.69525683298707</ele>
        <time>2025-08-31T01:24:35Z</time>
        <extensions>
          <gpxtpx:TrackPointExtension>
            <gpxtpx:hr>143</gpxtpx:hr>
          </gpxtpx:TrackPointExtension>
        </extensions>
      </trkpt>
      <trkpt lat="38.83981886757487" lon="121.50331187498605">
        <ele>9.636943267658353</ele>
        <time>2025-08-31T01:24:48Z</time>
        <extensions>
          <gpxtpx:TrackPointExtension>
            <gpxtpx:hr>143</gpxtpx:hr>
          </gpxtpx:TrackPointExtension>
        </extensions>
      </trkpt>
      <trkpt lat="38.83974589514376" lon="121.50333708629486">
        <ele>8.057564420625567</ele>
        <time>2025-08-31T01:24:51Z</time>
        <extensions>
          <gpxtpx:TrackPointExtension>
            <gpxtpx:hr>144</gpxtpx:hr>
          </gpxtpx:TrackPointExtension>
        </extensions>
      </trkpt>
      <trkpt lat="38.83954859703606" lon="121.50330784017338">
        <ele>7.357170551083982</ele>
        <time>2025-08-31T01:25:00Z</time>
        <extensions>
          <gpxtpx:TrackPointExtension>
            <gpxtpx:hr>143</gpxtpx:hr>
          </gpxtpx:TrackPointExtension>
        </extensions>
      </trkpt>
      <trkpt lat="38.839301548225066" lon="121.50322306720969">
        <ele>8.536200415343046</ele>
        <time>2025-08-31T01:25:09Z</time>
        <extensions>
          <gpxtpx:TrackPointExtension>
            <gpxtpx:hr>145</gpxtpx:hr>
          </gpxtpx:TrackPointExtension>
        </extensions>
      </trkpt>
      <trkpt lat="38.8391033463618" lon="121.50326490528099">
        <ele>9.04542498383671</ele>
        <time>2025-08-31T01:25:18Z</time>
        <extensions>
          <gpxtpx:TrackPointExtension>
            <gpxtpx:hr>145</gpxtpx:hr>
          </gpxtpx:TrackPointExtension>
        </extensions>
      </trkpt>
      <trkpt lat="38.83905302106785" lon="121.50330495919812">
        <ele>8.115828464739025</ele>
        <time>2025-08-31T01:25:21Z</time>
        <extensions>
          <gpxtpx:TrackPointExtension>
            <gpxtpx:hr>144</gpxtpx:hr>
          </gpxtpx:TrackPointExtension>
        </extensions>
      </trkpt>
      <trkpt lat="38.83889553873105" lon="121.50330548077785">
        <ele>8.25888937804848</ele>
        <time>2025-08-31T01:25:27Z</time>
        <extensions>
          <gpxtpx:TrackPointExtension>
            <gpxtpx:hr>142</gpxtpx:hr>
          </gpxtpx:TrackPointExtension>
        </extensions>
      </trkpt>
      <trkpt lat="38.83875253113609" lon="121.50335553271803">
        <ele>7.999768304638565</ele>
        <time>2025-08-31T01:25:33Z</time>
        <extensions>
          <gpxtpx:TrackPointExtension>
            <gpxtpx:hr>142</gpxtpx:hr>
          </gpxtpx:TrackPointExtension>
        </extensions>
      </trkpt>
      <trkpt lat="38.83875253113609" lon="121.50335553271803">
        <ele>7.999768304638565</ele>
        <time>2025-08-31T01:25:36Z</time>
        <extensions>
          <gpxtpx:TrackPointExtension>
            <gpxtpx:hr>142</gpxtpx:hr>
          </gpxtpx:TrackPointExtension>
        </extensions>
      </trkpt>
    </trkseg>
  </trk>
</gpx>