<?xml version="1.0" encoding="UTF-8"?>
<gpx xmlns="http://www.topografix.com/GPX/1/1" xmlns:gpxtpx="http://www.garmin.com/xmlschemas/TrackPointExtension/v1" xmlns:xsi="http://www.w3.org/2001/XMLSchema-instance" xsi:schemaLocation="http://www.topografix.com/GPX/1/1 http://www.topografix.com/GPX/1/1/gpx.xsd" version="1.1" creator="gpx.py -- https://github.com/tkrajina/gpxpy">
  <trk>
    <name>gpx from keep</name>
    <type>Run</type>
    <trkseg>
      <trkpt lat="38.83696920230881" lon="121.50430427438346">
        <ele>9.643018850578926</ele>
        <time>2025-06-21T15:49:18Z</time>
      </trkpt>
      <trkpt lat="38.83685159425972" lon="121.50464563444606">
        <ele>9.324926816858351</ele>
        <time>2025-06-21T15:49:45Z</time>
      </trkpt>
      <trkpt lat="38.836840506330184" lon="121.50471345050886">
        <ele>11.639112893491983</ele>
        <time>2025-06-21T15:49:48Z</time>
      </trkpt>
      <trkpt lat="38.836689664484034" lon="121.5050603959193">
        <ele>9.891132446937263</ele>
        <time>2025-06-21T15:50:04Z</time>
      </trkpt>
      <trkpt lat="38.836633199324055" lon="121.50520042233161">
        <ele>10.301458133384585</ele>
        <time>2025-06-21T15:50:10Z</time>
      </trkpt>
      <trkpt lat="38.83662346815859" lon="121.50527126889482">
        <ele>9.904151484370232</ele>
        <time>2025-06-21T15:50:13Z</time>
      </trkpt>
      <trkpt lat="38.83653369678311" lon="121.50558518871263">
        <ele>9.703610558994114</ele>
        <time>2025-06-21T15:50:25Z</time>
      </trkpt>
      <trkpt lat="38.83639560833744" lon="121.50594643923075">
        <ele>9.336272518150508</ele>
        <time>2025-06-21T15:50:40Z</time>
      </trkpt>
      <trkpt lat="38.8362759791859" lon="121.50634249623582">
        <ele>9.323929839767516</ele>
        <time>2025-06-21T15:50:55Z</time>
      </trkpt>
      <trkpt lat="38.83617477130636" lon="121.50670308567346">
        <ele>9.53829505853355</ele>
        <time>2025-06-21T15:51:10Z</time>
      </trkpt>
      <trkpt lat="38.836190347798144" lon="121.50677607101775">
        <ele>9.709250303916633</ele>
        <time>2025-06-21T15:51:13Z</time>
      </trkpt>
      <trkpt lat="38.83632664290171" lon="121.50689921982854">
        <ele>7.55278754606843</ele>
        <time>2025-06-21T15:51:22Z</time>
      </trkpt>
      <trkpt lat="38.83652380377379" lon="121.50702441884384">
        <ele>8.223310408182442</ele>
        <time>2025-06-21T15:51:32Z</time>
      </trkpt>
      <trkpt lat="38.836566218770436" lon="121.50709692323342">
        <ele>8.537888246588409</ele>
        <time>2025-06-21T15:51:35Z</time>
      </trkpt>
      <trkpt lat="38.836731832861794" lon="121.5071927536159">
        <ele>9.9971256935969</ele>
        <time>2025-06-21T15:51:47Z</time>
      </trkpt>
      <trkpt lat="38.83678705390516" lon="121.50718456874075">
        <ele>9.904035357758403</ele>
        <time>2025-06-21T15:51:53Z</time>
      </trkpt>
      <trkpt lat="38.836850319414296" lon="121.50713615781137">
        <ele>9.98109271749854</ele>
        <time>2025-06-21T15:51:59Z</time>
      </trkpt>
      <trkpt lat="38.83705893769451" lon="121.50682033561206">
        <ele>9.476541894488037</ele>
        <time>2025-06-21T15:52:14Z</time>
      </trkpt>
      <trkpt lat="38.83714093610235" lon="121.50670728687963">
        <ele>10.225730255246162</ele>
        <time>2025-06-21T15:52:20Z</time>
      </trkpt>
      <trkpt lat="38.83728475294826" lon="121.50645269538406">
        <ele>9.269270895980299</ele>
        <time>2025-06-21T15:52:32Z</time>
      </trkpt>
      <trkpt lat="38.83729238477103" lon="121.50635539882263">
        <ele>9.911546446383</ele>
        <time>2025-06-21T15:52:35Z</time>
      </trkpt>
      <trkpt lat="38.83725371572689" lon="121.50626411465824">
        <ele>10.550321461632848</ele>
        <time>2025-06-21T15:52:38Z</time>
      </trkpt>
      <trkpt lat="38.837411602100374" lon="121.50598779194176">
        <ele>10.025877724401653</ele>
        <time>2025-06-21T15:52:50Z</time>
      </trkpt>
      <trkpt lat="38.83745829732475" lon="121.50593061367172">
        <ele>10.14859401062131</ele>
        <time>2025-06-21T15:52:53Z</time>
      </trkpt>
      <trkpt lat="38.837525946158884" lon="121.50578054562278">
        <ele>10.556042456999421</ele>
        <time>2025-06-21T15:52:59Z</time>
      </trkpt>
      <trkpt lat="38.83771078109124" lon="121.50547226659496">
        <ele>11.056311501190066</ele>
        <time>2025-06-21T15:53:20Z</time>
      </trkpt>
      <trkpt lat="38.83777974497657" lon="121.50535276970331">
        <ele>10.343618524260819</ele>
        <time>2025-06-21T15:53:32Z</time>
      </trkpt>
      <trkpt lat="38.83783894082578" lon="121.50531486291628">
        <ele>9.44743821863085</ele>
        <time>2025-06-21T15:53:39Z</time>
      </trkpt>
      <trkpt lat="38.83790873954687" lon="121.5053043092316">
        <ele>8.876207699999213</ele>
        <time>2025-06-21T15:53:47Z</time>
      </trkpt>
      <trkpt lat="38.837976552290975" lon="121.50517686983794">
        <ele>8.604075407609344</ele>
        <time>2025-06-21T15:53:53Z</time>
      </trkpt>
      <trkpt lat="38.8380365559587" lon="121.5051514332606">
        <ele>7.927563677541912</ele>
        <time>2025-06-21T15:53:56Z</time>
      </trkpt>
      <trkpt lat="38.83809567956448" lon="121.5050943075207">
        <ele>7.756001450121403</ele>
        <time>2025-06-21T15:53:59Z</time>
      </trkpt>
      <trkpt lat="38.83812792746796" lon="121.50502249512859">
        <ele>8.385749968700111</ele>
        <time>2025-06-21T15:54:02Z</time>
      </trkpt>
      <trkpt lat="38.838189562239585" lon="121.5049684667875">
        <ele>8.810889923013747</ele>
        <time>2025-06-21T15:54:05Z</time>
      </trkpt>
      <trkpt lat="38.83830493858585" lon="121.50476567317926">
        <ele>8.41353773046285</ele>
        <time>2025-06-21T15:54:14Z</time>
      </trkpt>
      <trkpt lat="38.83833854732469" lon="121.50467366423278">
        <ele>9.275712933391333</ele>
        <time>2025-06-21T15:54:17Z</time>
      </trkpt>
      <trkpt lat="38.83850014546627" lon="121.50439153424892">
        <ele>9.866721978411078</ele>
        <time>2025-06-21T15:54:29Z</time>
      </trkpt>
      <trkpt lat="38.83853017641918" lon="121.50431752931972">
        <ele>9.129616289399564</ele>
        <time>2025-06-21T15:54:32Z</time>
      </trkpt>
      <trkpt lat="38.83870006860237" lon="121.50418523674514">
        <ele>10.131963779218495</ele>
        <time>2025-06-21T15:54:44Z</time>
      </trkpt>
      <trkpt lat="38.838928271201894" lon="121.50429778209813">
        <ele>11.351027248427272</ele>
        <time>2025-06-21T15:55:08Z</time>
      </trkpt>
      <trkpt lat="38.83902508172485" lon="121.50438645025174">
        <ele>10.316286616027355</ele>
        <time>2025-06-21T15:55:20Z</time>
      </trkpt>
      <trkpt lat="38.83904049462251" lon="121.50444871335908">
        <ele>10.634081301279366</ele>
        <time>2025-06-21T15:55:26Z</time>
      </trkpt>
      <trkpt lat="38.83912603174102" lon="121.50456229087533">
        <ele>11.752997690811753</ele>
        <time>2025-06-21T15:55:38Z</time>
      </trkpt>
      <trkpt lat="38.83921595188955" lon="121.50462689162345">
        <ele>11.237240464426577</ele>
        <time>2025-06-21T15:55:46Z</time>
      </trkpt>
      <trkpt lat="38.839266802552395" lon="121.50470450197376">
        <ele>10.96166555210948</ele>
        <time>2025-06-21T15:55:50Z</time>
      </trkpt>
      <trkpt lat="38.8394294819351" lon="121.50483411958359">
        <ele>10.067536257207394</ele>
        <time>2025-06-21T15:55:58Z</time>
      </trkpt>
      <trkpt lat="38.839509900870176" lon="121.50498410626489">
        <ele>10.799940769560635</ele>
        <time>2025-06-21T15:56:05Z</time>
      </trkpt>
      <trkpt lat="38.83962643213259" lon="121.50504476410772">
        <ele>10.192759747616947</ele>
        <time>2025-06-21T15:56:11Z</time>
      </trkpt>
      <trkpt lat="38.8398830582651" lon="121.50525615055581">
        <ele>11.809154177084565</ele>
        <time>2025-06-21T15:56:26Z</time>
      </trkpt>
      <trkpt lat="38.84007667886591" lon="121.5054652061967">
        <ele>12.31448423024267</ele>
        <time>2025-06-21T15:56:38Z</time>
      </trkpt>
      <trkpt lat="38.84024293369815" lon="121.50560786977235">
        <ele>12.17177783511579</ele>
        <time>2025-06-21T15:56:47Z</time>
      </trkpt>
      <trkpt lat="38.840280754784075" lon="121.50566374444222">
        <ele>11.780782362446189</ele>
        <time>2025-06-21T15:56:50Z</time>
      </trkpt>
      <trkpt lat="38.84030704945085" lon="121.50574497508256">
        <ele>12.07530552521348</ele>
        <time>2025-06-21T15:56:53Z</time>
      </trkpt>
      <trkpt lat="38.840404894241736" lon="121.50585678024942">
        <ele>11.903390977531672</ele>
        <time>2025-06-21T15:56:59Z</time>
      </trkpt>
      <trkpt lat="38.84048360208568" lon="121.5058666373797">
        <ele>12.715552922338247</ele>
        <time>2025-06-21T15:57:02Z</time>
      </trkpt>
      <trkpt lat="38.84073468055161" lon="121.50610737117027">
        <ele>14.033613670617342</ele>
        <time>2025-06-21T15:57:17Z</time>
      </trkpt>
      <trkpt lat="38.840997617027384" lon="121.5063202794491">
        <ele>13.972624356858432</ele>
        <time>2025-06-21T15:57:35Z</time>
      </trkpt>
      <trkpt lat="38.84107448223917" lon="121.50642476875436">
        <ele>12.972142831422389</ele>
        <time>2025-06-21T15:57:44Z</time>
      </trkpt>
      <trkpt lat="38.841142753158834" lon="121.50647841299144">
        <ele>12.170332722365856</ele>
        <time>2025-06-21T15:57:48Z</time>
      </trkpt>
      <trkpt lat="38.84127690793215" lon="121.50662218394194">
        <ele>12.297082925215364</ele>
        <time>2025-06-21T15:57:55Z</time>
      </trkpt>
      <trkpt lat="38.841360125152505" lon="121.50679046363538">
        <ele>12.248548680916429</ele>
        <time>2025-06-21T15:58:02Z</time>
      </trkpt>
      <trkpt lat="38.84136393219128" lon="121.50696048894663">
        <ele>12.150166380219162</ele>
        <time>2025-06-21T15:58:08Z</time>
      </trkpt>
      <trkpt lat="38.84133782163213" lon="121.50704869049748">
        <ele>11.438067904673517</ele>
        <time>2025-06-21T15:58:11Z</time>
      </trkpt>
      <trkpt lat="38.84133155252935" lon="121.50715025327042">
        <ele>12.595898245461285</ele>
        <time>2025-06-21T15:58:14Z</time>
      </trkpt>
      <trkpt lat="38.84141651678097" lon="121.50748008167744">
        <ele>12.570223739370704</ele>
        <time>2025-06-21T15:58:26Z</time>
      </trkpt>
      <trkpt lat="38.84141178037608" lon="121.50760951331861">
        <ele>12.623133396729827</ele>
        <time>2025-06-21T15:58:38Z</time>
      </trkpt>
      <trkpt lat="38.84154396724476" lon="121.50794733971647">
        <ele>12.28384440485388</ele>
        <time>2025-06-21T15:58:56Z</time>
      </trkpt>
      <trkpt lat="38.84161658792557" lon="121.50812227619063">
        <ele>10.831077094189823</ele>
        <time>2025-06-21T15:59:02Z</time>
      </trkpt>
      <trkpt lat="38.84162865369081" lon="121.50821867280258">
        <ele>11.697052870877087</ele>
        <time>2025-06-21T15:59:05Z</time>
      </trkpt>
      <trkpt lat="38.841607258290644" lon="121.50831085325848">
        <ele>12.148040363565087</ele>
        <time>2025-06-21T15:59:08Z</time>
      </trkpt>
      <trkpt lat="38.841528561757215" lon="121.508337422319">
        <ele>11.088639725930989</ele>
        <time>2025-06-21T15:59:11Z</time>
      </trkpt>
      <trkpt lat="38.84145945293366" lon="121.50833344869878">
        <ele>11.25697948411107</ele>
        <time>2025-06-21T15:59:14Z</time>
      </trkpt>
      <trkpt lat="38.84134696161962" lon="121.50825676163318">
        <ele>11.347857747226954</ele>
        <time>2025-06-21T15:59:20Z</time>
      </trkpt>
      <trkpt lat="38.84108569446482" lon="121.50800368112013">
        <ele>10.270613985136151</ele>
        <time>2025-06-21T15:59:41Z</time>
      </trkpt>
      <trkpt lat="38.84105565011363" lon="121.50794682295641">
        <ele>11.163880799897015</ele>
        <time>2025-06-21T15:59:47Z</time>
      </trkpt>
      <trkpt lat="38.840926495777715" lon="121.50784361900973">
        <ele>11.803083878010511</ele>
        <time>2025-06-21T16:00:02Z</time>
      </trkpt>
      <trkpt lat="38.840847962284606" lon="121.50774989551826">
        <ele>9.696734502911568</ele>
        <time>2025-06-21T16:00:14Z</time>
      </trkpt>
      <trkpt lat="38.840738638004" lon="121.50768963478208">
        <ele>10.52395820338279</ele>
        <time>2025-06-21T16:00:26Z</time>
      </trkpt>
      <trkpt lat="38.840545310854644" lon="121.507484822297">
        <ele>9.887225216254592</ele>
        <time>2025-06-21T16:00:47Z</time>
      </trkpt>
      <trkpt lat="38.84041684800671" lon="121.50740227360963">
        <ele>11.017613433301449</ele>
        <time>2025-06-21T16:00:53Z</time>
      </trkpt>
      <trkpt lat="38.840190255951875" lon="121.50715438914439">
        <ele>11.232324008829892</ele>
        <time>2025-06-21T16:01:06Z</time>
      </trkpt>
      <trkpt lat="38.83995448615122" lon="121.50693595411316">
        <ele>12.420936869457364</ele>
        <time>2025-06-21T16:01:18Z</time>
      </trkpt>
      <trkpt lat="38.83984366143984" lon="121.50679002273229">
        <ele>11.655316749587655</ele>
        <time>2025-06-21T16:01:24Z</time>
      </trkpt>
      <trkpt lat="38.83980330738249" lon="121.50671022463092">
        <ele>12.201728584244847</ele>
        <time>2025-06-21T16:01:27Z</time>
      </trkpt>
      <trkpt lat="38.8397224799557" lon="121.5066751457072">
        <ele>11.875691101886332</ele>
        <time>2025-06-21T16:01:30Z</time>
      </trkpt>
      <trkpt lat="38.839644077987714" lon="121.50667989474243">
        <ele>13.190710799768567</ele>
        <time>2025-06-21T16:01:33Z</time>
      </trkpt>
      <trkpt lat="38.839601973193076" lon="121.50659303734282">
        <ele>12.796948234550655</ele>
        <time>2025-06-21T16:01:36Z</time>
      </trkpt>
      <trkpt lat="38.83947554308386" lon="121.50649465866836">
        <ele>12.00444505829364</ele>
        <time>2025-06-21T16:01:42Z</time>
      </trkpt>
      <trkpt lat="38.839257505465014" lon="121.50625679266501">
        <ele>13.038753018714488</ele>
        <time>2025-06-21T16:01:54Z</time>
      </trkpt>
      <trkpt lat="38.83902607282977" lon="121.50605500679592">
        <ele>12.026252035051584</ele>
        <time>2025-06-21T16:02:06Z</time>
      </trkpt>
      <trkpt lat="38.83896383123671" lon="121.50597246160345">
        <ele>11.520223826169968</ele>
        <time>2025-06-21T16:02:10Z</time>
      </trkpt>
      <trkpt lat="38.838688791706204" lon="121.50574995596689">
        <ele>12.034298655577004</ele>
        <time>2025-06-21T16:02:22Z</time>
      </trkpt>
      <trkpt lat="38.838562396004896" lon="121.50566111014605">
        <ele>10.741569216363132</ele>
        <time>2025-06-21T16:02:28Z</time>
      </trkpt>
      <trkpt lat="38.838515359916705" lon="121.5055872393963">
        <ele>10.832688339985907</ele>
        <time>2025-06-21T16:02:31Z</time>
      </trkpt>
      <trkpt lat="38.83836884551131" lon="121.5054592438332">
        <ele>10.497754517011344</ele>
        <time>2025-06-21T16:02:46Z</time>
      </trkpt>
      <trkpt lat="38.8382790671279" lon="121.50536345610726">
        <ele>11.115819564089179</ele>
        <time>2025-06-21T16:02:58Z</time>
      </trkpt>
      <trkpt lat="38.83821122505225" lon="121.50531073946047">
        <ele>11.529611511155963</ele>
        <time>2025-06-21T16:03:07Z</time>
      </trkpt>
    </trkseg>
  </trk>
</gpx>