<?xml version="1.0" encoding="UTF-8"?>
<gpx xmlns="http://www.topografix.com/GPX/1/1" xmlns:gpxtpx="http://www.garmin.com/xmlschemas/TrackPointExtension/v1" xmlns:xsi="http://www.w3.org/2001/XMLSchema-instance" xsi:schemaLocation="http://www.topografix.com/GPX/1/1 http://www.topografix.com/GPX/1/1/gpx.xsd" version="1.1" creator="gpx.py -- https://github.com/tkrajina/gpxpy">
  <trk>
    <name>gpx from keep</name>
    <type>Run</type>
    <trkseg>
      <trkpt lat="38.83685231431137" lon="121.5046890932484">
        <ele>9.366576653143227</ele>
        <time>2026-07-18T01:40:22Z</time>
        <extensions>
          <gpxtpx:TrackPointExtension>
            <gpxtpx:hr>89</gpxtpx:hr>
          </gpxtpx:TrackPointExtension>
        </extensions>
      </trkpt>
      <trkpt lat="38.83669773294188" lon="121.50504614808285">
        <ele>9.383703700266778</ele>
        <time>2026-07-18T01:41:03Z</time>
      </trkpt>
      <trkpt lat="38.83664153028153" lon="121.50520619139124">
        <ele>9.48861278872937</ele>
        <time>2026-07-18T01:41:10Z</time>
      </trkpt>
      <trkpt lat="38.83666099847731" lon="121.50525917031895">
        <ele>9.912260898388922</ele>
        <time>2026-07-18T01:41:13Z</time>
      </trkpt>
      <trkpt lat="38.83657070970765" lon="121.50537562691032">
        <ele>10.101735573261976</ele>
        <time>2026-07-18T01:41:19Z</time>
      </trkpt>
      <trkpt lat="38.83655686627722" lon="121.5055026524571">
        <ele>8.846243355423212</ele>
        <time>2026-07-18T01:41:25Z</time>
        <extensions>
          <gpxtpx:TrackPointExtension>
            <gpxtpx:hr>107</gpxtpx:hr>
          </gpxtpx:TrackPointExtension>
        </extensions>
      </trkpt>
      <trkpt lat="38.83652670776298" lon="121.50555624209748">
        <ele>8.677585339173675</ele>
        <time>2026-07-18T01:41:40Z</time>
        <extensions>
          <gpxtpx:TrackPointExtension>
            <gpxtpx:hr>105</gpxtpx:hr>
          </gpxtpx:TrackPointExtension>
        </extensions>
      </trkpt>
      <trkpt lat="38.83641710649026" lon="121.50589556336017">
        <ele>9.417685208842158</ele>
        <time>2026-07-18T01:42:01Z</time>
        <extensions>
          <gpxtpx:TrackPointExtension>
            <gpxtpx:hr>101</gpxtpx:hr>
          </gpxtpx:TrackPointExtension>
        </extensions>
      </trkpt>
      <trkpt lat="38.83630941930805" lon="121.50625183835771">
        <ele>9.357429625466466</ele>
        <time>2026-07-18T01:42:16Z</time>
        <extensions>
          <gpxtpx:TrackPointExtension>
            <gpxtpx:hr>108</gpxtpx:hr>
          </gpxtpx:TrackPointExtension>
        </extensions>
      </trkpt>
      <trkpt lat="38.83620235112782" lon="121.5065347053255">
        <ele>9.012948201037943</ele>
        <time>2026-07-18T01:42:28Z</time>
        <extensions>
          <gpxtpx:TrackPointExtension>
            <gpxtpx:hr>110</gpxtpx:hr>
          </gpxtpx:TrackPointExtension>
        </extensions>
      </trkpt>
      <trkpt lat="38.83615204812147" lon="121.50674562969273">
        <ele>10.001876867376268</ele>
        <time>2026-07-18T01:42:36Z</time>
        <extensions>
          <gpxtpx:TrackPointExtension>
            <gpxtpx:hr>113</gpxtpx:hr>
          </gpxtpx:TrackPointExtension>
        </extensions>
      </trkpt>
      <trkpt lat="38.83622017674219" lon="121.50682672767225">
        <ele>9.940769232809544</ele>
        <time>2026-07-18T01:42:50Z</time>
        <extensions>
          <gpxtpx:TrackPointExtension>
            <gpxtpx:hr>113</gpxtpx:hr>
          </gpxtpx:TrackPointExtension>
        </extensions>
      </trkpt>
      <trkpt lat="38.83618950994346" lon="121.50677011539247">
        <ele>9.625200643204153</ele>
        <time>2026-07-18T01:42:56Z</time>
        <extensions>
          <gpxtpx:TrackPointExtension>
            <gpxtpx:hr>116</gpxtpx:hr>
          </gpxtpx:TrackPointExtension>
        </extensions>
      </trkpt>
      <trkpt lat="38.836137532818675" lon="121.50676697045908">
        <ele>10.69856950826943</ele>
        <time>2026-07-18T01:43:02Z</time>
        <extensions>
          <gpxtpx:TrackPointExtension>
            <gpxtpx:hr>110</gpxtpx:hr>
          </gpxtpx:TrackPointExtension>
        </extensions>
      </trkpt>
      <trkpt lat="38.83628110409821" lon="121.5068385924289">
        <ele>10.474210863932967</ele>
        <time>2026-07-18T01:43:23Z</time>
        <extensions>
          <gpxtpx:TrackPointExtension>
            <gpxtpx:hr>102</gpxtpx:hr>
          </gpxtpx:TrackPointExtension>
        </extensions>
      </trkpt>
      <trkpt lat="38.836308363011405" lon="121.50691052419734">
        <ele>9.537650043144822</ele>
        <time>2026-07-18T01:43:26Z</time>
        <extensions>
          <gpxtpx:TrackPointExtension>
            <gpxtpx:hr>99</gpxtpx:hr>
          </gpxtpx:TrackPointExtension>
        </extensions>
      </trkpt>
      <trkpt lat="38.836530714778604" lon="121.50704191752016">
        <ele>8.906175352633</ele>
        <time>2026-07-18T01:43:38Z</time>
        <extensions>
          <gpxtpx:TrackPointExtension>
            <gpxtpx:hr>101</gpxtpx:hr>
          </gpxtpx:TrackPointExtension>
        </extensions>
      </trkpt>
      <trkpt lat="38.836726732639164" lon="121.50721991627779">
        <ele>9.807217055931687</ele>
        <time>2026-07-18T01:43:50Z</time>
        <extensions>
          <gpxtpx:TrackPointExtension>
            <gpxtpx:hr>110</gpxtpx:hr>
          </gpxtpx:TrackPointExtension>
        </extensions>
      </trkpt>
      <trkpt lat="38.83683381411767" lon="121.50714295352721">
        <ele>11.461201574653387</ele>
        <time>2026-07-18T01:43:56Z</time>
        <extensions>
          <gpxtpx:TrackPointExtension>
            <gpxtpx:hr>113</gpxtpx:hr>
          </gpxtpx:TrackPointExtension>
        </extensions>
      </trkpt>
      <trkpt lat="38.83695293190414" lon="121.50696480229023">
        <ele>11.290766588412225</ele>
        <time>2026-07-18T01:44:05Z</time>
        <extensions>
          <gpxtpx:TrackPointExtension>
            <gpxtpx:hr>116</gpxtpx:hr>
          </gpxtpx:TrackPointExtension>
        </extensions>
      </trkpt>
      <trkpt lat="38.836970059392094" lon="121.5069013292153">
        <ele>10.67879398074001</ele>
        <time>2026-07-18T01:44:08Z</time>
        <extensions>
          <gpxtpx:TrackPointExtension>
            <gpxtpx:hr>119</gpxtpx:hr>
          </gpxtpx:TrackPointExtension>
        </extensions>
      </trkpt>
      <trkpt lat="38.83701458278984" lon="121.50684548846984">
        <ele>9.627762837335467</ele>
        <time>2026-07-18T01:44:11Z</time>
        <extensions>
          <gpxtpx:TrackPointExtension>
            <gpxtpx:hr>119</gpxtpx:hr>
          </gpxtpx:TrackPointExtension>
        </extensions>
      </trkpt>
      <trkpt lat="38.837177164340694" lon="121.50654252299667">
        <ele>10.535995781421661</ele>
        <time>2026-07-18T01:44:23Z</time>
        <extensions>
          <gpxtpx:TrackPointExtension>
            <gpxtpx:hr>127</gpxtpx:hr>
          </gpxtpx:TrackPointExtension>
        </extensions>
      </trkpt>
      <trkpt lat="38.83726413107862" lon="121.5064154960682">
        <ele>11.759931983426213</ele>
        <time>2026-07-18T01:44:29Z</time>
        <extensions>
          <gpxtpx:TrackPointExtension>
            <gpxtpx:hr>129</gpxtpx:hr>
          </gpxtpx:TrackPointExtension>
        </extensions>
      </trkpt>
      <trkpt lat="38.837332191197916" lon="121.5062621821447">
        <ele>11.728887727484107</ele>
        <time>2026-07-18T01:44:35Z</time>
        <extensions>
          <gpxtpx:TrackPointExtension>
            <gpxtpx:hr>130</gpxtpx:hr>
          </gpxtpx:TrackPointExtension>
        </extensions>
      </trkpt>
      <trkpt lat="38.83750021859714" lon="121.50601869083184">
        <ele>9.965995950624347</ele>
        <time>2026-07-18T01:44:47Z</time>
        <extensions>
          <gpxtpx:TrackPointExtension>
            <gpxtpx:hr>128</gpxtpx:hr>
          </gpxtpx:TrackPointExtension>
        </extensions>
      </trkpt>
      <trkpt lat="38.837512479882356" lon="121.50594258020323">
        <ele>9.482229759916663</ele>
        <time>2026-07-18T01:44:51Z</time>
        <extensions>
          <gpxtpx:TrackPointExtension>
            <gpxtpx:hr>128</gpxtpx:hr>
          </gpxtpx:TrackPointExtension>
        </extensions>
      </trkpt>
      <trkpt lat="38.83761163015444" lon="121.50575460081582">
        <ele>11.53592877369374</ele>
        <time>2026-07-18T01:44:58Z</time>
        <extensions>
          <gpxtpx:TrackPointExtension>
            <gpxtpx:hr>128</gpxtpx:hr>
          </gpxtpx:TrackPointExtension>
        </extensions>
      </trkpt>
      <trkpt lat="38.83771226930665" lon="121.50563179360938">
        <ele>10.334945018403232</ele>
        <time>2026-07-18T01:45:04Z</time>
        <extensions>
          <gpxtpx:TrackPointExtension>
            <gpxtpx:hr>128</gpxtpx:hr>
          </gpxtpx:TrackPointExtension>
        </extensions>
      </trkpt>
      <trkpt lat="38.83790970758166" lon="121.50529937963138">
        <ele>9.948724831454456</ele>
        <time>2026-07-18T01:45:19Z</time>
        <extensions>
          <gpxtpx:TrackPointExtension>
            <gpxtpx:hr>130</gpxtpx:hr>
          </gpxtpx:TrackPointExtension>
        </extensions>
      </trkpt>
      <trkpt lat="38.83791990109614" lon="121.50513963075652">
        <ele>9.598579545505345</ele>
        <time>2026-07-18T01:45:25Z</time>
        <extensions>
          <gpxtpx:TrackPointExtension>
            <gpxtpx:hr>130</gpxtpx:hr>
          </gpxtpx:TrackPointExtension>
        </extensions>
      </trkpt>
      <trkpt lat="38.8378264971042" lon="121.50496656166693">
        <ele>11.433773869648576</ele>
        <time>2026-07-18T01:45:34Z</time>
        <extensions>
          <gpxtpx:TrackPointExtension>
            <gpxtpx:hr>130</gpxtpx:hr>
          </gpxtpx:TrackPointExtension>
        </extensions>
      </trkpt>
      <trkpt lat="38.837625466774476" lon="121.5048251223097">
        <ele>10.449879441410303</ele>
        <time>2026-07-18T01:45:43Z</time>
        <extensions>
          <gpxtpx:TrackPointExtension>
            <gpxtpx:hr>130</gpxtpx:hr>
          </gpxtpx:TrackPointExtension>
        </extensions>
      </trkpt>
      <trkpt lat="38.837422623919636" lon="121.50461253918938">
        <ele>8.900333857163787</ele>
        <time>2026-07-18T01:45:55Z</time>
        <extensions>
          <gpxtpx:TrackPointExtension>
            <gpxtpx:hr>130</gpxtpx:hr>
          </gpxtpx:TrackPointExtension>
        </extensions>
      </trkpt>
      <trkpt lat="38.8373862254999" lon="121.50454537547273">
        <ele>8.746474304236472</ele>
        <time>2026-07-18T01:45:58Z</time>
        <extensions>
          <gpxtpx:TrackPointExtension>
            <gpxtpx:hr>130</gpxtpx:hr>
          </gpxtpx:TrackPointExtension>
        </extensions>
      </trkpt>
      <trkpt lat="38.837271669587714" lon="121.50444884326146">
        <ele>8.207267995923758</ele>
        <time>2026-07-18T01:46:04Z</time>
        <extensions>
          <gpxtpx:TrackPointExtension>
            <gpxtpx:hr>132</gpxtpx:hr>
          </gpxtpx:TrackPointExtension>
        </extensions>
      </trkpt>
      <trkpt lat="38.83723202578436" lon="121.50439354200363">
        <ele>8.296086557209492</ele>
        <time>2026-07-18T01:46:07Z</time>
        <extensions>
          <gpxtpx:TrackPointExtension>
            <gpxtpx:hr>132</gpxtpx:hr>
          </gpxtpx:TrackPointExtension>
        </extensions>
      </trkpt>
      <trkpt lat="38.83705250197167" lon="121.50429039383042">
        <ele>8.554662444628775</ele>
        <time>2026-07-18T01:46:16Z</time>
        <extensions>
          <gpxtpx:TrackPointExtension>
            <gpxtpx:hr>132</gpxtpx:hr>
          </gpxtpx:TrackPointExtension>
        </extensions>
      </trkpt>
      <trkpt lat="38.83699303285222" lon="121.50429674146285">
        <ele>8.565272584557533</ele>
        <time>2026-07-18T01:46:19Z</time>
        <extensions>
          <gpxtpx:TrackPointExtension>
            <gpxtpx:hr>132</gpxtpx:hr>
          </gpxtpx:TrackPointExtension>
        </extensions>
      </trkpt>
      <trkpt lat="38.83693657501864" lon="121.50436955706878">
        <ele>9.900696858763695</ele>
        <time>2026-07-18T01:46:22Z</time>
        <extensions>
          <gpxtpx:TrackPointExtension>
            <gpxtpx:hr>132</gpxtpx:hr>
          </gpxtpx:TrackPointExtension>
        </extensions>
      </trkpt>
      <trkpt lat="38.83687250755236" lon="121.50454318958076">
        <ele>9.058862086385489</ele>
        <time>2026-07-18T01:46:37Z</time>
        <extensions>
          <gpxtpx:TrackPointExtension>
            <gpxtpx:hr>131</gpxtpx:hr>
          </gpxtpx:TrackPointExtension>
        </extensions>
      </trkpt>
      <trkpt lat="38.836870678377224" lon="121.50460799655316">
        <ele>9.474706621840596</ele>
        <time>2026-07-18T01:46:40Z</time>
        <extensions>
          <gpxtpx:TrackPointExtension>
            <gpxtpx:hr>131</gpxtpx:hr>
          </gpxtpx:TrackPointExtension>
        </extensions>
      </trkpt>
      <trkpt lat="38.836813471697276" lon="121.50471129818114">
        <ele>8.618127851746976</ele>
        <time>2026-07-18T01:46:44Z</time>
        <extensions>
          <gpxtpx:TrackPointExtension>
            <gpxtpx:hr>129</gpxtpx:hr>
          </gpxtpx:TrackPointExtension>
        </extensions>
      </trkpt>
      <trkpt lat="38.83679571023513" lon="121.50479748932521">
        <ele>8.734495773911476</ele>
        <time>2026-07-18T01:46:48Z</time>
        <extensions>
          <gpxtpx:TrackPointExtension>
            <gpxtpx:hr>129</gpxtpx:hr>
          </gpxtpx:TrackPointExtension>
        </extensions>
      </trkpt>
      <trkpt lat="38.8366673387367" lon="121.50512590317499">
        <ele>9.408613240346313</ele>
        <time>2026-07-18T01:47:06Z</time>
        <extensions>
          <gpxtpx:TrackPointExtension>
            <gpxtpx:hr>129</gpxtpx:hr>
          </gpxtpx:TrackPointExtension>
        </extensions>
      </trkpt>
      <trkpt lat="38.836563244399706" lon="121.50542950208411">
        <ele>9.273728417232633</ele>
        <time>2026-07-18T01:47:18Z</time>
        <extensions>
          <gpxtpx:TrackPointExtension>
            <gpxtpx:hr>129</gpxtpx:hr>
          </gpxtpx:TrackPointExtension>
        </extensions>
      </trkpt>
      <trkpt lat="38.83655455966352" lon="121.50552875486375">
        <ele>8.386745458468795</ele>
        <time>2026-07-18T01:47:21Z</time>
        <extensions>
          <gpxtpx:TrackPointExtension>
            <gpxtpx:hr>130</gpxtpx:hr>
          </gpxtpx:TrackPointExtension>
        </extensions>
      </trkpt>
      <trkpt lat="38.83651214004364" lon="121.50560802074304">
        <ele>8.480263420380652</ele>
        <time>2026-07-18T01:47:24Z</time>
        <extensions>
          <gpxtpx:TrackPointExtension>
            <gpxtpx:hr>130</gpxtpx:hr>
          </gpxtpx:TrackPointExtension>
        </extensions>
      </trkpt>
      <trkpt lat="38.83640010739315" lon="121.50595173153565">
        <ele>9.39732501655817</ele>
        <time>2026-07-18T01:47:36Z</time>
        <extensions>
          <gpxtpx:TrackPointExtension>
            <gpxtpx:hr>136</gpxtpx:hr>
          </gpxtpx:TrackPointExtension>
        </extensions>
      </trkpt>
      <trkpt lat="38.83628252369626" lon="121.50630643412492">
        <ele>9.732037394307554</ele>
        <time>2026-07-18T01:47:48Z</time>
        <extensions>
          <gpxtpx:TrackPointExtension>
            <gpxtpx:hr>141</gpxtpx:hr>
          </gpxtpx:TrackPointExtension>
        </extensions>
      </trkpt>
      <trkpt lat="38.8362672896435" lon="121.50639217281113">
        <ele>9.572585274465382</ele>
        <time>2026-07-18T01:47:51Z</time>
        <extensions>
          <gpxtpx:TrackPointExtension>
            <gpxtpx:hr>141</gpxtpx:hr>
          </gpxtpx:TrackPointExtension>
        </extensions>
      </trkpt>
      <trkpt lat="38.83617695927619" lon="121.50665154342305">
        <ele>10.201262162066996</ele>
        <time>2026-07-18T01:48:00Z</time>
        <extensions>
          <gpxtpx:TrackPointExtension>
            <gpxtpx:hr>142</gpxtpx:hr>
          </gpxtpx:TrackPointExtension>
        </extensions>
      </trkpt>
      <trkpt lat="38.83616339443474" lon="121.50675109742171">
        <ele>9.580343078821898</ele>
        <time>2026-07-18T01:48:03Z</time>
        <extensions>
          <gpxtpx:TrackPointExtension>
            <gpxtpx:hr>141</gpxtpx:hr>
          </gpxtpx:TrackPointExtension>
        </extensions>
      </trkpt>
      <trkpt lat="38.83621869568115" lon="121.5068135032962">
        <ele>8.623818839900196</ele>
        <time>2026-07-18T01:48:06Z</time>
        <extensions>
          <gpxtpx:TrackPointExtension>
            <gpxtpx:hr>141</gpxtpx:hr>
          </gpxtpx:TrackPointExtension>
        </extensions>
      </trkpt>
      <trkpt lat="38.83628623217546" lon="121.50683006470366">
        <ele>10.049999774433672</ele>
        <time>2026-07-18T01:48:09Z</time>
        <extensions>
          <gpxtpx:TrackPointExtension>
            <gpxtpx:hr>141</gpxtpx:hr>
          </gpxtpx:TrackPointExtension>
        </extensions>
      </trkpt>
      <trkpt lat="38.836521635668504" lon="121.5070378389552">
        <ele>9.628588270395994</ele>
        <time>2026-07-18T01:48:21Z</time>
        <extensions>
          <gpxtpx:TrackPointExtension>
            <gpxtpx:hr>141</gpxtpx:hr>
          </gpxtpx:TrackPointExtension>
        </extensions>
      </trkpt>
      <trkpt lat="38.83656044970831" lon="121.507099026162">
        <ele>9.419388610869646</ele>
        <time>2026-07-18T01:48:24Z</time>
        <extensions>
          <gpxtpx:TrackPointExtension>
            <gpxtpx:hr>141</gpxtpx:hr>
          </gpxtpx:TrackPointExtension>
        </extensions>
      </trkpt>
      <trkpt lat="38.83668609263255" lon="121.50718369812046">
        <ele>9.841250183992088</ele>
        <time>2026-07-18T01:48:30Z</time>
        <extensions>
          <gpxtpx:TrackPointExtension>
            <gpxtpx:hr>141</gpxtpx:hr>
          </gpxtpx:TrackPointExtension>
        </extensions>
      </trkpt>
      <trkpt lat="38.83676548732667" lon="121.50719420925846">
        <ele>10.678955043666065</ele>
        <time>2026-07-18T01:48:33Z</time>
        <extensions>
          <gpxtpx:TrackPointExtension>
            <gpxtpx:hr>147</gpxtpx:hr>
          </gpxtpx:TrackPointExtension>
        </extensions>
      </trkpt>
      <trkpt lat="38.83684130852801" lon="121.50714446174784">
        <ele>11.069972122088075</ele>
        <time>2026-07-18T01:48:36Z</time>
        <extensions>
          <gpxtpx:TrackPointExtension>
            <gpxtpx:hr>147</gpxtpx:hr>
          </gpxtpx:TrackPointExtension>
        </extensions>
      </trkpt>
      <trkpt lat="38.83694574426643" lon="121.50692779586133">
        <ele>10.293377033434808</ele>
        <time>2026-07-18T01:48:45Z</time>
        <extensions>
          <gpxtpx:TrackPointExtension>
            <gpxtpx:hr>147</gpxtpx:hr>
          </gpxtpx:TrackPointExtension>
        </extensions>
      </trkpt>
      <trkpt lat="38.83705831686977" lon="121.506736125653">
        <ele>10.944143272005022</ele>
        <time>2026-07-18T01:48:53Z</time>
        <extensions>
          <gpxtpx:TrackPointExtension>
            <gpxtpx:hr>148</gpxtpx:hr>
          </gpxtpx:TrackPointExtension>
        </extensions>
      </trkpt>
      <trkpt lat="38.83712628580867" lon="121.50665784757616">
        <ele>10.708032418042421</ele>
        <time>2026-07-18T01:48:57Z</time>
        <extensions>
          <gpxtpx:TrackPointExtension>
            <gpxtpx:hr>148</gpxtpx:hr>
          </gpxtpx:TrackPointExtension>
        </extensions>
      </trkpt>
      <trkpt lat="38.837276740777085" lon="121.50633602424983">
        <ele>11.708849935792387</ele>
        <time>2026-07-18T01:49:10Z</time>
        <extensions>
          <gpxtpx:TrackPointExtension>
            <gpxtpx:hr>149</gpxtpx:hr>
          </gpxtpx:TrackPointExtension>
        </extensions>
      </trkpt>
      <trkpt lat="38.8373424123401" lon="121.5062580503493">
        <ele>12.036517423577607</ele>
        <time>2026-07-18T01:49:13Z</time>
        <extensions>
          <gpxtpx:TrackPointExtension>
            <gpxtpx:hr>149</gpxtpx:hr>
          </gpxtpx:TrackPointExtension>
        </extensions>
      </trkpt>
      <trkpt lat="38.83741100578585" lon="121.50611816942028">
        <ele>10.31758538261056</ele>
        <time>2026-07-18T01:49:19Z</time>
        <extensions>
          <gpxtpx:TrackPointExtension>
            <gpxtpx:hr>149</gpxtpx:hr>
          </gpxtpx:TrackPointExtension>
        </extensions>
      </trkpt>
      <trkpt lat="38.83750046835241" lon="121.50598438248339">
        <ele>9.594986081123352</ele>
        <time>2026-07-18T01:49:25Z</time>
        <extensions>
          <gpxtpx:TrackPointExtension>
            <gpxtpx:hr>149</gpxtpx:hr>
          </gpxtpx:TrackPointExtension>
        </extensions>
      </trkpt>
      <trkpt lat="38.837660633845836" lon="121.50566875353577">
        <ele>10.012394617311656</ele>
        <time>2026-07-18T01:49:37Z</time>
        <extensions>
          <gpxtpx:TrackPointExtension>
            <gpxtpx:hr>151</gpxtpx:hr>
          </gpxtpx:TrackPointExtension>
        </extensions>
      </trkpt>
      <trkpt lat="38.83786017951993" lon="121.50539262815938">
        <ele>10.85361351352185</ele>
        <time>2026-07-18T01:49:49Z</time>
        <extensions>
          <gpxtpx:TrackPointExtension>
            <gpxtpx:hr>149</gpxtpx:hr>
          </gpxtpx:TrackPointExtension>
        </extensions>
      </trkpt>
      <trkpt lat="38.837942337396186" lon="121.50522190162458">
        <ele>10.37475672736764</ele>
        <time>2026-07-18T01:49:55Z</time>
        <extensions>
          <gpxtpx:TrackPointExtension>
            <gpxtpx:hr>149</gpxtpx:hr>
          </gpxtpx:TrackPointExtension>
        </extensions>
      </trkpt>
      <trkpt lat="38.83791767341742" lon="121.50511652082412">
        <ele>8.979904148727655</ele>
        <time>2026-07-18T01:49:58Z</time>
        <extensions>
          <gpxtpx:TrackPointExtension>
            <gpxtpx:hr>151</gpxtpx:hr>
          </gpxtpx:TrackPointExtension>
        </extensions>
      </trkpt>
      <trkpt lat="38.83786455694582" lon="121.50503912083957">
        <ele>9.87026751972735</ele>
        <time>2026-07-18T01:50:01Z</time>
        <extensions>
          <gpxtpx:TrackPointExtension>
            <gpxtpx:hr>151</gpxtpx:hr>
          </gpxtpx:TrackPointExtension>
        </extensions>
      </trkpt>
      <trkpt lat="38.83781875253988" lon="121.50501151892408">
        <ele>10.050859160721302</ele>
        <time>2026-07-18T01:50:04Z</time>
        <extensions>
          <gpxtpx:TrackPointExtension>
            <gpxtpx:hr>151</gpxtpx:hr>
          </gpxtpx:TrackPointExtension>
        </extensions>
      </trkpt>
      <trkpt lat="38.83777410541037" lon="121.50492093331951">
        <ele>10.286348497495055</ele>
        <time>2026-07-18T01:50:07Z</time>
        <extensions>
          <gpxtpx:TrackPointExtension>
            <gpxtpx:hr>151</gpxtpx:hr>
          </gpxtpx:TrackPointExtension>
        </extensions>
      </trkpt>
      <trkpt lat="38.83765284776726" lon="121.50482081408245">
        <ele>9.475860890001059</ele>
        <time>2026-07-18T01:50:13Z</time>
        <extensions>
          <gpxtpx:TrackPointExtension>
            <gpxtpx:hr>152</gpxtpx:hr>
          </gpxtpx:TrackPointExtension>
        </extensions>
      </trkpt>
      <trkpt lat="38.8375797663702" lon="121.50478447551315">
        <ele>9.300638683140278</ele>
        <time>2026-07-18T01:50:16Z</time>
        <extensions>
          <gpxtpx:TrackPointExtension>
            <gpxtpx:hr>152</gpxtpx:hr>
          </gpxtpx:TrackPointExtension>
        </extensions>
      </trkpt>
      <trkpt lat="38.83752808993099" lon="121.50470594330723">
        <ele>9.161150640808046</ele>
        <time>2026-07-18T01:50:19Z</time>
        <extensions>
          <gpxtpx:TrackPointExtension>
            <gpxtpx:hr>152</gpxtpx:hr>
          </gpxtpx:TrackPointExtension>
        </extensions>
      </trkpt>
      <trkpt lat="38.83739563019147" lon="121.5046104838026">
        <ele>8.235179331153631</ele>
        <time>2026-07-18T01:50:25Z</time>
        <extensions>
          <gpxtpx:TrackPointExtension>
            <gpxtpx:hr>152</gpxtpx:hr>
          </gpxtpx:TrackPointExtension>
        </extensions>
      </trkpt>
      <trkpt lat="38.83735759637208" lon="121.50453300792894">
        <ele>8.702879330143332</ele>
        <time>2026-07-18T01:50:28Z</time>
        <extensions>
          <gpxtpx:TrackPointExtension>
            <gpxtpx:hr>151</gpxtpx:hr>
          </gpxtpx:TrackPointExtension>
        </extensions>
      </trkpt>
      <trkpt lat="38.83709729787783" lon="121.50431819059565">
        <ele>9.7515606014058</ele>
        <time>2026-07-18T01:50:40Z</time>
        <extensions>
          <gpxtpx:TrackPointExtension>
            <gpxtpx:hr>153</gpxtpx:hr>
          </gpxtpx:TrackPointExtension>
        </extensions>
      </trkpt>
      <trkpt lat="38.836957770930645" lon="121.5043075250486">
        <ele>10.276726445183158</ele>
        <time>2026-07-18T01:50:46Z</time>
        <extensions>
          <gpxtpx:TrackPointExtension>
            <gpxtpx:hr>154</gpxtpx:hr>
          </gpxtpx:TrackPointExtension>
        </extensions>
      </trkpt>
      <trkpt lat="38.836801844247944" lon="121.50468711526915">
        <ele>9.718748468905687</ele>
        <time>2026-07-18T01:51:00Z</time>
        <extensions>
          <gpxtpx:TrackPointExtension>
            <gpxtpx:hr>152</gpxtpx:hr>
          </gpxtpx:TrackPointExtension>
        </extensions>
      </trkpt>
      <trkpt lat="38.836773639468134" lon="121.50482842198024">
        <ele>9.618522872217</ele>
        <time>2026-07-18T01:51:04Z</time>
        <extensions>
          <gpxtpx:TrackPointExtension>
            <gpxtpx:hr>152</gpxtpx:hr>
          </gpxtpx:TrackPointExtension>
        </extensions>
      </trkpt>
      <trkpt lat="38.8367281372615" lon="121.50492410965752">
        <ele>9.896142814308405</ele>
        <time>2026-07-18T01:51:08Z</time>
        <extensions>
          <gpxtpx:TrackPointExtension>
            <gpxtpx:hr>152</gpxtpx:hr>
          </gpxtpx:TrackPointExtension>
        </extensions>
      </trkpt>
      <trkpt lat="38.83671042723617" lon="121.50504486150182">
        <ele>9.8081971174106</ele>
        <time>2026-07-18T01:51:12Z</time>
        <extensions>
          <gpxtpx:TrackPointExtension>
            <gpxtpx:hr>154</gpxtpx:hr>
          </gpxtpx:TrackPointExtension>
        </extensions>
      </trkpt>
      <trkpt lat="38.83666034730715" lon="121.5052278808327">
        <ele>10.036947155371308</ele>
        <time>2026-07-18T01:51:18Z</time>
        <extensions>
          <gpxtpx:TrackPointExtension>
            <gpxtpx:hr>155</gpxtpx:hr>
          </gpxtpx:TrackPointExtension>
        </extensions>
      </trkpt>
      <trkpt lat="38.83659819442161" lon="121.5053081520793">
        <ele>9.348490400239825</ele>
        <time>2026-07-18T01:51:21Z</time>
        <extensions>
          <gpxtpx:TrackPointExtension>
            <gpxtpx:hr>155</gpxtpx:hr>
          </gpxtpx:TrackPointExtension>
        </extensions>
      </trkpt>
      <trkpt lat="38.83658283677245" lon="121.50540548503531">
        <ele>9.976512513123453</ele>
        <time>2026-07-18T01:51:24Z</time>
        <extensions>
          <gpxtpx:TrackPointExtension>
            <gpxtpx:hr>155</gpxtpx:hr>
          </gpxtpx:TrackPointExtension>
        </extensions>
      </trkpt>
      <trkpt lat="38.836474400289895" lon="121.50576258781025">
        <ele>9.185420329682529</ele>
        <time>2026-07-18T01:51:36Z</time>
        <extensions>
          <gpxtpx:TrackPointExtension>
            <gpxtpx:hr>155</gpxtpx:hr>
          </gpxtpx:TrackPointExtension>
        </extensions>
      </trkpt>
      <trkpt lat="38.8364196523851" lon="121.50584934226424">
        <ele>9.956351711414754</ele>
        <time>2026-07-18T01:51:39Z</time>
        <extensions>
          <gpxtpx:TrackPointExtension>
            <gpxtpx:hr>155</gpxtpx:hr>
          </gpxtpx:TrackPointExtension>
        </extensions>
      </trkpt>
      <trkpt lat="38.83631554732094" lon="121.50621715944288">
        <ele>10.71531181037426</ele>
        <time>2026-07-18T01:51:51Z</time>
        <extensions>
          <gpxtpx:TrackPointExtension>
            <gpxtpx:hr>157</gpxtpx:hr>
          </gpxtpx:TrackPointExtension>
        </extensions>
      </trkpt>
      <trkpt lat="38.83624779351404" lon="121.5063900166538">
        <ele>8.82707819994539</ele>
        <time>2026-07-18T01:51:57Z</time>
        <extensions>
          <gpxtpx:TrackPointExtension>
            <gpxtpx:hr>159</gpxtpx:hr>
          </gpxtpx:TrackPointExtension>
        </extensions>
      </trkpt>
      <trkpt lat="38.83617066188921" lon="121.50664372845453">
        <ele>8.919371084310114</ele>
        <time>2026-07-18T01:52:06Z</time>
        <extensions>
          <gpxtpx:TrackPointExtension>
            <gpxtpx:hr>158</gpxtpx:hr>
          </gpxtpx:TrackPointExtension>
        </extensions>
      </trkpt>
      <trkpt lat="38.83615946561137" lon="121.50674325408866">
        <ele>8.53008258715272</ele>
        <time>2026-07-18T01:52:09Z</time>
        <extensions>
          <gpxtpx:TrackPointExtension>
            <gpxtpx:hr>158</gpxtpx:hr>
          </gpxtpx:TrackPointExtension>
        </extensions>
      </trkpt>
      <trkpt lat="38.8364191661259" lon="121.50697056104227">
        <ele>9.565577471628785</ele>
        <time>2026-07-18T01:52:21Z</time>
        <extensions>
          <gpxtpx:TrackPointExtension>
            <gpxtpx:hr>160</gpxtpx:hr>
          </gpxtpx:TrackPointExtension>
        </extensions>
      </trkpt>
      <trkpt lat="38.83667902963657" lon="121.50718414308055">
        <ele>9.669106356799603</ele>
        <time>2026-07-18T01:52:33Z</time>
        <extensions>
          <gpxtpx:TrackPointExtension>
            <gpxtpx:hr>159</gpxtpx:hr>
          </gpxtpx:TrackPointExtension>
        </extensions>
      </trkpt>
      <trkpt lat="38.83674811629013" lon="121.5072119491673">
        <ele>10.138134217821062</ele>
        <time>2026-07-18T01:52:36Z</time>
        <extensions>
          <gpxtpx:TrackPointExtension>
            <gpxtpx:hr>159</gpxtpx:hr>
          </gpxtpx:TrackPointExtension>
        </extensions>
      </trkpt>
      <trkpt lat="38.83685121229583" lon="121.50713451476419">
        <ele>10.29683140385896</ele>
        <time>2026-07-18T01:52:42Z</time>
        <extensions>
          <gpxtpx:TrackPointExtension>
            <gpxtpx:hr>159</gpxtpx:hr>
          </gpxtpx:TrackPointExtension>
        </extensions>
      </trkpt>
      <trkpt lat="38.83691085230384" lon="121.5070552874507">
        <ele>9.025797991082072</ele>
        <time>2026-07-18T01:52:54Z</time>
        <extensions>
          <gpxtpx:TrackPointExtension>
            <gpxtpx:hr>150</gpxtpx:hr>
          </gpxtpx:TrackPointExtension>
        </extensions>
      </trkpt>
      <trkpt lat="38.83701971180014" lon="121.50681396093194">
        <ele>9.07825590018183</ele>
        <time>2026-07-18T01:53:05Z</time>
        <extensions>
          <gpxtpx:TrackPointExtension>
            <gpxtpx:hr>150</gpxtpx:hr>
          </gpxtpx:TrackPointExtension>
        </extensions>
      </trkpt>
      <trkpt lat="38.837094438531736" lon="121.50671183932612">
        <ele>8.273488747887313</ele>
        <time>2026-07-18T01:53:09Z</time>
        <extensions>
          <gpxtpx:TrackPointExtension>
            <gpxtpx:hr>150</gpxtpx:hr>
          </gpxtpx:TrackPointExtension>
        </extensions>
      </trkpt>
      <trkpt lat="38.837292130665894" lon="121.50634483262029">
        <ele>9.092086724936962</ele>
        <time>2026-07-18T01:53:22Z</time>
        <extensions>
          <gpxtpx:TrackPointExtension>
            <gpxtpx:hr>155</gpxtpx:hr>
          </gpxtpx:TrackPointExtension>
        </extensions>
      </trkpt>
      <trkpt lat="38.83745716121528" lon="121.50603193680567">
        <ele>10.27294607553631</ele>
        <time>2026-07-18T01:53:34Z</time>
        <extensions>
          <gpxtpx:TrackPointExtension>
            <gpxtpx:hr>157</gpxtpx:hr>
          </gpxtpx:TrackPointExtension>
        </extensions>
      </trkpt>
      <trkpt lat="38.83766272203515" lon="121.50568591886692">
        <ele>10.607509869150817</ele>
        <time>2026-07-18T01:53:46Z</time>
        <extensions>
          <gpxtpx:TrackPointExtension>
            <gpxtpx:hr>161</gpxtpx:hr>
          </gpxtpx:TrackPointExtension>
        </extensions>
      </trkpt>
      <trkpt lat="38.83770763667827" lon="121.5055982485443">
        <ele>10.794085981324315</ele>
        <time>2026-07-18T01:53:49Z</time>
        <extensions>
          <gpxtpx:TrackPointExtension>
            <gpxtpx:hr>161</gpxtpx:hr>
          </gpxtpx:TrackPointExtension>
        </extensions>
      </trkpt>
      <trkpt lat="38.83778986464863" lon="121.50549640250495">
        <ele>10.053308157250285</ele>
        <time>2026-07-18T01:53:53Z</time>
        <extensions>
          <gpxtpx:TrackPointExtension>
            <gpxtpx:hr>161</gpxtpx:hr>
          </gpxtpx:TrackPointExtension>
        </extensions>
      </trkpt>
      <trkpt lat="38.837817428194306" lon="121.50540585589083">
        <ele>9.015307230874896</ele>
        <time>2026-07-18T01:53:56Z</time>
        <extensions>
          <gpxtpx:TrackPointExtension>
            <gpxtpx:hr>161</gpxtpx:hr>
          </gpxtpx:TrackPointExtension>
        </extensions>
      </trkpt>
      <trkpt lat="38.83787553160638" lon="121.50531825381609">
        <ele>10.117864970117807</ele>
        <time>2026-07-18T01:53:59Z</time>
        <extensions>
          <gpxtpx:TrackPointExtension>
            <gpxtpx:hr>161</gpxtpx:hr>
          </gpxtpx:TrackPointExtension>
        </extensions>
      </trkpt>
      <trkpt lat="38.837933981057596" lon="121.50514766991276">
        <ele>9.1002859165892</ele>
        <time>2026-07-18T01:54:05Z</time>
        <extensions>
          <gpxtpx:TrackPointExtension>
            <gpxtpx:hr>161</gpxtpx:hr>
          </gpxtpx:TrackPointExtension>
        </extensions>
      </trkpt>
      <trkpt lat="38.83782196430127" lon="121.50495260296414">
        <ele>10.589555802755058</ele>
        <time>2026-07-18T01:54:17Z</time>
        <extensions>
          <gpxtpx:TrackPointExtension>
            <gpxtpx:hr>163</gpxtpx:hr>
          </gpxtpx:TrackPointExtension>
        </extensions>
      </trkpt>
      <trkpt lat="38.83768688042925" lon="121.50487896077887">
        <ele>8.659644171595573</ele>
        <time>2026-07-18T01:54:23Z</time>
        <extensions>
          <gpxtpx:TrackPointExtension>
            <gpxtpx:hr>161</gpxtpx:hr>
          </gpxtpx:TrackPointExtension>
        </extensions>
      </trkpt>
      <trkpt lat="38.837564257829634" lon="121.5047376500813">
        <ele>9.300534398294985</ele>
        <time>2026-07-18T01:54:29Z</time>
        <extensions>
          <gpxtpx:TrackPointExtension>
            <gpxtpx:hr>161</gpxtpx:hr>
          </gpxtpx:TrackPointExtension>
        </extensions>
      </trkpt>
      <trkpt lat="38.837314105099416" lon="121.50450679803062">
        <ele>9.386598955839872</ele>
        <time>2026-07-18T01:54:41Z</time>
        <extensions>
          <gpxtpx:TrackPointExtension>
            <gpxtpx:hr>161</gpxtpx:hr>
          </gpxtpx:TrackPointExtension>
        </extensions>
      </trkpt>
      <trkpt lat="38.83706878051043" lon="121.50429733972588">
        <ele>9.594002592377365</ele>
        <time>2026-07-18T01:54:53Z</time>
        <extensions>
          <gpxtpx:TrackPointExtension>
            <gpxtpx:hr>161</gpxtpx:hr>
          </gpxtpx:TrackPointExtension>
        </extensions>
      </trkpt>
      <trkpt lat="38.83698899734987" lon="121.50429492699587">
        <ele>9.833062552846968</ele>
        <time>2026-07-18T01:54:56Z</time>
        <extensions>
          <gpxtpx:TrackPointExtension>
            <gpxtpx:hr>161</gpxtpx:hr>
          </gpxtpx:TrackPointExtension>
        </extensions>
      </trkpt>
      <trkpt lat="38.83693079152553" lon="121.50432788644594">
        <ele>10.574353744275868</ele>
        <time>2026-07-18T01:54:59Z</time>
        <extensions>
          <gpxtpx:TrackPointExtension>
            <gpxtpx:hr>160</gpxtpx:hr>
          </gpxtpx:TrackPointExtension>
        </extensions>
      </trkpt>
      <trkpt lat="38.83686727871082" lon="121.5044953409135">
        <ele>9.77459539566189</ele>
        <time>2026-07-18T01:55:05Z</time>
        <extensions>
          <gpxtpx:TrackPointExtension>
            <gpxtpx:hr>160</gpxtpx:hr>
          </gpxtpx:TrackPointExtension>
        </extensions>
      </trkpt>
      <trkpt lat="38.836859130340365" lon="121.50458508076821">
        <ele>9.481810711324215</ele>
        <time>2026-07-18T01:55:09Z</time>
        <extensions>
          <gpxtpx:TrackPointExtension>
            <gpxtpx:hr>160</gpxtpx:hr>
          </gpxtpx:TrackPointExtension>
        </extensions>
      </trkpt>
      <trkpt lat="38.836859130340365" lon="121.50458508076821">
        <ele>9.481810711324215</ele>
        <time>2026-07-18T01:55:11Z</time>
        <extensions>
          <gpxtpx:TrackPointExtension>
            <gpxtpx:hr>160</gpxtpx:hr>
          </gpxtpx:TrackPointExtension>
        </extensions>
      </trkpt>
    </trkseg>
  </trk>
</gpx>