<?xml version="1.0" encoding="UTF-8"?>
<gpx xmlns="http://www.topografix.com/GPX/1/1" xmlns:gpxtpx="http://www.garmin.com/xmlschemas/TrackPointExtension/v1" xmlns:xsi="http://www.w3.org/2001/XMLSchema-instance" xsi:schemaLocation="http://www.topografix.com/GPX/1/1 http://www.topografix.com/GPX/1/1/gpx.xsd" version="1.1" creator="gpx.py -- https://github.com/tkrajina/gpxpy">
  <trk>
    <name>gpx from keep</name>
    <type>Run</type>
    <trkseg>
      <trkpt lat="38.83277107495721" lon="121.50848226987672">
        <ele>6.824088676832616</ele>
        <time>2024-09-09T23:23:59Z</time>
      </trkpt>
      <trkpt lat="38.83259843203449" lon="121.50861633517314">
        <ele>4.542533866129816</ele>
        <time>2024-09-09T23:24:07Z</time>
      </trkpt>
      <trkpt lat="38.83250532848191" lon="121.50866439697937">
        <ele>3.629456700757146</ele>
        <time>2024-09-09T23:24:11Z</time>
      </trkpt>
      <trkpt lat="38.832321268151105" lon="121.50865805831762">
        <ele>3.458075943402946</ele>
        <time>2024-09-09T23:24:19Z</time>
      </trkpt>
      <trkpt lat="38.83214314307289" lon="121.50858986129815">
        <ele>2.9849851010367274</ele>
        <time>2024-09-09T23:24:27Z</time>
      </trkpt>
      <trkpt lat="38.831979061579055" lon="121.50847097393074">
        <ele>4.119147181510925</ele>
        <time>2024-09-09T23:24:35Z</time>
      </trkpt>
      <trkpt lat="38.83186347902055" lon="121.50830195347729">
        <ele>3.8706140937283635</ele>
        <time>2024-09-09T23:24:43Z</time>
      </trkpt>
      <trkpt lat="38.831775777111986" lon="121.50810369179553">
        <ele>4.3311275178566575</ele>
        <time>2024-09-09T23:24:51Z</time>
      </trkpt>
      <trkpt lat="38.83165113099135" lon="121.507921218134">
        <ele>4.310854221694171</ele>
        <time>2024-09-09T23:24:59Z</time>
      </trkpt>
      <trkpt lat="38.83149088197624" lon="121.50779303502594">
        <ele>4.511481162160635</ele>
        <time>2024-09-09T23:25:07Z</time>
      </trkpt>
      <trkpt lat="38.83123269614527" lon="121.50773964997198">
        <ele>4.27790049277246</ele>
        <time>2024-09-09T23:25:19Z</time>
      </trkpt>
      <trkpt lat="38.83113415328968" lon="121.50776769531076">
        <ele>3.7425287198275328</ele>
        <time>2024-09-09T23:25:23Z</time>
      </trkpt>
      <trkpt lat="38.830952082461344" lon="121.50778185420803">
        <ele>4.508864115923643</ele>
        <time>2024-09-09T23:25:31Z</time>
      </trkpt>
      <trkpt lat="38.83061955968674" lon="121.50765645294119">
        <ele>4.7531176982447505</ele>
        <time>2024-09-09T23:25:47Z</time>
      </trkpt>
      <trkpt lat="38.83050809424725" lon="121.50756465907124">
        <ele>4.549680655822158</ele>
        <time>2024-09-09T23:25:53Z</time>
      </trkpt>
      <trkpt lat="38.830363220783674" lon="121.50735845698578">
        <ele>4.505477694794536</ele>
        <time>2024-09-09T23:26:03Z</time>
      </trkpt>
      <trkpt lat="38.830239484371496" lon="121.50705274348816">
        <ele>5.573395814746618</ele>
        <time>2024-09-09T23:26:15Z</time>
      </trkpt>
      <trkpt lat="38.83017769824733" lon="121.50683786067555">
        <ele>5.256114225834608</ele>
        <time>2024-09-09T23:26:23Z</time>
      </trkpt>
      <trkpt lat="38.830128269418765" lon="121.50674413689187">
        <ele>5.65722207352519</ele>
        <time>2024-09-09T23:26:27Z</time>
      </trkpt>
      <trkpt lat="38.830046745175174" lon="121.50670528853887">
        <ele>4.91874888818711</ele>
        <time>2024-09-09T23:26:31Z</time>
      </trkpt>
      <trkpt lat="38.82979314366606" lon="121.50657706051122">
        <ele>4.741014984436333</ele>
        <time>2024-09-09T23:26:43Z</time>
      </trkpt>
      <trkpt lat="38.829526033273" lon="121.50631947569862">
        <ele>5.300314240157604</ele>
        <time>2024-09-09T23:26:59Z</time>
      </trkpt>
      <trkpt lat="38.829396601000724" lon="121.5061570939379">
        <ele>4.70366071537137</ele>
        <time>2024-09-09T23:27:07Z</time>
      </trkpt>
      <trkpt lat="38.82925051871575" lon="121.50603436725864">
        <ele>5.245169670321047</ele>
        <time>2024-09-09T23:27:15Z</time>
      </trkpt>
      <trkpt lat="38.82907844741829" lon="121.50598490198558">
        <ele>5.3221072014421225</ele>
        <time>2024-09-09T23:27:23Z</time>
      </trkpt>
      <trkpt lat="38.82889560735729" lon="121.50599101490748">
        <ele>4.4708486227318645</ele>
        <time>2024-09-09T23:27:31Z</time>
      </trkpt>
      <trkpt lat="38.828729200556644" lon="121.50605927454018">
        <ele>4.306196916848421</ele>
        <time>2024-09-09T23:27:39Z</time>
      </trkpt>
      <trkpt lat="38.82865376912711" lon="121.50611365234639">
        <ele>4.361945544369519</ele>
        <time>2024-09-09T23:27:43Z</time>
      </trkpt>
      <trkpt lat="38.828432549292565" lon="121.50643671694588">
        <ele>4.630620340816677</ele>
        <time>2024-09-09T23:27:58Z</time>
      </trkpt>
      <trkpt lat="38.82838913493939" lon="121.50653847612186">
        <ele>4.018509547226131</ele>
        <time>2024-09-09T23:28:02Z</time>
      </trkpt>
      <trkpt lat="38.8283389069749" lon="121.50698107782578">
        <ele>4.197530224919319</ele>
        <time>2024-09-09T23:28:18Z</time>
      </trkpt>
      <trkpt lat="38.82833819916792" lon="121.50720516450478">
        <ele>4.121567443013191</ele>
        <time>2024-09-09T23:28:26Z</time>
      </trkpt>
      <trkpt lat="38.82829372356429" lon="121.50731182483781">
        <ele>4.593214493244886</ele>
        <time>2024-09-09T23:28:30Z</time>
      </trkpt>
      <trkpt lat="38.828265958427274" lon="121.50743626212277">
        <ele>2.4198350999504328</ele>
        <time>2024-09-09T23:28:34Z</time>
      </trkpt>
      <trkpt lat="38.82823290874626" lon="121.50750063435112">
        <ele>3.8937265891581774</ele>
        <time>2024-09-09T23:28:37Z</time>
      </trkpt>
      <trkpt lat="38.828052627413776" lon="121.50775692305993">
        <ele>5.0011548874899745</ele>
        <time>2024-09-09T23:28:49Z</time>
      </trkpt>
      <trkpt lat="38.827803472013976" lon="121.50797427120041">
        <ele>4.331675436347723</ele>
        <time>2024-09-09T23:29:01Z</time>
      </trkpt>
      <trkpt lat="38.827540717621964" lon="121.50809779294792">
        <ele>3.4207619726657867</ele>
        <time>2024-09-09T23:29:13Z</time>
      </trkpt>
      <trkpt lat="38.82726161250029" lon="121.5081379243519">
        <ele>3.9444120721891522</ele>
        <time>2024-09-09T23:29:25Z</time>
        <extensions>
          <gpxtpx:TrackPointExtension>
            <gpxtpx:hr>147</gpxtpx:hr>
          </gpxtpx:TrackPointExtension>
        </extensions>
      </trkpt>
      <trkpt lat="38.8270880181313" lon="121.50821663044428">
        <ele>4.987189143896103</ele>
        <time>2024-09-09T23:29:33Z</time>
        <extensions>
          <gpxtpx:TrackPointExtension>
            <gpxtpx:hr>147</gpxtpx:hr>
          </gpxtpx:TrackPointExtension>
        </extensions>
      </trkpt>
      <trkpt lat="38.826955214492706" lon="121.50836193528687">
        <ele>3.7552412850782275</ele>
        <time>2024-09-09T23:29:41Z</time>
        <extensions>
          <gpxtpx:TrackPointExtension>
            <gpxtpx:hr>145</gpxtpx:hr>
          </gpxtpx:TrackPointExtension>
        </extensions>
      </trkpt>
      <trkpt lat="38.82683430836858" lon="121.5086204698328">
        <ele>4.429999868385494</ele>
        <time>2024-09-09T23:29:53Z</time>
        <extensions>
          <gpxtpx:TrackPointExtension>
            <gpxtpx:hr>147</gpxtpx:hr>
          </gpxtpx:TrackPointExtension>
        </extensions>
      </trkpt>
      <trkpt lat="38.82679818607865" lon="121.50879727016702">
        <ele>3.964805306866765</ele>
        <time>2024-09-09T23:30:00Z</time>
        <extensions>
          <gpxtpx:TrackPointExtension>
            <gpxtpx:hr>148</gpxtpx:hr>
          </gpxtpx:TrackPointExtension>
        </extensions>
      </trkpt>
      <trkpt lat="38.82679918495376" lon="121.50901782137774">
        <ele>4.317065361887217</ele>
        <time>2024-09-09T23:30:08Z</time>
        <extensions>
          <gpxtpx:TrackPointExtension>
            <gpxtpx:hr>149</gpxtpx:hr>
          </gpxtpx:TrackPointExtension>
        </extensions>
      </trkpt>
      <trkpt lat="38.82685816300935" lon="121.50934801252865">
        <ele>4.17258710693568</ele>
        <time>2024-09-09T23:30:20Z</time>
        <extensions>
          <gpxtpx:TrackPointExtension>
            <gpxtpx:hr>148</gpxtpx:hr>
          </gpxtpx:TrackPointExtension>
        </extensions>
      </trkpt>
      <trkpt lat="38.826811730447574" lon="121.50977926921188">
        <ele>3.944238512776792</ele>
        <time>2024-09-09T23:30:36Z</time>
        <extensions>
          <gpxtpx:TrackPointExtension>
            <gpxtpx:hr>149</gpxtpx:hr>
          </gpxtpx:TrackPointExtension>
        </extensions>
      </trkpt>
      <trkpt lat="38.82670677356278" lon="121.51006445553323">
        <ele>3.999529182910919</ele>
        <time>2024-09-09T23:30:48Z</time>
        <extensions>
          <gpxtpx:TrackPointExtension>
            <gpxtpx:hr>147</gpxtpx:hr>
          </gpxtpx:TrackPointExtension>
        </extensions>
      </trkpt>
      <trkpt lat="38.82665403244753" lon="121.51016058234889">
        <ele>3.982093774713576</ele>
        <time>2024-09-09T23:30:52Z</time>
        <extensions>
          <gpxtpx:TrackPointExtension>
            <gpxtpx:hr>146</gpxtpx:hr>
          </gpxtpx:TrackPointExtension>
        </extensions>
      </trkpt>
      <trkpt lat="38.82640460766057" lon="121.51040078498909">
        <ele>4.033828086219728</ele>
        <time>2024-09-09T23:31:08Z</time>
        <extensions>
          <gpxtpx:TrackPointExtension>
            <gpxtpx:hr>146</gpxtpx:hr>
          </gpxtpx:TrackPointExtension>
        </extensions>
      </trkpt>
      <trkpt lat="38.826249208319254" lon="121.51047276172363">
        <ele>3.362446959130466</ele>
        <time>2024-09-09T23:31:16Z</time>
        <extensions>
          <gpxtpx:TrackPointExtension>
            <gpxtpx:hr>145</gpxtpx:hr>
          </gpxtpx:TrackPointExtension>
        </extensions>
      </trkpt>
      <trkpt lat="38.82608222419822" lon="121.51051006717535">
        <ele>3.4974981397390366</ele>
        <time>2024-09-09T23:31:24Z</time>
        <extensions>
          <gpxtpx:TrackPointExtension>
            <gpxtpx:hr>147</gpxtpx:hr>
          </gpxtpx:TrackPointExtension>
        </extensions>
      </trkpt>
      <trkpt lat="38.82611570967195" lon="121.51056981272369">
        <ele>4.329835481010377</ele>
        <time>2024-09-09T23:31:28Z</time>
        <extensions>
          <gpxtpx:TrackPointExtension>
            <gpxtpx:hr>147</gpxtpx:hr>
          </gpxtpx:TrackPointExtension>
        </extensions>
      </trkpt>
      <trkpt lat="38.82620457122633" lon="121.5104949870471">
        <ele>3.8275342201814055</ele>
        <time>2024-09-09T23:31:32Z</time>
        <extensions>
          <gpxtpx:TrackPointExtension>
            <gpxtpx:hr>146</gpxtpx:hr>
          </gpxtpx:TrackPointExtension>
        </extensions>
      </trkpt>
      <trkpt lat="38.82647474380778" lon="121.51033935146503">
        <ele>4.141424022614956</ele>
        <time>2024-09-09T23:31:44Z</time>
        <extensions>
          <gpxtpx:TrackPointExtension>
            <gpxtpx:hr>145</gpxtpx:hr>
          </gpxtpx:TrackPointExtension>
        </extensions>
      </trkpt>
      <trkpt lat="38.82667774946592" lon="121.51008308409106">
        <ele>3.734679028391838</ele>
        <time>2024-09-09T23:31:56Z</time>
        <extensions>
          <gpxtpx:TrackPointExtension>
            <gpxtpx:hr>147</gpxtpx:hr>
          </gpxtpx:TrackPointExtension>
        </extensions>
      </trkpt>
      <trkpt lat="38.82678597892349" lon="121.50989785201186">
        <ele>3.6118601420894265</ele>
        <time>2024-09-09T23:32:04Z</time>
        <extensions>
          <gpxtpx:TrackPointExtension>
            <gpxtpx:hr>148</gpxtpx:hr>
          </gpxtpx:TrackPointExtension>
        </extensions>
      </trkpt>
      <trkpt lat="38.82684930789119" lon="121.50957797025958">
        <ele>4.577123138122261</ele>
        <time>2024-09-09T23:32:16Z</time>
        <extensions>
          <gpxtpx:TrackPointExtension>
            <gpxtpx:hr>149</gpxtpx:hr>
          </gpxtpx:TrackPointExtension>
        </extensions>
      </trkpt>
      <trkpt lat="38.82686006666969" lon="121.50933310420307">
        <ele>4.093072105199099</ele>
        <time>2024-09-09T23:32:24Z</time>
        <extensions>
          <gpxtpx:TrackPointExtension>
            <gpxtpx:hr>150</gpxtpx:hr>
          </gpxtpx:TrackPointExtension>
        </extensions>
      </trkpt>
      <trkpt lat="38.826802918330436" lon="121.50900934552068">
        <ele>3.9179555848240852</ele>
        <time>2024-09-09T23:32:36Z</time>
        <extensions>
          <gpxtpx:TrackPointExtension>
            <gpxtpx:hr>152</gpxtpx:hr>
          </gpxtpx:TrackPointExtension>
        </extensions>
      </trkpt>
      <trkpt lat="38.82680400585426" lon="121.50878828332822">
        <ele>3.025510508567095</ele>
        <time>2024-09-09T23:32:44Z</time>
        <extensions>
          <gpxtpx:TrackPointExtension>
            <gpxtpx:hr>152</gpxtpx:hr>
          </gpxtpx:TrackPointExtension>
        </extensions>
      </trkpt>
      <trkpt lat="38.82690548822743" lon="121.50846901175953">
        <ele>3.4232851155102253</ele>
        <time>2024-09-09T23:32:56Z</time>
        <extensions>
          <gpxtpx:TrackPointExtension>
            <gpxtpx:hr>152</gpxtpx:hr>
          </gpxtpx:TrackPointExtension>
        </extensions>
      </trkpt>
      <trkpt lat="38.82701704466978" lon="121.50827880970598">
        <ele>3.603652690537274</ele>
        <time>2024-09-09T23:33:04Z</time>
        <extensions>
          <gpxtpx:TrackPointExtension>
            <gpxtpx:hr>152</gpxtpx:hr>
          </gpxtpx:TrackPointExtension>
        </extensions>
      </trkpt>
      <trkpt lat="38.82709347873467" lon="121.5082000515638">
        <ele>4.033536326140165</ele>
        <time>2024-09-09T23:33:08Z</time>
        <extensions>
          <gpxtpx:TrackPointExtension>
            <gpxtpx:hr>152</gpxtpx:hr>
          </gpxtpx:TrackPointExtension>
        </extensions>
      </trkpt>
      <trkpt lat="38.82727059996626" lon="121.50811228964409">
        <ele>4.12597674690187</ele>
        <time>2024-09-09T23:33:16Z</time>
        <extensions>
          <gpxtpx:TrackPointExtension>
            <gpxtpx:hr>154</gpxtpx:hr>
          </gpxtpx:TrackPointExtension>
        </extensions>
      </trkpt>
      <trkpt lat="38.82746923508584" lon="121.5080985294832">
        <ele>4.821588223800063</ele>
        <time>2024-09-09T23:33:24Z</time>
        <extensions>
          <gpxtpx:TrackPointExtension>
            <gpxtpx:hr>155</gpxtpx:hr>
          </gpxtpx:TrackPointExtension>
        </extensions>
      </trkpt>
      <trkpt lat="38.827722740464566" lon="121.50800811789082">
        <ele>3.484762146137655</ele>
        <time>2024-09-09T23:33:36Z</time>
        <extensions>
          <gpxtpx:TrackPointExtension>
            <gpxtpx:hr>155</gpxtpx:hr>
          </gpxtpx:TrackPointExtension>
        </extensions>
      </trkpt>
      <trkpt lat="38.827975286720665" lon="121.50783858078732">
        <ele>3.551580920815468</ele>
        <time>2024-09-09T23:33:48Z</time>
        <extensions>
          <gpxtpx:TrackPointExtension>
            <gpxtpx:hr>156</gpxtpx:hr>
          </gpxtpx:TrackPointExtension>
        </extensions>
      </trkpt>
      <trkpt lat="38.82805647952592" lon="121.50776818134432">
        <ele>3.817505036480725</ele>
        <time>2024-09-09T23:33:52Z</time>
        <extensions>
          <gpxtpx:TrackPointExtension>
            <gpxtpx:hr>156</gpxtpx:hr>
          </gpxtpx:TrackPointExtension>
        </extensions>
      </trkpt>
      <trkpt lat="38.82823507492228" lon="121.50750309897043">
        <ele>4.213201196864247</ele>
        <time>2024-09-09T23:34:04Z</time>
        <extensions>
          <gpxtpx:TrackPointExtension>
            <gpxtpx:hr>153</gpxtpx:hr>
          </gpxtpx:TrackPointExtension>
        </extensions>
      </trkpt>
      <trkpt lat="38.828321842508736" lon="121.50731371026993">
        <ele>4.571141004562378</ele>
        <time>2024-09-09T23:34:11Z</time>
        <extensions>
          <gpxtpx:TrackPointExtension>
            <gpxtpx:hr>158</gpxtpx:hr>
          </gpxtpx:TrackPointExtension>
        </extensions>
      </trkpt>
      <trkpt lat="38.82835389656568" lon="121.50713849107682">
        <ele>4.087268921546638</ele>
        <time>2024-09-09T23:34:18Z</time>
        <extensions>
          <gpxtpx:TrackPointExtension>
            <gpxtpx:hr>158</gpxtpx:hr>
          </gpxtpx:TrackPointExtension>
        </extensions>
      </trkpt>
      <trkpt lat="38.82840259703446" lon="121.50669434339412">
        <ele>3.551119040697813</ele>
        <time>2024-09-09T23:34:34Z</time>
        <extensions>
          <gpxtpx:TrackPointExtension>
            <gpxtpx:hr>157</gpxtpx:hr>
          </gpxtpx:TrackPointExtension>
        </extensions>
      </trkpt>
      <trkpt lat="38.828440638967294" lon="121.5064816086009">
        <ele>3.8044203193858266</ele>
        <time>2024-09-09T23:34:42Z</time>
        <extensions>
          <gpxtpx:TrackPointExtension>
            <gpxtpx:hr>157</gpxtpx:hr>
          </gpxtpx:TrackPointExtension>
        </extensions>
      </trkpt>
      <trkpt lat="38.82852118879332" lon="121.50628386415158">
        <ele>4.822410590015352</ele>
        <time>2024-09-09T23:34:50Z</time>
        <extensions>
          <gpxtpx:TrackPointExtension>
            <gpxtpx:hr>156</gpxtpx:hr>
          </gpxtpx:TrackPointExtension>
        </extensions>
      </trkpt>
      <trkpt lat="38.82865230013833" lon="121.50612522214504">
        <ele>5.451331983320415</ele>
        <time>2024-09-09T23:34:58Z</time>
        <extensions>
          <gpxtpx:TrackPointExtension>
            <gpxtpx:hr>157</gpxtpx:hr>
          </gpxtpx:TrackPointExtension>
        </extensions>
      </trkpt>
      <trkpt lat="38.828806007703385" lon="121.50602460482811">
        <ele>4.378816288895905</ele>
        <time>2024-09-09T23:35:06Z</time>
        <extensions>
          <gpxtpx:TrackPointExtension>
            <gpxtpx:hr>156</gpxtpx:hr>
          </gpxtpx:TrackPointExtension>
        </extensions>
      </trkpt>
      <trkpt lat="38.82889321035349" lon="121.50599307808135">
        <ele>5.266265367157757</ele>
        <time>2024-09-09T23:35:10Z</time>
        <extensions>
          <gpxtpx:TrackPointExtension>
            <gpxtpx:hr>155</gpxtpx:hr>
          </gpxtpx:TrackPointExtension>
        </extensions>
      </trkpt>
      <trkpt lat="38.82915414484754" lon="121.50599436876423">
        <ele>5.348234414122999</ele>
        <time>2024-09-09T23:35:22Z</time>
        <extensions>
          <gpxtpx:TrackPointExtension>
            <gpxtpx:hr>156</gpxtpx:hr>
          </gpxtpx:TrackPointExtension>
        </extensions>
      </trkpt>
      <trkpt lat="38.82931201005172" lon="121.50608426425235">
        <ele>5.2096991231665015</ele>
        <time>2024-09-09T23:35:30Z</time>
        <extensions>
          <gpxtpx:TrackPointExtension>
            <gpxtpx:hr>156</gpxtpx:hr>
          </gpxtpx:TrackPointExtension>
        </extensions>
      </trkpt>
      <trkpt lat="38.82944809243409" lon="121.50619362472732">
        <ele>4.711545366793871</ele>
        <time>2024-09-09T23:35:38Z</time>
        <extensions>
          <gpxtpx:TrackPointExtension>
            <gpxtpx:hr>156</gpxtpx:hr>
          </gpxtpx:TrackPointExtension>
        </extensions>
      </trkpt>
      <trkpt lat="38.82964506097976" lon="121.50643175680507">
        <ele>5.161716753616929</ele>
        <time>2024-09-09T23:35:50Z</time>
        <extensions>
          <gpxtpx:TrackPointExtension>
            <gpxtpx:hr>156</gpxtpx:hr>
          </gpxtpx:TrackPointExtension>
        </extensions>
      </trkpt>
      <trkpt lat="38.82987253678007" lon="121.50661112192257">
        <ele>5.164727795869112</ele>
        <time>2024-09-09T23:36:02Z</time>
        <extensions>
          <gpxtpx:TrackPointExtension>
            <gpxtpx:hr>155</gpxtpx:hr>
          </gpxtpx:TrackPointExtension>
        </extensions>
      </trkpt>
      <trkpt lat="38.83012119149357" lon="121.50673706710016">
        <ele>4.364997397176921</ele>
        <time>2024-09-09T23:36:14Z</time>
        <extensions>
          <gpxtpx:TrackPointExtension>
            <gpxtpx:hr>155</gpxtpx:hr>
          </gpxtpx:TrackPointExtension>
        </extensions>
      </trkpt>
      <trkpt lat="38.83020829524195" lon="121.5069145166008">
        <ele>4.670261921361089</ele>
        <time>2024-09-09T23:36:21Z</time>
        <extensions>
          <gpxtpx:TrackPointExtension>
            <gpxtpx:hr>155</gpxtpx:hr>
          </gpxtpx:TrackPointExtension>
        </extensions>
      </trkpt>
      <trkpt lat="38.830345818145055" lon="121.5073090989444">
        <ele>5.263513972982764</ele>
        <time>2024-09-09T23:36:36Z</time>
        <extensions>
          <gpxtpx:TrackPointExtension>
            <gpxtpx:hr>155</gpxtpx:hr>
          </gpxtpx:TrackPointExtension>
        </extensions>
      </trkpt>
      <trkpt lat="38.83046951998611" lon="121.5075036437332">
        <ele>5.019366071559489</ele>
        <time>2024-09-09T23:36:44Z</time>
        <extensions>
          <gpxtpx:TrackPointExtension>
            <gpxtpx:hr>154</gpxtpx:hr>
          </gpxtpx:TrackPointExtension>
        </extensions>
      </trkpt>
      <trkpt lat="38.83060708454675" lon="121.50764202511112">
        <ele>5.040544477291405</ele>
        <time>2024-09-09T23:36:52Z</time>
        <extensions>
          <gpxtpx:TrackPointExtension>
            <gpxtpx:hr>153</gpxtpx:hr>
          </gpxtpx:TrackPointExtension>
        </extensions>
      </trkpt>
      <trkpt lat="38.83077670167847" lon="121.50773241653164">
        <ele>4.927699160762131</ele>
        <time>2024-09-09T23:37:00Z</time>
        <extensions>
          <gpxtpx:TrackPointExtension>
            <gpxtpx:hr>154</gpxtpx:hr>
          </gpxtpx:TrackPointExtension>
        </extensions>
      </trkpt>
      <trkpt lat="38.83095594185356" lon="121.5077662576656">
        <ele>4.902930019423366</ele>
        <time>2024-09-09T23:37:08Z</time>
        <extensions>
          <gpxtpx:TrackPointExtension>
            <gpxtpx:hr>154</gpxtpx:hr>
          </gpxtpx:TrackPointExtension>
        </extensions>
      </trkpt>
      <trkpt lat="38.83123573075772" lon="121.507738194037">
        <ele>5.315277429297566</ele>
        <time>2024-09-09T23:37:20Z</time>
        <extensions>
          <gpxtpx:TrackPointExtension>
            <gpxtpx:hr>157</gpxtpx:hr>
          </gpxtpx:TrackPointExtension>
        </extensions>
      </trkpt>
      <trkpt lat="38.831325484910934" lon="121.50773725141461">
        <ele>4.026272567920387</ele>
        <time>2024-09-09T23:37:24Z</time>
        <extensions>
          <gpxtpx:TrackPointExtension>
            <gpxtpx:hr>157</gpxtpx:hr>
          </gpxtpx:TrackPointExtension>
        </extensions>
      </trkpt>
      <trkpt lat="38.831325484910934" lon="121.50773725141461">
        <ele>4.026272567920387</ele>
        <time>2024-09-09T23:37:24Z</time>
        <extensions>
          <gpxtpx:TrackPointExtension>
            <gpxtpx:hr>157</gpxtpx:hr>
          </gpxtpx:TrackPointExtension>
        </extensions>
      </trkpt>
    </trkseg>
  </trk>
</gpx>