<?xml version="1.0" encoding="UTF-8"?>
<gpx xmlns="http://www.topografix.com/GPX/1/1" xmlns:gpxtpx="http://www.garmin.com/xmlschemas/TrackPointExtension/v1" xmlns:xsi="http://www.w3.org/2001/XMLSchema-instance" xsi:schemaLocation="http://www.topografix.com/GPX/1/1 http://www.topografix.com/GPX/1/1/gpx.xsd" version="1.1" creator="gpx.py -- https://github.com/tkrajina/gpxpy">
  <trk>
    <name>gpx from keep</name>
    <type>Run</type>
    <trkseg>
      <trkpt lat="38.83691315930171" lon="121.50486966156132">
        <ele>8.471861718939017</ele>
        <time>2025-11-10T14:10:08Z</time>
      </trkpt>
      <trkpt lat="38.836788595687985" lon="121.50486035156248">
        <ele>9.36000922792459</ele>
        <time>2025-11-10T14:10:16Z</time>
      </trkpt>
      <trkpt lat="38.83673885054811" lon="121.50487809295772">
        <ele>9.532028770074248</ele>
        <time>2025-11-10T14:10:20Z</time>
      </trkpt>
      <trkpt lat="38.836663679134226" lon="121.50507182701813">
        <ele>9.828042649663985</ele>
        <time>2025-11-10T14:10:32Z</time>
      </trkpt>
      <trkpt lat="38.83666175302805" lon="121.50513423172352">
        <ele>9.78025237005204</ele>
        <time>2025-11-10T14:10:36Z</time>
      </trkpt>
      <trkpt lat="38.836600189158524" lon="121.50538054476813">
        <ele>8.821511143818498</ele>
        <time>2025-11-10T14:10:53Z</time>
      </trkpt>
      <trkpt lat="38.83655753796027" lon="121.50551866607064">
        <ele>9.594681698828936</ele>
        <time>2025-11-10T14:11:01Z</time>
      </trkpt>
      <trkpt lat="38.83655794606506" lon="121.50559510200056">
        <ele>9.656185947358608</ele>
        <time>2025-11-10T14:11:05Z</time>
      </trkpt>
      <trkpt lat="38.83643931291547" lon="121.5059627990028">
        <ele>9.689955643378198</ele>
        <time>2025-11-10T14:11:25Z</time>
      </trkpt>
      <trkpt lat="38.836331310777126" lon="121.50631813027505">
        <ele>8.508458023890853</ele>
        <time>2025-11-10T14:11:45Z</time>
      </trkpt>
      <trkpt lat="38.836205723826005" lon="121.50662534683006">
        <ele>8.899368330836296</ele>
        <time>2025-11-10T14:12:01Z</time>
      </trkpt>
      <trkpt lat="38.83618587891625" lon="121.50670518915224">
        <ele>8.480056741274893</ele>
        <time>2025-11-10T14:12:05Z</time>
      </trkpt>
      <trkpt lat="38.836189189917235" lon="121.506774327243">
        <ele>8.942052291706204</ele>
        <time>2025-11-10T14:12:09Z</time>
      </trkpt>
      <trkpt lat="38.836137824506004" lon="121.5068359621305">
        <ele>9.62816130835563</ele>
        <time>2025-11-10T14:12:26Z</time>
      </trkpt>
      <trkpt lat="38.83610691613273" lon="121.5069178212167">
        <ele>9.446382468566298</ele>
        <time>2025-11-10T14:12:32Z</time>
      </trkpt>
      <trkpt lat="38.8361577714162" lon="121.50701079323508">
        <ele>7.65098069794476</ele>
        <time>2025-11-10T14:12:38Z</time>
      </trkpt>
      <trkpt lat="38.8363465467531" lon="121.50715003003032">
        <ele>7.053300749510527</ele>
        <time>2025-11-10T14:12:50Z</time>
      </trkpt>
      <trkpt lat="38.83640253914698" lon="121.50717068694698">
        <ele>8.56827650219202</ele>
        <time>2025-11-10T14:12:53Z</time>
      </trkpt>
      <trkpt lat="38.83664452089841" lon="121.50740941054326">
        <ele>9.671329125761986</ele>
        <time>2025-11-10T14:13:11Z</time>
      </trkpt>
      <trkpt lat="38.83674000643669" lon="121.50746554989298">
        <ele>9.921580483205616</ele>
        <time>2025-11-10T14:13:17Z</time>
      </trkpt>
      <trkpt lat="38.83678663585405" lon="121.50755409379757">
        <ele>10.028445927426219</ele>
        <time>2025-11-10T14:13:23Z</time>
      </trkpt>
      <trkpt lat="38.836834409158534" lon="121.507566331893">
        <ele>10.828659162856638</ele>
        <time>2025-11-10T14:13:26Z</time>
      </trkpt>
      <trkpt lat="38.83699341928562" lon="121.50775401251535">
        <ele>11.414256776683033</ele>
        <time>2025-11-10T14:13:38Z</time>
      </trkpt>
      <trkpt lat="38.83720680856136" lon="121.50791137626219">
        <ele>12.487877486273646</ele>
        <time>2025-11-10T14:13:50Z</time>
      </trkpt>
      <trkpt lat="38.8373270158429" lon="121.50805980941753">
        <ele>12.238132295198739</ele>
        <time>2025-11-10T14:13:59Z</time>
      </trkpt>
      <trkpt lat="38.83738821606931" lon="121.50808987439147">
        <ele>12.310327193699777</ele>
        <time>2025-11-10T14:14:02Z</time>
      </trkpt>
      <trkpt lat="38.837619487634335" lon="121.50830887593679">
        <ele>11.165837488137186</ele>
        <time>2025-11-10T14:14:17Z</time>
      </trkpt>
      <trkpt lat="38.83765609506562" lon="121.50836884162234">
        <ele>12.262239312753081</ele>
        <time>2025-11-10T14:14:20Z</time>
      </trkpt>
      <trkpt lat="38.83760225445371" lon="121.5085401195715">
        <ele>11.660030552186072</ele>
        <time>2025-11-10T14:14:27Z</time>
      </trkpt>
      <trkpt lat="38.837532736359265" lon="121.50881658348216">
        <ele>9.03625584859401</ele>
        <time>2025-11-10T14:14:39Z</time>
      </trkpt>
      <trkpt lat="38.83749073269856" lon="121.50890420826434">
        <ele>8.714711087755859</ele>
        <time>2025-11-10T14:14:43Z</time>
      </trkpt>
      <trkpt lat="38.83724441790867" lon="121.50917248671473">
        <ele>8.69151316396892</ele>
        <time>2025-11-10T14:14:59Z</time>
      </trkpt>
      <trkpt lat="38.83711083480257" lon="121.50941728167892">
        <ele>8.705761902965605</ele>
        <time>2025-11-10T14:15:11Z</time>
      </trkpt>
      <trkpt lat="38.83702287099041" lon="121.50966540163667">
        <ele>7.534348574467003</ele>
        <time>2025-11-10T14:15:22Z</time>
      </trkpt>
      <trkpt lat="38.83694855081615" lon="121.50978926531195">
        <ele>7.093838614411652</ele>
        <time>2025-11-10T14:15:28Z</time>
      </trkpt>
      <trkpt lat="38.83672750107791" lon="121.50993798723697">
        <ele>7.439519650302827</ele>
        <time>2025-11-10T14:15:40Z</time>
      </trkpt>
      <trkpt lat="38.836438249094144" lon="121.50996093690145">
        <ele>6.567826473154128</ele>
        <time>2025-11-10T14:15:55Z</time>
      </trkpt>
      <trkpt lat="38.83615533243789" lon="121.5100797181736">
        <ele>7.242208800278604</ele>
        <time>2025-11-10T14:16:10Z</time>
      </trkpt>
      <trkpt lat="38.83610934144087" lon="121.5101256601459">
        <ele>6.761024387553334</ele>
        <time>2025-11-10T14:16:13Z</time>
      </trkpt>
      <trkpt lat="38.83609847042551" lon="121.51019684475786">
        <ele>6.665449287742376</ele>
        <time>2025-11-10T14:16:16Z</time>
      </trkpt>
      <trkpt lat="38.836177782677545" lon="121.51030998146037">
        <ele>6.241148785687983</ele>
        <time>2025-11-10T14:16:22Z</time>
      </trkpt>
      <trkpt lat="38.8362584781579" lon="121.51053959057226">
        <ele>6.525491818785667</ele>
        <time>2025-11-10T14:16:32Z</time>
      </trkpt>
      <trkpt lat="38.8362633363173" lon="121.51063669852343">
        <ele>7.1530325803905725</ele>
        <time>2025-11-10T14:16:36Z</time>
      </trkpt>
      <trkpt lat="38.83622490192117" lon="121.51082698480595">
        <ele>6.068954948335886</ele>
        <time>2025-11-10T14:16:44Z</time>
      </trkpt>
      <trkpt lat="38.836059996172565" lon="121.5111323618563">
        <ele>4.75158722139895</ele>
        <time>2025-11-10T14:16:59Z</time>
      </trkpt>
      <trkpt lat="38.836006367696996" lon="121.51124917739365">
        <ele>4.546896573156118</ele>
        <time>2025-11-10T14:17:05Z</time>
      </trkpt>
      <trkpt lat="38.835972051700736" lon="121.51145733798379">
        <ele>3.766252818517387</ele>
        <time>2025-11-10T14:17:14Z</time>
      </trkpt>
      <trkpt lat="38.83602831427945" lon="121.51167827759683">
        <ele>4.674323222599924</ele>
        <time>2025-11-10T14:17:23Z</time>
      </trkpt>
      <trkpt lat="38.836128932639504" lon="121.51185654240166">
        <ele>4.410092871636152</ele>
        <time>2025-11-10T14:17:32Z</time>
      </trkpt>
      <trkpt lat="38.836238883995975" lon="121.51192817393508">
        <ele>4.226957378908992</ele>
        <time>2025-11-10T14:17:38Z</time>
      </trkpt>
      <trkpt lat="38.83634723557355" lon="121.51193607189185">
        <ele>4.142608619295061</ele>
        <time>2025-11-10T14:17:44Z</time>
      </trkpt>
      <trkpt lat="38.8366066688576" lon="121.51181096547108">
        <ele>4.76113723218441</ele>
        <time>2025-11-10T14:17:59Z</time>
      </trkpt>
      <trkpt lat="38.83681747381703" lon="121.51156211655031">
        <ele>5.499682247638702</ele>
        <time>2025-11-10T14:18:14Z</time>
      </trkpt>
      <trkpt lat="38.83692137146058" lon="121.51136221140412">
        <ele>5.6044666627421975</ele>
        <time>2025-11-10T14:18:23Z</time>
      </trkpt>
      <trkpt lat="38.836995951773915" lon="121.51116525894876">
        <ele>6.463785785250366</ele>
        <time>2025-11-10T14:18:32Z</time>
      </trkpt>
      <trkpt lat="38.83701724805315" lon="121.51099449907736">
        <ele>6.070425189100206</ele>
        <time>2025-11-10T14:18:39Z</time>
      </trkpt>
      <trkpt lat="38.83712064642231" lon="121.51073232483951">
        <ele>6.899044694378972</ele>
        <time>2025-11-10T14:18:51Z</time>
      </trkpt>
      <trkpt lat="38.83732177689513" lon="121.5104573919387">
        <ele>6.017770919948816</ele>
        <time>2025-11-10T14:19:06Z</time>
      </trkpt>
      <trkpt lat="38.83746025356805" lon="121.510326094832">
        <ele>6.131592626683414</ele>
        <time>2025-11-10T14:19:15Z</time>
      </trkpt>
      <trkpt lat="38.837575618599736" lon="121.51021853089061">
        <ele>7.036381638608873</ele>
        <time>2025-11-10T14:19:22Z</time>
      </trkpt>
      <trkpt lat="38.83763319652085" lon="121.51018989616189">
        <ele>6.359133859165013</ele>
        <time>2025-11-10T14:19:25Z</time>
      </trkpt>
      <trkpt lat="38.83770861720888" lon="121.51007297109898">
        <ele>6.210721706971526</ele>
        <time>2025-11-10T14:19:31Z</time>
      </trkpt>
      <trkpt lat="38.83776590223584" lon="121.50992936700146">
        <ele>7.307937218807638</ele>
        <time>2025-11-10T14:19:37Z</time>
      </trkpt>
      <trkpt lat="38.8378390657509" lon="121.50993273082108">
        <ele>7.166723163798451</ele>
        <time>2025-11-10T14:19:40Z</time>
      </trkpt>
      <trkpt lat="38.837920168986976" lon="121.50979792665986">
        <ele>7.4694983670488</ele>
        <time>2025-11-10T14:19:46Z</time>
      </trkpt>
      <trkpt lat="38.83802062696937" lon="121.50942257531398">
        <ele>7.925701200962067</ele>
        <time>2025-11-10T14:20:01Z</time>
      </trkpt>
      <trkpt lat="38.83805612534999" lon="121.50934842450245">
        <ele>8.981002881191671</ele>
        <time>2025-11-10T14:20:04Z</time>
      </trkpt>
      <trkpt lat="38.83828135649573" lon="121.50918974985942">
        <ele>8.357371233403683</ele>
        <time>2025-11-10T14:20:16Z</time>
      </trkpt>
      <trkpt lat="38.838314058517206" lon="121.50913056022547">
        <ele>8.872360918670893</ele>
        <time>2025-11-10T14:20:19Z</time>
      </trkpt>
      <trkpt lat="38.83830335118202" lon="121.50906014460345">
        <ele>8.63388338778168</ele>
        <time>2025-11-10T14:20:22Z</time>
      </trkpt>
      <trkpt lat="38.83820315060337" lon="121.50894833938783">
        <ele>8.636982300318778</ele>
        <time>2025-11-10T14:20:28Z</time>
      </trkpt>
      <trkpt lat="38.83814576519617" lon="121.50894955166763">
        <ele>9.236392192542553</ele>
        <time>2025-11-10T14:20:31Z</time>
      </trkpt>
      <trkpt lat="38.837972990265314" lon="121.50884074653014">
        <ele>9.804415068589151</ele>
        <time>2025-11-10T14:20:40Z</time>
      </trkpt>
      <trkpt lat="38.83785391212762" lon="121.50870661736754">
        <ele>11.08185817208141</ele>
        <time>2025-11-10T14:20:47Z</time>
      </trkpt>
      <trkpt lat="38.83778984944022" lon="121.50857975273223">
        <ele>10.156409322284162</ele>
        <time>2025-11-10T14:20:53Z</time>
      </trkpt>
      <trkpt lat="38.83772370684826" lon="121.50851594835615">
        <ele>9.979270385578275</ele>
        <time>2025-11-10T14:20:57Z</time>
      </trkpt>
      <trkpt lat="38.837656212054924" lon="121.50851101208326">
        <ele>9.132546314038336</ele>
        <time>2025-11-10T14:21:00Z</time>
      </trkpt>
      <trkpt lat="38.837550675762024" lon="121.50872022504322">
        <ele>9.007400169037282</ele>
        <time>2025-11-10T14:21:09Z</time>
      </trkpt>
      <trkpt lat="38.83753545036469" lon="121.50880489656014">
        <ele>9.382471911609173</ele>
        <time>2025-11-10T14:21:12Z</time>
      </trkpt>
      <trkpt lat="38.8374179427111" lon="121.50899262899223">
        <ele>8.977228743955493</ele>
        <time>2025-11-10T14:21:21Z</time>
      </trkpt>
      <trkpt lat="38.83725717682475" lon="121.509123611479">
        <ele>9.569481234066188</ele>
        <time>2025-11-10T14:21:30Z</time>
      </trkpt>
      <trkpt lat="38.837171235658744" lon="121.50932127218938">
        <ele>8.97956265322864</ele>
        <time>2025-11-10T14:21:48Z</time>
      </trkpt>
      <trkpt lat="38.83721450338057" lon="121.5092627660022">
        <ele>8.033136085607111</ele>
        <time>2025-11-10T14:22:00Z</time>
      </trkpt>
      <trkpt lat="38.837266206502136" lon="121.50894898696217">
        <ele>10.228839952498674</ele>
        <time>2025-11-10T14:22:15Z</time>
      </trkpt>
      <trkpt lat="38.837409821097516" lon="121.50869551472024">
        <ele>9.619662139564753</ele>
        <time>2025-11-10T14:22:30Z</time>
      </trkpt>
      <trkpt lat="38.83742761204199" lon="121.50863341110237">
        <ele>10.635233051143587</ele>
        <time>2025-11-10T14:22:33Z</time>
      </trkpt>
      <trkpt lat="38.83754686677201" lon="121.50849885436148">
        <ele>11.099454681389034</ele>
        <time>2025-11-10T14:22:42Z</time>
      </trkpt>
      <trkpt lat="38.83759585405839" lon="121.50840203309252">
        <ele>11.000022773630917</ele>
        <time>2025-11-10T14:22:48Z</time>
      </trkpt>
      <trkpt lat="38.83759349041532" lon="121.5083398374308">
        <ele>10.865649899467826</ele>
        <time>2025-11-10T14:22:56Z</time>
      </trkpt>
      <trkpt lat="38.83754718310597" lon="121.50828439883297">
        <ele>11.708536490797997</ele>
        <time>2025-11-10T14:23:04Z</time>
      </trkpt>
      <trkpt lat="38.83754718310597" lon="121.50828439883297">
        <ele>11.708536490797997</ele>
        <time>2025-11-10T14:23:10Z</time>
      </trkpt>
    </trkseg>
  </trk>
</gpx>