<?xml version="1.0" encoding="UTF-8"?>
<gpx xmlns="http://www.topografix.com/GPX/1/1" xmlns:gpxtpx="http://www.garmin.com/xmlschemas/TrackPointExtension/v1" xmlns:xsi="http://www.w3.org/2001/XMLSchema-instance" xsi:schemaLocation="http://www.topografix.com/GPX/1/1 http://www.topografix.com/GPX/1/1/gpx.xsd" version="1.1" creator="gpx.py -- https://github.com/tkrajina/gpxpy">
  <trk>
    <name>gpx from keep</name>
    <type>Run</type>
    <trkseg>
      <trkpt lat="38.83578309775195" lon="121.50749905544684">
        <ele>9.842779871414937</ele>
        <time>2026-07-11T00:09:40Z</time>
      </trkpt>
      <trkpt lat="38.83577624475269" lon="121.50756999447592">
        <ele>9.843306965565343</ele>
        <time>2026-07-11T00:09:44Z</time>
      </trkpt>
      <trkpt lat="38.835804888875295" lon="121.50776261462991">
        <ele>10.088889928534627</ele>
        <time>2026-07-11T00:09:51Z</time>
      </trkpt>
      <trkpt lat="38.835784983368065" lon="121.50787877346086">
        <ele>9.819581518881023</ele>
        <time>2026-07-11T00:09:58Z</time>
      </trkpt>
      <trkpt lat="38.83575043315941" lon="121.5080031841201">
        <ele>9.648937800899148</ele>
        <time>2026-07-11T00:10:04Z</time>
      </trkpt>
      <trkpt lat="38.835627474034126" lon="121.50834117084564">
        <ele>9.36572025436908</ele>
        <time>2026-07-11T00:10:21Z</time>
      </trkpt>
      <trkpt lat="38.835521688353914" lon="121.50867332253922">
        <ele>10.479106731712818</ele>
        <time>2026-07-11T00:10:36Z</time>
      </trkpt>
      <trkpt lat="38.83541881624963" lon="121.50901608261262">
        <ele>9.440650758333504</ele>
        <time>2026-07-11T00:10:52Z</time>
      </trkpt>
      <trkpt lat="38.83531737490851" lon="121.5092702915376">
        <ele>9.284340840764344</ele>
        <time>2026-07-11T00:11:04Z</time>
      </trkpt>
      <trkpt lat="38.83533007157296" lon="121.50933893490841">
        <ele>9.175191313028336</ele>
        <time>2026-07-11T00:11:07Z</time>
      </trkpt>
      <trkpt lat="38.83523106248467" lon="121.50943545233152">
        <ele>10.177281622774899</ele>
        <time>2026-07-11T00:11:13Z</time>
      </trkpt>
      <trkpt lat="38.835111659137546" lon="121.50974890499451">
        <ele>8.597790624015033</ele>
        <time>2026-07-11T00:11:28Z</time>
      </trkpt>
      <trkpt lat="38.83508811905821" lon="121.5098222016453">
        <ele>9.140786046162248</ele>
        <time>2026-07-11T00:11:31Z</time>
      </trkpt>
      <trkpt lat="38.835083358192044" lon="121.50999346026128">
        <ele>9.613491471856833</ele>
        <time>2026-07-11T00:11:40Z</time>
      </trkpt>
      <trkpt lat="38.8349545360208" lon="121.5103128956998">
        <ele>8.761980720795691</ele>
        <time>2026-07-11T00:11:54Z</time>
      </trkpt>
      <trkpt lat="38.8348881935332" lon="121.51058316146651">
        <ele>7.532557869330049</ele>
        <time>2026-07-11T00:12:06Z</time>
      </trkpt>
      <trkpt lat="38.83474432708764" lon="121.51093328867559">
        <ele>8.001348798163235</ele>
        <time>2026-07-11T00:12:22Z</time>
        <extensions>
          <gpxtpx:TrackPointExtension>
            <gpxtpx:hr>114</gpxtpx:hr>
          </gpxtpx:TrackPointExtension>
        </extensions>
      </trkpt>
      <trkpt lat="38.83462794147965" lon="121.51128436008246">
        <ele>8.654006493277848</ele>
        <time>2026-07-11T00:12:37Z</time>
        <extensions>
          <gpxtpx:TrackPointExtension>
            <gpxtpx:hr>114</gpxtpx:hr>
          </gpxtpx:TrackPointExtension>
        </extensions>
      </trkpt>
      <trkpt lat="38.8345881751519" lon="121.51133559683946">
        <ele>8.533539994619787</ele>
        <time>2026-07-11T00:12:40Z</time>
        <extensions>
          <gpxtpx:TrackPointExtension>
            <gpxtpx:hr>114</gpxtpx:hr>
          </gpxtpx:TrackPointExtension>
        </extensions>
      </trkpt>
      <trkpt lat="38.834526529660025" lon="121.51153954518543">
        <ele>7.879445744678378</ele>
        <time>2026-07-11T00:12:49Z</time>
        <extensions>
          <gpxtpx:TrackPointExtension>
            <gpxtpx:hr>114</gpxtpx:hr>
          </gpxtpx:TrackPointExtension>
        </extensions>
      </trkpt>
      <trkpt lat="38.83446217887503" lon="121.51166978487029">
        <ele>8.213803727179766</ele>
        <time>2026-07-11T00:12:55Z</time>
        <extensions>
          <gpxtpx:TrackPointExtension>
            <gpxtpx:hr>116</gpxtpx:hr>
          </gpxtpx:TrackPointExtension>
        </extensions>
      </trkpt>
      <trkpt lat="38.83442354513071" lon="121.51188156576936">
        <ele>7.915858686901629</ele>
        <time>2026-07-11T00:13:04Z</time>
        <extensions>
          <gpxtpx:TrackPointExtension>
            <gpxtpx:hr>116</gpxtpx:hr>
          </gpxtpx:TrackPointExtension>
        </extensions>
      </trkpt>
      <trkpt lat="38.83429863824005" lon="121.51220421091872">
        <ele>8.158182870596647</ele>
        <time>2026-07-11T00:13:19Z</time>
        <extensions>
          <gpxtpx:TrackPointExtension>
            <gpxtpx:hr>116</gpxtpx:hr>
          </gpxtpx:TrackPointExtension>
        </extensions>
      </trkpt>
      <trkpt lat="38.83420434192083" lon="121.51255345164245">
        <ele>9.022823725827038</ele>
        <time>2026-07-11T00:13:34Z</time>
        <extensions>
          <gpxtpx:TrackPointExtension>
            <gpxtpx:hr>116</gpxtpx:hr>
          </gpxtpx:TrackPointExtension>
        </extensions>
      </trkpt>
      <trkpt lat="38.83409333109216" lon="121.51281456592163">
        <ele>7.926267372444272</ele>
        <time>2026-07-11T00:13:46Z</time>
        <extensions>
          <gpxtpx:TrackPointExtension>
            <gpxtpx:hr>119</gpxtpx:hr>
          </gpxtpx:TrackPointExtension>
        </extensions>
      </trkpt>
      <trkpt lat="38.83401770683988" lon="121.51315666233947">
        <ele>7.690547865815461</ele>
        <time>2026-07-11T00:14:01Z</time>
        <extensions>
          <gpxtpx:TrackPointExtension>
            <gpxtpx:hr>120</gpxtpx:hr>
          </gpxtpx:TrackPointExtension>
        </extensions>
      </trkpt>
      <trkpt lat="38.83388394463308" lon="121.51351632681322">
        <ele>7.788291442207992</ele>
        <time>2026-07-11T00:14:16Z</time>
        <extensions>
          <gpxtpx:TrackPointExtension>
            <gpxtpx:hr>120</gpxtpx:hr>
          </gpxtpx:TrackPointExtension>
        </extensions>
      </trkpt>
      <trkpt lat="38.833811130559305" lon="121.51378888319277">
        <ele>8.122619966045022</ele>
        <time>2026-07-11T00:14:28Z</time>
        <extensions>
          <gpxtpx:TrackPointExtension>
            <gpxtpx:hr>119</gpxtpx:hr>
          </gpxtpx:TrackPointExtension>
        </extensions>
      </trkpt>
      <trkpt lat="38.8337604449686" lon="121.51385970930788">
        <ele>7.774937521666288</ele>
        <time>2026-07-11T00:14:32Z</time>
        <extensions>
          <gpxtpx:TrackPointExtension>
            <gpxtpx:hr>120</gpxtpx:hr>
          </gpxtpx:TrackPointExtension>
        </extensions>
      </trkpt>
      <trkpt lat="38.83364587895842" lon="121.51422630366937">
        <ele>7.125772579573095</ele>
        <time>2026-07-11T00:14:48Z</time>
        <extensions>
          <gpxtpx:TrackPointExtension>
            <gpxtpx:hr>120</gpxtpx:hr>
          </gpxtpx:TrackPointExtension>
        </extensions>
      </trkpt>
      <trkpt lat="38.83354538656148" lon="121.51455437392983">
        <ele>5.5182093642652035</ele>
        <time>2026-07-11T00:15:03Z</time>
        <extensions>
          <gpxtpx:TrackPointExtension>
            <gpxtpx:hr>117</gpxtpx:hr>
          </gpxtpx:TrackPointExtension>
        </extensions>
      </trkpt>
      <trkpt lat="38.83342857126864" lon="121.51492370851274">
        <ele>6.490266946144402</ele>
        <time>2026-07-11T00:15:18Z</time>
        <extensions>
          <gpxtpx:TrackPointExtension>
            <gpxtpx:hr>122</gpxtpx:hr>
          </gpxtpx:TrackPointExtension>
        </extensions>
      </trkpt>
      <trkpt lat="38.833337654468274" lon="121.51512675769719">
        <ele>5.91539703309536</ele>
        <time>2026-07-11T00:15:27Z</time>
        <extensions>
          <gpxtpx:TrackPointExtension>
            <gpxtpx:hr>123</gpxtpx:hr>
          </gpxtpx:TrackPointExtension>
        </extensions>
      </trkpt>
      <trkpt lat="38.833237918706246" lon="121.51547933261249">
        <ele>6.0897724367678165</ele>
        <time>2026-07-11T00:15:42Z</time>
        <extensions>
          <gpxtpx:TrackPointExtension>
            <gpxtpx:hr>122</gpxtpx:hr>
          </gpxtpx:TrackPointExtension>
        </extensions>
      </trkpt>
      <trkpt lat="38.83311186383392" lon="121.51581455935793">
        <ele>5.747246136888862</ele>
        <time>2026-07-11T00:15:57Z</time>
        <extensions>
          <gpxtpx:TrackPointExtension>
            <gpxtpx:hr>125</gpxtpx:hr>
          </gpxtpx:TrackPointExtension>
        </extensions>
      </trkpt>
      <trkpt lat="38.833039863196824" lon="121.51597467619854">
        <ele>6.511916805058718</ele>
        <time>2026-07-11T00:16:05Z</time>
        <extensions>
          <gpxtpx:TrackPointExtension>
            <gpxtpx:hr>127</gpxtpx:hr>
          </gpxtpx:TrackPointExtension>
        </extensions>
      </trkpt>
      <trkpt lat="38.83303043354833" lon="121.51604433500478">
        <ele>6.398655272088945</ele>
        <time>2026-07-11T00:16:09Z</time>
        <extensions>
          <gpxtpx:TrackPointExtension>
            <gpxtpx:hr>127</gpxtpx:hr>
          </gpxtpx:TrackPointExtension>
        </extensions>
      </trkpt>
      <trkpt lat="38.83297347854745" lon="121.51612254294002">
        <ele>6.3889604145661</ele>
        <time>2026-07-11T00:16:13Z</time>
        <extensions>
          <gpxtpx:TrackPointExtension>
            <gpxtpx:hr>127</gpxtpx:hr>
          </gpxtpx:TrackPointExtension>
        </extensions>
      </trkpt>
      <trkpt lat="38.83291160860001" lon="121.51630606289008">
        <ele>5.843717830255628</ele>
        <time>2026-07-11T00:16:21Z</time>
        <extensions>
          <gpxtpx:TrackPointExtension>
            <gpxtpx:hr>126</gpxtpx:hr>
          </gpxtpx:TrackPointExtension>
        </extensions>
      </trkpt>
      <trkpt lat="38.83285995480519" lon="121.51650614298367">
        <ele>5.734726485796273</ele>
        <time>2026-07-11T00:16:29Z</time>
        <extensions>
          <gpxtpx:TrackPointExtension>
            <gpxtpx:hr>123</gpxtpx:hr>
          </gpxtpx:TrackPointExtension>
        </extensions>
      </trkpt>
      <trkpt lat="38.832779224923286" lon="121.51663926233195">
        <ele>5.877667920663953</ele>
        <time>2026-07-11T00:16:36Z</time>
        <extensions>
          <gpxtpx:TrackPointExtension>
            <gpxtpx:hr>125</gpxtpx:hr>
          </gpxtpx:TrackPointExtension>
        </extensions>
      </trkpt>
      <trkpt lat="38.83272784291144" lon="121.5166862927345">
        <ele>5.918068953789771</ele>
        <time>2026-07-11T00:16:39Z</time>
        <extensions>
          <gpxtpx:TrackPointExtension>
            <gpxtpx:hr>126</gpxtpx:hr>
          </gpxtpx:TrackPointExtension>
        </extensions>
      </trkpt>
      <trkpt lat="38.832435926047545" lon="121.51672609728269">
        <ele>6.171052274294198</ele>
        <time>2026-07-11T00:16:54Z</time>
        <extensions>
          <gpxtpx:TrackPointExtension>
            <gpxtpx:hr>131</gpxtpx:hr>
          </gpxtpx:TrackPointExtension>
        </extensions>
      </trkpt>
      <trkpt lat="38.83213459513414" lon="121.51673693312657">
        <ele>5.338260756805539</ele>
        <time>2026-07-11T00:17:09Z</time>
        <extensions>
          <gpxtpx:TrackPointExtension>
            <gpxtpx:hr>134</gpxtpx:hr>
          </gpxtpx:TrackPointExtension>
        </extensions>
      </trkpt>
      <trkpt lat="38.83182743751832" lon="121.51666762388899">
        <ele>4.74997007008642</ele>
        <time>2026-07-11T00:17:24Z</time>
        <extensions>
          <gpxtpx:TrackPointExtension>
            <gpxtpx:hr>134</gpxtpx:hr>
          </gpxtpx:TrackPointExtension>
        </extensions>
      </trkpt>
      <trkpt lat="38.831659839013525" lon="121.51656276950504">
        <ele>4.583796941675246</ele>
        <time>2026-07-11T00:17:33Z</time>
        <extensions>
          <gpxtpx:TrackPointExtension>
            <gpxtpx:hr>132</gpxtpx:hr>
          </gpxtpx:TrackPointExtension>
        </extensions>
      </trkpt>
      <trkpt lat="38.831594704617515" lon="121.51654667659109">
        <ele>4.831858101300895</ele>
        <time>2026-07-11T00:17:36Z</time>
        <extensions>
          <gpxtpx:TrackPointExtension>
            <gpxtpx:hr>130</gpxtpx:hr>
          </gpxtpx:TrackPointExtension>
        </extensions>
      </trkpt>
      <trkpt lat="38.8313677244249" lon="121.51629673627107">
        <ele>6.128104258328676</ele>
        <time>2026-07-11T00:17:51Z</time>
        <extensions>
          <gpxtpx:TrackPointExtension>
            <gpxtpx:hr>127</gpxtpx:hr>
          </gpxtpx:TrackPointExtension>
        </extensions>
      </trkpt>
      <trkpt lat="38.831091734700955" lon="121.51607088495035">
        <ele>5.892578546889126</ele>
        <time>2026-07-11T00:18:07Z</time>
        <extensions>
          <gpxtpx:TrackPointExtension>
            <gpxtpx:hr>128</gpxtpx:hr>
          </gpxtpx:TrackPointExtension>
        </extensions>
      </trkpt>
      <trkpt lat="38.83103840244185" lon="121.51600937039835">
        <ele>5.081187001429498</ele>
        <time>2026-07-11T00:18:11Z</time>
        <extensions>
          <gpxtpx:TrackPointExtension>
            <gpxtpx:hr>127</gpxtpx:hr>
          </gpxtpx:TrackPointExtension>
        </extensions>
      </trkpt>
      <trkpt lat="38.83075163351501" lon="121.51582717769547">
        <ele>5.269705976359546</ele>
        <time>2026-07-11T00:18:27Z</time>
        <extensions>
          <gpxtpx:TrackPointExtension>
            <gpxtpx:hr>129</gpxtpx:hr>
          </gpxtpx:TrackPointExtension>
        </extensions>
      </trkpt>
      <trkpt lat="38.83060259030534" lon="121.51573175832424">
        <ele>4.786993512883782</ele>
        <time>2026-07-11T00:18:35Z</time>
        <extensions>
          <gpxtpx:TrackPointExtension>
            <gpxtpx:hr>131</gpxtpx:hr>
          </gpxtpx:TrackPointExtension>
        </extensions>
      </trkpt>
      <trkpt lat="38.830320193505386" lon="121.51560877678374">
        <ele>5.133968559093773</ele>
        <time>2026-07-11T00:18:50Z</time>
        <extensions>
          <gpxtpx:TrackPointExtension>
            <gpxtpx:hr>133</gpxtpx:hr>
          </gpxtpx:TrackPointExtension>
        </extensions>
      </trkpt>
      <trkpt lat="38.83013048379422" lon="121.51556884600998">
        <ele>5.604907801374793</ele>
        <time>2026-07-11T00:18:59Z</time>
        <extensions>
          <gpxtpx:TrackPointExtension>
            <gpxtpx:hr>134</gpxtpx:hr>
          </gpxtpx:TrackPointExtension>
        </extensions>
      </trkpt>
      <trkpt lat="38.8300222015444" lon="121.51550153583355">
        <ele>5.802043325267732</ele>
        <time>2026-07-11T00:19:05Z</time>
        <extensions>
          <gpxtpx:TrackPointExtension>
            <gpxtpx:hr>132</gpxtpx:hr>
          </gpxtpx:TrackPointExtension>
        </extensions>
      </trkpt>
      <trkpt lat="38.82998673890587" lon="121.51533167051065">
        <ele>6.579774194397032</ele>
        <time>2026-07-11T00:19:11Z</time>
        <extensions>
          <gpxtpx:TrackPointExtension>
            <gpxtpx:hr>129</gpxtpx:hr>
          </gpxtpx:TrackPointExtension>
        </extensions>
      </trkpt>
      <trkpt lat="38.83012553722849" lon="121.51513886135788">
        <ele>5.067815160378814</ele>
        <time>2026-07-11T00:19:20Z</time>
        <extensions>
          <gpxtpx:TrackPointExtension>
            <gpxtpx:hr>129</gpxtpx:hr>
          </gpxtpx:TrackPointExtension>
        </extensions>
      </trkpt>
      <trkpt lat="38.83018255844375" lon="121.5151148957745">
        <ele>5.336377803236246</ele>
        <time>2026-07-11T00:19:23Z</time>
        <extensions>
          <gpxtpx:TrackPointExtension>
            <gpxtpx:hr>129</gpxtpx:hr>
          </gpxtpx:TrackPointExtension>
        </extensions>
      </trkpt>
      <trkpt lat="38.83030870106549" lon="121.51517224970391">
        <ele>5.355830090120435</ele>
        <time>2026-07-11T00:19:29Z</time>
        <extensions>
          <gpxtpx:TrackPointExtension>
            <gpxtpx:hr>136</gpxtpx:hr>
          </gpxtpx:TrackPointExtension>
        </extensions>
      </trkpt>
      <trkpt lat="38.83059028274224" lon="121.51539919272894">
        <ele>5.269512057304382</ele>
        <time>2026-07-11T00:19:44Z</time>
        <extensions>
          <gpxtpx:TrackPointExtension>
            <gpxtpx:hr>134</gpxtpx:hr>
          </gpxtpx:TrackPointExtension>
        </extensions>
      </trkpt>
      <trkpt lat="38.83084965639578" lon="121.51561484122143">
        <ele>5.120665446855128</ele>
        <time>2026-07-11T00:19:59Z</time>
        <extensions>
          <gpxtpx:TrackPointExtension>
            <gpxtpx:hr>133</gpxtpx:hr>
          </gpxtpx:TrackPointExtension>
        </extensions>
      </trkpt>
      <trkpt lat="38.830906973100994" lon="121.51565997817512">
        <ele>5.149639152921736</ele>
        <time>2026-07-11T00:20:02Z</time>
        <extensions>
          <gpxtpx:TrackPointExtension>
            <gpxtpx:hr>133</gpxtpx:hr>
          </gpxtpx:TrackPointExtension>
        </extensions>
      </trkpt>
      <trkpt lat="38.83117639483604" lon="121.51569584583208">
        <ele>5.7752490267157555</ele>
        <time>2026-07-11T00:20:16Z</time>
        <extensions>
          <gpxtpx:TrackPointExtension>
            <gpxtpx:hr>129</gpxtpx:hr>
          </gpxtpx:TrackPointExtension>
        </extensions>
      </trkpt>
      <trkpt lat="38.83123644611732" lon="121.51571601649933">
        <ele>5.808595875278115</ele>
        <time>2026-07-11T00:20:19Z</time>
        <extensions>
          <gpxtpx:TrackPointExtension>
            <gpxtpx:hr>129</gpxtpx:hr>
          </gpxtpx:TrackPointExtension>
        </extensions>
      </trkpt>
      <trkpt lat="38.83149157011507" lon="121.51587286462681">
        <ele>6.266947036609054</ele>
        <time>2026-07-11T00:20:32Z</time>
        <extensions>
          <gpxtpx:TrackPointExtension>
            <gpxtpx:hr>132</gpxtpx:hr>
          </gpxtpx:TrackPointExtension>
        </extensions>
      </trkpt>
      <trkpt lat="38.83165647883691" lon="121.51599496622892">
        <ele>7.093181289732456</ele>
        <time>2026-07-11T00:20:41Z</time>
        <extensions>
          <gpxtpx:TrackPointExtension>
            <gpxtpx:hr>132</gpxtpx:hr>
          </gpxtpx:TrackPointExtension>
        </extensions>
      </trkpt>
      <trkpt lat="38.83169717462473" lon="121.51605008300051">
        <ele>6.94849375449121</ele>
        <time>2026-07-11T00:20:44Z</time>
        <extensions>
          <gpxtpx:TrackPointExtension>
            <gpxtpx:hr>132</gpxtpx:hr>
          </gpxtpx:TrackPointExtension>
        </extensions>
      </trkpt>
      <trkpt lat="38.83197549649349" lon="121.51617598241634">
        <ele>7.309600645676255</ele>
        <time>2026-07-11T00:20:59Z</time>
        <extensions>
          <gpxtpx:TrackPointExtension>
            <gpxtpx:hr>131</gpxtpx:hr>
          </gpxtpx:TrackPointExtension>
        </extensions>
      </trkpt>
      <trkpt lat="38.83214804293965" lon="121.51617884423922">
        <ele>7.797256223857403</ele>
        <time>2026-07-11T00:21:08Z</time>
        <extensions>
          <gpxtpx:TrackPointExtension>
            <gpxtpx:hr>133</gpxtpx:hr>
          </gpxtpx:TrackPointExtension>
        </extensions>
      </trkpt>
      <trkpt lat="38.8323177339845" lon="121.51614993642117">
        <ele>9.580932912416756</ele>
        <time>2026-07-11T00:21:17Z</time>
        <extensions>
          <gpxtpx:TrackPointExtension>
            <gpxtpx:hr>134</gpxtpx:hr>
          </gpxtpx:TrackPointExtension>
        </extensions>
      </trkpt>
      <trkpt lat="38.83261043847509" lon="121.51601362306968">
        <ele>9.521554136648774</ele>
        <time>2026-07-11T00:21:32Z</time>
        <extensions>
          <gpxtpx:TrackPointExtension>
            <gpxtpx:hr>133</gpxtpx:hr>
          </gpxtpx:TrackPointExtension>
        </extensions>
      </trkpt>
      <trkpt lat="38.832857969590115" lon="121.51577693956811">
        <ele>7.838937692344189</ele>
        <time>2026-07-11T00:21:48Z</time>
        <extensions>
          <gpxtpx:TrackPointExtension>
            <gpxtpx:hr>132</gpxtpx:hr>
          </gpxtpx:TrackPointExtension>
        </extensions>
      </trkpt>
      <trkpt lat="38.8329695258399" lon="121.51560413186809">
        <ele>7.063984363339841</ele>
        <time>2026-07-11T00:21:56Z</time>
        <extensions>
          <gpxtpx:TrackPointExtension>
            <gpxtpx:hr>131</gpxtpx:hr>
          </gpxtpx:TrackPointExtension>
        </extensions>
      </trkpt>
      <trkpt lat="38.833005222982216" lon="121.51544351797078">
        <ele>7.244857596233487</ele>
        <time>2026-07-11T00:22:02Z</time>
        <extensions>
          <gpxtpx:TrackPointExtension>
            <gpxtpx:hr>131</gpxtpx:hr>
          </gpxtpx:TrackPointExtension>
        </extensions>
      </trkpt>
      <trkpt lat="38.83307960107527" lon="121.51531406435393">
        <ele>5.540047286078334</ele>
        <time>2026-07-11T00:22:08Z</time>
        <extensions>
          <gpxtpx:TrackPointExtension>
            <gpxtpx:hr>131</gpxtpx:hr>
          </gpxtpx:TrackPointExtension>
        </extensions>
      </trkpt>
      <trkpt lat="38.833185454027586" lon="121.51491440877957">
        <ele>7.44832297693938</ele>
        <time>2026-07-11T00:22:24Z</time>
        <extensions>
          <gpxtpx:TrackPointExtension>
            <gpxtpx:hr>135</gpxtpx:hr>
          </gpxtpx:TrackPointExtension>
        </extensions>
      </trkpt>
      <trkpt lat="38.833315807461084" lon="121.51454395980554">
        <ele>7.62182314042002</ele>
        <time>2026-07-11T00:22:40Z</time>
        <extensions>
          <gpxtpx:TrackPointExtension>
            <gpxtpx:hr>134</gpxtpx:hr>
          </gpxtpx:TrackPointExtension>
        </extensions>
      </trkpt>
      <trkpt lat="38.833440734168" lon="121.51415890789723">
        <ele>7.7372821141034365</ele>
        <time>2026-07-11T00:22:56Z</time>
        <extensions>
          <gpxtpx:TrackPointExtension>
            <gpxtpx:hr>137</gpxtpx:hr>
          </gpxtpx:TrackPointExtension>
        </extensions>
      </trkpt>
      <trkpt lat="38.833554880315624" lon="121.51379933061442">
        <ele>7.908881727606058</ele>
        <time>2026-07-11T00:23:11Z</time>
        <extensions>
          <gpxtpx:TrackPointExtension>
            <gpxtpx:hr>135</gpxtpx:hr>
          </gpxtpx:TrackPointExtension>
        </extensions>
      </trkpt>
      <trkpt lat="38.83369582897448" lon="121.51342881739045">
        <ele>8.243104678578675</ele>
        <time>2026-07-11T00:23:26Z</time>
        <extensions>
          <gpxtpx:TrackPointExtension>
            <gpxtpx:hr>136</gpxtpx:hr>
          </gpxtpx:TrackPointExtension>
        </extensions>
      </trkpt>
      <trkpt lat="38.83372032123074" lon="121.51335819242297">
        <ele>8.1935058766976</ele>
        <time>2026-07-11T00:23:29Z</time>
        <extensions>
          <gpxtpx:TrackPointExtension>
            <gpxtpx:hr>136</gpxtpx:hr>
          </gpxtpx:TrackPointExtension>
        </extensions>
      </trkpt>
      <trkpt lat="38.83376189611501" lon="121.51330057721714">
        <ele>7.200158033519983</ele>
        <time>2026-07-11T00:23:32Z</time>
        <extensions>
          <gpxtpx:TrackPointExtension>
            <gpxtpx:hr>137</gpxtpx:hr>
          </gpxtpx:TrackPointExtension>
        </extensions>
      </trkpt>
      <trkpt lat="38.83375547714789" lon="121.51321469560433">
        <ele>7.098597484640777</ele>
        <time>2026-07-11T00:23:35Z</time>
        <extensions>
          <gpxtpx:TrackPointExtension>
            <gpxtpx:hr>139</gpxtpx:hr>
          </gpxtpx:TrackPointExtension>
        </extensions>
      </trkpt>
      <trkpt lat="38.833872186015284" lon="121.5128493740508">
        <ele>9.541855657473207</ele>
        <time>2026-07-11T00:23:50Z</time>
        <extensions>
          <gpxtpx:TrackPointExtension>
            <gpxtpx:hr>137</gpxtpx:hr>
          </gpxtpx:TrackPointExtension>
        </extensions>
      </trkpt>
      <trkpt lat="38.83389029560596" lon="121.51277060141105">
        <ele>10.10211222525686</ele>
        <time>2026-07-11T00:23:53Z</time>
        <extensions>
          <gpxtpx:TrackPointExtension>
            <gpxtpx:hr>137</gpxtpx:hr>
          </gpxtpx:TrackPointExtension>
        </extensions>
      </trkpt>
      <trkpt lat="38.83402124554775" lon="121.512419484763">
        <ele>8.79398662596941</ele>
        <time>2026-07-11T00:24:08Z</time>
        <extensions>
          <gpxtpx:TrackPointExtension>
            <gpxtpx:hr>139</gpxtpx:hr>
          </gpxtpx:TrackPointExtension>
        </extensions>
      </trkpt>
      <trkpt lat="38.83415155863564" lon="121.51201611891321">
        <ele>9.107031651772559</ele>
        <time>2026-07-11T00:24:24Z</time>
        <extensions>
          <gpxtpx:TrackPointExtension>
            <gpxtpx:hr>139</gpxtpx:hr>
          </gpxtpx:TrackPointExtension>
        </extensions>
      </trkpt>
      <trkpt lat="38.83418100836243" lon="121.511876821569">
        <ele>9.06639073509723</ele>
        <time>2026-07-11T00:24:31Z</time>
        <extensions>
          <gpxtpx:TrackPointExtension>
            <gpxtpx:hr>140</gpxtpx:hr>
          </gpxtpx:TrackPointExtension>
        </extensions>
      </trkpt>
      <trkpt lat="38.834304230190696" lon="121.51161923435122">
        <ele>8.624098954722285</ele>
        <time>2026-07-11T00:24:52Z</time>
        <extensions>
          <gpxtpx:TrackPointExtension>
            <gpxtpx:hr>132</gpxtpx:hr>
          </gpxtpx:TrackPointExtension>
        </extensions>
      </trkpt>
      <trkpt lat="38.83440883744513" lon="121.51125940991453">
        <ele>8.908450515009463</ele>
        <time>2026-07-11T00:25:07Z</time>
        <extensions>
          <gpxtpx:TrackPointExtension>
            <gpxtpx:hr>132</gpxtpx:hr>
          </gpxtpx:TrackPointExtension>
        </extensions>
      </trkpt>
      <trkpt lat="38.83445542674957" lon="121.51113704648537">
        <ele>9.563396143727005</ele>
        <time>2026-07-11T00:25:16Z</time>
        <extensions>
          <gpxtpx:TrackPointExtension>
            <gpxtpx:hr>131</gpxtpx:hr>
          </gpxtpx:TrackPointExtension>
        </extensions>
      </trkpt>
    </trkseg>
  </trk>
</gpx>