<?xml version="1.0" encoding="UTF-8"?>
<gpx xmlns="http://www.topografix.com/GPX/1/1" xmlns:gpxtpx="http://www.garmin.com/xmlschemas/TrackPointExtension/v1" xmlns:xsi="http://www.w3.org/2001/XMLSchema-instance" xsi:schemaLocation="http://www.topografix.com/GPX/1/1 http://www.topografix.com/GPX/1/1/gpx.xsd" version="1.1" creator="gpx.py -- https://github.com/tkrajina/gpxpy">
  <trk>
    <name>gpx from keep</name>
    <type>Run</type>
    <trkseg>
      <trkpt lat="38.83305904838626" lon="121.50688487918265">
        <ele>3.0051897477086342</ele>
        <time>2025-05-22T05:39:27Z</time>
      </trkpt>
      <trkpt lat="38.833015617166005" lon="121.50681061606477">
        <ele>2.7951483089593534</ele>
        <time>2025-05-22T05:39:31Z</time>
      </trkpt>
      <trkpt lat="38.832848917257806" lon="121.50663278012279">
        <ele>2.6176640642806888</ele>
        <time>2025-05-22T05:39:39Z</time>
      </trkpt>
      <trkpt lat="38.832571681066455" lon="121.50652912587815">
        <ele>1.7172091910615563</ele>
        <time>2025-05-22T05:39:52Z</time>
      </trkpt>
      <trkpt lat="38.832304709389945" lon="121.50646436471892">
        <ele>1.4555501993745565</ele>
        <time>2025-05-22T05:40:04Z</time>
      </trkpt>
      <trkpt lat="38.83218901701377" lon="121.50637398075142">
        <ele>2.700835842639208</ele>
        <time>2025-05-22T05:40:10Z</time>
      </trkpt>
      <trkpt lat="38.832049274594084" lon="121.50618728955065">
        <ele>3.3204841585829854</ele>
        <time>2025-05-22T05:40:19Z</time>
      </trkpt>
      <trkpt lat="38.831993342893085" lon="121.50603862569871">
        <ele>2.2818097323179245</ele>
        <time>2025-05-22T05:40:25Z</time>
      </trkpt>
      <trkpt lat="38.83192589043678" lon="121.5058047274455">
        <ele>3.576690373942256</ele>
        <time>2025-05-22T05:40:34Z</time>
      </trkpt>
      <trkpt lat="38.831809536856696" lon="121.50559740593532">
        <ele>3.36109996214509</ele>
        <time>2025-05-22T05:40:43Z</time>
      </trkpt>
      <trkpt lat="38.831665521773566" lon="121.50544567437105">
        <ele>2.8068472295999527</ele>
        <time>2025-05-22T05:40:52Z</time>
      </trkpt>
      <trkpt lat="38.831411280846915" lon="121.50531955164173">
        <ele>2.9199030213057995</ele>
        <time>2025-05-22T05:41:04Z</time>
      </trkpt>
      <trkpt lat="38.831120339768766" lon="121.50530000319748">
        <ele>2.472967691719532</ele>
        <time>2025-05-22T05:41:16Z</time>
      </trkpt>
      <trkpt lat="38.830931096150124" lon="121.50533648481671">
        <ele>3.103397184982896</ele>
        <time>2025-05-22T05:41:25Z</time>
        <extensions>
          <gpxtpx:TrackPointExtension>
            <gpxtpx:hr>129</gpxtpx:hr>
          </gpxtpx:TrackPointExtension>
        </extensions>
      </trkpt>
      <trkpt lat="38.83085203239204" lon="121.50532590170552">
        <ele>3.3665309995412827</ele>
        <time>2025-05-22T05:41:28Z</time>
        <extensions>
          <gpxtpx:TrackPointExtension>
            <gpxtpx:hr>129</gpxtpx:hr>
          </gpxtpx:TrackPointExtension>
        </extensions>
      </trkpt>
      <trkpt lat="38.830790157517" lon="121.50528504349772">
        <ele>2.789035761728883</ele>
        <time>2025-05-22T05:41:31Z</time>
        <extensions>
          <gpxtpx:TrackPointExtension>
            <gpxtpx:hr>129</gpxtpx:hr>
          </gpxtpx:TrackPointExtension>
        </extensions>
      </trkpt>
      <trkpt lat="38.83057815010225" lon="121.50504865299307">
        <ele>2.650323868729174</ele>
        <time>2025-05-22T05:41:44Z</time>
        <extensions>
          <gpxtpx:TrackPointExtension>
            <gpxtpx:hr>129</gpxtpx:hr>
          </gpxtpx:TrackPointExtension>
        </extensions>
      </trkpt>
      <trkpt lat="38.830520257791626" lon="121.5049913959308">
        <ele>2.0570841608569026</ele>
        <time>2025-05-22T05:41:47Z</time>
        <extensions>
          <gpxtpx:TrackPointExtension>
            <gpxtpx:hr>129</gpxtpx:hr>
          </gpxtpx:TrackPointExtension>
        </extensions>
      </trkpt>
      <trkpt lat="38.8304045877196" lon="121.50491727088445">
        <ele>2.422276304103434</ele>
        <time>2025-05-22T05:41:53Z</time>
        <extensions>
          <gpxtpx:TrackPointExtension>
            <gpxtpx:hr>129</gpxtpx:hr>
          </gpxtpx:TrackPointExtension>
        </extensions>
      </trkpt>
      <trkpt lat="38.830293385115596" lon="121.50479542221095">
        <ele>2.8423705771565437</ele>
        <time>2025-05-22T05:42:02Z</time>
      </trkpt>
      <trkpt lat="38.83001398104931" lon="121.50469181706089">
        <ele>2.67757916636765</ele>
        <time>2025-05-22T05:42:14Z</time>
      </trkpt>
      <trkpt lat="38.8297746359435" lon="121.50440602892614">
        <ele>1.7006874484941363</ele>
        <time>2025-05-22T05:42:29Z</time>
        <extensions>
          <gpxtpx:TrackPointExtension>
            <gpxtpx:hr>129</gpxtpx:hr>
          </gpxtpx:TrackPointExtension>
        </extensions>
      </trkpt>
      <trkpt lat="38.82970787621268" lon="121.50432645040728">
        <ele>2.761855950579047</ele>
        <time>2025-05-22T05:42:33Z</time>
        <extensions>
          <gpxtpx:TrackPointExtension>
            <gpxtpx:hr>129</gpxtpx:hr>
          </gpxtpx:TrackPointExtension>
        </extensions>
      </trkpt>
      <trkpt lat="38.82964106942836" lon="121.50431786618313">
        <ele>3.2218116484582424</ele>
        <time>2025-05-22T05:42:36Z</time>
        <extensions>
          <gpxtpx:TrackPointExtension>
            <gpxtpx:hr>128</gpxtpx:hr>
          </gpxtpx:TrackPointExtension>
        </extensions>
      </trkpt>
      <trkpt lat="38.8295898536465" lon="121.5042625226332">
        <ele>2.323998720385134</ele>
        <time>2025-05-22T05:42:39Z</time>
        <extensions>
          <gpxtpx:TrackPointExtension>
            <gpxtpx:hr>128</gpxtpx:hr>
          </gpxtpx:TrackPointExtension>
        </extensions>
      </trkpt>
      <trkpt lat="38.829309478964284" lon="121.50408378720302">
        <ele>-0.34256468806415796</ele>
        <time>2025-05-22T05:42:54Z</time>
        <extensions>
          <gpxtpx:TrackPointExtension>
            <gpxtpx:hr>126</gpxtpx:hr>
          </gpxtpx:TrackPointExtension>
        </extensions>
      </trkpt>
      <trkpt lat="38.829009257431444" lon="121.50403198566283">
        <ele>2.875761947594583</ele>
        <time>2025-05-22T05:43:06Z</time>
        <extensions>
          <gpxtpx:TrackPointExtension>
            <gpxtpx:hr>128</gpxtpx:hr>
          </gpxtpx:TrackPointExtension>
        </extensions>
      </trkpt>
      <trkpt lat="38.82893218047355" lon="121.5039983086122">
        <ele>2.829476250335574</ele>
        <time>2025-05-22T05:43:09Z</time>
        <extensions>
          <gpxtpx:TrackPointExtension>
            <gpxtpx:hr>130</gpxtpx:hr>
          </gpxtpx:TrackPointExtension>
        </extensions>
      </trkpt>
      <trkpt lat="38.82861099973021" lon="121.50407353209192">
        <ele>0.9671991700306535</ele>
        <time>2025-05-22T05:43:24Z</time>
        <extensions>
          <gpxtpx:TrackPointExtension>
            <gpxtpx:hr>131</gpxtpx:hr>
          </gpxtpx:TrackPointExtension>
        </extensions>
      </trkpt>
      <trkpt lat="38.828389336414254" lon="121.50410415580012">
        <ele>2.376661160029471</ele>
        <time>2025-05-22T05:43:33Z</time>
        <extensions>
          <gpxtpx:TrackPointExtension>
            <gpxtpx:hr>131</gpxtpx:hr>
          </gpxtpx:TrackPointExtension>
        </extensions>
      </trkpt>
      <trkpt lat="38.82825510405036" lon="121.50406989691162">
        <ele>2.5374840181320906</ele>
        <time>2025-05-22T05:43:39Z</time>
        <extensions>
          <gpxtpx:TrackPointExtension>
            <gpxtpx:hr>131</gpxtpx:hr>
          </gpxtpx:TrackPointExtension>
        </extensions>
      </trkpt>
      <trkpt lat="38.82816248752804" lon="121.50401744571394">
        <ele>2.3323582634329796</ele>
        <time>2025-05-22T05:43:43Z</time>
        <extensions>
          <gpxtpx:TrackPointExtension>
            <gpxtpx:hr>131</gpxtpx:hr>
          </gpxtpx:TrackPointExtension>
        </extensions>
      </trkpt>
      <trkpt lat="38.82805388997967" lon="121.50387844095782">
        <ele>1.9390214262530208</ele>
        <time>2025-05-22T05:43:49Z</time>
        <extensions>
          <gpxtpx:TrackPointExtension>
            <gpxtpx:hr>134</gpxtpx:hr>
          </gpxtpx:TrackPointExtension>
        </extensions>
      </trkpt>
      <trkpt lat="38.82799456327647" lon="121.50382731817787">
        <ele>1.8762907702475786</ele>
        <time>2025-05-22T05:43:52Z</time>
        <extensions>
          <gpxtpx:TrackPointExtension>
            <gpxtpx:hr>134</gpxtpx:hr>
          </gpxtpx:TrackPointExtension>
        </extensions>
      </trkpt>
      <trkpt lat="38.82791824386373" lon="121.50364957710595">
        <ele>2.1747602354735136</ele>
        <time>2025-05-22T05:43:58Z</time>
        <extensions>
          <gpxtpx:TrackPointExtension>
            <gpxtpx:hr>138</gpxtpx:hr>
          </gpxtpx:TrackPointExtension>
        </extensions>
      </trkpt>
      <trkpt lat="38.827868473605555" lon="121.50338796352185">
        <ele>1.7042667241767049</ele>
        <time>2025-05-22T05:44:07Z</time>
        <extensions>
          <gpxtpx:TrackPointExtension>
            <gpxtpx:hr>138</gpxtpx:hr>
          </gpxtpx:TrackPointExtension>
        </extensions>
      </trkpt>
      <trkpt lat="38.82777861555587" lon="121.50323947458426">
        <ele>2.645772760733962</ele>
        <time>2025-05-22T05:44:13Z</time>
        <extensions>
          <gpxtpx:TrackPointExtension>
            <gpxtpx:hr>140</gpxtpx:hr>
          </gpxtpx:TrackPointExtension>
        </extensions>
      </trkpt>
      <trkpt lat="38.827707108669735" lon="121.50320333224906">
        <ele>1.5298505136743188</ele>
        <time>2025-05-22T05:44:16Z</time>
        <extensions>
          <gpxtpx:TrackPointExtension>
            <gpxtpx:hr>140</gpxtpx:hr>
          </gpxtpx:TrackPointExtension>
        </extensions>
      </trkpt>
      <trkpt lat="38.827644507940505" lon="121.50314323452618">
        <ele>2.5516186906024814</ele>
        <time>2025-05-22T05:44:19Z</time>
        <extensions>
          <gpxtpx:TrackPointExtension>
            <gpxtpx:hr>138</gpxtpx:hr>
          </gpxtpx:TrackPointExtension>
        </extensions>
      </trkpt>
      <trkpt lat="38.827605095038855" lon="121.50306876870091">
        <ele>2.0962752671912313</ele>
        <time>2025-05-22T05:44:22Z</time>
        <extensions>
          <gpxtpx:TrackPointExtension>
            <gpxtpx:hr>137</gpxtpx:hr>
          </gpxtpx:TrackPointExtension>
        </extensions>
      </trkpt>
      <trkpt lat="38.827471997924896" lon="121.50300548966393">
        <ele>2.5226663192734122</ele>
        <time>2025-05-22T05:44:28Z</time>
        <extensions>
          <gpxtpx:TrackPointExtension>
            <gpxtpx:hr>137</gpxtpx:hr>
          </gpxtpx:TrackPointExtension>
        </extensions>
      </trkpt>
      <trkpt lat="38.82724779302067" lon="121.50300435363515">
        <ele>1.8272948563098907</ele>
        <time>2025-05-22T05:44:37Z</time>
        <extensions>
          <gpxtpx:TrackPointExtension>
            <gpxtpx:hr>137</gpxtpx:hr>
          </gpxtpx:TrackPointExtension>
        </extensions>
      </trkpt>
      <trkpt lat="38.82709921093705" lon="121.50306752767459">
        <ele>1.8519331654533744</ele>
        <time>2025-05-22T05:44:43Z</time>
        <extensions>
          <gpxtpx:TrackPointExtension>
            <gpxtpx:hr>136</gpxtpx:hr>
          </gpxtpx:TrackPointExtension>
        </extensions>
      </trkpt>
      <trkpt lat="38.826991172415966" lon="121.50316050437814">
        <ele>1.9923169240355492</ele>
        <time>2025-05-22T05:44:49Z</time>
        <extensions>
          <gpxtpx:TrackPointExtension>
            <gpxtpx:hr>138</gpxtpx:hr>
          </gpxtpx:TrackPointExtension>
        </extensions>
      </trkpt>
      <trkpt lat="38.82689199946111" lon="121.50329864670206">
        <ele>2.4657786218449473</ele>
        <time>2025-05-22T05:44:55Z</time>
        <extensions>
          <gpxtpx:TrackPointExtension>
            <gpxtpx:hr>139</gpxtpx:hr>
          </gpxtpx:TrackPointExtension>
        </extensions>
      </trkpt>
      <trkpt lat="38.826719211816055" lon="121.50345396259598">
        <ele>1.160833427682519</ele>
        <time>2025-05-22T05:45:04Z</time>
        <extensions>
          <gpxtpx:TrackPointExtension>
            <gpxtpx:hr>141</gpxtpx:hr>
          </gpxtpx:TrackPointExtension>
        </extensions>
      </trkpt>
      <trkpt lat="38.826683386094615" lon="121.503556689885">
        <ele>1.6049836790189147</ele>
        <time>2025-05-22T05:45:07Z</time>
        <extensions>
          <gpxtpx:TrackPointExtension>
            <gpxtpx:hr>140</gpxtpx:hr>
          </gpxtpx:TrackPointExtension>
        </extensions>
      </trkpt>
      <trkpt lat="38.82663855661985" lon="121.50362307145559">
        <ele>2.4460829254239798</ele>
        <time>2025-05-22T05:45:10Z</time>
        <extensions>
          <gpxtpx:TrackPointExtension>
            <gpxtpx:hr>140</gpxtpx:hr>
          </gpxtpx:TrackPointExtension>
        </extensions>
      </trkpt>
      <trkpt lat="38.82657776142649" lon="121.50380381934558">
        <ele>2.925368740223348</ele>
        <time>2025-05-22T05:45:16Z</time>
        <extensions>
          <gpxtpx:TrackPointExtension>
            <gpxtpx:hr>143</gpxtpx:hr>
          </gpxtpx:TrackPointExtension>
        </extensions>
      </trkpt>
      <trkpt lat="38.826570663260426" lon="121.50409205633774">
        <ele>2.6782796885818243</ele>
        <time>2025-05-22T05:45:25Z</time>
        <extensions>
          <gpxtpx:TrackPointExtension>
            <gpxtpx:hr>143</gpxtpx:hr>
          </gpxtpx:TrackPointExtension>
        </extensions>
      </trkpt>
      <trkpt lat="38.82658437231382" lon="121.50427396764955">
        <ele>2.0033577792346478</ele>
        <time>2025-05-22T05:45:31Z</time>
        <extensions>
          <gpxtpx:TrackPointExtension>
            <gpxtpx:hr>143</gpxtpx:hr>
          </gpxtpx:TrackPointExtension>
        </extensions>
      </trkpt>
      <trkpt lat="38.82648335369848" lon="121.50462710128036">
        <ele>2.3705523274838924</ele>
        <time>2025-05-22T05:45:43Z</time>
        <extensions>
          <gpxtpx:TrackPointExtension>
            <gpxtpx:hr>144</gpxtpx:hr>
          </gpxtpx:TrackPointExtension>
        </extensions>
      </trkpt>
      <trkpt lat="38.82638275007415" lon="121.50481810797089">
        <ele>2.4425683058798313</ele>
        <time>2025-05-22T05:45:50Z</time>
        <extensions>
          <gpxtpx:TrackPointExtension>
            <gpxtpx:hr>144</gpxtpx:hr>
          </gpxtpx:TrackPointExtension>
        </extensions>
      </trkpt>
      <trkpt lat="38.82626410360749" lon="121.50492279188121">
        <ele>1.6995588401332498</ele>
        <time>2025-05-22T05:45:56Z</time>
        <extensions>
          <gpxtpx:TrackPointExtension>
            <gpxtpx:hr>144</gpxtpx:hr>
          </gpxtpx:TrackPointExtension>
        </extensions>
      </trkpt>
      <trkpt lat="38.826233115122704" lon="121.50487848909165">
        <ele>1.3515770118683577</ele>
        <time>2025-05-22T05:45:59Z</time>
        <extensions>
          <gpxtpx:TrackPointExtension>
            <gpxtpx:hr>145</gpxtpx:hr>
          </gpxtpx:TrackPointExtension>
        </extensions>
      </trkpt>
      <trkpt lat="38.826357393027706" lon="121.50475231881829">
        <ele>1.6334811998531222</ele>
        <time>2025-05-22T05:46:05Z</time>
        <extensions>
          <gpxtpx:TrackPointExtension>
            <gpxtpx:hr>145</gpxtpx:hr>
          </gpxtpx:TrackPointExtension>
        </extensions>
      </trkpt>
      <trkpt lat="38.826393750331704" lon="121.5046808755492">
        <ele>1.896114923991263</ele>
        <time>2025-05-22T05:46:08Z</time>
        <extensions>
          <gpxtpx:TrackPointExtension>
            <gpxtpx:hr>145</gpxtpx:hr>
          </gpxtpx:TrackPointExtension>
        </extensions>
      </trkpt>
      <trkpt lat="38.82650316575378" lon="121.50436684633375">
        <ele>1.763370817527175</ele>
        <time>2025-05-22T05:46:20Z</time>
        <extensions>
          <gpxtpx:TrackPointExtension>
            <gpxtpx:hr>141</gpxtpx:hr>
          </gpxtpx:TrackPointExtension>
        </extensions>
      </trkpt>
      <trkpt lat="38.82657174907774" lon="121.50397646282813">
        <ele>2.18528591375798</ele>
        <time>2025-05-22T05:46:32Z</time>
        <extensions>
          <gpxtpx:TrackPointExtension>
            <gpxtpx:hr>142</gpxtpx:hr>
          </gpxtpx:TrackPointExtension>
        </extensions>
      </trkpt>
      <trkpt lat="38.82662893141111" lon="121.50361986716368">
        <ele>1.1331168543547392</ele>
        <time>2025-05-22T05:46:44Z</time>
        <extensions>
          <gpxtpx:TrackPointExtension>
            <gpxtpx:hr>143</gpxtpx:hr>
          </gpxtpx:TrackPointExtension>
        </extensions>
      </trkpt>
      <trkpt lat="38.82682214546026" lon="121.50334089739388">
        <ele>2.497182385995984</ele>
        <time>2025-05-22T05:46:56Z</time>
        <extensions>
          <gpxtpx:TrackPointExtension>
            <gpxtpx:hr>146</gpxtpx:hr>
          </gpxtpx:TrackPointExtension>
        </extensions>
      </trkpt>
      <trkpt lat="38.82688153797987" lon="121.50329475441157">
        <ele>3.1994738839566708</ele>
        <time>2025-05-22T05:46:59Z</time>
        <extensions>
          <gpxtpx:TrackPointExtension>
            <gpxtpx:hr>148</gpxtpx:hr>
          </gpxtpx:TrackPointExtension>
        </extensions>
      </trkpt>
      <trkpt lat="38.82698307469358" lon="121.50314867128756">
        <ele>2.636364756152034</ele>
        <time>2025-05-22T05:47:05Z</time>
        <extensions>
          <gpxtpx:TrackPointExtension>
            <gpxtpx:hr>148</gpxtpx:hr>
          </gpxtpx:TrackPointExtension>
        </extensions>
      </trkpt>
      <trkpt lat="38.827044936173365" lon="121.50308877739779">
        <ele>3.269999973475933</ele>
        <time>2025-05-22T05:47:08Z</time>
        <extensions>
          <gpxtpx:TrackPointExtension>
            <gpxtpx:hr>152</gpxtpx:hr>
          </gpxtpx:TrackPointExtension>
        </extensions>
      </trkpt>
      <trkpt lat="38.827246017110674" lon="121.50298421434704">
        <ele>3.002568392083049</ele>
        <time>2025-05-22T05:47:17Z</time>
        <extensions>
          <gpxtpx:TrackPointExtension>
            <gpxtpx:hr>154</gpxtpx:hr>
          </gpxtpx:TrackPointExtension>
        </extensions>
      </trkpt>
      <trkpt lat="38.82747904368413" lon="121.5030214257533">
        <ele>3.058078565634787</ele>
        <time>2025-05-22T05:47:26Z</time>
        <extensions>
          <gpxtpx:TrackPointExtension>
            <gpxtpx:hr>154</gpxtpx:hr>
          </gpxtpx:TrackPointExtension>
        </extensions>
      </trkpt>
      <trkpt lat="38.82763293830206" lon="121.50309416455494">
        <ele>2.5598690193146467</ele>
        <time>2025-05-22T05:47:32Z</time>
        <extensions>
          <gpxtpx:TrackPointExtension>
            <gpxtpx:hr>156</gpxtpx:hr>
          </gpxtpx:TrackPointExtension>
        </extensions>
      </trkpt>
      <trkpt lat="38.827692822239705" lon="121.50318059704352">
        <ele>2.675832941196859</ele>
        <time>2025-05-22T05:47:35Z</time>
        <extensions>
          <gpxtpx:TrackPointExtension>
            <gpxtpx:hr>156</gpxtpx:hr>
          </gpxtpx:TrackPointExtension>
        </extensions>
      </trkpt>
      <trkpt lat="38.82775497787496" lon="121.50322396646793">
        <ele>3.068549090065062</ele>
        <time>2025-05-22T05:47:38Z</time>
        <extensions>
          <gpxtpx:TrackPointExtension>
            <gpxtpx:hr>155</gpxtpx:hr>
          </gpxtpx:TrackPointExtension>
        </extensions>
      </trkpt>
      <trkpt lat="38.82781871473165" lon="121.50322313496251">
        <ele>1.6332566430792212</ele>
        <time>2025-05-22T05:47:41Z</time>
        <extensions>
          <gpxtpx:TrackPointExtension>
            <gpxtpx:hr>155</gpxtpx:hr>
          </gpxtpx:TrackPointExtension>
        </extensions>
      </trkpt>
      <trkpt lat="38.82793793584693" lon="121.5036641905962">
        <ele>3.272817585617304</ele>
        <time>2025-05-22T05:47:54Z</time>
        <extensions>
          <gpxtpx:TrackPointExtension>
            <gpxtpx:hr>154</gpxtpx:hr>
          </gpxtpx:TrackPointExtension>
        </extensions>
      </trkpt>
      <trkpt lat="38.828073031443154" lon="121.50390937412119">
        <ele>1.9093190236017108</ele>
        <time>2025-05-22T05:48:04Z</time>
        <extensions>
          <gpxtpx:TrackPointExtension>
            <gpxtpx:hr>156</gpxtpx:hr>
          </gpxtpx:TrackPointExtension>
        </extensions>
      </trkpt>
      <trkpt lat="38.82818897198612" lon="121.5040243429278">
        <ele>2.9335335670039058</ele>
        <time>2025-05-22T05:48:10Z</time>
        <extensions>
          <gpxtpx:TrackPointExtension>
            <gpxtpx:hr>156</gpxtpx:hr>
          </gpxtpx:TrackPointExtension>
        </extensions>
      </trkpt>
      <trkpt lat="38.82836486731289" lon="121.50408251740994">
        <ele>2.5267679495736957</ele>
        <time>2025-05-22T05:48:19Z</time>
        <extensions>
          <gpxtpx:TrackPointExtension>
            <gpxtpx:hr>155</gpxtpx:hr>
          </gpxtpx:TrackPointExtension>
        </extensions>
      </trkpt>
      <trkpt lat="38.82863632552296" lon="121.50404920934871">
        <ele>2.6111740674823523</ele>
        <time>2025-05-22T05:48:31Z</time>
        <extensions>
          <gpxtpx:TrackPointExtension>
            <gpxtpx:hr>151</gpxtpx:hr>
          </gpxtpx:TrackPointExtension>
        </extensions>
      </trkpt>
      <trkpt lat="38.82892226274154" lon="121.50398019421539">
        <ele>2.1444746823981404</ele>
        <time>2025-05-22T05:48:43Z</time>
        <extensions>
          <gpxtpx:TrackPointExtension>
            <gpxtpx:hr>152</gpxtpx:hr>
          </gpxtpx:TrackPointExtension>
        </extensions>
      </trkpt>
      <trkpt lat="38.828995083457876" lon="121.50398108916222">
        <ele>2.9231636906042695</ele>
        <time>2025-05-22T05:48:46Z</time>
        <extensions>
          <gpxtpx:TrackPointExtension>
            <gpxtpx:hr>150</gpxtpx:hr>
          </gpxtpx:TrackPointExtension>
        </extensions>
      </trkpt>
      <trkpt lat="38.82920541961041" lon="121.50403611196954">
        <ele>3.511852750554681</ele>
        <time>2025-05-22T05:48:55Z</time>
        <extensions>
          <gpxtpx:TrackPointExtension>
            <gpxtpx:hr>150</gpxtpx:hr>
          </gpxtpx:TrackPointExtension>
        </extensions>
      </trkpt>
      <trkpt lat="38.82946881650135" lon="121.50415197510691">
        <ele>2.547170371748507</ele>
        <time>2025-05-22T05:49:07Z</time>
        <extensions>
          <gpxtpx:TrackPointExtension>
            <gpxtpx:hr>152</gpxtpx:hr>
          </gpxtpx:TrackPointExtension>
        </extensions>
      </trkpt>
      <trkpt lat="38.82969340380583" lon="121.50434825532736">
        <ele>1.7108748918399215</ele>
        <time>2025-05-22T05:49:19Z</time>
        <extensions>
          <gpxtpx:TrackPointExtension>
            <gpxtpx:hr>150</gpxtpx:hr>
          </gpxtpx:TrackPointExtension>
        </extensions>
      </trkpt>
      <trkpt lat="38.82990450485031" lon="121.50457610783981">
        <ele>2.002070190384984</ele>
        <time>2025-05-22T05:49:31Z</time>
        <extensions>
          <gpxtpx:TrackPointExtension>
            <gpxtpx:hr>150</gpxtpx:hr>
          </gpxtpx:TrackPointExtension>
        </extensions>
      </trkpt>
      <trkpt lat="38.83006232995564" lon="121.50475568605775">
        <ele>2.6474990975111723</ele>
        <time>2025-05-22T05:49:40Z</time>
        <extensions>
          <gpxtpx:TrackPointExtension>
            <gpxtpx:hr>151</gpxtpx:hr>
          </gpxtpx:TrackPointExtension>
        </extensions>
      </trkpt>
      <trkpt lat="38.830262450638024" lon="121.50482536323685">
        <ele>3.065342288464308</ele>
        <time>2025-05-22T05:49:49Z</time>
        <extensions>
          <gpxtpx:TrackPointExtension>
            <gpxtpx:hr>152</gpxtpx:hr>
          </gpxtpx:TrackPointExtension>
        </extensions>
      </trkpt>
      <trkpt lat="38.830561592618416" lon="121.50503984768065">
        <ele>2.244742149487138</ele>
        <time>2025-05-22T05:50:02Z</time>
        <extensions>
          <gpxtpx:TrackPointExtension>
            <gpxtpx:hr>151</gpxtpx:hr>
          </gpxtpx:TrackPointExtension>
        </extensions>
      </trkpt>
      <trkpt lat="38.83068907060995" lon="121.50514475944938">
        <ele>3.6229042671620846</ele>
        <time>2025-05-22T05:50:08Z</time>
        <extensions>
          <gpxtpx:TrackPointExtension>
            <gpxtpx:hr>152</gpxtpx:hr>
          </gpxtpx:TrackPointExtension>
        </extensions>
      </trkpt>
      <trkpt lat="38.830799367248595" lon="121.5052782778784">
        <ele>2.885102242231369</ele>
        <time>2025-05-22T05:50:14Z</time>
        <extensions>
          <gpxtpx:TrackPointExtension>
            <gpxtpx:hr>153</gpxtpx:hr>
          </gpxtpx:TrackPointExtension>
        </extensions>
      </trkpt>
      <trkpt lat="38.83085681300248" lon="121.50532462376736">
        <ele>2.244288214482367</ele>
        <time>2025-05-22T05:50:17Z</time>
        <extensions>
          <gpxtpx:TrackPointExtension>
            <gpxtpx:hr>153</gpxtpx:hr>
          </gpxtpx:TrackPointExtension>
        </extensions>
      </trkpt>
      <trkpt lat="38.83099820633658" lon="121.5053454642565">
        <ele>2.949048816226423</ele>
        <time>2025-05-22T05:50:23Z</time>
        <extensions>
          <gpxtpx:TrackPointExtension>
            <gpxtpx:hr>155</gpxtpx:hr>
          </gpxtpx:TrackPointExtension>
        </extensions>
      </trkpt>
      <trkpt lat="38.831279831545984" lon="121.505285680808">
        <ele>3.626544304192066</ele>
        <time>2025-05-22T05:50:35Z</time>
        <extensions>
          <gpxtpx:TrackPointExtension>
            <gpxtpx:hr>154</gpxtpx:hr>
          </gpxtpx:TrackPointExtension>
        </extensions>
      </trkpt>
      <trkpt lat="38.83141395098209" lon="121.50530981581778">
        <ele>3.1925507225096226</ele>
        <time>2025-05-22T05:50:41Z</time>
        <extensions>
          <gpxtpx:TrackPointExtension>
            <gpxtpx:hr>154</gpxtpx:hr>
          </gpxtpx:TrackPointExtension>
        </extensions>
      </trkpt>
      <trkpt lat="38.831698863795616" lon="121.50546209050276">
        <ele>3.9833964239805937</ele>
        <time>2025-05-22T05:50:53Z</time>
        <extensions>
          <gpxtpx:TrackPointExtension>
            <gpxtpx:hr>154</gpxtpx:hr>
          </gpxtpx:TrackPointExtension>
        </extensions>
      </trkpt>
      <trkpt lat="38.83185405254573" lon="121.50566440918743">
        <ele>3.101798113435507</ele>
        <time>2025-05-22T05:51:02Z</time>
        <extensions>
          <gpxtpx:TrackPointExtension>
            <gpxtpx:hr>150</gpxtpx:hr>
          </gpxtpx:TrackPointExtension>
        </extensions>
      </trkpt>
      <trkpt lat="38.832011112475136" lon="121.50599491275273">
        <ele>2.6783867683261633</ele>
        <time>2025-05-22T05:51:14Z</time>
        <extensions>
          <gpxtpx:TrackPointExtension>
            <gpxtpx:hr>153</gpxtpx:hr>
          </gpxtpx:TrackPointExtension>
        </extensions>
      </trkpt>
      <trkpt lat="38.83205956094631" lon="121.5061741273027">
        <ele>3.612477923743427</ele>
        <time>2025-05-22T05:51:20Z</time>
        <extensions>
          <gpxtpx:TrackPointExtension>
            <gpxtpx:hr>154</gpxtpx:hr>
          </gpxtpx:TrackPointExtension>
        </extensions>
      </trkpt>
      <trkpt lat="38.83219512859955" lon="121.50638156252272">
        <ele>3.515889048576355</ele>
        <time>2025-05-22T05:51:29Z</time>
        <extensions>
          <gpxtpx:TrackPointExtension>
            <gpxtpx:hr>158</gpxtpx:hr>
          </gpxtpx:TrackPointExtension>
        </extensions>
      </trkpt>
      <trkpt lat="38.83231681755506" lon="121.50647889598409">
        <ele>2.0015388829633594</ele>
        <time>2025-05-22T05:51:35Z</time>
        <extensions>
          <gpxtpx:TrackPointExtension>
            <gpxtpx:hr>157</gpxtpx:hr>
          </gpxtpx:TrackPointExtension>
        </extensions>
      </trkpt>
      <trkpt lat="38.832521779232586" lon="121.50653739609005">
        <ele>2.3131167897954583</ele>
        <time>2025-05-22T05:51:44Z</time>
        <extensions>
          <gpxtpx:TrackPointExtension>
            <gpxtpx:hr>159</gpxtpx:hr>
          </gpxtpx:TrackPointExtension>
        </extensions>
      </trkpt>
      <trkpt lat="38.83266907997694" lon="121.50655234239753">
        <ele>2.4362570056691766</ele>
        <time>2025-05-22T05:51:50Z</time>
        <extensions>
          <gpxtpx:TrackPointExtension>
            <gpxtpx:hr>158</gpxtpx:hr>
          </gpxtpx:TrackPointExtension>
        </extensions>
      </trkpt>
      <trkpt lat="38.83287140448423" lon="121.50666878684488">
        <ele>1.547736027278006</ele>
        <time>2025-05-22T05:51:59Z</time>
        <extensions>
          <gpxtpx:TrackPointExtension>
            <gpxtpx:hr>158</gpxtpx:hr>
          </gpxtpx:TrackPointExtension>
        </extensions>
      </trkpt>
      <trkpt lat="38.83300885881969" lon="121.50679788323646">
        <ele>2.213643462397158</ele>
        <time>2025-05-22T05:52:06Z</time>
        <extensions>
          <gpxtpx:TrackPointExtension>
            <gpxtpx:hr>159</gpxtpx:hr>
          </gpxtpx:TrackPointExtension>
        </extensions>
      </trkpt>
      <trkpt lat="38.83312636397652" lon="121.50697744030315">
        <ele>2.9727859646081924</ele>
        <time>2025-05-22T05:52:13Z</time>
        <extensions>
          <gpxtpx:TrackPointExtension>
            <gpxtpx:hr>159</gpxtpx:hr>
          </gpxtpx:TrackPointExtension>
        </extensions>
      </trkpt>
      <trkpt lat="38.833220046357674" lon="121.50725423455155">
        <ele>3.601634858176112</ele>
        <time>2025-05-22T05:52:26Z</time>
        <extensions>
          <gpxtpx:TrackPointExtension>
            <gpxtpx:hr>160</gpxtpx:hr>
          </gpxtpx:TrackPointExtension>
        </extensions>
      </trkpt>
    </trkseg>
  </trk>
</gpx>