<?xml version="1.0" encoding="UTF-8"?>
<gpx xmlns="http://www.topografix.com/GPX/1/1" xmlns:gpxtpx="http://www.garmin.com/xmlschemas/TrackPointExtension/v1" xmlns:xsi="http://www.w3.org/2001/XMLSchema-instance" xsi:schemaLocation="http://www.topografix.com/GPX/1/1 http://www.topografix.com/GPX/1/1/gpx.xsd" version="1.1" creator="gpx.py -- https://github.com/tkrajina/gpxpy">
  <trk>
    <name>gpx from keep</name>
    <type>Run</type>
    <trkseg>
      <trkpt lat="38.83694750183355" lon="121.50441562831342">
        <ele>22.28691816329956</ele>
        <time>2024-10-20T14:46:22Z</time>
      </trkpt>
      <trkpt lat="38.83693938499509" lon="121.50449622288066">
        <ele>20.54253339767456</ele>
        <time>2024-10-20T14:46:29Z</time>
      </trkpt>
      <trkpt lat="38.83688218737718" lon="121.50456815326923">
        <ele>20.133903183974326</ele>
        <time>2024-10-20T14:46:41Z</time>
      </trkpt>
      <trkpt lat="38.83680564917418" lon="121.5047372555004">
        <ele>20.17131799738854</ele>
        <time>2024-10-20T14:46:49Z</time>
      </trkpt>
      <trkpt lat="38.836698985344945" lon="121.50512497041143">
        <ele>10.086403647437692</ele>
        <time>2024-10-20T14:47:09Z</time>
      </trkpt>
      <trkpt lat="38.83665861647172" lon="121.5052958634284">
        <ele>10.204451616853476</ele>
        <time>2024-10-20T14:47:17Z</time>
      </trkpt>
      <trkpt lat="38.83657959363661" lon="121.50543587449623">
        <ele>11.302136299200356</ele>
        <time>2024-10-20T14:47:25Z</time>
      </trkpt>
      <trkpt lat="38.836462261836154" lon="121.50582574305959">
        <ele>10.882547416724265</ele>
        <time>2024-10-20T14:47:45Z</time>
      </trkpt>
      <trkpt lat="38.83640242822065" lon="121.50610212131525">
        <ele>10.326040318235755</ele>
        <time>2024-10-20T14:47:57Z</time>
      </trkpt>
      <trkpt lat="38.836339623994256" lon="121.50627666470048">
        <ele>10.71284710522741</ele>
        <time>2024-10-20T14:48:05Z</time>
      </trkpt>
      <trkpt lat="38.83629945547904" lon="121.5063462587916">
        <ele>11.787723272107542</ele>
        <time>2024-10-20T14:48:09Z</time>
      </trkpt>
      <trkpt lat="38.83623398509919" lon="121.50660398532749">
        <ele>10.489963895641267</ele>
        <time>2024-10-20T14:48:21Z</time>
      </trkpt>
      <trkpt lat="38.83619419604122" lon="121.50666812190832">
        <ele>10.783613532781601</ele>
        <time>2024-10-20T14:48:25Z</time>
      </trkpt>
      <trkpt lat="38.83616828308069" lon="121.50675076840174">
        <ele>11.343057680875063</ele>
        <time>2024-10-20T14:48:29Z</time>
      </trkpt>
      <trkpt lat="38.83618815811706" lon="121.50680732613404">
        <ele>10.981298838742077</ele>
        <time>2024-10-20T14:48:32Z</time>
      </trkpt>
      <trkpt lat="38.83623906604978" lon="121.50681282454994">
        <ele>9.894520218484104</ele>
        <time>2024-10-20T14:48:35Z</time>
      </trkpt>
      <trkpt lat="38.83628334084949" lon="121.5068604729876">
        <ele>11.110795995220542</ele>
        <time>2024-10-20T14:48:38Z</time>
      </trkpt>
      <trkpt lat="38.83655161768634" lon="121.50705430030781">
        <ele>10.786748164333403</ele>
        <time>2024-10-20T14:48:56Z</time>
      </trkpt>
      <trkpt lat="38.836641440134485" lon="121.50717445339964">
        <ele>11.204016773961484</ele>
        <time>2024-10-20T14:49:12Z</time>
      </trkpt>
      <trkpt lat="38.83669339023793" lon="121.50720044600607">
        <ele>10.711346303112805</ele>
        <time>2024-10-20T14:49:16Z</time>
      </trkpt>
      <trkpt lat="38.83675524449379" lon="121.50719570008727">
        <ele>11.341088775545359</ele>
        <time>2024-10-20T14:49:20Z</time>
      </trkpt>
      <trkpt lat="38.836832860533285" lon="121.50715877562587">
        <ele>11.125164036639035</ele>
        <time>2024-10-20T14:49:24Z</time>
      </trkpt>
      <trkpt lat="38.83696622751727" lon="121.50697333720423">
        <ele>10.953555714339018</ele>
        <time>2024-10-20T14:49:32Z</time>
      </trkpt>
      <trkpt lat="38.83700820250052" lon="121.50688389461139">
        <ele>12.110587276518345</ele>
        <time>2024-10-20T14:49:36Z</time>
      </trkpt>
      <trkpt lat="38.83707394745027" lon="121.50680628668061">
        <ele>11.288724968209863</ele>
        <time>2024-10-20T14:49:40Z</time>
      </trkpt>
      <trkpt lat="38.83716949860608" lon="121.50658876697054">
        <ele>10.617712579667568</ele>
        <time>2024-10-20T14:50:00Z</time>
      </trkpt>
      <trkpt lat="38.83721329666976" lon="121.50657494104644">
        <ele>10.810930932871997</ele>
        <time>2024-10-20T14:50:04Z</time>
      </trkpt>
      <trkpt lat="38.8372302922423" lon="121.50651410329853">
        <ele>11.09841555915773</ele>
        <time>2024-10-20T14:50:12Z</time>
      </trkpt>
      <trkpt lat="38.83728053568585" lon="121.50646274381114">
        <ele>11.269500311464071</ele>
        <time>2024-10-20T14:50:20Z</time>
      </trkpt>
      <trkpt lat="38.837339944912614" lon="121.50645306229036">
        <ele>10.520866044797003</ele>
        <time>2024-10-20T14:50:24Z</time>
      </trkpt>
      <trkpt lat="38.837324784294964" lon="121.50624725484532">
        <ele>11.261724065989256</ele>
        <time>2024-10-20T14:50:32Z</time>
      </trkpt>
      <trkpt lat="38.83741447471633" lon="121.50608363085942">
        <ele>10.395903718657792</ele>
        <time>2024-10-20T14:50:39Z</time>
      </trkpt>
      <trkpt lat="38.83744097214942" lon="121.50600429825313">
        <ele>11.444656547158957</ele>
        <time>2024-10-20T14:50:42Z</time>
      </trkpt>
      <trkpt lat="38.83748535942393" lon="121.50594481356447">
        <ele>10.267140490934253</ele>
        <time>2024-10-20T14:50:45Z</time>
      </trkpt>
      <trkpt lat="38.83750976063414" lon="121.50586485162276">
        <ele>11.120369855314493</ele>
        <time>2024-10-20T14:50:48Z</time>
      </trkpt>
      <trkpt lat="38.83760518881444" lon="121.50574762493285">
        <ele>10.768645199015737</ele>
        <time>2024-10-20T14:50:55Z</time>
      </trkpt>
      <trkpt lat="38.83763291118663" lon="121.5056473227593">
        <ele>10.783644365146756</ele>
        <time>2024-10-20T14:50:59Z</time>
      </trkpt>
      <trkpt lat="38.83772958584116" lon="121.50554454745982">
        <ele>10.31857615057379</ele>
        <time>2024-10-20T14:51:11Z</time>
      </trkpt>
      <trkpt lat="38.8377551416336" lon="121.5054493746037">
        <ele>10.9367661960423</ele>
        <time>2024-10-20T14:51:19Z</time>
      </trkpt>
      <trkpt lat="38.83783864453435" lon="121.50534219700624">
        <ele>10.074372613802552</ele>
        <time>2024-10-20T14:51:27Z</time>
      </trkpt>
      <trkpt lat="38.837906425126384" lon="121.50534526049395">
        <ele>10.431735680438578</ele>
        <time>2024-10-20T14:51:31Z</time>
      </trkpt>
      <trkpt lat="38.837977411480125" lon="121.5053009883714">
        <ele>9.356017226353288</ele>
        <time>2024-10-20T14:51:35Z</time>
      </trkpt>
      <trkpt lat="38.838013791612184" lon="121.50516963082207">
        <ele>9.593971071764827</ele>
        <time>2024-10-20T14:51:39Z</time>
      </trkpt>
      <trkpt lat="38.837785147082606" lon="121.5049788646762">
        <ele>10.04221745301038</ele>
        <time>2024-10-20T14:51:51Z</time>
      </trkpt>
      <trkpt lat="38.837673417193905" lon="121.5049232572283">
        <ele>9.078558532521129</ele>
        <time>2024-10-20T14:52:07Z</time>
      </trkpt>
      <trkpt lat="38.83763751528662" lon="121.50487419920927">
        <ele>8.655358640477061</ele>
        <time>2024-10-20T14:52:11Z</time>
      </trkpt>
      <trkpt lat="38.837627806153186" lon="121.50480705251597">
        <ele>7.609108700416982</ele>
        <time>2024-10-20T14:52:15Z</time>
      </trkpt>
      <trkpt lat="38.83753288943297" lon="121.50475117809428">
        <ele>7.516050762496889</ele>
        <time>2024-10-20T14:52:27Z</time>
      </trkpt>
      <trkpt lat="38.83750620724416" lon="121.50469575559092">
        <ele>8.717474565841258</ele>
        <time>2024-10-20T14:52:31Z</time>
      </trkpt>
      <trkpt lat="38.83741013649134" lon="121.5045744987929">
        <ele>8.746333174407482</ele>
        <time>2024-10-20T14:52:43Z</time>
      </trkpt>
      <trkpt lat="38.83734636623518" lon="121.50453238535363">
        <ele>8.367093209177256</ele>
        <time>2024-10-20T14:52:50Z</time>
      </trkpt>
      <trkpt lat="38.83714202299929" lon="121.50431596936103">
        <ele>8.433033738285303</ele>
        <time>2024-10-20T14:53:12Z</time>
      </trkpt>
      <trkpt lat="38.83705551164927" lon="121.50427684641458">
        <ele>8.557500748895109</ele>
        <time>2024-10-20T14:53:16Z</time>
      </trkpt>
      <trkpt lat="38.83696494863585" lon="121.50432262136046">
        <ele>9.94395331479609</ele>
        <time>2024-10-20T14:53:20Z</time>
      </trkpt>
      <trkpt lat="38.83683920099492" lon="121.50464776026799">
        <ele>10.417221603915095</ele>
        <time>2024-10-20T14:53:32Z</time>
      </trkpt>
      <trkpt lat="38.83677871678855" lon="121.50474033381214">
        <ele>9.692948109470308</ele>
        <time>2024-10-20T14:53:36Z</time>
      </trkpt>
      <trkpt lat="38.836697220725654" lon="121.50509140550172">
        <ele>9.521189386025071</ele>
        <time>2024-10-20T14:53:52Z</time>
      </trkpt>
      <trkpt lat="38.836633953905555" lon="121.50524899570392">
        <ele>10.833268051967025</ele>
        <time>2024-10-20T14:54:00Z</time>
      </trkpt>
      <trkpt lat="38.83660048238218" lon="121.50543006858756">
        <ele>10.386565633118153</ele>
        <time>2024-10-20T14:54:08Z</time>
      </trkpt>
      <trkpt lat="38.83656451239974" lon="121.50547584835489">
        <ele>10.190737586468458</ele>
        <time>2024-10-20T14:54:12Z</time>
      </trkpt>
      <trkpt lat="38.83652290838395" lon="121.50561789364208">
        <ele>10.547208789736032</ele>
        <time>2024-10-20T14:54:24Z</time>
      </trkpt>
      <trkpt lat="38.83669825757302" lon="121.50518619547415">
        <ele>10.677051074802876</ele>
        <time>2024-10-20T14:54:44Z</time>
      </trkpt>
      <trkpt lat="38.8368466846014" lon="121.50472191619524">
        <ele>9.548006793484092</ele>
        <time>2024-10-20T14:54:55Z</time>
      </trkpt>
      <trkpt lat="38.83694823551192" lon="121.5043712971018">
        <ele>10.253013930283487</ele>
        <time>2024-10-20T14:55:03Z</time>
      </trkpt>
      <trkpt lat="38.8370062099485" lon="121.5042630761286">
        <ele>7.790823903866112</ele>
        <time>2024-10-20T14:55:07Z</time>
      </trkpt>
      <trkpt lat="38.83714807125714" lon="121.50418457156648">
        <ele>9.05738005694002</ele>
        <time>2024-10-20T14:55:11Z</time>
      </trkpt>
      <trkpt lat="38.83727883000611" lon="121.50425727157442">
        <ele>10.04304531775415</ele>
        <time>2024-10-20T14:55:15Z</time>
      </trkpt>
      <trkpt lat="38.837410895195504" lon="121.50453447241216">
        <ele>9.928348227404058</ele>
        <time>2024-10-20T14:55:23Z</time>
      </trkpt>
      <trkpt lat="38.83750479771949" lon="121.50461279399504">
        <ele>9.84967110492289</ele>
        <time>2024-10-20T14:55:27Z</time>
      </trkpt>
      <trkpt lat="38.83755563001989" lon="121.50443400879091">
        <ele>9.488127578049898</ele>
        <time>2024-10-20T14:55:35Z</time>
      </trkpt>
      <trkpt lat="38.837896392618916" lon="121.50429496066707">
        <ele>8.59405617788434</ele>
        <time>2024-10-20T14:55:47Z</time>
      </trkpt>
      <trkpt lat="38.838003450763104" lon="121.50423197690976">
        <ele>7.933514103293419</ele>
        <time>2024-10-20T14:55:51Z</time>
      </trkpt>
      <trkpt lat="38.83806685076816" lon="121.5042409550954">
        <ele>8.299035353586078</ele>
        <time>2024-10-20T14:55:55Z</time>
      </trkpt>
      <trkpt lat="38.83810397310835" lon="121.50428367380229">
        <ele>9.864723299629986</ele>
        <time>2024-10-20T14:55:59Z</time>
      </trkpt>
      <trkpt lat="38.83813325005566" lon="121.50435238330822">
        <ele>31.323368494884342</ele>
        <time>2024-10-20T14:56:27Z</time>
      </trkpt>
      <trkpt lat="38.83813325005566" lon="121.50435238330822">
        <ele>31.323368494884342</ele>
        <time>2024-10-20T14:56:30Z</time>
      </trkpt>
    </trkseg>
  </trk>
</gpx>