<?xml version="1.0" encoding="UTF-8"?>
<gpx xmlns="http://www.topografix.com/GPX/1/1" xmlns:gpxtpx="http://www.garmin.com/xmlschemas/TrackPointExtension/v1" xmlns:xsi="http://www.w3.org/2001/XMLSchema-instance" xsi:schemaLocation="http://www.topografix.com/GPX/1/1 http://www.topografix.com/GPX/1/1/gpx.xsd" version="1.1" creator="gpx.py -- https://github.com/tkrajina/gpxpy">
  <trk>
    <name>gpx from keep</name>
    <type>Run</type>
    <trkseg>
      <trkpt lat="38.83687648188964" lon="121.51060008416685">
        <ele>3.99077567178756</ele>
        <time>2024-11-24T14:56:56Z</time>
      </trkpt>
      <trkpt lat="38.836946120097494" lon="121.51081049593924">
        <ele>7.573462104424834</ele>
        <time>2024-11-24T14:57:08Z</time>
      </trkpt>
      <trkpt lat="38.83701581917834" lon="121.51090354457621">
        <ele>8.455169752240181</ele>
        <time>2024-11-24T14:57:16Z</time>
      </trkpt>
      <trkpt lat="38.837085750368274" lon="121.51084783650359">
        <ele>7.785890671424568</ele>
        <time>2024-11-24T14:57:20Z</time>
      </trkpt>
      <trkpt lat="38.83725699697136" lon="121.51057356810531">
        <ele>6.95099316816777</ele>
        <time>2024-11-24T14:57:32Z</time>
      </trkpt>
      <trkpt lat="38.83745525920959" lon="121.51034270387613">
        <ele>7.226054723374546</ele>
        <time>2024-11-24T14:57:44Z</time>
      </trkpt>
      <trkpt lat="38.837690370049" lon="121.51015293842585">
        <ele>7.878733549267054</ele>
        <time>2024-11-24T14:57:56Z</time>
      </trkpt>
      <trkpt lat="38.83775022076827" lon="121.51006259011783">
        <ele>8.408941322937608</ele>
        <time>2024-11-24T14:58:00Z</time>
      </trkpt>
      <trkpt lat="38.83773846463409" lon="121.50993665738223">
        <ele>9.907092760317028</ele>
        <time>2024-11-24T14:58:04Z</time>
      </trkpt>
      <trkpt lat="38.83770270447392" lon="121.50984194012867">
        <ele>8.763587972149253</ele>
        <time>2024-11-24T14:58:08Z</time>
      </trkpt>
      <trkpt lat="38.83761417469186" lon="121.50978981275463">
        <ele>8.584683571010828</ele>
        <time>2024-11-24T14:58:12Z</time>
      </trkpt>
      <trkpt lat="38.83751350745681" lon="121.5097628834582">
        <ele>8.40821769554168</ele>
        <time>2024-11-24T14:58:16Z</time>
      </trkpt>
      <trkpt lat="38.8374291442741" lon="121.50967576835211">
        <ele>8.317190937697887</ele>
        <time>2024-11-24T14:58:20Z</time>
      </trkpt>
      <trkpt lat="38.83729269134854" lon="121.50945582025074">
        <ele>7.749756118282676</ele>
        <time>2024-11-24T14:58:28Z</time>
      </trkpt>
      <trkpt lat="38.83720779495276" lon="121.50935712110767">
        <ele>8.198934751562774</ele>
        <time>2024-11-24T14:58:32Z</time>
      </trkpt>
      <trkpt lat="38.83720977741601" lon="121.5092163245678">
        <ele>8.920619366690516</ele>
        <time>2024-11-24T14:58:36Z</time>
      </trkpt>
      <trkpt lat="38.8372714426071" lon="121.50912505611679">
        <ele>9.224164059385657</ele>
        <time>2024-11-24T14:58:40Z</time>
      </trkpt>
      <trkpt lat="38.83733905428872" lon="121.50908494131271">
        <ele>7.095430491492152</ele>
        <time>2024-11-24T14:58:43Z</time>
      </trkpt>
      <trkpt lat="38.83750817580784" lon="121.50882955426624">
        <ele>9.850160973146558</ele>
        <time>2024-11-24T14:58:54Z</time>
      </trkpt>
      <trkpt lat="38.83755302411348" lon="121.50861632845715">
        <ele>8.73330941889435</ele>
        <time>2024-11-24T14:59:02Z</time>
      </trkpt>
      <trkpt lat="38.837615559347554" lon="121.5085072703008">
        <ele>9.333328758366406</ele>
        <time>2024-11-24T14:59:06Z</time>
      </trkpt>
      <trkpt lat="38.83772166534995" lon="121.50850542830285">
        <ele>10.2128526577726</ele>
        <time>2024-11-24T14:59:10Z</time>
      </trkpt>
      <trkpt lat="38.83779074973564" lon="121.50854308734645">
        <ele>9.349659244529903</ele>
        <time>2024-11-24T14:59:14Z</time>
      </trkpt>
      <trkpt lat="38.838048251911175" lon="121.5087632473355">
        <ele>10.168783313594759</ele>
        <time>2024-11-24T14:59:26Z</time>
      </trkpt>
      <trkpt lat="38.83827879989322" lon="121.5090132144509">
        <ele>9.170535551384091</ele>
        <time>2024-11-24T14:59:38Z</time>
      </trkpt>
      <trkpt lat="38.83830633283992" lon="121.50912414012312">
        <ele>8.715847790241241</ele>
        <time>2024-11-24T14:59:42Z</time>
      </trkpt>
      <trkpt lat="38.83823447827419" lon="121.50923296227015">
        <ele>8.647428335621953</ele>
        <time>2024-11-24T14:59:46Z</time>
      </trkpt>
      <trkpt lat="38.838084886681976" lon="121.5093630877368">
        <ele>10.229501490481198</ele>
        <time>2024-11-24T14:59:54Z</time>
        <extensions>
          <gpxtpx:TrackPointExtension>
            <gpxtpx:hr>139</gpxtpx:hr>
          </gpxtpx:TrackPointExtension>
        </extensions>
      </trkpt>
      <trkpt lat="38.83801711863352" lon="121.50947454418342">
        <ele>8.966122480109334</ele>
        <time>2024-11-24T14:59:58Z</time>
        <extensions>
          <gpxtpx:TrackPointExtension>
            <gpxtpx:hr>139</gpxtpx:hr>
          </gpxtpx:TrackPointExtension>
        </extensions>
      </trkpt>
      <trkpt lat="38.83795370247228" lon="121.50970602902878">
        <ele>9.296971044503152</ele>
        <time>2024-11-24T15:00:06Z</time>
        <extensions>
          <gpxtpx:TrackPointExtension>
            <gpxtpx:hr>139</gpxtpx:hr>
          </gpxtpx:TrackPointExtension>
        </extensions>
      </trkpt>
      <trkpt lat="38.837911286760516" lon="121.50980528450823">
        <ele>9.292222790420055</ele>
        <time>2024-11-24T15:00:10Z</time>
        <extensions>
          <gpxtpx:TrackPointExtension>
            <gpxtpx:hr>139</gpxtpx:hr>
          </gpxtpx:TrackPointExtension>
        </extensions>
      </trkpt>
      <trkpt lat="38.83779726548053" lon="121.50977639506694">
        <ele>9.835008920170367</ele>
        <time>2024-11-24T15:00:14Z</time>
        <extensions>
          <gpxtpx:TrackPointExtension>
            <gpxtpx:hr>139</gpxtpx:hr>
          </gpxtpx:TrackPointExtension>
        </extensions>
      </trkpt>
      <trkpt lat="38.83761399108677" lon="121.50947016686834">
        <ele>9.707865797914565</ele>
        <time>2024-11-24T15:00:26Z</time>
        <extensions>
          <gpxtpx:TrackPointExtension>
            <gpxtpx:hr>139</gpxtpx:hr>
          </gpxtpx:TrackPointExtension>
        </extensions>
      </trkpt>
      <trkpt lat="38.83730032724016" lon="121.50935239485779">
        <ele>8.835564386099577</ele>
        <time>2024-11-24T15:00:38Z</time>
        <extensions>
          <gpxtpx:TrackPointExtension>
            <gpxtpx:hr>141</gpxtpx:hr>
          </gpxtpx:TrackPointExtension>
        </extensions>
      </trkpt>
      <trkpt lat="38.83718614987179" lon="121.50936016205277">
        <ele>8.729540462605655</ele>
        <time>2024-11-24T15:00:42Z</time>
        <extensions>
          <gpxtpx:TrackPointExtension>
            <gpxtpx:hr>142</gpxtpx:hr>
          </gpxtpx:TrackPointExtension>
        </extensions>
      </trkpt>
      <trkpt lat="38.83710717639326" lon="121.50945809149584">
        <ele>8.974573877640069</ele>
        <time>2024-11-24T15:00:46Z</time>
        <extensions>
          <gpxtpx:TrackPointExtension>
            <gpxtpx:hr>142</gpxtpx:hr>
          </gpxtpx:TrackPointExtension>
        </extensions>
      </trkpt>
      <trkpt lat="38.83693966136946" lon="121.50977943435653">
        <ele>8.057244289666414</ele>
        <time>2024-11-24T15:00:57Z</time>
        <extensions>
          <gpxtpx:TrackPointExtension>
            <gpxtpx:hr>143</gpxtpx:hr>
          </gpxtpx:TrackPointExtension>
        </extensions>
      </trkpt>
      <trkpt lat="38.83685930853696" lon="121.50987694409704">
        <ele>8.431288453750312</ele>
        <time>2024-11-24T15:01:01Z</time>
        <extensions>
          <gpxtpx:TrackPointExtension>
            <gpxtpx:hr>142</gpxtpx:hr>
          </gpxtpx:TrackPointExtension>
        </extensions>
      </trkpt>
      <trkpt lat="38.836764011083915" lon="121.5099281516686">
        <ele>7.224754840135574</ele>
        <time>2024-11-24T15:01:05Z</time>
        <extensions>
          <gpxtpx:TrackPointExtension>
            <gpxtpx:hr>142</gpxtpx:hr>
          </gpxtpx:TrackPointExtension>
        </extensions>
      </trkpt>
      <trkpt lat="38.83654379654325" lon="121.50996011880872">
        <ele>7.393053515814245</ele>
        <time>2024-11-24T15:01:13Z</time>
        <extensions>
          <gpxtpx:TrackPointExtension>
            <gpxtpx:hr>142</gpxtpx:hr>
          </gpxtpx:TrackPointExtension>
        </extensions>
      </trkpt>
      <trkpt lat="38.83647529146846" lon="121.51005392307604">
        <ele>7.656992516480386</ele>
        <time>2024-11-24T15:01:17Z</time>
        <extensions>
          <gpxtpx:TrackPointExtension>
            <gpxtpx:hr>143</gpxtpx:hr>
          </gpxtpx:TrackPointExtension>
        </extensions>
      </trkpt>
      <trkpt lat="38.83649252708772" lon="121.51020779468129">
        <ele>7.553681239485741</ele>
        <time>2024-11-24T15:01:21Z</time>
        <extensions>
          <gpxtpx:TrackPointExtension>
            <gpxtpx:hr>144</gpxtpx:hr>
          </gpxtpx:TrackPointExtension>
        </extensions>
      </trkpt>
      <trkpt lat="38.836527731605194" lon="121.51033712815456">
        <ele>8.386160911992192</ele>
        <time>2024-11-24T15:01:25Z</time>
        <extensions>
          <gpxtpx:TrackPointExtension>
            <gpxtpx:hr>144</gpxtpx:hr>
          </gpxtpx:TrackPointExtension>
        </extensions>
      </trkpt>
      <trkpt lat="38.83660400264265" lon="121.5104153841309">
        <ele>7.67592681478709</ele>
        <time>2024-11-24T15:01:29Z</time>
        <extensions>
          <gpxtpx:TrackPointExtension>
            <gpxtpx:hr>138</gpxtpx:hr>
          </gpxtpx:TrackPointExtension>
        </extensions>
      </trkpt>
      <trkpt lat="38.83670478469601" lon="121.51046990297662">
        <ele>7.113294560462236</ele>
        <time>2024-11-24T15:01:33Z</time>
        <extensions>
          <gpxtpx:TrackPointExtension>
            <gpxtpx:hr>141</gpxtpx:hr>
          </gpxtpx:TrackPointExtension>
        </extensions>
      </trkpt>
      <trkpt lat="38.83679129257085" lon="121.51054586275446">
        <ele>7.251047353260219</ele>
        <time>2024-11-24T15:01:37Z</time>
        <extensions>
          <gpxtpx:TrackPointExtension>
            <gpxtpx:hr>144</gpxtpx:hr>
          </gpxtpx:TrackPointExtension>
        </extensions>
      </trkpt>
      <trkpt lat="38.836858610356416" lon="121.51064511820015">
        <ele>6.693688230589032</ele>
        <time>2024-11-24T15:01:41Z</time>
        <extensions>
          <gpxtpx:TrackPointExtension>
            <gpxtpx:hr>141</gpxtpx:hr>
          </gpxtpx:TrackPointExtension>
        </extensions>
      </trkpt>
      <trkpt lat="38.836906956400355" lon="121.51076235831749">
        <ele>7.225903493352234</ele>
        <time>2024-11-24T15:01:45Z</time>
        <extensions>
          <gpxtpx:TrackPointExtension>
            <gpxtpx:hr>141</gpxtpx:hr>
          </gpxtpx:TrackPointExtension>
        </extensions>
      </trkpt>
      <trkpt lat="38.83697904145591" lon="121.51087481170548">
        <ele>6.7835285468027</ele>
        <time>2024-11-24T15:01:49Z</time>
        <extensions>
          <gpxtpx:TrackPointExtension>
            <gpxtpx:hr>137</gpxtpx:hr>
          </gpxtpx:TrackPointExtension>
        </extensions>
      </trkpt>
      <trkpt lat="38.837073049050325" lon="121.51085335792607">
        <ele>7.071400053799152</ele>
        <time>2024-11-24T15:01:53Z</time>
        <extensions>
          <gpxtpx:TrackPointExtension>
            <gpxtpx:hr>146</gpxtpx:hr>
          </gpxtpx:TrackPointExtension>
        </extensions>
      </trkpt>
      <trkpt lat="38.83718985713109" lon="121.51064294615823">
        <ele>7.963676929473877</ele>
        <time>2024-11-24T15:02:01Z</time>
        <extensions>
          <gpxtpx:TrackPointExtension>
            <gpxtpx:hr>146</gpxtpx:hr>
          </gpxtpx:TrackPointExtension>
        </extensions>
      </trkpt>
      <trkpt lat="38.837434973563724" lon="121.51037683122729">
        <ele>7.677608746103942</ele>
        <time>2024-11-24T15:02:13Z</time>
        <extensions>
          <gpxtpx:TrackPointExtension>
            <gpxtpx:hr>146</gpxtpx:hr>
          </gpxtpx:TrackPointExtension>
        </extensions>
      </trkpt>
      <trkpt lat="38.837604090447215" lon="121.5102508000665">
        <ele>7.936479415744543</ele>
        <time>2024-11-24T15:02:21Z</time>
        <extensions>
          <gpxtpx:TrackPointExtension>
            <gpxtpx:hr>146</gpxtpx:hr>
          </gpxtpx:TrackPointExtension>
        </extensions>
      </trkpt>
      <trkpt lat="38.83768493962828" lon="121.51017009497218">
        <ele>7.435227737762034</ele>
        <time>2024-11-24T15:02:25Z</time>
        <extensions>
          <gpxtpx:TrackPointExtension>
            <gpxtpx:hr>147</gpxtpx:hr>
          </gpxtpx:TrackPointExtension>
        </extensions>
      </trkpt>
      <trkpt lat="38.83773679706595" lon="121.51006755388373">
        <ele>7.694220829755068</ele>
        <time>2024-11-24T15:02:29Z</time>
        <extensions>
          <gpxtpx:TrackPointExtension>
            <gpxtpx:hr>147</gpxtpx:hr>
          </gpxtpx:TrackPointExtension>
        </extensions>
      </trkpt>
      <trkpt lat="38.83773567085093" lon="121.50993728975182">
        <ele>8.83522079885006</ele>
        <time>2024-11-24T15:02:33Z</time>
        <extensions>
          <gpxtpx:TrackPointExtension>
            <gpxtpx:hr>146</gpxtpx:hr>
          </gpxtpx:TrackPointExtension>
        </extensions>
      </trkpt>
      <trkpt lat="38.83768219502771" lon="121.50983635697784">
        <ele>10.480965223163366</ele>
        <time>2024-11-24T15:02:37Z</time>
        <extensions>
          <gpxtpx:TrackPointExtension>
            <gpxtpx:hr>145</gpxtpx:hr>
          </gpxtpx:TrackPointExtension>
        </extensions>
      </trkpt>
      <trkpt lat="38.83748644373434" lon="121.50976040292048">
        <ele>9.255536444485188</ele>
        <time>2024-11-24T15:02:45Z</time>
        <extensions>
          <gpxtpx:TrackPointExtension>
            <gpxtpx:hr>145</gpxtpx:hr>
          </gpxtpx:TrackPointExtension>
        </extensions>
      </trkpt>
      <trkpt lat="38.83740538176331" lon="121.50966512072947">
        <ele>9.005568223074079</ele>
        <time>2024-11-24T15:02:49Z</time>
        <extensions>
          <gpxtpx:TrackPointExtension>
            <gpxtpx:hr>149</gpxtpx:hr>
          </gpxtpx:TrackPointExtension>
        </extensions>
      </trkpt>
      <trkpt lat="38.83729407932908" lon="121.50945534702485">
        <ele>8.65582378115505</ele>
        <time>2024-11-24T15:02:56Z</time>
        <extensions>
          <gpxtpx:TrackPointExtension>
            <gpxtpx:hr>149</gpxtpx:hr>
          </gpxtpx:TrackPointExtension>
        </extensions>
      </trkpt>
      <trkpt lat="38.837214343342325" lon="121.50937219210478">
        <ele>8.279485858976841</ele>
        <time>2024-11-24T15:03:00Z</time>
        <extensions>
          <gpxtpx:TrackPointExtension>
            <gpxtpx:hr>149</gpxtpx:hr>
          </gpxtpx:TrackPointExtension>
        </extensions>
      </trkpt>
      <trkpt lat="38.83717667343854" lon="121.50923890189931">
        <ele>9.163610343821347</ele>
        <time>2024-11-24T15:03:04Z</time>
        <extensions>
          <gpxtpx:TrackPointExtension>
            <gpxtpx:hr>148</gpxtpx:hr>
          </gpxtpx:TrackPointExtension>
        </extensions>
      </trkpt>
      <trkpt lat="38.837385426058496" lon="121.50896496645792">
        <ele>9.020992819219828</ele>
        <time>2024-11-24T15:03:16Z</time>
        <extensions>
          <gpxtpx:TrackPointExtension>
            <gpxtpx:hr>147</gpxtpx:hr>
          </gpxtpx:TrackPointExtension>
        </extensions>
      </trkpt>
      <trkpt lat="38.837438231933675" lon="121.50886861649305">
        <ele>9.294644245877862</ele>
        <time>2024-11-24T15:03:20Z</time>
        <extensions>
          <gpxtpx:TrackPointExtension>
            <gpxtpx:hr>147</gpxtpx:hr>
          </gpxtpx:TrackPointExtension>
        </extensions>
      </trkpt>
      <trkpt lat="38.83758224072601" lon="121.50852456134565">
        <ele>10.595083782449365</ele>
        <time>2024-11-24T15:03:32Z</time>
        <extensions>
          <gpxtpx:TrackPointExtension>
            <gpxtpx:hr>149</gpxtpx:hr>
          </gpxtpx:TrackPointExtension>
        </extensions>
      </trkpt>
      <trkpt lat="38.83769151481362" lon="121.5085061029462">
        <ele>11.126479201950133</ele>
        <time>2024-11-24T15:03:36Z</time>
        <extensions>
          <gpxtpx:TrackPointExtension>
            <gpxtpx:hr>149</gpxtpx:hr>
          </gpxtpx:TrackPointExtension>
        </extensions>
      </trkpt>
      <trkpt lat="38.83778575885899" lon="121.50856107463723">
        <ele>10.653237756341696</ele>
        <time>2024-11-24T15:03:40Z</time>
        <extensions>
          <gpxtpx:TrackPointExtension>
            <gpxtpx:hr>149</gpxtpx:hr>
          </gpxtpx:TrackPointExtension>
        </extensions>
      </trkpt>
      <trkpt lat="38.83794315084844" lon="121.50871795294098">
        <ele>9.888833271339536</ele>
        <time>2024-11-24T15:03:48Z</time>
        <extensions>
          <gpxtpx:TrackPointExtension>
            <gpxtpx:hr>154</gpxtpx:hr>
          </gpxtpx:TrackPointExtension>
        </extensions>
      </trkpt>
      <trkpt lat="38.838226683011726" lon="121.5089623404104">
        <ele>9.829223105683923</ele>
        <time>2024-11-24T15:04:00Z</time>
        <extensions>
          <gpxtpx:TrackPointExtension>
            <gpxtpx:hr>155</gpxtpx:hr>
          </gpxtpx:TrackPointExtension>
        </extensions>
      </trkpt>
      <trkpt lat="38.83828922626048" lon="121.50903810163375">
        <ele>8.896504696458578</ele>
        <time>2024-11-24T15:04:04Z</time>
        <extensions>
          <gpxtpx:TrackPointExtension>
            <gpxtpx:hr>155</gpxtpx:hr>
          </gpxtpx:TrackPointExtension>
        </extensions>
      </trkpt>
      <trkpt lat="38.838276201375514" lon="121.50914243629258">
        <ele>8.746259071864188</ele>
        <time>2024-11-24T15:04:08Z</time>
        <extensions>
          <gpxtpx:TrackPointExtension>
            <gpxtpx:hr>154</gpxtpx:hr>
          </gpxtpx:TrackPointExtension>
        </extensions>
      </trkpt>
      <trkpt lat="38.83818526247707" lon="121.50921919058966">
        <ele>7.838428943417966</ele>
        <time>2024-11-24T15:04:12Z</time>
        <extensions>
          <gpxtpx:TrackPointExtension>
            <gpxtpx:hr>153</gpxtpx:hr>
          </gpxtpx:TrackPointExtension>
        </extensions>
      </trkpt>
      <trkpt lat="38.83803637572696" lon="121.50943569678263">
        <ele>6.97386296838522</ele>
        <time>2024-11-24T15:04:20Z</time>
        <extensions>
          <gpxtpx:TrackPointExtension>
            <gpxtpx:hr>152</gpxtpx:hr>
          </gpxtpx:TrackPointExtension>
        </extensions>
      </trkpt>
      <trkpt lat="38.83794597713028" lon="121.5097778755909">
        <ele>6.718111249618232</ele>
        <time>2024-11-24T15:04:32Z</time>
        <extensions>
          <gpxtpx:TrackPointExtension>
            <gpxtpx:hr>152</gpxtpx:hr>
          </gpxtpx:TrackPointExtension>
        </extensions>
      </trkpt>
      <trkpt lat="38.837838544083546" lon="121.50983560575185">
        <ele>8.81276592053473</ele>
        <time>2024-11-24T15:04:36Z</time>
        <extensions>
          <gpxtpx:TrackPointExtension>
            <gpxtpx:hr>151</gpxtpx:hr>
          </gpxtpx:TrackPointExtension>
        </extensions>
      </trkpt>
      <trkpt lat="38.837747478659644" lon="121.5097643270262">
        <ele>8.576940699480474</ele>
        <time>2024-11-24T15:04:40Z</time>
        <extensions>
          <gpxtpx:TrackPointExtension>
            <gpxtpx:hr>151</gpxtpx:hr>
          </gpxtpx:TrackPointExtension>
        </extensions>
      </trkpt>
      <trkpt lat="38.83762487644944" lon="121.50954842161919">
        <ele>8.535138936713338</ele>
        <time>2024-11-24T15:04:48Z</time>
        <extensions>
          <gpxtpx:TrackPointExtension>
            <gpxtpx:hr>151</gpxtpx:hr>
          </gpxtpx:TrackPointExtension>
        </extensions>
      </trkpt>
      <trkpt lat="38.837549453848" lon="121.50946270415334">
        <ele>8.152924730442464</ele>
        <time>2024-11-24T15:04:52Z</time>
        <extensions>
          <gpxtpx:TrackPointExtension>
            <gpxtpx:hr>148</gpxtpx:hr>
          </gpxtpx:TrackPointExtension>
        </extensions>
      </trkpt>
      <trkpt lat="38.837283404368556" lon="121.509350456539">
        <ele>7.7513290755450726</ele>
        <time>2024-11-24T15:05:02Z</time>
        <extensions>
          <gpxtpx:TrackPointExtension>
            <gpxtpx:hr>148</gpxtpx:hr>
          </gpxtpx:TrackPointExtension>
        </extensions>
      </trkpt>
      <trkpt lat="38.83716946310498" lon="121.50933284407179">
        <ele>9.109878519549966</ele>
        <time>2024-11-24T15:05:06Z</time>
        <extensions>
          <gpxtpx:TrackPointExtension>
            <gpxtpx:hr>149</gpxtpx:hr>
          </gpxtpx:TrackPointExtension>
        </extensions>
      </trkpt>
      <trkpt lat="38.83710392209846" lon="121.5094384039295">
        <ele>8.512488960288465</ele>
        <time>2024-11-24T15:05:10Z</time>
        <extensions>
          <gpxtpx:TrackPointExtension>
            <gpxtpx:hr>149</gpxtpx:hr>
          </gpxtpx:TrackPointExtension>
        </extensions>
      </trkpt>
      <trkpt lat="38.83697127108031" lon="121.50976698769853">
        <ele>7.489460877142847</ele>
        <time>2024-11-24T15:05:21Z</time>
        <extensions>
          <gpxtpx:TrackPointExtension>
            <gpxtpx:hr>151</gpxtpx:hr>
          </gpxtpx:TrackPointExtension>
        </extensions>
      </trkpt>
      <trkpt lat="38.836897780690855" lon="121.50986596597963">
        <ele>7.4575037294998765</ele>
        <time>2024-11-24T15:05:25Z</time>
        <extensions>
          <gpxtpx:TrackPointExtension>
            <gpxtpx:hr>151</gpxtpx:hr>
          </gpxtpx:TrackPointExtension>
        </extensions>
      </trkpt>
      <trkpt lat="38.83680978376924" lon="121.50993821309619">
        <ele>7.100851290859282</ele>
        <time>2024-11-24T15:05:29Z</time>
        <extensions>
          <gpxtpx:TrackPointExtension>
            <gpxtpx:hr>151</gpxtpx:hr>
          </gpxtpx:TrackPointExtension>
        </extensions>
      </trkpt>
      <trkpt lat="38.8367134731233" lon="121.50996590752047">
        <ele>7.154117543250322</ele>
        <time>2024-11-24T15:05:33Z</time>
        <extensions>
          <gpxtpx:TrackPointExtension>
            <gpxtpx:hr>152</gpxtpx:hr>
          </gpxtpx:TrackPointExtension>
        </extensions>
      </trkpt>
      <trkpt lat="38.836605446848765" lon="121.50996091860638">
        <ele>6.658204154111445</ele>
        <time>2024-11-24T15:05:37Z</time>
        <extensions>
          <gpxtpx:TrackPointExtension>
            <gpxtpx:hr>152</gpxtpx:hr>
          </gpxtpx:TrackPointExtension>
        </extensions>
      </trkpt>
      <trkpt lat="38.83651847784968" lon="121.51001033007292">
        <ele>6.703132122755051</ele>
        <time>2024-11-24T15:05:41Z</time>
        <extensions>
          <gpxtpx:TrackPointExtension>
            <gpxtpx:hr>153</gpxtpx:hr>
          </gpxtpx:TrackPointExtension>
        </extensions>
      </trkpt>
      <trkpt lat="38.8364751147026" lon="121.5101202744407">
        <ele>7.310275174677372</ele>
        <time>2024-11-24T15:05:45Z</time>
        <extensions>
          <gpxtpx:TrackPointExtension>
            <gpxtpx:hr>153</gpxtpx:hr>
          </gpxtpx:TrackPointExtension>
        </extensions>
      </trkpt>
      <trkpt lat="38.83649495730452" lon="121.51024665423301">
        <ele>7.518283993937075</ele>
        <time>2024-11-24T15:05:49Z</time>
        <extensions>
          <gpxtpx:TrackPointExtension>
            <gpxtpx:hr>153</gpxtpx:hr>
          </gpxtpx:TrackPointExtension>
        </extensions>
      </trkpt>
      <trkpt lat="38.83654006574408" lon="121.51036109284924">
        <ele>6.669433911330998</ele>
        <time>2024-11-24T15:05:53Z</time>
        <extensions>
          <gpxtpx:TrackPointExtension>
            <gpxtpx:hr>154</gpxtpx:hr>
          </gpxtpx:TrackPointExtension>
        </extensions>
      </trkpt>
      <trkpt lat="38.83680237823281" lon="121.51055763297609">
        <ele>7.218166384845972</ele>
        <time>2024-11-24T15:06:05Z</time>
        <extensions>
          <gpxtpx:TrackPointExtension>
            <gpxtpx:hr>155</gpxtpx:hr>
          </gpxtpx:TrackPointExtension>
        </extensions>
      </trkpt>
      <trkpt lat="38.83699812515032" lon="121.51088266197534">
        <ele>5.871639777906239</ele>
        <time>2024-11-24T15:06:17Z</time>
        <extensions>
          <gpxtpx:TrackPointExtension>
            <gpxtpx:hr>152</gpxtpx:hr>
          </gpxtpx:TrackPointExtension>
        </extensions>
      </trkpt>
      <trkpt lat="38.83708219797319" lon="121.51080499969486">
        <ele>6.792299721390009</ele>
        <time>2024-11-24T15:06:21Z</time>
        <extensions>
          <gpxtpx:TrackPointExtension>
            <gpxtpx:hr>152</gpxtpx:hr>
          </gpxtpx:TrackPointExtension>
        </extensions>
      </trkpt>
      <trkpt lat="38.837128004282" lon="121.51068528494922">
        <ele>7.222028100863099</ele>
        <time>2024-11-24T15:06:25Z</time>
        <extensions>
          <gpxtpx:TrackPointExtension>
            <gpxtpx:hr>150</gpxtpx:hr>
          </gpxtpx:TrackPointExtension>
        </extensions>
      </trkpt>
      <trkpt lat="38.837265060169344" lon="121.51048578069145">
        <ele>7.464603908360004</ele>
        <time>2024-11-24T15:06:33Z</time>
        <extensions>
          <gpxtpx:TrackPointExtension>
            <gpxtpx:hr>152</gpxtpx:hr>
          </gpxtpx:TrackPointExtension>
        </extensions>
      </trkpt>
      <trkpt lat="38.837504184697" lon="121.51027063431792">
        <ele>8.364008093252778</ele>
        <time>2024-11-24T15:06:45Z</time>
        <extensions>
          <gpxtpx:TrackPointExtension>
            <gpxtpx:hr>154</gpxtpx:hr>
          </gpxtpx:TrackPointExtension>
        </extensions>
      </trkpt>
      <trkpt lat="38.83758986341028" lon="121.5102073582419">
        <ele>7.701357573270798</ele>
        <time>2024-11-24T15:06:49Z</time>
        <extensions>
          <gpxtpx:TrackPointExtension>
            <gpxtpx:hr>154</gpxtpx:hr>
          </gpxtpx:TrackPointExtension>
        </extensions>
      </trkpt>
      <trkpt lat="38.837715608556344" lon="121.51003303551829">
        <ele>7.2256385227665305</ele>
        <time>2024-11-24T15:06:57Z</time>
        <extensions>
          <gpxtpx:TrackPointExtension>
            <gpxtpx:hr>152</gpxtpx:hr>
          </gpxtpx:TrackPointExtension>
        </extensions>
      </trkpt>
      <trkpt lat="38.83770687088218" lon="121.50992269442499">
        <ele>7.349436438642442</ele>
        <time>2024-11-24T15:07:01Z</time>
        <extensions>
          <gpxtpx:TrackPointExtension>
            <gpxtpx:hr>150</gpxtpx:hr>
          </gpxtpx:TrackPointExtension>
        </extensions>
      </trkpt>
      <trkpt lat="38.837645240775984" lon="121.50982722453413">
        <ele>7.884197375737131</ele>
        <time>2024-11-24T15:07:05Z</time>
        <extensions>
          <gpxtpx:TrackPointExtension>
            <gpxtpx:hr>150</gpxtpx:hr>
          </gpxtpx:TrackPointExtension>
        </extensions>
      </trkpt>
      <trkpt lat="38.837480027308125" lon="121.50976147335331">
        <ele>7.611565770581365</ele>
        <time>2024-11-24T15:07:12Z</time>
        <extensions>
          <gpxtpx:TrackPointExtension>
            <gpxtpx:hr>152</gpxtpx:hr>
          </gpxtpx:TrackPointExtension>
        </extensions>
      </trkpt>
      <trkpt lat="38.837400675455676" lon="121.50967799397894">
        <ele>8.253414851613343</ele>
        <time>2024-11-24T15:07:16Z</time>
        <extensions>
          <gpxtpx:TrackPointExtension>
            <gpxtpx:hr>153</gpxtpx:hr>
          </gpxtpx:TrackPointExtension>
        </extensions>
      </trkpt>
      <trkpt lat="38.837271516756566" lon="121.50946194595636">
        <ele>7.580301273614168</ele>
        <time>2024-11-24T15:07:24Z</time>
        <extensions>
          <gpxtpx:TrackPointExtension>
            <gpxtpx:hr>153</gpxtpx:hr>
          </gpxtpx:TrackPointExtension>
        </extensions>
      </trkpt>
      <trkpt lat="38.83719009993201" lon="121.5093880157252">
        <ele>7.713443976826966</ele>
        <time>2024-11-24T15:07:28Z</time>
        <extensions>
          <gpxtpx:TrackPointExtension>
            <gpxtpx:hr>154</gpxtpx:hr>
          </gpxtpx:TrackPointExtension>
        </extensions>
      </trkpt>
      <trkpt lat="38.83719109140542" lon="121.5092859044641">
        <ele>7.742108045145869</ele>
        <time>2024-11-24T15:07:32Z</time>
        <extensions>
          <gpxtpx:TrackPointExtension>
            <gpxtpx:hr>153</gpxtpx:hr>
          </gpxtpx:TrackPointExtension>
        </extensions>
      </trkpt>
      <trkpt lat="38.837231905758706" lon="121.50916407743262">
        <ele>7.3377194330096245</ele>
        <time>2024-11-24T15:07:36Z</time>
        <extensions>
          <gpxtpx:TrackPointExtension>
            <gpxtpx:hr>153</gpxtpx:hr>
          </gpxtpx:TrackPointExtension>
        </extensions>
      </trkpt>
      <trkpt lat="38.83744070632918" lon="121.50890725593148">
        <ele>9.056756088510156</ele>
        <time>2024-11-24T15:07:48Z</time>
        <extensions>
          <gpxtpx:TrackPointExtension>
            <gpxtpx:hr>151</gpxtpx:hr>
          </gpxtpx:TrackPointExtension>
        </extensions>
      </trkpt>
      <trkpt lat="38.837492468655086" lon="121.50880226006467">
        <ele>8.810577299445868</ele>
        <time>2024-11-24T15:07:52Z</time>
        <extensions>
          <gpxtpx:TrackPointExtension>
            <gpxtpx:hr>151</gpxtpx:hr>
          </gpxtpx:TrackPointExtension>
        </extensions>
      </trkpt>
      <trkpt lat="38.837557286472226" lon="121.50855631563385">
        <ele>10.115798714570701</ele>
        <time>2024-11-24T15:08:00Z</time>
        <extensions>
          <gpxtpx:TrackPointExtension>
            <gpxtpx:hr>151</gpxtpx:hr>
          </gpxtpx:TrackPointExtension>
        </extensions>
      </trkpt>
      <trkpt lat="38.83759927803217" lon="121.50845216746696">
        <ele>8.984565730206668</ele>
        <time>2024-11-24T15:08:04Z</time>
        <extensions>
          <gpxtpx:TrackPointExtension>
            <gpxtpx:hr>151</gpxtpx:hr>
          </gpxtpx:TrackPointExtension>
        </extensions>
      </trkpt>
      <trkpt lat="38.83770565459152" lon="121.50847818297126">
        <ele>9.81874077487737</ele>
        <time>2024-11-24T15:08:08Z</time>
        <extensions>
          <gpxtpx:TrackPointExtension>
            <gpxtpx:hr>151</gpxtpx:hr>
          </gpxtpx:TrackPointExtension>
        </extensions>
      </trkpt>
      <trkpt lat="38.83797713332209" lon="121.50868962617724">
        <ele>10.977913249284029</ele>
        <time>2024-11-24T15:08:20Z</time>
        <extensions>
          <gpxtpx:TrackPointExtension>
            <gpxtpx:hr>152</gpxtpx:hr>
          </gpxtpx:TrackPointExtension>
        </extensions>
      </trkpt>
      <trkpt lat="38.838205334810674" lon="121.50891004123899">
        <ele>8.914383581839502</ele>
        <time>2024-11-24T15:08:32Z</time>
        <extensions>
          <gpxtpx:TrackPointExtension>
            <gpxtpx:hr>150</gpxtpx:hr>
          </gpxtpx:TrackPointExtension>
        </extensions>
      </trkpt>
      <trkpt lat="38.83826827866828" lon="121.5090157264012">
        <ele>8.929488467052579</ele>
        <time>2024-11-24T15:08:36Z</time>
        <extensions>
          <gpxtpx:TrackPointExtension>
            <gpxtpx:hr>152</gpxtpx:hr>
          </gpxtpx:TrackPointExtension>
        </extensions>
      </trkpt>
      <trkpt lat="38.83829149965232" lon="121.50912236771539">
        <ele>10.003271863795817</ele>
        <time>2024-11-24T15:08:40Z</time>
        <extensions>
          <gpxtpx:TrackPointExtension>
            <gpxtpx:hr>152</gpxtpx:hr>
          </gpxtpx:TrackPointExtension>
        </extensions>
      </trkpt>
      <trkpt lat="38.83813444247317" lon="121.50927719808519">
        <ele>9.198086275719106</ele>
        <time>2024-11-24T15:08:48Z</time>
        <extensions>
          <gpxtpx:TrackPointExtension>
            <gpxtpx:hr>152</gpxtpx:hr>
          </gpxtpx:TrackPointExtension>
        </extensions>
      </trkpt>
      <trkpt lat="38.83801554261922" lon="121.5094863179506">
        <ele>8.381438637152314</ele>
        <time>2024-11-24T15:08:56Z</time>
        <extensions>
          <gpxtpx:TrackPointExtension>
            <gpxtpx:hr>152</gpxtpx:hr>
          </gpxtpx:TrackPointExtension>
        </extensions>
      </trkpt>
      <trkpt lat="38.83792851125916" lon="121.5097936806741">
        <ele>7.525809608399868</ele>
        <time>2024-11-24T15:09:08Z</time>
        <extensions>
          <gpxtpx:TrackPointExtension>
            <gpxtpx:hr>150</gpxtpx:hr>
          </gpxtpx:TrackPointExtension>
        </extensions>
      </trkpt>
      <trkpt lat="38.83784759774527" lon="121.50982235153708">
        <ele>9.068470149300992</ele>
        <time>2024-11-24T15:09:11Z</time>
        <extensions>
          <gpxtpx:TrackPointExtension>
            <gpxtpx:hr>151</gpxtpx:hr>
          </gpxtpx:TrackPointExtension>
        </extensions>
      </trkpt>
      <trkpt lat="38.83779365774334" lon="121.50975010726673">
        <ele>8.646315671503544</ele>
        <time>2024-11-24T15:09:15Z</time>
        <extensions>
          <gpxtpx:TrackPointExtension>
            <gpxtpx:hr>151</gpxtpx:hr>
          </gpxtpx:TrackPointExtension>
        </extensions>
      </trkpt>
      <trkpt lat="38.83778066786816" lon="121.5096563586876">
        <ele>8.849183589220047</ele>
        <time>2024-11-24T15:09:23Z</time>
        <extensions>
          <gpxtpx:TrackPointExtension>
            <gpxtpx:hr>151</gpxtpx:hr>
          </gpxtpx:TrackPointExtension>
        </extensions>
      </trkpt>
      <trkpt lat="38.83778066786816" lon="121.5096563586876">
        <ele>8.849183589220047</ele>
        <time>2024-11-24T15:09:25Z</time>
        <extensions>
          <gpxtpx:TrackPointExtension>
            <gpxtpx:hr>151</gpxtpx:hr>
          </gpxtpx:TrackPointExtension>
        </extensions>
      </trkpt>
    </trkseg>
  </trk>
</gpx>