<?xml version="1.0" encoding="UTF-8"?>
<gpx xmlns="http://www.topografix.com/GPX/1/1" xmlns:gpxtpx="http://www.garmin.com/xmlschemas/TrackPointExtension/v1" xmlns:xsi="http://www.w3.org/2001/XMLSchema-instance" xsi:schemaLocation="http://www.topografix.com/GPX/1/1 http://www.topografix.com/GPX/1/1/gpx.xsd" version="1.1" creator="gpx.py -- https://github.com/tkrajina/gpxpy">
  <trk>
    <name>gpx from keep</name>
    <type>Run</type>
    <trkseg>
      <trkpt lat="38.833037408605094" lon="121.50798766530892">
        <ele>3.0798749029636383</ele>
        <time>2025-08-02T02:21:13Z</time>
      </trkpt>
      <trkpt lat="38.83307758786325" lon="121.5079207896366">
        <ele>3.130353769287467</ele>
        <time>2025-08-02T02:21:17Z</time>
      </trkpt>
      <trkpt lat="38.83313514523794" lon="121.50769563932678">
        <ele>3.8409936325624585</ele>
        <time>2025-08-02T02:21:29Z</time>
      </trkpt>
      <trkpt lat="38.83320459287967" lon="121.50755051698738">
        <ele>4.201877534389496</ele>
        <time>2025-08-02T02:21:37Z</time>
      </trkpt>
      <trkpt lat="38.8332250230403" lon="121.50745588552698">
        <ele>4.316658194176853</ele>
        <time>2025-08-02T02:21:41Z</time>
      </trkpt>
      <trkpt lat="38.833196851222326" lon="121.50717482076126">
        <ele>3.911309323273599</ele>
        <time>2025-08-02T02:21:53Z</time>
      </trkpt>
      <trkpt lat="38.833099359978206" lon="121.50692889207684">
        <ele>4.238782845437527</ele>
        <time>2025-08-02T02:22:05Z</time>
      </trkpt>
      <trkpt lat="38.83289497149031" lon="121.50665373654842">
        <ele>3.299369238317013</ele>
        <time>2025-08-02T02:22:21Z</time>
      </trkpt>
      <trkpt lat="38.83261522726141" lon="121.50651990746789">
        <ele>2.425116394646466</ele>
        <time>2025-08-02T02:22:36Z</time>
      </trkpt>
      <trkpt lat="38.8323908616843" lon="121.5064978556304">
        <ele>2.9071726826950908</ele>
        <time>2025-08-02T02:22:48Z</time>
      </trkpt>
      <trkpt lat="38.8321435867692" lon="121.50631830345765">
        <ele>2.7634525829926133</ele>
        <time>2025-08-02T02:23:03Z</time>
      </trkpt>
      <trkpt lat="38.832072343789136" lon="121.5062001481089">
        <ele>2.398006370291114</ele>
        <time>2025-08-02T02:23:09Z</time>
      </trkpt>
      <trkpt lat="38.831949564347106" lon="121.50584525367573">
        <ele>3.5743721425533295</ele>
        <time>2025-08-02T02:23:24Z</time>
      </trkpt>
      <trkpt lat="38.831801051525495" lon="121.50559229285089">
        <ele>3.8559800116345286</ele>
        <time>2025-08-02T02:23:36Z</time>
      </trkpt>
      <trkpt lat="38.83167050249854" lon="121.50545376813604">
        <ele>3.5679759308695793</ele>
        <time>2025-08-02T02:23:44Z</time>
      </trkpt>
      <trkpt lat="38.83142978430959" lon="121.50532040127358">
        <ele>3.758280109614134</ele>
        <time>2025-08-02T02:23:56Z</time>
      </trkpt>
      <trkpt lat="38.831346182246676" lon="121.50529102327955">
        <ele>3.7660542335361242</ele>
        <time>2025-08-02T02:24:00Z</time>
      </trkpt>
      <trkpt lat="38.831098846620286" lon="121.50531609285">
        <ele>3.1024968875572085</ele>
        <time>2025-08-02T02:24:12Z</time>
      </trkpt>
      <trkpt lat="38.830850603298494" lon="121.50527581250317">
        <ele>2.26941950712353</ele>
        <time>2025-08-02T02:24:24Z</time>
      </trkpt>
      <trkpt lat="38.83076928744409" lon="121.50524461731426">
        <ele>3.16313717328012</ele>
        <time>2025-08-02T02:24:28Z</time>
      </trkpt>
      <trkpt lat="38.830536987929165" lon="121.505003598653">
        <ele>3.988807405345142</ele>
        <time>2025-08-02T02:24:42Z</time>
      </trkpt>
      <trkpt lat="38.830239295879224" lon="121.50483578965321">
        <ele>3.308805583976209</ele>
        <time>2025-08-02T02:24:57Z</time>
      </trkpt>
      <trkpt lat="38.829997644245026" lon="121.50470984416845">
        <ele>2.475346797145903</ele>
        <time>2025-08-02T02:25:09Z</time>
      </trkpt>
      <trkpt lat="38.82980015861658" lon="121.50446928841446">
        <ele>2.994849167764187</ele>
        <time>2025-08-02T02:25:22Z</time>
      </trkpt>
      <trkpt lat="38.82953912188835" lon="121.50421739666298">
        <ele>3.2153190234676003</ele>
        <time>2025-08-02T02:25:38Z</time>
      </trkpt>
      <trkpt lat="38.82923151105626" lon="121.50405041414582">
        <ele>3.6694578416645527</ele>
        <time>2025-08-02T02:25:54Z</time>
      </trkpt>
      <trkpt lat="38.82899542116697" lon="121.50400364441454">
        <ele>2.836660359054804</ele>
        <time>2025-08-02T02:26:06Z</time>
      </trkpt>
      <trkpt lat="38.82871491878049" lon="121.50403218827135">
        <ele>2.262093340046704</ele>
        <time>2025-08-02T02:26:22Z</time>
      </trkpt>
      <trkpt lat="38.82844673033139" lon="121.5040836936556">
        <ele>2.33120000641793</ele>
        <time>2025-08-02T02:26:34Z</time>
      </trkpt>
      <trkpt lat="38.82820818746571" lon="121.50401670205711">
        <ele>2.1652189921587706</ele>
        <time>2025-08-02T02:26:45Z</time>
      </trkpt>
      <trkpt lat="38.82804107097656" lon="121.50383425733921">
        <ele>2.288462690077722</ele>
        <time>2025-08-02T02:26:55Z</time>
      </trkpt>
      <trkpt lat="38.82792388455877" lon="121.50358121547154">
        <ele>1.9469830617308617</ele>
        <time>2025-08-02T02:27:06Z</time>
      </trkpt>
      <trkpt lat="38.827874382294816" lon="121.50336580970891">
        <ele>2.3072445457801223</ele>
        <time>2025-08-02T02:27:14Z</time>
      </trkpt>
      <trkpt lat="38.82782904989182" lon="121.50326864536392">
        <ele>1.868805855512619</ele>
        <time>2025-08-02T02:27:18Z</time>
      </trkpt>
      <trkpt lat="38.827607783338195" lon="121.50306908013982">
        <ele>2.0169435907155275</ele>
        <time>2025-08-02T02:27:30Z</time>
      </trkpt>
      <trkpt lat="38.82744051953387" lon="121.50298475066525">
        <ele>2.2255753995850682</ele>
        <time>2025-08-02T02:27:38Z</time>
      </trkpt>
      <trkpt lat="38.82725943875149" lon="121.50299297353038">
        <ele>3.0794839709997177</ele>
        <time>2025-08-02T02:27:46Z</time>
      </trkpt>
      <trkpt lat="38.827010469368076" lon="121.50313271664358">
        <ele>2.997481044381857</ele>
        <time>2025-08-02T02:27:58Z</time>
      </trkpt>
      <trkpt lat="38.82689161945241" lon="121.50329657697108">
        <ele>3.3396805860102177</ele>
        <time>2025-08-02T02:28:06Z</time>
      </trkpt>
      <trkpt lat="38.82674922056059" lon="121.50346018463411">
        <ele>2.7760309372097254</ele>
        <time>2025-08-02T02:28:14Z</time>
      </trkpt>
      <trkpt lat="38.82664360845585" lon="121.5036373441057">
        <ele>2.272904282435775</ele>
        <time>2025-08-02T02:28:22Z</time>
      </trkpt>
      <trkpt lat="38.826555763509056" lon="121.503950720944">
        <ele>4.036303633823991</ele>
        <time>2025-08-02T02:28:34Z</time>
      </trkpt>
      <trkpt lat="38.82657519185196" lon="121.50405832529354">
        <ele>2.2177052246406674</ele>
        <time>2025-08-02T02:28:38Z</time>
      </trkpt>
      <trkpt lat="38.82656888577391" lon="121.50427901537324">
        <ele>2.438821113668382</ele>
        <time>2025-08-02T02:28:46Z</time>
      </trkpt>
      <trkpt lat="38.826449068702175" lon="121.50467916683668">
        <ele>1.8442073836922646</ele>
        <time>2025-08-02T02:29:06Z</time>
      </trkpt>
      <trkpt lat="38.82640777830929" lon="121.50477431671986">
        <ele>2.42915425542742</ele>
        <time>2025-08-02T02:29:10Z</time>
      </trkpt>
      <trkpt lat="38.82633529948534" lon="121.50485315644374">
        <ele>2.207289637066424</ele>
        <time>2025-08-02T02:29:14Z</time>
      </trkpt>
      <trkpt lat="38.82627537214917" lon="121.50488400741578">
        <ele>2.921425216831267</ele>
        <time>2025-08-02T02:29:18Z</time>
      </trkpt>
      <trkpt lat="38.826409246439" lon="121.50464163843984">
        <ele>2.518867646344006</ele>
        <time>2025-08-02T02:29:29Z</time>
      </trkpt>
      <trkpt lat="38.82649664239763" lon="121.50433884533038">
        <ele>2.4848795607686043</ele>
        <time>2025-08-02T02:29:41Z</time>
      </trkpt>
      <trkpt lat="38.82652320368449" lon="121.50400977485374">
        <ele>3.1281540505588055</ele>
        <time>2025-08-02T02:29:53Z</time>
      </trkpt>
      <trkpt lat="38.826557378961304" lon="121.50390556703348">
        <ele>2.503996198065579</ele>
        <time>2025-08-02T02:29:57Z</time>
      </trkpt>
      <trkpt lat="38.8265654936068" lon="121.50380227213348">
        <ele>2.7234648847952485</ele>
        <time>2025-08-02T02:30:01Z</time>
      </trkpt>
      <trkpt lat="38.82664585810876" lon="121.50359788100492">
        <ele>2.8357545072212815</ele>
        <time>2025-08-02T02:30:09Z</time>
      </trkpt>
      <trkpt lat="38.82688631112402" lon="121.50327633453416">
        <ele>2.184609714895487</ele>
        <time>2025-08-02T02:30:25Z</time>
      </trkpt>
      <trkpt lat="38.82693070636728" lon="121.50317432462722">
        <ele>2.867415549233556</ele>
        <time>2025-08-02T02:30:29Z</time>
      </trkpt>
      <trkpt lat="38.82700279665321" lon="121.50310384974688">
        <ele>2.928675062954426</ele>
        <time>2025-08-02T02:30:33Z</time>
      </trkpt>
      <trkpt lat="38.827261112206145" lon="121.50299739854333">
        <ele>2.6803228706121445</ele>
        <time>2025-08-02T02:30:45Z</time>
      </trkpt>
      <trkpt lat="38.82752300599915" lon="121.50305679158348">
        <ele>2.848648017272353</ele>
        <time>2025-08-02T02:30:56Z</time>
      </trkpt>
      <trkpt lat="38.827649248004896" lon="121.50314855650548">
        <ele>3.615438850596547</ele>
        <time>2025-08-02T02:31:02Z</time>
      </trkpt>
      <trkpt lat="38.82772695217783" lon="121.50316934568312">
        <ele>2.9472371730953455</ele>
        <time>2025-08-02T02:31:05Z</time>
      </trkpt>
      <trkpt lat="38.827786828147794" lon="121.50321127905106">
        <ele>2.480720770545304</ele>
        <time>2025-08-02T02:31:08Z</time>
      </trkpt>
      <trkpt lat="38.82783647954939" lon="121.50331872848628">
        <ele>3.109272218309343</ele>
        <time>2025-08-02T02:31:12Z</time>
      </trkpt>
      <trkpt lat="38.82792297887665" lon="121.50365055119458">
        <ele>1.8422058913856745</ele>
        <time>2025-08-02T02:31:24Z</time>
      </trkpt>
      <trkpt lat="38.828035035492206" lon="121.50385237335567">
        <ele>3.2263673208653927</ele>
        <time>2025-08-02T02:31:32Z</time>
      </trkpt>
      <trkpt lat="38.828175552429585" lon="121.50400303952368">
        <ele>2.405653890222311</ele>
        <time>2025-08-02T02:31:40Z</time>
      </trkpt>
      <trkpt lat="38.82841636144093" lon="121.50406699891609">
        <ele>3.333051286637783</ele>
        <time>2025-08-02T02:31:52Z</time>
      </trkpt>
      <trkpt lat="38.82849642599943" lon="121.50407180640035">
        <ele>2.9905848037451506</ele>
        <time>2025-08-02T02:31:56Z</time>
      </trkpt>
      <trkpt lat="38.82876170085202" lon="121.50399214921717">
        <ele>2.730611783452332</ele>
        <time>2025-08-02T02:32:08Z</time>
      </trkpt>
      <trkpt lat="38.82884338143914" lon="121.50394356599938">
        <ele>3.017175741493702</ele>
        <time>2025-08-02T02:32:12Z</time>
      </trkpt>
      <trkpt lat="38.82902571429751" lon="121.50399301173859">
        <ele>3.731652778573334</ele>
        <time>2025-08-02T02:32:20Z</time>
      </trkpt>
      <trkpt lat="38.829119517529826" lon="121.50399870879555">
        <ele>2.7455875957384706</ele>
        <time>2025-08-02T02:32:24Z</time>
      </trkpt>
      <trkpt lat="38.82939625445166" lon="121.50413895742278">
        <ele>3.2231790367513895</ele>
        <time>2025-08-02T02:32:36Z</time>
      </trkpt>
      <trkpt lat="38.82964652301467" lon="121.50431249124267">
        <ele>2.70951078645885</ele>
        <time>2025-08-02T02:32:48Z</time>
      </trkpt>
      <trkpt lat="38.82989384752807" lon="121.50459781041629">
        <ele>1.903028018772602</ele>
        <time>2025-08-02T02:33:03Z</time>
      </trkpt>
      <trkpt lat="38.830021276380144" lon="121.50471367906165">
        <ele>2.6030431278049946</ele>
        <time>2025-08-02T02:33:10Z</time>
      </trkpt>
      <trkpt lat="38.83033596840622" lon="121.50488308969126">
        <ele>3.3394717648625374</ele>
        <time>2025-08-02T02:33:26Z</time>
      </trkpt>
      <trkpt lat="38.83050063179448" lon="121.50498203387909">
        <ele>2.7449378110468388</ele>
        <time>2025-08-02T02:33:34Z</time>
      </trkpt>
      <trkpt lat="38.83072220765107" lon="121.50519265597566">
        <ele>3.0879046637564898</ele>
        <time>2025-08-02T02:33:46Z</time>
      </trkpt>
      <trkpt lat="38.83079830912756" lon="121.50526005302264">
        <ele>2.318936894647777</ele>
        <time>2025-08-02T02:33:50Z</time>
      </trkpt>
      <trkpt lat="38.830972868757435" lon="121.50531546674011">
        <ele>3.2187609411776066</ele>
        <time>2025-08-02T02:33:58Z</time>
      </trkpt>
      <trkpt lat="38.831299814921664" lon="121.50531082123547">
        <ele>3.812073434703052</ele>
        <time>2025-08-02T02:34:14Z</time>
      </trkpt>
      <trkpt lat="38.83155722516765" lon="121.5053973988515">
        <ele>3.8335029277950525</ele>
        <time>2025-08-02T02:34:26Z</time>
      </trkpt>
      <trkpt lat="38.83172706541849" lon="121.50551515050327">
        <ele>4.364125272259116</ele>
        <time>2025-08-02T02:34:34Z</time>
      </trkpt>
      <trkpt lat="38.83190786632654" lon="121.50577040101156">
        <ele>3.464817153289914</ele>
        <time>2025-08-02T02:34:46Z</time>
      </trkpt>
      <trkpt lat="38.83206869804399" lon="121.50618167399844">
        <ele>3.0283068139106035</ele>
        <time>2025-08-02T02:35:02Z</time>
      </trkpt>
      <trkpt lat="38.8321208563348" lon="121.50626944814483">
        <ele>3.057991269044578</ele>
        <time>2025-08-02T02:35:06Z</time>
      </trkpt>
      <trkpt lat="38.8323316553427" lon="121.50644716574388">
        <ele>3.305005945265293</ele>
        <time>2025-08-02T02:35:17Z</time>
      </trkpt>
      <trkpt lat="38.832677083410914" lon="121.50653146729975">
        <ele>2.680438656359911</ele>
        <time>2025-08-02T02:35:33Z</time>
      </trkpt>
      <trkpt lat="38.832898482624394" lon="121.50666419199797">
        <ele>3.3298624884337187</ele>
        <time>2025-08-02T02:35:45Z</time>
      </trkpt>
    </trkseg>
  </trk>
</gpx>