<?xml version="1.0" encoding="UTF-8"?>
<gpx xmlns="http://www.topografix.com/GPX/1/1" xmlns:gpxtpx="http://www.garmin.com/xmlschemas/TrackPointExtension/v1" xmlns:xsi="http://www.w3.org/2001/XMLSchema-instance" xsi:schemaLocation="http://www.topografix.com/GPX/1/1 http://www.topografix.com/GPX/1/1/gpx.xsd" version="1.1" creator="gpx.py -- https://github.com/tkrajina/gpxpy">
  <trk>
    <name>gpx from keep</name>
    <type>Run</type>
    <trkseg>
      <trkpt lat="43.177555437595146" lon="124.25919269595752">
        <ele>178.01984229395285</ele>
        <time>2026-08-18T23:55:37Z</time>
      </trkpt>
      <trkpt lat="43.17769930216325" lon="124.25887565410619">
        <ele>178.01266251225024</ele>
        <time>2026-08-18T23:55:49Z</time>
      </trkpt>
      <trkpt lat="43.17785671983472" lon="124.25855477645673">
        <ele>176.74873851053417</ele>
        <time>2026-08-18T23:56:01Z</time>
      </trkpt>
      <trkpt lat="43.1780050946374" lon="124.25822883823673">
        <ele>177.2407256755978</ele>
        <time>2026-08-18T23:56:14Z</time>
      </trkpt>
      <trkpt lat="43.17815020503851" lon="124.25792127236947">
        <ele>176.8688115021214</ele>
        <time>2026-08-18T23:56:26Z</time>
      </trkpt>
      <trkpt lat="43.17817219433397" lon="124.25784680674452">
        <ele>177.3530957819894</ele>
        <time>2026-08-18T23:56:29Z</time>
      </trkpt>
      <trkpt lat="43.17825197950448" lon="124.25770086695921">
        <ele>176.75750401243567</ele>
        <time>2026-08-18T23:56:35Z</time>
      </trkpt>
      <trkpt lat="43.17827392805323" lon="124.25762264711695">
        <ele>176.51052298489958</ele>
        <time>2026-08-18T23:56:38Z</time>
      </trkpt>
      <trkpt lat="43.17823334250705" lon="124.25753525148221">
        <ele>176.52301331143826</ele>
        <time>2026-08-18T23:56:41Z</time>
      </trkpt>
      <trkpt lat="43.17799185099934" lon="124.257302155071">
        <ele>177.56297744996846</ele>
        <time>2026-08-18T23:56:53Z</time>
      </trkpt>
      <trkpt lat="43.177858805517126" lon="124.25716566595132">
        <ele>178.71384049300104</ele>
        <time>2026-08-18T23:56:59Z</time>
      </trkpt>
      <trkpt lat="43.17758927454876" lon="124.25691745982668">
        <ele>177.1564790159464</ele>
        <time>2026-08-18T23:57:11Z</time>
      </trkpt>
      <trkpt lat="43.1773474126287" lon="124.25667317333587">
        <ele>176.62300622463226</ele>
        <time>2026-08-18T23:57:23Z</time>
      </trkpt>
      <trkpt lat="43.17716552937582" lon="124.25646761448377">
        <ele>176.84810911957175</ele>
        <time>2026-08-18T23:57:32Z</time>
      </trkpt>
      <trkpt lat="43.17709762447731" lon="124.25641424500459">
        <ele>176.45624804869294</ele>
        <time>2026-08-18T23:57:35Z</time>
      </trkpt>
      <trkpt lat="43.17685150259158" lon="124.25613509086969">
        <ele>175.81783835031092</ele>
        <time>2026-08-18T23:57:48Z</time>
      </trkpt>
      <trkpt lat="43.17662605026312" lon="124.25588997472244">
        <ele>176.35324304830283</ele>
        <time>2026-08-18T23:58:00Z</time>
      </trkpt>
      <trkpt lat="43.17656586916091" lon="124.25583569948512">
        <ele>176.05982036329806</ele>
        <time>2026-08-18T23:58:03Z</time>
      </trkpt>
      <trkpt lat="43.17651848117983" lon="124.25575044981572">
        <ele>176.5787526089698</ele>
        <time>2026-08-18T23:58:06Z</time>
      </trkpt>
      <trkpt lat="43.17640844860193" lon="124.25562455781642">
        <ele>177.0467079533264</ele>
        <time>2026-08-18T23:58:12Z</time>
      </trkpt>
      <trkpt lat="43.176280287677145" lon="124.25551446209255">
        <ele>177.0358102824539</ele>
        <time>2026-08-18T23:58:18Z</time>
      </trkpt>
      <trkpt lat="43.176063898025966" lon="124.25526633243499">
        <ele>177.7919179648161</ele>
        <time>2026-08-18T23:58:30Z</time>
      </trkpt>
      <trkpt lat="43.17584402216694" lon="124.25501436841897">
        <ele>177.01778043899685</ele>
        <time>2026-08-18T23:58:42Z</time>
      </trkpt>
      <trkpt lat="43.175680300077644" lon="124.25480908827156">
        <ele>176.98035538569093</ele>
        <time>2026-08-18T23:58:51Z</time>
      </trkpt>
      <trkpt lat="43.1754472878028" lon="124.25457199783503">
        <ele>176.60297748446465</ele>
        <time>2026-08-18T23:59:03Z</time>
      </trkpt>
      <trkpt lat="43.17522943355295" lon="124.25432125244093">
        <ele>177.8380439253524</ele>
        <time>2026-08-18T23:59:15Z</time>
      </trkpt>
      <trkpt lat="43.17518019354202" lon="124.25427063224323">
        <ele>178.0445084841922</ele>
        <time>2026-08-18T23:59:18Z</time>
      </trkpt>
      <trkpt lat="43.17509917288913" lon="124.25426162657844">
        <ele>176.81549757998437</ele>
        <time>2026-08-18T23:59:21Z</time>
      </trkpt>
      <trkpt lat="43.17488815639967" lon="124.25462762400072">
        <ele>177.46727010421455</ele>
        <time>2026-08-18T23:59:36Z</time>
      </trkpt>
      <trkpt lat="43.174695850611776" lon="124.25500270764456">
        <ele>176.48981811571866</ele>
        <time>2026-08-18T23:59:49Z</time>
      </trkpt>
      <trkpt lat="43.1745127381132" lon="124.255364234634">
        <ele>175.36776679567993</ele>
        <time>2026-08-19T00:00:01Z</time>
      </trkpt>
      <trkpt lat="43.17442751031352" lon="124.25554297287893">
        <ele>176.06347568146884</ele>
        <time>2026-08-19T00:00:07Z</time>
      </trkpt>
      <trkpt lat="43.174241682318325" lon="124.25584760181411">
        <ele>175.55006275698543</ele>
        <time>2026-08-19T00:00:19Z</time>
      </trkpt>
      <trkpt lat="43.1741384919667" lon="124.25601520906909">
        <ele>175.2327967369929</ele>
        <time>2026-08-19T00:00:25Z</time>
      </trkpt>
      <trkpt lat="43.17410126737255" lon="124.2561125818584">
        <ele>175.55157758761197</ele>
        <time>2026-08-19T00:00:28Z</time>
      </trkpt>
      <trkpt lat="43.17391919117599" lon="124.25640989680736">
        <ele>176.51419830974191</ele>
        <time>2026-08-19T00:00:40Z</time>
      </trkpt>
      <trkpt lat="43.17374089058979" lon="124.2567633186758">
        <ele>176.35539670754224</ele>
        <time>2026-08-19T00:00:52Z</time>
      </trkpt>
      <trkpt lat="43.17356336411287" lon="124.25708635482009">
        <ele>176.90324994921684</ele>
        <time>2026-08-19T00:01:04Z</time>
      </trkpt>
      <trkpt lat="43.17337748503996" lon="124.25742072378468">
        <ele>177.03410488646477</ele>
        <time>2026-08-19T00:01:16Z</time>
      </trkpt>
      <trkpt lat="43.173330292019166" lon="124.25742405892385">
        <ele>178.17660857085139</ele>
        <time>2026-08-19T00:01:22Z</time>
      </trkpt>
      <trkpt lat="43.173292130531344" lon="124.25750822285276">
        <ele>177.62211266718805</ele>
        <time>2026-08-19T00:01:28Z</time>
      </trkpt>
      <trkpt lat="43.173230443897985" lon="124.25758619685774">
        <ele>175.60456472728401</ele>
        <time>2026-08-19T00:01:31Z</time>
      </trkpt>
      <trkpt lat="43.17321538017927" lon="124.25767824354979">
        <ele>175.9514377405867</ele>
        <time>2026-08-19T00:01:34Z</time>
      </trkpt>
      <trkpt lat="43.173019303420546" lon="124.25804749568154">
        <ele>177.07389201410115</ele>
        <time>2026-08-19T00:01:46Z</time>
      </trkpt>
      <trkpt lat="43.17294556867589" lon="124.25823179637145">
        <ele>177.87313042301685</ele>
        <time>2026-08-19T00:01:53Z</time>
      </trkpt>
      <trkpt lat="43.17287348303435" lon="124.25833401376944">
        <ele>177.36749593354762</ele>
        <time>2026-08-19T00:01:57Z</time>
      </trkpt>
      <trkpt lat="43.17272962672397" lon="124.25865573735963">
        <ele>177.14267518743873</ele>
        <time>2026-08-19T00:02:08Z</time>
      </trkpt>
      <trkpt lat="43.172671481445015" lon="124.25874056562989">
        <ele>177.0304245436564</ele>
        <time>2026-08-19T00:02:11Z</time>
      </trkpt>
      <trkpt lat="43.172638613636124" lon="124.25884065404121">
        <ele>177.6434998381883</ele>
        <time>2026-08-19T00:02:14Z</time>
      </trkpt>
      <trkpt lat="43.17253550236121" lon="124.25898392831994">
        <ele>176.90750237740576</ele>
        <time>2026-08-19T00:02:20Z</time>
      </trkpt>
      <trkpt lat="43.17237235056163" lon="124.25929667658633">
        <ele>176.744087186642</ele>
        <time>2026-08-19T00:02:32Z</time>
      </trkpt>
      <trkpt lat="43.17231385089479" lon="124.25938141831797">
        <ele>176.5339191192761</ele>
        <time>2026-08-19T00:02:35Z</time>
      </trkpt>
      <trkpt lat="43.17229494621597" lon="124.25944327054326">
        <ele>176.4977619489655</ele>
        <time>2026-08-19T00:02:38Z</time>
      </trkpt>
      <trkpt lat="43.172087679051955" lon="124.25980468670399">
        <ele>177.41338277701288</ele>
        <time>2026-08-19T00:02:53Z</time>
      </trkpt>
      <trkpt lat="43.1720473711141" lon="124.25985472889866">
        <ele>177.4480987181887</ele>
        <time>2026-08-19T00:02:59Z</time>
      </trkpt>
      <trkpt lat="43.17203471764482" lon="124.2598810098693">
        <ele>176.6194635219872</ele>
        <time>2026-08-19T00:03:20Z</time>
      </trkpt>
      <trkpt lat="43.172114113997765" lon="124.25965123214077">
        <ele>176.85569839552045</ele>
        <time>2026-08-19T00:03:29Z</time>
      </trkpt>
      <trkpt lat="43.172324908663924" lon="124.25930815698705">
        <ele>176.6501867575571</ele>
        <time>2026-08-19T00:03:41Z</time>
      </trkpt>
      <trkpt lat="43.17239965817075" lon="124.25922595511166">
        <ele>177.20995415840298</ele>
        <time>2026-08-19T00:03:44Z</time>
      </trkpt>
      <trkpt lat="43.17259747259934" lon="124.25886526119113">
        <ele>176.8531039757654</ele>
        <time>2026-08-19T00:03:57Z</time>
      </trkpt>
      <trkpt lat="43.17278486178472" lon="124.25850601855457">
        <ele>176.8122455449775</ele>
        <time>2026-08-19T00:04:09Z</time>
      </trkpt>
      <trkpt lat="43.17298850107181" lon="124.25812784736748">
        <ele>177.4062364688143</ele>
        <time>2026-08-19T00:04:22Z</time>
      </trkpt>
      <trkpt lat="43.173137366566046" lon="124.25778676234734">
        <ele>177.5838423371315</ele>
        <time>2026-08-19T00:04:34Z</time>
      </trkpt>
      <trkpt lat="43.173210130060085" lon="124.25771206835189">
        <ele>177.34456078521907</ele>
        <time>2026-08-19T00:04:37Z</time>
      </trkpt>
      <trkpt lat="43.17329971030393" lon="124.25753429878786">
        <ele>177.58626048546284</ele>
        <time>2026-08-19T00:04:43Z</time>
      </trkpt>
      <trkpt lat="43.17350138550985" lon="124.25720250692072">
        <ele>177.69529512245208</ele>
        <time>2026-08-19T00:04:55Z</time>
      </trkpt>
      <trkpt lat="43.17356031257612" lon="124.25712158942729">
        <ele>177.17282215319574</ele>
        <time>2026-08-19T00:04:58Z</time>
      </trkpt>
      <trkpt lat="43.17356807034267" lon="124.25705051048044">
        <ele>177.88421694282442</ele>
        <time>2026-08-19T00:05:01Z</time>
      </trkpt>
      <trkpt lat="43.1737513605176" lon="124.25670858110439">
        <ele>176.9806583020836</ele>
        <time>2026-08-19T00:05:13Z</time>
      </trkpt>
      <trkpt lat="43.17394643843389" lon="124.25635910425105">
        <ele>176.1741002900526</ele>
        <time>2026-08-19T00:05:25Z</time>
      </trkpt>
      <trkpt lat="43.17405732580836" lon="124.25611576266432">
        <ele>175.944259413518</ele>
        <time>2026-08-19T00:05:34Z</time>
      </trkpt>
      <trkpt lat="43.17425627832241" lon="124.2558137124698">
        <ele>176.37516072299331</ele>
        <time>2026-08-19T00:05:46Z</time>
      </trkpt>
      <trkpt lat="43.17443773854563" lon="124.2554290220735">
        <ele>175.0778851667419</ele>
        <time>2026-08-19T00:06:01Z</time>
      </trkpt>
      <trkpt lat="43.174640540517544" lon="124.25509667005848">
        <ele>175.44997000973672</ele>
        <time>2026-08-19T00:06:13Z</time>
      </trkpt>
      <trkpt lat="43.17481306346257" lon="124.25477568563545">
        <ele>176.79984320141375</ele>
        <time>2026-08-19T00:06:25Z</time>
      </trkpt>
      <trkpt lat="43.174990986605515" lon="124.25446659889656">
        <ele>176.30079191364348</ele>
        <time>2026-08-19T00:06:37Z</time>
      </trkpt>
      <trkpt lat="43.175143656813" lon="124.25426074954396">
        <ele>176.4525850135833</ele>
        <time>2026-08-19T00:06:46Z</time>
      </trkpt>
      <trkpt lat="43.17523148676886" lon="124.25431863608088">
        <ele>176.82630665693432</ele>
        <time>2026-08-19T00:06:49Z</time>
      </trkpt>
      <trkpt lat="43.175283043417586" lon="124.2543937960695">
        <ele>177.2495411299169</ele>
        <time>2026-08-19T00:06:52Z</time>
      </trkpt>
      <trkpt lat="43.17535586008335" lon="124.25445404822533">
        <ele>176.8993332311511</ele>
        <time>2026-08-19T00:06:55Z</time>
      </trkpt>
      <trkpt lat="43.17559390032878" lon="124.2547219988785">
        <ele>177.43796149268746</ele>
        <time>2026-08-19T00:07:07Z</time>
      </trkpt>
      <trkpt lat="43.17583084550557" lon="124.25499674922726">
        <ele>177.18504292238504</ele>
        <time>2026-08-19T00:07:19Z</time>
      </trkpt>
      <trkpt lat="43.17592953001224" lon="124.25506766433705">
        <ele>175.00849655084312</ele>
        <time>2026-08-19T00:07:25Z</time>
      </trkpt>
      <trkpt lat="43.1761681511937" lon="124.2553439181728">
        <ele>176.19026725366712</ele>
        <time>2026-08-19T00:07:37Z</time>
      </trkpt>
      <trkpt lat="43.1764378929995" lon="124.25565688719512">
        <ele>176.79892925918102</ele>
        <time>2026-08-19T00:07:49Z</time>
      </trkpt>
      <trkpt lat="43.17649121966523" lon="124.2557473987957">
        <ele>176.28892095014453</ele>
        <time>2026-08-19T00:07:52Z</time>
      </trkpt>
      <trkpt lat="43.176754634714385" lon="124.25604165566051">
        <ele>176.04127645213157</ele>
        <time>2026-08-19T00:08:04Z</time>
      </trkpt>
      <trkpt lat="43.177018279655826" lon="124.25631355988035">
        <ele>176.1432244880125</ele>
        <time>2026-08-19T00:08:16Z</time>
      </trkpt>
      <trkpt lat="43.177260017508615" lon="124.25658013269606">
        <ele>177.6975118527189</ele>
        <time>2026-08-19T00:08:28Z</time>
      </trkpt>
      <trkpt lat="43.1774771261653" lon="124.25681633918838">
        <ele>175.74145370721817</ele>
        <time>2026-08-19T00:08:39Z</time>
      </trkpt>
      <trkpt lat="43.1777405344875" lon="124.25707253720992">
        <ele>176.73714225087315</ele>
        <time>2026-08-19T00:08:51Z</time>
      </trkpt>
      <trkpt lat="43.177853295007175" lon="124.25721027052909">
        <ele>178.18507581017911</ele>
        <time>2026-08-19T00:08:57Z</time>
      </trkpt>
      <trkpt lat="43.17812279001624" lon="124.25745096120389">
        <ele>178.62118019163609</ele>
        <time>2026-08-19T00:09:09Z</time>
      </trkpt>
      <trkpt lat="43.17824939213988" lon="124.2575781988372">
        <ele>178.16178990527987</ele>
        <time>2026-08-19T00:09:15Z</time>
      </trkpt>
      <trkpt lat="43.178230514969556" lon="124.2576744015909">
        <ele>178.39406013023108</ele>
        <time>2026-08-19T00:09:18Z</time>
      </trkpt>
      <trkpt lat="43.17802396745698" lon="124.25803886364574">
        <ele>177.67612909525633</ele>
        <time>2026-08-19T00:09:30Z</time>
      </trkpt>
      <trkpt lat="43.17785993002277" lon="124.25842848014123">
        <ele>176.59080466721207</ele>
        <time>2026-08-19T00:09:42Z</time>
      </trkpt>
      <trkpt lat="43.177698406263225" lon="124.25879003876992">
        <ele>176.5330372536555</ele>
        <time>2026-08-19T00:09:54Z</time>
      </trkpt>
      <trkpt lat="43.177522812373375" lon="124.25919760708193">
        <ele>178.13920457474887</ele>
        <time>2026-08-19T00:10:06Z</time>
      </trkpt>
      <trkpt lat="43.17749272291783" lon="124.25928511203712">
        <ele>178.66459202766418</ele>
        <time>2026-08-19T00:10:09Z</time>
      </trkpt>
      <trkpt lat="43.177522014307065" lon="124.25939555623188">
        <ele>177.29816386755556</ele>
        <time>2026-08-19T00:10:12Z</time>
      </trkpt>
    </trkseg>
  </trk>
</gpx>