<?xml version="1.0" encoding="UTF-8"?>
<gpx xmlns="http://www.topografix.com/GPX/1/1" xmlns:gpxtpx="http://www.garmin.com/xmlschemas/TrackPointExtension/v1" xmlns:xsi="http://www.w3.org/2001/XMLSchema-instance" xsi:schemaLocation="http://www.topografix.com/GPX/1/1 http://www.topografix.com/GPX/1/1/gpx.xsd" version="1.1" creator="gpx.py -- https://github.com/tkrajina/gpxpy">
  <trk>
    <name>gpx from keep</name>
    <type>Run</type>
    <trkseg>
      <trkpt lat="38.838036505470825" lon="121.50923146057366">
        <ele>13.00102949142456</ele>
        <time>2024-10-07T23:42:32Z</time>
      </trkpt>
      <trkpt lat="38.837783127124965" lon="121.50912376079249">
        <ele>12.83013105392456</ele>
        <time>2024-10-07T23:42:36Z</time>
        <extensions>
          <gpxtpx:TrackPointExtension>
            <gpxtpx:hr>122</gpxtpx:hr>
          </gpxtpx:TrackPointExtension>
        </extensions>
      </trkpt>
      <trkpt lat="38.837672911119995" lon="121.50916017724111">
        <ele>11.710563794709742</ele>
        <time>2024-10-07T23:42:40Z</time>
        <extensions>
          <gpxtpx:TrackPointExtension>
            <gpxtpx:hr>122</gpxtpx:hr>
          </gpxtpx:TrackPointExtension>
        </extensions>
      </trkpt>
      <trkpt lat="38.837415779359354" lon="121.50915936491597">
        <ele>8.253410327248275</ele>
        <time>2024-10-07T23:42:48Z</time>
        <extensions>
          <gpxtpx:TrackPointExtension>
            <gpxtpx:hr>122</gpxtpx:hr>
          </gpxtpx:TrackPointExtension>
        </extensions>
      </trkpt>
      <trkpt lat="38.83730827177577" lon="121.50919869277206">
        <ele>7.668022298254073</ele>
        <time>2024-10-07T23:42:52Z</time>
        <extensions>
          <gpxtpx:TrackPointExtension>
            <gpxtpx:hr>122</gpxtpx:hr>
          </gpxtpx:TrackPointExtension>
        </extensions>
      </trkpt>
      <trkpt lat="38.837143314466985" lon="121.50939528150444">
        <ele>9.81490426696837</ele>
        <time>2024-10-07T23:43:00Z</time>
        <extensions>
          <gpxtpx:TrackPointExtension>
            <gpxtpx:hr>122</gpxtpx:hr>
          </gpxtpx:TrackPointExtension>
        </extensions>
      </trkpt>
      <trkpt lat="38.83702299963315" lon="121.509722108399">
        <ele>9.84653821773827</ele>
        <time>2024-10-07T23:43:12Z</time>
      </trkpt>
      <trkpt lat="38.836961348371815" lon="121.5098223177275">
        <ele>8.998388357460499</ele>
        <time>2024-10-07T23:43:16Z</time>
      </trkpt>
      <trkpt lat="38.83688423942653" lon="121.50989712687426">
        <ele>10.067857646383345</ele>
        <time>2024-10-07T23:43:20Z</time>
        <extensions>
          <gpxtpx:TrackPointExtension>
            <gpxtpx:hr>137</gpxtpx:hr>
          </gpxtpx:TrackPointExtension>
        </extensions>
      </trkpt>
      <trkpt lat="38.83679299496099" lon="121.50994032680214">
        <ele>9.818128575570881</ele>
        <time>2024-10-07T23:43:24Z</time>
        <extensions>
          <gpxtpx:TrackPointExtension>
            <gpxtpx:hr>137</gpxtpx:hr>
          </gpxtpx:TrackPointExtension>
        </extensions>
      </trkpt>
      <trkpt lat="38.8366101252145" lon="121.50992829027777">
        <ele>8.482179165817797</ele>
        <time>2024-10-07T23:43:32Z</time>
        <extensions>
          <gpxtpx:TrackPointExtension>
            <gpxtpx:hr>137</gpxtpx:hr>
          </gpxtpx:TrackPointExtension>
        </extensions>
      </trkpt>
      <trkpt lat="38.836411733910275" lon="121.5099501525631">
        <ele>8.08970585372299</ele>
        <time>2024-10-07T23:43:40Z</time>
        <extensions>
          <gpxtpx:TrackPointExtension>
            <gpxtpx:hr>138</gpxtpx:hr>
          </gpxtpx:TrackPointExtension>
        </extensions>
      </trkpt>
      <trkpt lat="38.836226778381935" lon="121.51004379873764">
        <ele>8.053897988982499</ele>
        <time>2024-10-07T23:43:48Z</time>
        <extensions>
          <gpxtpx:TrackPointExtension>
            <gpxtpx:hr>138</gpxtpx:hr>
          </gpxtpx:TrackPointExtension>
        </extensions>
      </trkpt>
      <trkpt lat="38.83613978649168" lon="121.51011562258536">
        <ele>8.287140564993024</ele>
        <time>2024-10-07T23:43:52Z</time>
        <extensions>
          <gpxtpx:TrackPointExtension>
            <gpxtpx:hr>138</gpxtpx:hr>
          </gpxtpx:TrackPointExtension>
        </extensions>
      </trkpt>
      <trkpt lat="38.83614585380661" lon="121.51023048384">
        <ele>8.3406155211851</ele>
        <time>2024-10-07T23:43:56Z</time>
        <extensions>
          <gpxtpx:TrackPointExtension>
            <gpxtpx:hr>138</gpxtpx:hr>
          </gpxtpx:TrackPointExtension>
        </extensions>
      </trkpt>
      <trkpt lat="38.83625622939785" lon="121.51043539973702">
        <ele>7.733295701444149</ele>
        <time>2024-10-07T23:44:04Z</time>
      </trkpt>
      <trkpt lat="38.83628422250229" lon="121.51053887102735">
        <ele>7.9404578329995275</ele>
        <time>2024-10-07T23:44:08Z</time>
      </trkpt>
      <trkpt lat="38.83628352893098" lon="121.51065405468081">
        <ele>7.787762406282127</ele>
        <time>2024-10-07T23:44:12Z</time>
      </trkpt>
      <trkpt lat="38.836213871826686" lon="121.51088710118879">
        <ele>7.018297138623893</ele>
        <time>2024-10-07T23:44:20Z</time>
      </trkpt>
      <trkpt lat="38.8360558162426" lon="121.51121545934285">
        <ele>7.296196211129427</ele>
        <time>2024-10-07T23:44:32Z</time>
      </trkpt>
      <trkpt lat="38.83601527000228" lon="121.51142109091225">
        <ele>7.239966358989477</ele>
        <time>2024-10-07T23:44:39Z</time>
      </trkpt>
      <trkpt lat="38.83605859076263" lon="121.51167573463776">
        <ele>6.6966502433642745</ele>
        <time>2024-10-07T23:44:48Z</time>
      </trkpt>
      <trkpt lat="38.836093445772846" lon="121.51176198147377">
        <ele>5.664932542480528</ele>
        <time>2024-10-07T23:44:51Z</time>
      </trkpt>
      <trkpt lat="38.83614903820416" lon="121.5118392567333">
        <ele>5.053458302281797</ele>
        <time>2024-10-07T23:44:55Z</time>
      </trkpt>
      <trkpt lat="38.836220480136156" lon="121.51189692721714">
        <ele>5.282628484070301</ele>
        <time>2024-10-07T23:44:59Z</time>
        <extensions>
          <gpxtpx:TrackPointExtension>
            <gpxtpx:hr>137</gpxtpx:hr>
          </gpxtpx:TrackPointExtension>
        </extensions>
      </trkpt>
      <trkpt lat="38.83631575460188" lon="121.51193643586126">
        <ele>6.024108842015266</ele>
        <time>2024-10-07T23:45:03Z</time>
        <extensions>
          <gpxtpx:TrackPointExtension>
            <gpxtpx:hr>137</gpxtpx:hr>
          </gpxtpx:TrackPointExtension>
        </extensions>
      </trkpt>
      <trkpt lat="38.836504504177974" lon="121.51188853189288">
        <ele>7.005870006978512</ele>
        <time>2024-10-07T23:45:11Z</time>
        <extensions>
          <gpxtpx:TrackPointExtension>
            <gpxtpx:hr>137</gpxtpx:hr>
          </gpxtpx:TrackPointExtension>
        </extensions>
      </trkpt>
      <trkpt lat="38.83675216527366" lon="121.51171165173884">
        <ele>7.119027520529926</ele>
        <time>2024-10-07T23:45:23Z</time>
        <extensions>
          <gpxtpx:TrackPointExtension>
            <gpxtpx:hr>137</gpxtpx:hr>
          </gpxtpx:TrackPointExtension>
        </extensions>
      </trkpt>
      <trkpt lat="38.83692629621209" lon="121.51143011409">
        <ele>7.91848829574883</ele>
        <time>2024-10-07T23:45:35Z</time>
        <extensions>
          <gpxtpx:TrackPointExtension>
            <gpxtpx:hr>148</gpxtpx:hr>
          </gpxtpx:TrackPointExtension>
        </extensions>
      </trkpt>
      <trkpt lat="38.837014706992875" lon="121.51123355512522">
        <ele>7.634730719961226</ele>
        <time>2024-10-07T23:45:43Z</time>
        <extensions>
          <gpxtpx:TrackPointExtension>
            <gpxtpx:hr>151</gpxtpx:hr>
          </gpxtpx:TrackPointExtension>
        </extensions>
      </trkpt>
      <trkpt lat="38.83705774561829" lon="121.5109998956861">
        <ele>8.384275837801397</ele>
        <time>2024-10-07T23:45:59Z</time>
        <extensions>
          <gpxtpx:TrackPointExtension>
            <gpxtpx:hr>139</gpxtpx:hr>
          </gpxtpx:TrackPointExtension>
        </extensions>
      </trkpt>
      <trkpt lat="38.83717779342019" lon="121.51067904048955">
        <ele>9.06041582301259</ele>
        <time>2024-10-07T23:46:11Z</time>
        <extensions>
          <gpxtpx:TrackPointExtension>
            <gpxtpx:hr>136</gpxtpx:hr>
          </gpxtpx:TrackPointExtension>
        </extensions>
      </trkpt>
      <trkpt lat="38.83729366578995" lon="121.51048046069907">
        <ele>9.470982999540865</ele>
        <time>2024-10-07T23:46:19Z</time>
        <extensions>
          <gpxtpx:TrackPointExtension>
            <gpxtpx:hr>137</gpxtpx:hr>
          </gpxtpx:TrackPointExtension>
        </extensions>
      </trkpt>
      <trkpt lat="38.837428150882566" lon="121.5103185350656">
        <ele>10.846514275297523</ele>
        <time>2024-10-07T23:46:27Z</time>
        <extensions>
          <gpxtpx:TrackPointExtension>
            <gpxtpx:hr>138</gpxtpx:hr>
          </gpxtpx:TrackPointExtension>
        </extensions>
      </trkpt>
      <trkpt lat="38.83766066892002" lon="121.5101314081284">
        <ele>10.214611100032926</ele>
        <time>2024-10-07T23:46:39Z</time>
        <extensions>
          <gpxtpx:TrackPointExtension>
            <gpxtpx:hr>141</gpxtpx:hr>
          </gpxtpx:TrackPointExtension>
        </extensions>
      </trkpt>
      <trkpt lat="38.837722092866436" lon="121.5100549467279">
        <ele>9.87957280036062</ele>
        <time>2024-10-07T23:46:43Z</time>
        <extensions>
          <gpxtpx:TrackPointExtension>
            <gpxtpx:hr>142</gpxtpx:hr>
          </gpxtpx:TrackPointExtension>
        </extensions>
      </trkpt>
      <trkpt lat="38.8377414010408" lon="121.50993543588969">
        <ele>10.003691529855132</ele>
        <time>2024-10-07T23:46:47Z</time>
        <extensions>
          <gpxtpx:TrackPointExtension>
            <gpxtpx:hr>142</gpxtpx:hr>
          </gpxtpx:TrackPointExtension>
        </extensions>
      </trkpt>
      <trkpt lat="38.83771363926066" lon="121.50985079973971">
        <ele>9.891326173208654</ele>
        <time>2024-10-07T23:46:50Z</time>
        <extensions>
          <gpxtpx:TrackPointExtension>
            <gpxtpx:hr>143</gpxtpx:hr>
          </gpxtpx:TrackPointExtension>
        </extensions>
      </trkpt>
      <trkpt lat="38.83766711677646" lon="121.50979568828089">
        <ele>10.368110799230635</ele>
        <time>2024-10-07T23:46:53Z</time>
        <extensions>
          <gpxtpx:TrackPointExtension>
            <gpxtpx:hr>143</gpxtpx:hr>
          </gpxtpx:TrackPointExtension>
        </extensions>
      </trkpt>
      <trkpt lat="38.837499138429344" lon="121.50976612332684">
        <ele>11.354437767527997</ele>
        <time>2024-10-07T23:47:00Z</time>
        <extensions>
          <gpxtpx:TrackPointExtension>
            <gpxtpx:hr>144</gpxtpx:hr>
          </gpxtpx:TrackPointExtension>
        </extensions>
      </trkpt>
      <trkpt lat="38.83742017609489" lon="121.50968202145896">
        <ele>10.591637295670807</ele>
        <time>2024-10-07T23:47:04Z</time>
        <extensions>
          <gpxtpx:TrackPointExtension>
            <gpxtpx:hr>144</gpxtpx:hr>
          </gpxtpx:TrackPointExtension>
        </extensions>
      </trkpt>
      <trkpt lat="38.837304978298945" lon="121.50947191130848">
        <ele>9.450536847114563</ele>
        <time>2024-10-07T23:47:12Z</time>
        <extensions>
          <gpxtpx:TrackPointExtension>
            <gpxtpx:hr>144</gpxtpx:hr>
          </gpxtpx:TrackPointExtension>
        </extensions>
      </trkpt>
      <trkpt lat="38.83721719978867" lon="121.50941703735653">
        <ele>9.135959229432046</ele>
        <time>2024-10-07T23:47:16Z</time>
        <extensions>
          <gpxtpx:TrackPointExtension>
            <gpxtpx:hr>144</gpxtpx:hr>
          </gpxtpx:TrackPointExtension>
        </extensions>
      </trkpt>
      <trkpt lat="38.83711905892714" lon="121.5094422875423">
        <ele>10.345273074693978</ele>
        <time>2024-10-07T23:47:20Z</time>
        <extensions>
          <gpxtpx:TrackPointExtension>
            <gpxtpx:hr>144</gpxtpx:hr>
          </gpxtpx:TrackPointExtension>
        </extensions>
      </trkpt>
      <trkpt lat="38.83704464704964" lon="121.50968626526196">
        <ele>9.541421652771533</ele>
        <time>2024-10-07T23:47:28Z</time>
        <extensions>
          <gpxtpx:TrackPointExtension>
            <gpxtpx:hr>149</gpxtpx:hr>
          </gpxtpx:TrackPointExtension>
        </extensions>
      </trkpt>
      <trkpt lat="38.83698877168493" lon="121.50979509031417">
        <ele>9.208256694488227</ele>
        <time>2024-10-07T23:47:32Z</time>
        <extensions>
          <gpxtpx:TrackPointExtension>
            <gpxtpx:hr>149</gpxtpx:hr>
          </gpxtpx:TrackPointExtension>
        </extensions>
      </trkpt>
      <trkpt lat="38.836906540789954" lon="121.50987963021149">
        <ele>8.443296951241791</ele>
        <time>2024-10-07T23:47:36Z</time>
        <extensions>
          <gpxtpx:TrackPointExtension>
            <gpxtpx:hr>149</gpxtpx:hr>
          </gpxtpx:TrackPointExtension>
        </extensions>
      </trkpt>
      <trkpt lat="38.836715628271016" lon="121.50995883512266">
        <ele>8.701464516110718</ele>
        <time>2024-10-07T23:47:44Z</time>
        <extensions>
          <gpxtpx:TrackPointExtension>
            <gpxtpx:hr>150</gpxtpx:hr>
          </gpxtpx:TrackPointExtension>
        </extensions>
      </trkpt>
      <trkpt lat="38.83642193753719" lon="121.50997938335522">
        <ele>7.707143062725663</ele>
        <time>2024-10-07T23:47:56Z</time>
        <extensions>
          <gpxtpx:TrackPointExtension>
            <gpxtpx:hr>150</gpxtpx:hr>
          </gpxtpx:TrackPointExtension>
        </extensions>
      </trkpt>
      <trkpt lat="38.836232654611315" lon="121.51003959884969">
        <ele>7.573972602374852</ele>
        <time>2024-10-07T23:48:04Z</time>
        <extensions>
          <gpxtpx:TrackPointExtension>
            <gpxtpx:hr>149</gpxtpx:hr>
          </gpxtpx:TrackPointExtension>
        </extensions>
      </trkpt>
      <trkpt lat="38.83614358890047" lon="121.5101200177032">
        <ele>7.740144023671746</ele>
        <time>2024-10-07T23:48:08Z</time>
        <extensions>
          <gpxtpx:TrackPointExtension>
            <gpxtpx:hr>149</gpxtpx:hr>
          </gpxtpx:TrackPointExtension>
        </extensions>
      </trkpt>
      <trkpt lat="38.836164328102015" lon="121.51024494521377">
        <ele>7.3292823527008295</ele>
        <time>2024-10-07T23:48:12Z</time>
        <extensions>
          <gpxtpx:TrackPointExtension>
            <gpxtpx:hr>150</gpxtpx:hr>
          </gpxtpx:TrackPointExtension>
        </extensions>
      </trkpt>
      <trkpt lat="38.83622996387341" lon="121.51034588915607">
        <ele>8.700598555617034</ele>
        <time>2024-10-07T23:48:16Z</time>
        <extensions>
          <gpxtpx:TrackPointExtension>
            <gpxtpx:hr>148</gpxtpx:hr>
          </gpxtpx:TrackPointExtension>
        </extensions>
      </trkpt>
      <trkpt lat="38.83631756076714" lon="121.51056193281161">
        <ele>7.99324625916779</ele>
        <time>2024-10-07T23:48:24Z</time>
        <extensions>
          <gpxtpx:TrackPointExtension>
            <gpxtpx:hr>150</gpxtpx:hr>
          </gpxtpx:TrackPointExtension>
        </extensions>
      </trkpt>
      <trkpt lat="38.83642657465639" lon="121.51054705946707">
        <ele>10.259474641643465</ele>
        <time>2024-10-07T23:48:28Z</time>
        <extensions>
          <gpxtpx:TrackPointExtension>
            <gpxtpx:hr>150</gpxtpx:hr>
          </gpxtpx:TrackPointExtension>
        </extensions>
      </trkpt>
      <trkpt lat="38.836506810744595" lon="121.51050912575394">
        <ele>10.379363178275526</ele>
        <time>2024-10-07T23:48:32Z</time>
        <extensions>
          <gpxtpx:TrackPointExtension>
            <gpxtpx:hr>151</gpxtpx:hr>
          </gpxtpx:TrackPointExtension>
        </extensions>
      </trkpt>
      <trkpt lat="38.83658155860295" lon="121.51044620961162">
        <ele>9.640741121023893</ele>
        <time>2024-10-07T23:48:36Z</time>
        <extensions>
          <gpxtpx:TrackPointExtension>
            <gpxtpx:hr>151</gpxtpx:hr>
          </gpxtpx:TrackPointExtension>
        </extensions>
      </trkpt>
      <trkpt lat="38.836667838432675" lon="121.51042836072621">
        <ele>9.2649400299415</ele>
        <time>2024-10-07T23:48:40Z</time>
        <extensions>
          <gpxtpx:TrackPointExtension>
            <gpxtpx:hr>152</gpxtpx:hr>
          </gpxtpx:TrackPointExtension>
        </extensions>
      </trkpt>
      <trkpt lat="38.83683872686037" lon="121.51056969985687">
        <ele>8.69423992652446</ele>
        <time>2024-10-07T23:48:48Z</time>
        <extensions>
          <gpxtpx:TrackPointExtension>
            <gpxtpx:hr>152</gpxtpx:hr>
          </gpxtpx:TrackPointExtension>
        </extensions>
      </trkpt>
      <trkpt lat="38.836965409248485" lon="121.51082212265725">
        <ele>7.992536392994225</ele>
        <time>2024-10-07T23:48:57Z</time>
        <extensions>
          <gpxtpx:TrackPointExtension>
            <gpxtpx:hr>153</gpxtpx:hr>
          </gpxtpx:TrackPointExtension>
        </extensions>
      </trkpt>
      <trkpt lat="38.83701486066355" lon="121.5108806842598">
        <ele>8.12056531291455</ele>
        <time>2024-10-07T23:49:00Z</time>
        <extensions>
          <gpxtpx:TrackPointExtension>
            <gpxtpx:hr>153</gpxtpx:hr>
          </gpxtpx:TrackPointExtension>
        </extensions>
      </trkpt>
      <trkpt lat="38.837095938389545" lon="121.51085791490631">
        <ele>8.676492438651621</ele>
        <time>2024-10-07T23:49:03Z</time>
        <extensions>
          <gpxtpx:TrackPointExtension>
            <gpxtpx:hr>153</gpxtpx:hr>
          </gpxtpx:TrackPointExtension>
        </extensions>
      </trkpt>
      <trkpt lat="38.837190235016095" lon="121.51063421654358">
        <ele>8.351438673213124</ele>
        <time>2024-10-07T23:49:11Z</time>
        <extensions>
          <gpxtpx:TrackPointExtension>
            <gpxtpx:hr>153</gpxtpx:hr>
          </gpxtpx:TrackPointExtension>
        </extensions>
      </trkpt>
      <trkpt lat="38.83738396967034" lon="121.51035730402081">
        <ele>9.92158002499491</ele>
        <time>2024-10-07T23:49:23Z</time>
        <extensions>
          <gpxtpx:TrackPointExtension>
            <gpxtpx:hr>151</gpxtpx:hr>
          </gpxtpx:TrackPointExtension>
        </extensions>
      </trkpt>
      <trkpt lat="38.83754232439784" lon="121.51022481038827">
        <ele>10.361649624072015</ele>
        <time>2024-10-07T23:49:31Z</time>
        <extensions>
          <gpxtpx:TrackPointExtension>
            <gpxtpx:hr>147</gpxtpx:hr>
          </gpxtpx:TrackPointExtension>
        </extensions>
      </trkpt>
      <trkpt lat="38.837621938172624" lon="121.51017914983133">
        <ele>10.777940700761974</ele>
        <time>2024-10-07T23:49:35Z</time>
        <extensions>
          <gpxtpx:TrackPointExtension>
            <gpxtpx:hr>147</gpxtpx:hr>
          </gpxtpx:TrackPointExtension>
        </extensions>
      </trkpt>
      <trkpt lat="38.83769241027884" lon="121.51008651250882">
        <ele>10.582058845087886</ele>
        <time>2024-10-07T23:49:39Z</time>
        <extensions>
          <gpxtpx:TrackPointExtension>
            <gpxtpx:hr>148</gpxtpx:hr>
          </gpxtpx:TrackPointExtension>
        </extensions>
      </trkpt>
      <trkpt lat="38.83773540475977" lon="121.50998973853962">
        <ele>9.80211104080081</ele>
        <time>2024-10-07T23:49:43Z</time>
        <extensions>
          <gpxtpx:TrackPointExtension>
            <gpxtpx:hr>148</gpxtpx:hr>
          </gpxtpx:TrackPointExtension>
        </extensions>
      </trkpt>
      <trkpt lat="38.83769939082233" lon="121.50985215503948">
        <ele>10.17266792897135</ele>
        <time>2024-10-07T23:49:47Z</time>
        <extensions>
          <gpxtpx:TrackPointExtension>
            <gpxtpx:hr>149</gpxtpx:hr>
          </gpxtpx:TrackPointExtension>
        </extensions>
      </trkpt>
      <trkpt lat="38.83766020276734" lon="121.50977542665261">
        <ele>10.619266339577734</ele>
        <time>2024-10-07T23:49:51Z</time>
        <extensions>
          <gpxtpx:TrackPointExtension>
            <gpxtpx:hr>148</gpxtpx:hr>
          </gpxtpx:TrackPointExtension>
        </extensions>
      </trkpt>
      <trkpt lat="38.83756396694834" lon="121.50977454960672">
        <ele>9.846927828155458</ele>
        <time>2024-10-07T23:49:55Z</time>
        <extensions>
          <gpxtpx:TrackPointExtension>
            <gpxtpx:hr>148</gpxtpx:hr>
          </gpxtpx:TrackPointExtension>
        </extensions>
      </trkpt>
      <trkpt lat="38.83747638534668" lon="121.50974095781534">
        <ele>10.069515509530902</ele>
        <time>2024-10-07T23:49:59Z</time>
        <extensions>
          <gpxtpx:TrackPointExtension>
            <gpxtpx:hr>149</gpxtpx:hr>
          </gpxtpx:TrackPointExtension>
        </extensions>
      </trkpt>
      <trkpt lat="38.83740506207767" lon="121.50965555390019">
        <ele>10.51264626160264</ele>
        <time>2024-10-07T23:50:03Z</time>
        <extensions>
          <gpxtpx:TrackPointExtension>
            <gpxtpx:hr>149</gpxtpx:hr>
          </gpxtpx:TrackPointExtension>
        </extensions>
      </trkpt>
      <trkpt lat="38.837287687736584" lon="121.50945166719814">
        <ele>9.795514380559325</ele>
        <time>2024-10-07T23:50:11Z</time>
        <extensions>
          <gpxtpx:TrackPointExtension>
            <gpxtpx:hr>151</gpxtpx:hr>
          </gpxtpx:TrackPointExtension>
        </extensions>
      </trkpt>
      <trkpt lat="38.83720849858582" lon="121.50936923702575">
        <ele>11.204030750319362</ele>
        <time>2024-10-07T23:50:15Z</time>
        <extensions>
          <gpxtpx:TrackPointExtension>
            <gpxtpx:hr>151</gpxtpx:hr>
          </gpxtpx:TrackPointExtension>
        </extensions>
      </trkpt>
      <trkpt lat="38.837276539112835" lon="121.50909649929362">
        <ele>11.093228560872376</ele>
        <time>2024-10-07T23:50:23Z</time>
        <extensions>
          <gpxtpx:TrackPointExtension>
            <gpxtpx:hr>151</gpxtpx:hr>
          </gpxtpx:TrackPointExtension>
        </extensions>
      </trkpt>
      <trkpt lat="38.83749297992732" lon="121.50885458215541">
        <ele>10.590219751000404</ele>
        <time>2024-10-07T23:50:35Z</time>
        <extensions>
          <gpxtpx:TrackPointExtension>
            <gpxtpx:hr>148</gpxtpx:hr>
          </gpxtpx:TrackPointExtension>
        </extensions>
      </trkpt>
      <trkpt lat="38.837569464141495" lon="121.50863081819713">
        <ele>10.6005650004372</ele>
        <time>2024-10-07T23:50:43Z</time>
        <extensions>
          <gpxtpx:TrackPointExtension>
            <gpxtpx:hr>149</gpxtpx:hr>
          </gpxtpx:TrackPointExtension>
        </extensions>
      </trkpt>
      <trkpt lat="38.837619894533894" lon="121.50852886457261">
        <ele>10.85569925326854</ele>
        <time>2024-10-07T23:50:47Z</time>
        <extensions>
          <gpxtpx:TrackPointExtension>
            <gpxtpx:hr>150</gpxtpx:hr>
          </gpxtpx:TrackPointExtension>
        </extensions>
      </trkpt>
      <trkpt lat="38.83770986264262" lon="121.50849141853617">
        <ele>10.714262204244733</ele>
        <time>2024-10-07T23:50:51Z</time>
        <extensions>
          <gpxtpx:TrackPointExtension>
            <gpxtpx:hr>150</gpxtpx:hr>
          </gpxtpx:TrackPointExtension>
        </extensions>
      </trkpt>
      <trkpt lat="38.83781400333731" lon="121.508554487862">
        <ele>10.161740496754646</ele>
        <time>2024-10-07T23:50:55Z</time>
        <extensions>
          <gpxtpx:TrackPointExtension>
            <gpxtpx:hr>150</gpxtpx:hr>
          </gpxtpx:TrackPointExtension>
        </extensions>
      </trkpt>
      <trkpt lat="38.83792530250362" lon="121.50878980273458">
        <ele>10.401204104535282</ele>
        <time>2024-10-07T23:51:04Z</time>
        <extensions>
          <gpxtpx:TrackPointExtension>
            <gpxtpx:hr>150</gpxtpx:hr>
          </gpxtpx:TrackPointExtension>
        </extensions>
      </trkpt>
      <trkpt lat="38.83827250008924" lon="121.50898438243277">
        <ele>11.271740882657468</ele>
        <time>2024-10-07T23:51:19Z</time>
        <extensions>
          <gpxtpx:TrackPointExtension>
            <gpxtpx:hr>150</gpxtpx:hr>
          </gpxtpx:TrackPointExtension>
        </extensions>
      </trkpt>
      <trkpt lat="38.83832835266664" lon="121.50907978335822">
        <ele>11.955196185037494</ele>
        <time>2024-10-07T23:51:23Z</time>
        <extensions>
          <gpxtpx:TrackPointExtension>
            <gpxtpx:hr>150</gpxtpx:hr>
          </gpxtpx:TrackPointExtension>
        </extensions>
      </trkpt>
      <trkpt lat="38.83828664327166" lon="121.50920970040632">
        <ele>11.848159239627421</ele>
        <time>2024-10-07T23:51:27Z</time>
        <extensions>
          <gpxtpx:TrackPointExtension>
            <gpxtpx:hr>149</gpxtpx:hr>
          </gpxtpx:TrackPointExtension>
        </extensions>
      </trkpt>
      <trkpt lat="38.83813780710452" lon="121.50939168691393">
        <ele>13.067204512655735</ele>
        <time>2024-10-07T23:51:35Z</time>
        <extensions>
          <gpxtpx:TrackPointExtension>
            <gpxtpx:hr>149</gpxtpx:hr>
          </gpxtpx:TrackPointExtension>
        </extensions>
      </trkpt>
      <trkpt lat="38.83806458487848" lon="121.50944921721275">
        <ele>11.591999592259526</ele>
        <time>2024-10-07T23:51:39Z</time>
        <extensions>
          <gpxtpx:TrackPointExtension>
            <gpxtpx:hr>149</gpxtpx:hr>
          </gpxtpx:TrackPointExtension>
        </extensions>
      </trkpt>
      <trkpt lat="38.837972894211894" lon="121.50979513564491">
        <ele>10.829108241014183</ele>
        <time>2024-10-07T23:51:51Z</time>
        <extensions>
          <gpxtpx:TrackPointExtension>
            <gpxtpx:hr>150</gpxtpx:hr>
          </gpxtpx:TrackPointExtension>
        </extensions>
      </trkpt>
      <trkpt lat="38.837868284889325" lon="121.50984366674666">
        <ele>10.735139441676438</ele>
        <time>2024-10-07T23:51:55Z</time>
        <extensions>
          <gpxtpx:TrackPointExtension>
            <gpxtpx:hr>149</gpxtpx:hr>
          </gpxtpx:TrackPointExtension>
        </extensions>
      </trkpt>
      <trkpt lat="38.8377748455694" lon="121.5097590888916">
        <ele>10.891755904071033</ele>
        <time>2024-10-07T23:51:59Z</time>
        <extensions>
          <gpxtpx:TrackPointExtension>
            <gpxtpx:hr>149</gpxtpx:hr>
          </gpxtpx:TrackPointExtension>
        </extensions>
      </trkpt>
      <trkpt lat="38.83756686458621" lon="121.50944426205322">
        <ele>9.557409378699958</ele>
        <time>2024-10-07T23:52:11Z</time>
        <extensions>
          <gpxtpx:TrackPointExtension>
            <gpxtpx:hr>150</gpxtpx:hr>
          </gpxtpx:TrackPointExtension>
        </extensions>
      </trkpt>
      <trkpt lat="38.83727128854433" lon="121.50933061142507">
        <ele>10.126561420969665</ele>
        <time>2024-10-07T23:52:23Z</time>
        <extensions>
          <gpxtpx:TrackPointExtension>
            <gpxtpx:hr>153</gpxtpx:hr>
          </gpxtpx:TrackPointExtension>
        </extensions>
      </trkpt>
      <trkpt lat="38.83718150988111" lon="121.5093673629717">
        <ele>9.645174595527351</ele>
        <time>2024-10-07T23:52:27Z</time>
        <extensions>
          <gpxtpx:TrackPointExtension>
            <gpxtpx:hr>153</gpxtpx:hr>
          </gpxtpx:TrackPointExtension>
        </extensions>
      </trkpt>
      <trkpt lat="38.837051120173015" lon="121.50971180606047">
        <ele>9.585722097195685</ele>
        <time>2024-10-07T23:52:39Z</time>
        <extensions>
          <gpxtpx:TrackPointExtension>
            <gpxtpx:hr>154</gpxtpx:hr>
          </gpxtpx:TrackPointExtension>
        </extensions>
      </trkpt>
      <trkpt lat="38.8369820431174" lon="121.50981430635231">
        <ele>9.74579541105777</ele>
        <time>2024-10-07T23:52:43Z</time>
        <extensions>
          <gpxtpx:TrackPointExtension>
            <gpxtpx:hr>153</gpxtpx:hr>
          </gpxtpx:TrackPointExtension>
        </extensions>
      </trkpt>
      <trkpt lat="38.836896787613256" lon="121.50989768969144">
        <ele>9.579068361781538</ele>
        <time>2024-10-07T23:52:47Z</time>
        <extensions>
          <gpxtpx:TrackPointExtension>
            <gpxtpx:hr>154</gpxtpx:hr>
          </gpxtpx:TrackPointExtension>
        </extensions>
      </trkpt>
      <trkpt lat="38.83680291160971" lon="121.50994479070295">
        <ele>8.974316818639636</ele>
        <time>2024-10-07T23:52:51Z</time>
        <extensions>
          <gpxtpx:TrackPointExtension>
            <gpxtpx:hr>154</gpxtpx:hr>
          </gpxtpx:TrackPointExtension>
        </extensions>
      </trkpt>
      <trkpt lat="38.83651785681704" lon="121.50997667455987">
        <ele>7.881881080567837</ele>
        <time>2024-10-07T23:53:02Z</time>
        <extensions>
          <gpxtpx:TrackPointExtension>
            <gpxtpx:hr>154</gpxtpx:hr>
          </gpxtpx:TrackPointExtension>
        </extensions>
      </trkpt>
      <trkpt lat="38.836250394966584" lon="121.51006240934207">
        <ele>7.971579589881003</ele>
        <time>2024-10-07T23:53:12Z</time>
        <extensions>
          <gpxtpx:TrackPointExtension>
            <gpxtpx:hr>156</gpxtpx:hr>
          </gpxtpx:TrackPointExtension>
        </extensions>
      </trkpt>
      <trkpt lat="38.836154938460155" lon="121.51013339382051">
        <ele>7.739857649430633</ele>
        <time>2024-10-07T23:53:16Z</time>
        <extensions>
          <gpxtpx:TrackPointExtension>
            <gpxtpx:hr>156</gpxtpx:hr>
          </gpxtpx:TrackPointExtension>
        </extensions>
      </trkpt>
      <trkpt lat="38.83615481990617" lon="121.51026385109598">
        <ele>8.375615736469626</ele>
        <time>2024-10-07T23:53:20Z</time>
        <extensions>
          <gpxtpx:TrackPointExtension>
            <gpxtpx:hr>156</gpxtpx:hr>
          </gpxtpx:TrackPointExtension>
        </extensions>
      </trkpt>
      <trkpt lat="38.83628644381227" lon="121.51050557818702">
        <ele>8.095693036913872</ele>
        <time>2024-10-07T23:53:28Z</time>
        <extensions>
          <gpxtpx:TrackPointExtension>
            <gpxtpx:hr>156</gpxtpx:hr>
          </gpxtpx:TrackPointExtension>
        </extensions>
      </trkpt>
      <trkpt lat="38.836349093527055" lon="121.51058315447244">
        <ele>8.329799667932093</ele>
        <time>2024-10-07T23:53:32Z</time>
        <extensions>
          <gpxtpx:TrackPointExtension>
            <gpxtpx:hr>156</gpxtpx:hr>
          </gpxtpx:TrackPointExtension>
        </extensions>
      </trkpt>
      <trkpt lat="38.8364463567341" lon="121.51054947465872">
        <ele>8.740288042463362</ele>
        <time>2024-10-07T23:53:36Z</time>
        <extensions>
          <gpxtpx:TrackPointExtension>
            <gpxtpx:hr>159</gpxtpx:hr>
          </gpxtpx:TrackPointExtension>
        </extensions>
      </trkpt>
      <trkpt lat="38.83661493552032" lon="121.51044133771883">
        <ele>8.803226877003908</ele>
        <time>2024-10-07T23:53:44Z</time>
        <extensions>
          <gpxtpx:TrackPointExtension>
            <gpxtpx:hr>159</gpxtpx:hr>
          </gpxtpx:TrackPointExtension>
        </extensions>
      </trkpt>
      <trkpt lat="38.836708440976686" lon="121.51046975809442">
        <ele>8.707278734073043</ele>
        <time>2024-10-07T23:53:48Z</time>
        <extensions>
          <gpxtpx:TrackPointExtension>
            <gpxtpx:hr>160</gpxtpx:hr>
          </gpxtpx:TrackPointExtension>
        </extensions>
      </trkpt>
      <trkpt lat="38.83687319375723" lon="121.51064332224072">
        <ele>7.912425480782986</ele>
        <time>2024-10-07T23:53:56Z</time>
        <extensions>
          <gpxtpx:TrackPointExtension>
            <gpxtpx:hr>161</gpxtpx:hr>
          </gpxtpx:TrackPointExtension>
        </extensions>
      </trkpt>
      <trkpt lat="38.83699119423272" lon="121.51086009662538">
        <ele>7.879306303337216</ele>
        <time>2024-10-07T23:54:04Z</time>
        <extensions>
          <gpxtpx:TrackPointExtension>
            <gpxtpx:hr>161</gpxtpx:hr>
          </gpxtpx:TrackPointExtension>
        </extensions>
      </trkpt>
      <trkpt lat="38.837099149490335" lon="121.51086393648973">
        <ele>8.8073566891253</ele>
        <time>2024-10-07T23:54:08Z</time>
        <extensions>
          <gpxtpx:TrackPointExtension>
            <gpxtpx:hr>162</gpxtpx:hr>
          </gpxtpx:TrackPointExtension>
        </extensions>
      </trkpt>
      <trkpt lat="38.83719674797757" lon="121.5106262267621">
        <ele>8.857092320919037</ele>
        <time>2024-10-07T23:54:16Z</time>
        <extensions>
          <gpxtpx:TrackPointExtension>
            <gpxtpx:hr>162</gpxtpx:hr>
          </gpxtpx:TrackPointExtension>
        </extensions>
      </trkpt>
      <trkpt lat="38.837340190372345" lon="121.5104348428663">
        <ele>8.933115786872804</ele>
        <time>2024-10-07T23:54:24Z</time>
        <extensions>
          <gpxtpx:TrackPointExtension>
            <gpxtpx:hr>161</gpxtpx:hr>
          </gpxtpx:TrackPointExtension>
        </extensions>
      </trkpt>
      <trkpt lat="38.837586736794414" lon="121.51019436537692">
        <ele>11.002198400907218</ele>
        <time>2024-10-07T23:54:36Z</time>
        <extensions>
          <gpxtpx:TrackPointExtension>
            <gpxtpx:hr>161</gpxtpx:hr>
          </gpxtpx:TrackPointExtension>
        </extensions>
      </trkpt>
      <trkpt lat="38.837676225720365" lon="121.51013438114713">
        <ele>10.06928925961256</ele>
        <time>2024-10-07T23:54:40Z</time>
        <extensions>
          <gpxtpx:TrackPointExtension>
            <gpxtpx:hr>161</gpxtpx:hr>
          </gpxtpx:TrackPointExtension>
        </extensions>
      </trkpt>
      <trkpt lat="38.83773243205644" lon="121.51002880024139">
        <ele>9.174715742468834</ele>
        <time>2024-10-07T23:54:44Z</time>
        <extensions>
          <gpxtpx:TrackPointExtension>
            <gpxtpx:hr>161</gpxtpx:hr>
          </gpxtpx:TrackPointExtension>
        </extensions>
      </trkpt>
      <trkpt lat="38.83773066646853" lon="121.50989255747865">
        <ele>10.95641011185944</ele>
        <time>2024-10-07T23:54:48Z</time>
        <extensions>
          <gpxtpx:TrackPointExtension>
            <gpxtpx:hr>161</gpxtpx:hr>
          </gpxtpx:TrackPointExtension>
        </extensions>
      </trkpt>
      <trkpt lat="38.837613591280224" lon="121.50969682600066">
        <ele>10.249667822383344</ele>
        <time>2024-10-07T23:54:56Z</time>
      </trkpt>
      <trkpt lat="38.83749436923862" lon="121.50956654910227">
        <ele>11.364962506107986</ele>
        <time>2024-10-07T23:55:10Z</time>
        <extensions>
          <gpxtpx:TrackPointExtension>
            <gpxtpx:hr>158</gpxtpx:hr>
          </gpxtpx:TrackPointExtension>
        </extensions>
      </trkpt>
    </trkseg>
  </trk>
</gpx>