<?xml version="1.0" encoding="UTF-8"?>
<gpx xmlns="http://www.topografix.com/GPX/1/1" xmlns:gpxtpx="http://www.garmin.com/xmlschemas/TrackPointExtension/v1" xmlns:xsi="http://www.w3.org/2001/XMLSchema-instance" xsi:schemaLocation="http://www.topografix.com/GPX/1/1 http://www.topografix.com/GPX/1/1/gpx.xsd" version="1.1" creator="gpx.py -- https://github.com/tkrajina/gpxpy">
  <trk>
    <name>gpx from keep</name>
    <type>Run</type>
    <trkseg>
      <trkpt lat="38.83616261682101" lon="121.51016643109902">
        <ele>9.257919493766135</ele>
        <time>2025-10-16T23:49:44Z</time>
      </trkpt>
      <trkpt lat="38.83610563621893" lon="121.51019148780183">
        <ele>8.397296694362925</ele>
        <time>2025-10-16T23:49:51Z</time>
      </trkpt>
      <trkpt lat="38.83616279241306" lon="121.51030399708483">
        <ele>8.539333233609796</ele>
        <time>2025-10-16T23:49:59Z</time>
      </trkpt>
      <trkpt lat="38.83621537017757" lon="121.51036621708086">
        <ele>8.67045306134969</ele>
        <time>2025-10-16T23:50:03Z</time>
      </trkpt>
      <trkpt lat="38.83621852947663" lon="121.5104829616873">
        <ele>8.450263257138431</ele>
        <time>2025-10-16T23:50:10Z</time>
      </trkpt>
      <trkpt lat="38.83628140892311" lon="121.51063026336517">
        <ele>8.510365564376116</ele>
        <time>2025-10-16T23:50:16Z</time>
      </trkpt>
      <trkpt lat="38.83625764221518" lon="121.51074759398622">
        <ele>9.077047588303685</ele>
        <time>2025-10-16T23:50:22Z</time>
      </trkpt>
      <trkpt lat="38.836105774315044" lon="121.5110497576091">
        <ele>6.689561407081783</ele>
        <time>2025-10-16T23:50:40Z</time>
      </trkpt>
      <trkpt lat="38.83601651642979" lon="121.51120460018807">
        <ele>7.146082563325763</ele>
        <time>2025-10-16T23:50:49Z</time>
      </trkpt>
      <trkpt lat="38.835966699397446" lon="121.51141916006095">
        <ele>5.957849446684122</ele>
        <time>2025-10-16T23:51:01Z</time>
      </trkpt>
      <trkpt lat="38.83598210680642" lon="121.51160631287418">
        <ele>5.396985353901982</ele>
        <time>2025-10-16T23:51:10Z</time>
      </trkpt>
      <trkpt lat="38.83601681867821" lon="121.51172497563604">
        <ele>5.630917571485043</ele>
        <time>2025-10-16T23:51:16Z</time>
      </trkpt>
      <trkpt lat="38.83616300585085" lon="121.51192037581151">
        <ele>4.244509090669453</ele>
        <time>2025-10-16T23:51:28Z</time>
      </trkpt>
      <trkpt lat="38.83633000605121" lon="121.51195634435227">
        <ele>5.038685641251504</ele>
        <time>2025-10-16T23:51:37Z</time>
      </trkpt>
      <trkpt lat="38.83648760095975" lon="121.51190614751984">
        <ele>5.203862934373319</ele>
        <time>2025-10-16T23:51:46Z</time>
      </trkpt>
      <trkpt lat="38.83668184347748" lon="121.51175195979548">
        <ele>6.012555602937937</ele>
        <time>2025-10-16T23:51:59Z</time>
      </trkpt>
      <trkpt lat="38.836869872256486" lon="121.51149374986362">
        <ele>6.7579558016732335</ele>
        <time>2025-10-16T23:52:14Z</time>
      </trkpt>
      <trkpt lat="38.83701319172198" lon="121.51113495791307">
        <ele>6.394883144646883</ele>
        <time>2025-10-16T23:52:32Z</time>
      </trkpt>
      <trkpt lat="38.83709013896271" lon="121.51082416524584">
        <ele>7.897562101483345</ele>
        <time>2025-10-16T23:52:47Z</time>
      </trkpt>
      <trkpt lat="38.83725561343435" lon="121.51054563300745">
        <ele>8.194290617480874</ele>
        <time>2025-10-16T23:53:02Z</time>
      </trkpt>
      <trkpt lat="38.83732778181786" lon="121.51044757623515">
        <ele>7.8267654133960605</ele>
        <time>2025-10-16T23:53:08Z</time>
      </trkpt>
      <trkpt lat="38.83759248778699" lon="121.51022613807207">
        <ele>8.620476784184575</ele>
        <time>2025-10-16T23:53:26Z</time>
      </trkpt>
      <trkpt lat="38.83768047892486" lon="121.51013843553397">
        <ele>9.169139833189547</ele>
        <time>2025-10-16T23:53:32Z</time>
      </trkpt>
      <trkpt lat="38.837730969155295" lon="121.51002031609804">
        <ele>8.896240164525807</ele>
        <time>2025-10-16T23:53:38Z</time>
      </trkpt>
      <trkpt lat="38.837733868296226" lon="121.50995079071231">
        <ele>8.933397931978106</ele>
        <time>2025-10-16T23:53:41Z</time>
      </trkpt>
      <trkpt lat="38.837846489242175" lon="121.50989473845237">
        <ele>8.190045344643295</ele>
        <time>2025-10-16T23:53:47Z</time>
      </trkpt>
      <trkpt lat="38.83790697976714" lon="121.50978232373166">
        <ele>9.371171746402979</ele>
        <time>2025-10-16T23:53:53Z</time>
      </trkpt>
      <trkpt lat="38.83798807188293" lon="121.50940849345902">
        <ele>8.90250260476023</ele>
        <time>2025-10-16T23:54:09Z</time>
      </trkpt>
      <trkpt lat="38.83802272178334" lon="121.50934967136992">
        <ele>9.443241650238633</ele>
        <time>2025-10-16T23:54:12Z</time>
      </trkpt>
      <trkpt lat="38.83829209547116" lon="121.50912838271469">
        <ele>10.2248191293329</ele>
        <time>2025-10-16T23:54:30Z</time>
      </trkpt>
      <trkpt lat="38.83824290199934" lon="121.5089885055917">
        <ele>9.943558854982257</ele>
        <time>2025-10-16T23:54:36Z</time>
      </trkpt>
      <trkpt lat="38.83820596630149" lon="121.5089286703259">
        <ele>10.363961118273437</ele>
        <time>2025-10-16T23:54:39Z</time>
      </trkpt>
      <trkpt lat="38.837941069439026" lon="121.50869251106936">
        <ele>10.133346682414412</ele>
        <time>2025-10-16T23:54:57Z</time>
        <extensions>
          <gpxtpx:TrackPointExtension>
            <gpxtpx:hr>127</gpxtpx:hr>
          </gpxtpx:TrackPointExtension>
        </extensions>
      </trkpt>
      <trkpt lat="38.83775212573495" lon="121.50853904151661">
        <ele>10.549355616793036</ele>
        <time>2025-10-16T23:55:09Z</time>
        <extensions>
          <gpxtpx:TrackPointExtension>
            <gpxtpx:hr>127</gpxtpx:hr>
          </gpxtpx:TrackPointExtension>
        </extensions>
      </trkpt>
      <trkpt lat="38.83769995156007" lon="121.50851428226345">
        <ele>10.10580332390964</ele>
        <time>2025-10-16T23:55:12Z</time>
        <extensions>
          <gpxtpx:TrackPointExtension>
            <gpxtpx:hr>127</gpxtpx:hr>
          </gpxtpx:TrackPointExtension>
        </extensions>
      </trkpt>
      <trkpt lat="38.83765134188571" lon="121.5085196088506">
        <ele>9.525785609148443</ele>
        <time>2025-10-16T23:55:15Z</time>
        <extensions>
          <gpxtpx:TrackPointExtension>
            <gpxtpx:hr>130</gpxtpx:hr>
          </gpxtpx:TrackPointExtension>
        </extensions>
      </trkpt>
      <trkpt lat="38.837612132938915" lon="121.50856512237576">
        <ele>9.466492888517678</ele>
        <time>2025-10-16T23:55:18Z</time>
        <extensions>
          <gpxtpx:TrackPointExtension>
            <gpxtpx:hr>130</gpxtpx:hr>
          </gpxtpx:TrackPointExtension>
        </extensions>
      </trkpt>
      <trkpt lat="38.837562268484334" lon="121.50876624334572">
        <ele>9.123679495416582</ele>
        <time>2025-10-16T23:55:27Z</time>
        <extensions>
          <gpxtpx:TrackPointExtension>
            <gpxtpx:hr>129</gpxtpx:hr>
          </gpxtpx:TrackPointExtension>
        </extensions>
      </trkpt>
      <trkpt lat="38.83746980908308" lon="121.50895813123468">
        <ele>10.025073705241084</ele>
        <time>2025-10-16T23:55:36Z</time>
        <extensions>
          <gpxtpx:TrackPointExtension>
            <gpxtpx:hr>127</gpxtpx:hr>
          </gpxtpx:TrackPointExtension>
        </extensions>
      </trkpt>
      <trkpt lat="38.837233328286445" lon="121.50918737388248">
        <ele>10.094451915472746</ele>
        <time>2025-10-16T23:55:51Z</time>
        <extensions>
          <gpxtpx:TrackPointExtension>
            <gpxtpx:hr>119</gpxtpx:hr>
          </gpxtpx:TrackPointExtension>
        </extensions>
      </trkpt>
      <trkpt lat="38.8370735027001" lon="121.50951928100763">
        <ele>10.596669628284872</ele>
        <time>2025-10-16T23:56:07Z</time>
        <extensions>
          <gpxtpx:TrackPointExtension>
            <gpxtpx:hr>125</gpxtpx:hr>
          </gpxtpx:TrackPointExtension>
        </extensions>
      </trkpt>
      <trkpt lat="38.83698486751804" lon="121.50971880054061">
        <ele>8.956930737942457</ele>
        <time>2025-10-16T23:56:16Z</time>
        <extensions>
          <gpxtpx:TrackPointExtension>
            <gpxtpx:hr>129</gpxtpx:hr>
          </gpxtpx:TrackPointExtension>
        </extensions>
      </trkpt>
      <trkpt lat="38.83684981147445" lon="121.5098717887469">
        <ele>8.230865629389882</ele>
        <time>2025-10-16T23:56:25Z</time>
        <extensions>
          <gpxtpx:TrackPointExtension>
            <gpxtpx:hr>129</gpxtpx:hr>
          </gpxtpx:TrackPointExtension>
        </extensions>
      </trkpt>
      <trkpt lat="38.83667362225486" lon="121.50995409089553">
        <ele>8.867825757712126</ele>
        <time>2025-10-16T23:56:34Z</time>
        <extensions>
          <gpxtpx:TrackPointExtension>
            <gpxtpx:hr>129</gpxtpx:hr>
          </gpxtpx:TrackPointExtension>
        </extensions>
      </trkpt>
      <trkpt lat="38.83638660920386" lon="121.50999359017239">
        <ele>8.231482571922243</ele>
        <time>2025-10-16T23:56:49Z</time>
        <extensions>
          <gpxtpx:TrackPointExtension>
            <gpxtpx:hr>125</gpxtpx:hr>
          </gpxtpx:TrackPointExtension>
        </extensions>
      </trkpt>
      <trkpt lat="38.83616183388568" lon="121.51008140688288">
        <ele>7.149581003934145</ele>
        <time>2025-10-16T23:57:01Z</time>
        <extensions>
          <gpxtpx:TrackPointExtension>
            <gpxtpx:hr>128</gpxtpx:hr>
          </gpxtpx:TrackPointExtension>
        </extensions>
      </trkpt>
      <trkpt lat="38.836117236220744" lon="121.51012711153231">
        <ele>7.538759781979024</ele>
        <time>2025-10-16T23:57:04Z</time>
        <extensions>
          <gpxtpx:TrackPointExtension>
            <gpxtpx:hr>128</gpxtpx:hr>
          </gpxtpx:TrackPointExtension>
        </extensions>
      </trkpt>
      <trkpt lat="38.83609403769394" lon="121.51020382934982">
        <ele>7.078427183441818</ele>
        <time>2025-10-16T23:57:07Z</time>
        <extensions>
          <gpxtpx:TrackPointExtension>
            <gpxtpx:hr>127</gpxtpx:hr>
          </gpxtpx:TrackPointExtension>
        </extensions>
      </trkpt>
      <trkpt lat="38.83611636454177" lon="121.5102790067895">
        <ele>7.333561470732093</ele>
        <time>2025-10-16T23:57:10Z</time>
        <extensions>
          <gpxtpx:TrackPointExtension>
            <gpxtpx:hr>127</gpxtpx:hr>
          </gpxtpx:TrackPointExtension>
        </extensions>
      </trkpt>
      <trkpt lat="38.8361878019773" lon="121.51039018789122">
        <ele>7.99263961147517</ele>
        <time>2025-10-16T23:57:16Z</time>
        <extensions>
          <gpxtpx:TrackPointExtension>
            <gpxtpx:hr>126</gpxtpx:hr>
          </gpxtpx:TrackPointExtension>
        </extensions>
      </trkpt>
      <trkpt lat="38.83624791105323" lon="121.51052012792474">
        <ele>7.013745471835136</ele>
        <time>2025-10-16T23:57:22Z</time>
        <extensions>
          <gpxtpx:TrackPointExtension>
            <gpxtpx:hr>126</gpxtpx:hr>
          </gpxtpx:TrackPointExtension>
        </extensions>
      </trkpt>
      <trkpt lat="38.836247371683214" lon="121.51067764071321">
        <ele>6.7056665411219</ele>
        <time>2025-10-16T23:57:28Z</time>
        <extensions>
          <gpxtpx:TrackPointExtension>
            <gpxtpx:hr>126</gpxtpx:hr>
          </gpxtpx:TrackPointExtension>
        </extensions>
      </trkpt>
      <trkpt lat="38.83618326567251" lon="121.5109133915899">
        <ele>6.837950705550611</ele>
        <time>2025-10-16T23:57:37Z</time>
        <extensions>
          <gpxtpx:TrackPointExtension>
            <gpxtpx:hr>127</gpxtpx:hr>
          </gpxtpx:TrackPointExtension>
        </extensions>
      </trkpt>
      <trkpt lat="38.83604241253225" lon="121.51115419298905">
        <ele>6.700807945802808</ele>
        <time>2025-10-16T23:57:49Z</time>
        <extensions>
          <gpxtpx:TrackPointExtension>
            <gpxtpx:hr>131</gpxtpx:hr>
          </gpxtpx:TrackPointExtension>
        </extensions>
      </trkpt>
      <trkpt lat="38.835978028917104" lon="121.51134569784645">
        <ele>7.394250622950494</ele>
        <time>2025-10-16T23:57:58Z</time>
        <extensions>
          <gpxtpx:TrackPointExtension>
            <gpxtpx:hr>132</gpxtpx:hr>
          </gpxtpx:TrackPointExtension>
        </extensions>
      </trkpt>
      <trkpt lat="38.83596514288283" lon="121.51147651593698">
        <ele>6.887769030407071</ele>
        <time>2025-10-16T23:58:04Z</time>
        <extensions>
          <gpxtpx:TrackPointExtension>
            <gpxtpx:hr>133</gpxtpx:hr>
          </gpxtpx:TrackPointExtension>
        </extensions>
      </trkpt>
      <trkpt lat="38.83603205941234" lon="121.51177223002288">
        <ele>6.173251896165311</ele>
        <time>2025-10-16T23:58:17Z</time>
        <extensions>
          <gpxtpx:TrackPointExtension>
            <gpxtpx:hr>133</gpxtpx:hr>
          </gpxtpx:TrackPointExtension>
        </extensions>
      </trkpt>
      <trkpt lat="38.83608802955623" lon="121.51187415086527">
        <ele>5.363531745038927</ele>
        <time>2025-10-16T23:58:23Z</time>
        <extensions>
          <gpxtpx:TrackPointExtension>
            <gpxtpx:hr>133</gpxtpx:hr>
          </gpxtpx:TrackPointExtension>
        </extensions>
      </trkpt>
      <trkpt lat="38.83620473072734" lon="121.51194832840044">
        <ele>4.83024390693754</ele>
        <time>2025-10-16T23:58:30Z</time>
        <extensions>
          <gpxtpx:TrackPointExtension>
            <gpxtpx:hr>132</gpxtpx:hr>
          </gpxtpx:TrackPointExtension>
        </extensions>
      </trkpt>
      <trkpt lat="38.83650716707353" lon="121.51191491438499">
        <ele>5.321761297993362</ele>
        <time>2025-10-16T23:58:45Z</time>
        <extensions>
          <gpxtpx:TrackPointExtension>
            <gpxtpx:hr>133</gpxtpx:hr>
          </gpxtpx:TrackPointExtension>
        </extensions>
      </trkpt>
      <trkpt lat="38.83673802916672" lon="121.51167984279563">
        <ele>7.498548798263073</ele>
        <time>2025-10-16T23:59:00Z</time>
        <extensions>
          <gpxtpx:TrackPointExtension>
            <gpxtpx:hr>134</gpxtpx:hr>
          </gpxtpx:TrackPointExtension>
        </extensions>
      </trkpt>
      <trkpt lat="38.836815640586465" lon="121.51157374361252">
        <ele>7.382524352520704</ele>
        <time>2025-10-16T23:59:06Z</time>
        <extensions>
          <gpxtpx:TrackPointExtension>
            <gpxtpx:hr>136</gpxtpx:hr>
          </gpxtpx:TrackPointExtension>
        </extensions>
      </trkpt>
      <trkpt lat="38.83697098008092" lon="121.51127272482726">
        <ele>6.863310336135328</ele>
        <time>2025-10-16T23:59:21Z</time>
        <extensions>
          <gpxtpx:TrackPointExtension>
            <gpxtpx:hr>136</gpxtpx:hr>
          </gpxtpx:TrackPointExtension>
        </extensions>
      </trkpt>
      <trkpt lat="38.83706308802724" lon="121.51090876679423">
        <ele>7.480541600845754</ele>
        <time>2025-10-16T23:59:36Z</time>
        <extensions>
          <gpxtpx:TrackPointExtension>
            <gpxtpx:hr>137</gpxtpx:hr>
          </gpxtpx:TrackPointExtension>
        </extensions>
      </trkpt>
      <trkpt lat="38.837081766451035" lon="121.5108451546193">
        <ele>7.399550159461796</ele>
        <time>2025-10-16T23:59:39Z</time>
        <extensions>
          <gpxtpx:TrackPointExtension>
            <gpxtpx:hr>137</gpxtpx:hr>
          </gpxtpx:TrackPointExtension>
        </extensions>
      </trkpt>
      <trkpt lat="38.83701326416044" lon="121.51089788152707">
        <ele>7.283957910723984</ele>
        <time>2025-10-16T23:59:42Z</time>
        <extensions>
          <gpxtpx:TrackPointExtension>
            <gpxtpx:hr>138</gpxtpx:hr>
          </gpxtpx:TrackPointExtension>
        </extensions>
      </trkpt>
      <trkpt lat="38.83695708236629" lon="121.51089325708006">
        <ele>7.715645166113973</ele>
        <time>2025-10-16T23:59:45Z</time>
        <extensions>
          <gpxtpx:TrackPointExtension>
            <gpxtpx:hr>138</gpxtpx:hr>
          </gpxtpx:TrackPointExtension>
        </extensions>
      </trkpt>
      <trkpt lat="38.83677544138361" lon="121.51055622540659">
        <ele>8.700171737000346</ele>
        <time>2025-10-17T00:00:06Z</time>
        <extensions>
          <gpxtpx:TrackPointExtension>
            <gpxtpx:hr>135</gpxtpx:hr>
          </gpxtpx:TrackPointExtension>
        </extensions>
      </trkpt>
      <trkpt lat="38.836600824389556" lon="121.51046262828483">
        <ele>9.229177947156131</ele>
        <time>2025-10-17T00:00:15Z</time>
        <extensions>
          <gpxtpx:TrackPointExtension>
            <gpxtpx:hr>133</gpxtpx:hr>
          </gpxtpx:TrackPointExtension>
        </extensions>
      </trkpt>
      <trkpt lat="38.83647073104178" lon="121.51054197218768">
        <ele>8.018243315629661</ele>
        <time>2025-10-17T00:00:22Z</time>
        <extensions>
          <gpxtpx:TrackPointExtension>
            <gpxtpx:hr>135</gpxtpx:hr>
          </gpxtpx:TrackPointExtension>
        </extensions>
      </trkpt>
      <trkpt lat="38.836404786378885" lon="121.51055195137367">
        <ele>8.349642121233046</ele>
        <time>2025-10-17T00:00:25Z</time>
        <extensions>
          <gpxtpx:TrackPointExtension>
            <gpxtpx:hr>135</gpxtpx:hr>
          </gpxtpx:TrackPointExtension>
        </extensions>
      </trkpt>
      <trkpt lat="38.83625806486723" lon="121.51062438253248">
        <ele>8.450310276821256</ele>
        <time>2025-10-17T00:00:32Z</time>
        <extensions>
          <gpxtpx:TrackPointExtension>
            <gpxtpx:hr>135</gpxtpx:hr>
          </gpxtpx:TrackPointExtension>
        </extensions>
      </trkpt>
      <trkpt lat="38.83620302965918" lon="121.51084880958821">
        <ele>7.02112038154155</ele>
        <time>2025-10-17T00:00:41Z</time>
        <extensions>
          <gpxtpx:TrackPointExtension>
            <gpxtpx:hr>135</gpxtpx:hr>
          </gpxtpx:TrackPointExtension>
        </extensions>
      </trkpt>
      <trkpt lat="38.83603730097444" lon="121.51117459522048">
        <ele>6.9231146881356835</ele>
        <time>2025-10-17T00:00:56Z</time>
        <extensions>
          <gpxtpx:TrackPointExtension>
            <gpxtpx:hr>132</gpxtpx:hr>
          </gpxtpx:TrackPointExtension>
        </extensions>
      </trkpt>
      <trkpt lat="38.83597320251534" lon="121.5114485491864">
        <ele>5.844934982247651</ele>
        <time>2025-10-17T00:01:08Z</time>
        <extensions>
          <gpxtpx:TrackPointExtension>
            <gpxtpx:hr>133</gpxtpx:hr>
          </gpxtpx:TrackPointExtension>
        </extensions>
      </trkpt>
      <trkpt lat="38.835986764983105" lon="121.51158824623893">
        <ele>5.749767131172121</ele>
        <time>2025-10-17T00:01:14Z</time>
        <extensions>
          <gpxtpx:TrackPointExtension>
            <gpxtpx:hr>134</gpxtpx:hr>
          </gpxtpx:TrackPointExtension>
        </extensions>
      </trkpt>
      <trkpt lat="38.836059478689315" lon="121.5117887531365">
        <ele>5.601776145398617</ele>
        <time>2025-10-17T00:01:23Z</time>
        <extensions>
          <gpxtpx:TrackPointExtension>
            <gpxtpx:hr>134</gpxtpx:hr>
          </gpxtpx:TrackPointExtension>
        </extensions>
      </trkpt>
      <trkpt lat="38.83620022384232" lon="121.51192298995963">
        <ele>4.989543540403247</ele>
        <time>2025-10-17T00:01:32Z</time>
        <extensions>
          <gpxtpx:TrackPointExtension>
            <gpxtpx:hr>135</gpxtpx:hr>
          </gpxtpx:TrackPointExtension>
        </extensions>
      </trkpt>
      <trkpt lat="38.83632169531188" lon="121.51193905833703">
        <ele>4.491091955453157</ele>
        <time>2025-10-17T00:01:38Z</time>
        <extensions>
          <gpxtpx:TrackPointExtension>
            <gpxtpx:hr>132</gpxtpx:hr>
          </gpxtpx:TrackPointExtension>
        </extensions>
      </trkpt>
      <trkpt lat="38.83659536214011" lon="121.5118180846251">
        <ele>5.755300248041749</ele>
        <time>2025-10-17T00:01:53Z</time>
        <extensions>
          <gpxtpx:TrackPointExtension>
            <gpxtpx:hr>138</gpxtpx:hr>
          </gpxtpx:TrackPointExtension>
        </extensions>
      </trkpt>
      <trkpt lat="38.836725031205056" lon="121.51168906061575">
        <ele>6.259422808885574</ele>
        <time>2025-10-17T00:02:02Z</time>
        <extensions>
          <gpxtpx:TrackPointExtension>
            <gpxtpx:hr>137</gpxtpx:hr>
          </gpxtpx:TrackPointExtension>
        </extensions>
      </trkpt>
      <trkpt lat="38.836903133665544" lon="121.5113991207777">
        <ele>7.13331098202616</ele>
        <time>2025-10-17T00:02:17Z</time>
        <extensions>
          <gpxtpx:TrackPointExtension>
            <gpxtpx:hr>135</gpxtpx:hr>
          </gpxtpx:TrackPointExtension>
        </extensions>
      </trkpt>
      <trkpt lat="38.83696479633426" lon="121.51126454947014">
        <ele>7.2043146919459105</ele>
        <time>2025-10-17T00:02:23Z</time>
        <extensions>
          <gpxtpx:TrackPointExtension>
            <gpxtpx:hr>136</gpxtpx:hr>
          </gpxtpx:TrackPointExtension>
        </extensions>
      </trkpt>
      <trkpt lat="38.83702356143953" lon="121.51093377716535">
        <ele>7.85437080077827</ele>
        <time>2025-10-17T00:02:37Z</time>
        <extensions>
          <gpxtpx:TrackPointExtension>
            <gpxtpx:hr>137</gpxtpx:hr>
          </gpxtpx:TrackPointExtension>
        </extensions>
      </trkpt>
      <trkpt lat="38.83721365358272" lon="121.51060103703395">
        <ele>7.5037738075479865</ele>
        <time>2025-10-17T00:02:53Z</time>
        <extensions>
          <gpxtpx:TrackPointExtension>
            <gpxtpx:hr>138</gpxtpx:hr>
          </gpxtpx:TrackPointExtension>
        </extensions>
      </trkpt>
      <trkpt lat="38.83729609672467" lon="121.51049246449415">
        <ele>8.255480855703354</ele>
        <time>2025-10-17T00:02:59Z</time>
        <extensions>
          <gpxtpx:TrackPointExtension>
            <gpxtpx:hr>139</gpxtpx:hr>
          </gpxtpx:TrackPointExtension>
        </extensions>
      </trkpt>
      <trkpt lat="38.83732792386684" lon="121.51041536133093">
        <ele>8.40842214692384</ele>
        <time>2025-10-17T00:03:02Z</time>
        <extensions>
          <gpxtpx:TrackPointExtension>
            <gpxtpx:hr>139</gpxtpx:hr>
          </gpxtpx:TrackPointExtension>
        </extensions>
      </trkpt>
      <trkpt lat="38.83756836958053" lon="121.51021875945078">
        <ele>9.083353318274021</ele>
        <time>2025-10-17T00:03:17Z</time>
        <extensions>
          <gpxtpx:TrackPointExtension>
            <gpxtpx:hr>142</gpxtpx:hr>
          </gpxtpx:TrackPointExtension>
        </extensions>
      </trkpt>
      <trkpt lat="38.837703579756095" lon="121.5100482387996">
        <ele>9.721537766046822</ele>
        <time>2025-10-17T00:03:26Z</time>
        <extensions>
          <gpxtpx:TrackPointExtension>
            <gpxtpx:hr>143</gpxtpx:hr>
          </gpxtpx:TrackPointExtension>
        </extensions>
      </trkpt>
      <trkpt lat="38.83774228500535" lon="121.50990038991858">
        <ele>10.019026080146432</ele>
        <time>2025-10-17T00:03:32Z</time>
        <extensions>
          <gpxtpx:TrackPointExtension>
            <gpxtpx:hr>144</gpxtpx:hr>
          </gpxtpx:TrackPointExtension>
        </extensions>
      </trkpt>
      <trkpt lat="38.83780620463036" lon="121.50994026274776">
        <ele>8.714447570964694</ele>
        <time>2025-10-17T00:03:35Z</time>
        <extensions>
          <gpxtpx:TrackPointExtension>
            <gpxtpx:hr>144</gpxtpx:hr>
          </gpxtpx:TrackPointExtension>
        </extensions>
      </trkpt>
      <trkpt lat="38.837915834349225" lon="121.50974948031758">
        <ele>9.41783938743174</ele>
        <time>2025-10-17T00:03:44Z</time>
        <extensions>
          <gpxtpx:TrackPointExtension>
            <gpxtpx:hr>145</gpxtpx:hr>
          </gpxtpx:TrackPointExtension>
        </extensions>
      </trkpt>
      <trkpt lat="38.83797860987785" lon="121.50943485629885">
        <ele>10.269370639696717</ele>
        <time>2025-10-17T00:03:56Z</time>
        <extensions>
          <gpxtpx:TrackPointExtension>
            <gpxtpx:hr>142</gpxtpx:hr>
          </gpxtpx:TrackPointExtension>
        </extensions>
      </trkpt>
      <trkpt lat="38.83805351184307" lon="121.50932212963978">
        <ele>10.396181967109442</ele>
        <time>2025-10-17T00:04:02Z</time>
        <extensions>
          <gpxtpx:TrackPointExtension>
            <gpxtpx:hr>141</gpxtpx:hr>
          </gpxtpx:TrackPointExtension>
        </extensions>
      </trkpt>
      <trkpt lat="38.83821166246057" lon="121.50920474580701">
        <ele>10.91974678169936</ele>
        <time>2025-10-17T00:04:11Z</time>
        <extensions>
          <gpxtpx:TrackPointExtension>
            <gpxtpx:hr>142</gpxtpx:hr>
          </gpxtpx:TrackPointExtension>
        </extensions>
      </trkpt>
      <trkpt lat="38.83826591512787" lon="121.50919545029137">
        <ele>10.45907487347722</ele>
        <time>2025-10-17T00:04:14Z</time>
        <extensions>
          <gpxtpx:TrackPointExtension>
            <gpxtpx:hr>143</gpxtpx:hr>
          </gpxtpx:TrackPointExtension>
        </extensions>
      </trkpt>
      <trkpt lat="38.83830374342244" lon="121.50912915427969">
        <ele>10.330434424802661</ele>
        <time>2025-10-17T00:04:17Z</time>
        <extensions>
          <gpxtpx:TrackPointExtension>
            <gpxtpx:hr>143</gpxtpx:hr>
          </gpxtpx:TrackPointExtension>
        </extensions>
      </trkpt>
      <trkpt lat="38.83827390851822" lon="121.50906072268052">
        <ele>10.064976697787642</ele>
        <time>2025-10-17T00:04:20Z</time>
        <extensions>
          <gpxtpx:TrackPointExtension>
            <gpxtpx:hr>143</gpxtpx:hr>
          </gpxtpx:TrackPointExtension>
        </extensions>
      </trkpt>
      <trkpt lat="38.83816228639329" lon="121.50890977455617">
        <ele>10.372282075695693</ele>
        <time>2025-10-17T00:04:29Z</time>
        <extensions>
          <gpxtpx:TrackPointExtension>
            <gpxtpx:hr>143</gpxtpx:hr>
          </gpxtpx:TrackPointExtension>
        </extensions>
      </trkpt>
      <trkpt lat="38.837896535049516" lon="121.50866270538776">
        <ele>10.732838972471654</ele>
        <time>2025-10-17T00:04:45Z</time>
        <extensions>
          <gpxtpx:TrackPointExtension>
            <gpxtpx:hr>142</gpxtpx:hr>
          </gpxtpx:TrackPointExtension>
        </extensions>
      </trkpt>
      <trkpt lat="38.837783932329955" lon="121.50857518136424">
        <ele>10.620216460898519</ele>
        <time>2025-10-17T00:04:51Z</time>
        <extensions>
          <gpxtpx:TrackPointExtension>
            <gpxtpx:hr>142</gpxtpx:hr>
          </gpxtpx:TrackPointExtension>
        </extensions>
      </trkpt>
      <trkpt lat="38.83761572863757" lon="121.5083295245213">
        <ele>9.986037146300077</ele>
        <time>2025-10-17T00:05:03Z</time>
        <extensions>
          <gpxtpx:TrackPointExtension>
            <gpxtpx:hr>143</gpxtpx:hr>
          </gpxtpx:TrackPointExtension>
        </extensions>
      </trkpt>
      <trkpt lat="38.8374679126711" lon="121.50818798473082">
        <ele>9.917460125871003</ele>
        <time>2025-10-17T00:05:12Z</time>
        <extensions>
          <gpxtpx:TrackPointExtension>
            <gpxtpx:hr>143</gpxtpx:hr>
          </gpxtpx:TrackPointExtension>
        </extensions>
      </trkpt>
      <trkpt lat="38.83730254775691" lon="121.50805444603553">
        <ele>10.888832819648087</ele>
        <time>2025-10-17T00:05:21Z</time>
        <extensions>
          <gpxtpx:TrackPointExtension>
            <gpxtpx:hr>142</gpxtpx:hr>
          </gpxtpx:TrackPointExtension>
        </extensions>
      </trkpt>
      <trkpt lat="38.8372077251599" lon="121.50794644778746">
        <ele>11.39426377043128</ele>
        <time>2025-10-17T00:05:27Z</time>
        <extensions>
          <gpxtpx:TrackPointExtension>
            <gpxtpx:hr>144</gpxtpx:hr>
          </gpxtpx:TrackPointExtension>
        </extensions>
      </trkpt>
      <trkpt lat="38.83712869684145" lon="121.5079205722923">
        <ele>11.897518427111208</ele>
        <time>2025-10-17T00:05:30Z</time>
        <extensions>
          <gpxtpx:TrackPointExtension>
            <gpxtpx:hr>145</gpxtpx:hr>
          </gpxtpx:TrackPointExtension>
        </extensions>
      </trkpt>
      <trkpt lat="38.836903241172855" lon="121.50767819994485">
        <ele>11.21275760512799</ele>
        <time>2025-10-17T00:05:45Z</time>
        <extensions>
          <gpxtpx:TrackPointExtension>
            <gpxtpx:hr>143</gpxtpx:hr>
          </gpxtpx:TrackPointExtension>
        </extensions>
      </trkpt>
      <trkpt lat="38.8367440014554" lon="121.50755515414535">
        <ele>11.771005414426327</ele>
        <time>2025-10-17T00:05:57Z</time>
        <extensions>
          <gpxtpx:TrackPointExtension>
            <gpxtpx:hr>142</gpxtpx:hr>
          </gpxtpx:TrackPointExtension>
        </extensions>
      </trkpt>
    </trkseg>
  </trk>
</gpx>