<?xml version="1.0" encoding="UTF-8"?>
<gpx xmlns="http://www.topografix.com/GPX/1/1" xmlns:gpxtpx="http://www.garmin.com/xmlschemas/TrackPointExtension/v1" xmlns:xsi="http://www.w3.org/2001/XMLSchema-instance" xsi:schemaLocation="http://www.topografix.com/GPX/1/1 http://www.topografix.com/GPX/1/1/gpx.xsd" version="1.1" creator="gpx.py -- https://github.com/tkrajina/gpxpy">
  <trk>
    <name>gpx from keep</name>
    <type>Run</type>
    <trkseg>
      <trkpt lat="38.83668329846003" lon="121.50520223995376">
        <ele>9.741740535584736</ele>
        <time>2026-03-22T23:50:53Z</time>
      </trkpt>
      <trkpt lat="38.8366269928691" lon="121.50534670833056">
        <ele>9.388378312811255</ele>
        <time>2026-03-22T23:51:08Z</time>
      </trkpt>
      <trkpt lat="38.836589057374056" lon="121.50550186361576">
        <ele>8.9408841682598</ele>
        <time>2026-03-22T23:51:14Z</time>
      </trkpt>
      <trkpt lat="38.836458949070796" lon="121.50578067102067">
        <ele>10.068816537968814</ele>
        <time>2026-03-22T23:51:29Z</time>
      </trkpt>
      <trkpt lat="38.83642014100269" lon="121.50597100059444">
        <ele>10.218534392304718</ele>
        <time>2026-03-22T23:51:38Z</time>
      </trkpt>
      <trkpt lat="38.83630734536493" lon="121.50630018056513">
        <ele>11.558189530856907</ele>
        <time>2026-03-22T23:51:53Z</time>
      </trkpt>
      <trkpt lat="38.83627544133417" lon="121.50645721341652">
        <ele>11.179693236015737</ele>
        <time>2026-03-22T23:51:59Z</time>
      </trkpt>
      <trkpt lat="38.83618532262826" lon="121.50667989292053">
        <ele>11.293485643342137</ele>
        <time>2026-03-22T23:52:17Z</time>
        <extensions>
          <gpxtpx:TrackPointExtension>
            <gpxtpx:hr>113</gpxtpx:hr>
          </gpxtpx:TrackPointExtension>
        </extensions>
      </trkpt>
      <trkpt lat="38.83617268798145" lon="121.50675473041265">
        <ele>10.518670905381441</ele>
        <time>2026-03-22T23:52:23Z</time>
        <extensions>
          <gpxtpx:TrackPointExtension>
            <gpxtpx:hr>113</gpxtpx:hr>
          </gpxtpx:TrackPointExtension>
        </extensions>
      </trkpt>
      <trkpt lat="38.836131000463" lon="121.50691695245975">
        <ele>8.81305031850934</ele>
        <time>2026-03-22T23:53:00Z</time>
        <extensions>
          <gpxtpx:TrackPointExtension>
            <gpxtpx:hr>87</gpxtpx:hr>
          </gpxtpx:TrackPointExtension>
        </extensions>
      </trkpt>
      <trkpt lat="38.836010729715646" lon="121.5071793733846">
        <ele>8.18050626758486</ele>
        <time>2026-03-22T23:53:12Z</time>
        <extensions>
          <gpxtpx:TrackPointExtension>
            <gpxtpx:hr>101</gpxtpx:hr>
          </gpxtpx:TrackPointExtension>
        </extensions>
      </trkpt>
      <trkpt lat="38.835930665907625" lon="121.50746810183179">
        <ele>10.38962237443775</ele>
        <time>2026-03-22T23:53:24Z</time>
        <extensions>
          <gpxtpx:TrackPointExtension>
            <gpxtpx:hr>110</gpxtpx:hr>
          </gpxtpx:TrackPointExtension>
        </extensions>
      </trkpt>
      <trkpt lat="38.8358333713436" lon="121.50781759344169">
        <ele>9.846119619905949</ele>
        <time>2026-03-22T23:54:03Z</time>
        <extensions>
          <gpxtpx:TrackPointExtension>
            <gpxtpx:hr>108</gpxtpx:hr>
          </gpxtpx:TrackPointExtension>
        </extensions>
      </trkpt>
      <trkpt lat="38.83585523689848" lon="121.50788035167285">
        <ele>7.937134446576238</ele>
        <time>2026-03-22T23:54:06Z</time>
        <extensions>
          <gpxtpx:TrackPointExtension>
            <gpxtpx:hr>108</gpxtpx:hr>
          </gpxtpx:TrackPointExtension>
        </extensions>
      </trkpt>
      <trkpt lat="38.83571296514462" lon="121.50818252267536">
        <ele>9.40692364051938</ele>
        <time>2026-03-22T23:54:21Z</time>
        <extensions>
          <gpxtpx:TrackPointExtension>
            <gpxtpx:hr>108</gpxtpx:hr>
          </gpxtpx:TrackPointExtension>
        </extensions>
      </trkpt>
      <trkpt lat="38.835577645796704" lon="121.50856346398798">
        <ele>9.453933188691735</ele>
        <time>2026-03-22T23:54:39Z</time>
        <extensions>
          <gpxtpx:TrackPointExtension>
            <gpxtpx:hr>115</gpxtpx:hr>
          </gpxtpx:TrackPointExtension>
        </extensions>
      </trkpt>
      <trkpt lat="38.83555123963973" lon="121.50861631898097">
        <ele>9.608770465478301</ele>
        <time>2026-03-22T23:54:42Z</time>
        <extensions>
          <gpxtpx:TrackPointExtension>
            <gpxtpx:hr>115</gpxtpx:hr>
          </gpxtpx:TrackPointExtension>
        </extensions>
      </trkpt>
      <trkpt lat="38.8355341845676" lon="121.50870707226471">
        <ele>8.408501244150102</ele>
        <time>2026-03-22T23:54:48Z</time>
        <extensions>
          <gpxtpx:TrackPointExtension>
            <gpxtpx:hr>116</gpxtpx:hr>
          </gpxtpx:TrackPointExtension>
        </extensions>
      </trkpt>
      <trkpt lat="38.83545355282114" lon="121.50885607981122">
        <ele>11.181334175169468</ele>
        <time>2026-03-22T23:54:54Z</time>
        <extensions>
          <gpxtpx:TrackPointExtension>
            <gpxtpx:hr>115</gpxtpx:hr>
          </gpxtpx:TrackPointExtension>
        </extensions>
      </trkpt>
      <trkpt lat="38.835346025275406" lon="121.50921060983566">
        <ele>8.190212684683502</ele>
        <time>2026-03-22T23:55:11Z</time>
        <extensions>
          <gpxtpx:TrackPointExtension>
            <gpxtpx:hr>117</gpxtpx:hr>
          </gpxtpx:TrackPointExtension>
        </extensions>
      </trkpt>
      <trkpt lat="38.83531897362259" lon="121.50931578914233">
        <ele>9.51602188963443</ele>
        <time>2026-03-22T23:55:15Z</time>
        <extensions>
          <gpxtpx:TrackPointExtension>
            <gpxtpx:hr>116</gpxtpx:hr>
          </gpxtpx:TrackPointExtension>
        </extensions>
      </trkpt>
      <trkpt lat="38.835135412437786" lon="121.50966451241776">
        <ele>9.122700815089047</ele>
        <time>2026-03-22T23:55:31Z</time>
        <extensions>
          <gpxtpx:TrackPointExtension>
            <gpxtpx:hr>117</gpxtpx:hr>
          </gpxtpx:TrackPointExtension>
        </extensions>
      </trkpt>
      <trkpt lat="38.835025943547976" lon="121.51002517068137">
        <ele>8.895062026567757</ele>
        <time>2026-03-22T23:55:46Z</time>
        <extensions>
          <gpxtpx:TrackPointExtension>
            <gpxtpx:hr>122</gpxtpx:hr>
          </gpxtpx:TrackPointExtension>
        </extensions>
      </trkpt>
      <trkpt lat="38.8349047003554" lon="121.51036805878643">
        <ele>9.08606398012489</ele>
        <time>2026-03-22T23:56:01Z</time>
        <extensions>
          <gpxtpx:TrackPointExtension>
            <gpxtpx:hr>126</gpxtpx:hr>
          </gpxtpx:TrackPointExtension>
        </extensions>
      </trkpt>
      <trkpt lat="38.83479362278002" lon="121.51068598453114">
        <ele>9.254886992275715</ele>
        <time>2026-03-22T23:56:16Z</time>
        <extensions>
          <gpxtpx:TrackPointExtension>
            <gpxtpx:hr>125</gpxtpx:hr>
          </gpxtpx:TrackPointExtension>
        </extensions>
      </trkpt>
      <trkpt lat="38.83475096844063" lon="121.51080646205224">
        <ele>8.606313097290695</ele>
        <time>2026-03-22T23:56:22Z</time>
        <extensions>
          <gpxtpx:TrackPointExtension>
            <gpxtpx:hr>125</gpxtpx:hr>
          </gpxtpx:TrackPointExtension>
        </extensions>
      </trkpt>
      <trkpt lat="38.834743698674494" lon="121.51087150761882">
        <ele>8.601794299669564</ele>
        <time>2026-03-22T23:56:25Z</time>
        <extensions>
          <gpxtpx:TrackPointExtension>
            <gpxtpx:hr>126</gpxtpx:hr>
          </gpxtpx:TrackPointExtension>
        </extensions>
      </trkpt>
      <trkpt lat="38.834645035574596" lon="121.51114302503089">
        <ele>8.186511487700045</ele>
        <time>2026-03-22T23:56:37Z</time>
        <extensions>
          <gpxtpx:TrackPointExtension>
            <gpxtpx:hr>126</gpxtpx:hr>
          </gpxtpx:TrackPointExtension>
        </extensions>
      </trkpt>
      <trkpt lat="38.83454256275597" lon="121.51148230024044">
        <ele>8.091235833242536</ele>
        <time>2026-03-22T23:56:52Z</time>
        <extensions>
          <gpxtpx:TrackPointExtension>
            <gpxtpx:hr>123</gpxtpx:hr>
          </gpxtpx:TrackPointExtension>
        </extensions>
      </trkpt>
      <trkpt lat="38.83444159243656" lon="121.5118112015932">
        <ele>8.647872464731336</ele>
        <time>2026-03-22T23:57:07Z</time>
        <extensions>
          <gpxtpx:TrackPointExtension>
            <gpxtpx:hr>123</gpxtpx:hr>
          </gpxtpx:TrackPointExtension>
        </extensions>
      </trkpt>
      <trkpt lat="38.83432330102458" lon="121.51216646130875">
        <ele>8.050162439234555</ele>
        <time>2026-03-22T23:57:22Z</time>
        <extensions>
          <gpxtpx:TrackPointExtension>
            <gpxtpx:hr>123</gpxtpx:hr>
          </gpxtpx:TrackPointExtension>
        </extensions>
      </trkpt>
      <trkpt lat="38.834224514956766" lon="121.51249035014663">
        <ele>8.258307935670018</ele>
        <time>2026-03-22T23:57:37Z</time>
        <extensions>
          <gpxtpx:TrackPointExtension>
            <gpxtpx:hr>122</gpxtpx:hr>
          </gpxtpx:TrackPointExtension>
        </extensions>
      </trkpt>
      <trkpt lat="38.83414030051135" lon="121.51268345880804">
        <ele>7.715527969412506</ele>
        <time>2026-03-22T23:57:46Z</time>
        <extensions>
          <gpxtpx:TrackPointExtension>
            <gpxtpx:hr>122</gpxtpx:hr>
          </gpxtpx:TrackPointExtension>
        </extensions>
      </trkpt>
      <trkpt lat="38.834044979853495" lon="121.51302475352523">
        <ele>7.493620327673852</ele>
        <time>2026-03-22T23:58:01Z</time>
        <extensions>
          <gpxtpx:TrackPointExtension>
            <gpxtpx:hr>127</gpxtpx:hr>
          </gpxtpx:TrackPointExtension>
        </extensions>
      </trkpt>
      <trkpt lat="38.833932823133786" lon="121.51336577145122">
        <ele>7.00184057559818</ele>
        <time>2026-03-22T23:58:16Z</time>
        <extensions>
          <gpxtpx:TrackPointExtension>
            <gpxtpx:hr>129</gpxtpx:hr>
          </gpxtpx:TrackPointExtension>
        </extensions>
      </trkpt>
      <trkpt lat="38.833828431826994" lon="121.51369428214088">
        <ele>6.2225165367126465</ele>
        <time>2026-03-22T23:58:31Z</time>
        <extensions>
          <gpxtpx:TrackPointExtension>
            <gpxtpx:hr>126</gpxtpx:hr>
          </gpxtpx:TrackPointExtension>
        </extensions>
      </trkpt>
      <trkpt lat="38.833704756547434" lon="121.51403690239556">
        <ele>6.918737216852605</ele>
        <time>2026-03-22T23:58:46Z</time>
        <extensions>
          <gpxtpx:TrackPointExtension>
            <gpxtpx:hr>129</gpxtpx:hr>
          </gpxtpx:TrackPointExtension>
        </extensions>
      </trkpt>
      <trkpt lat="38.83359276928569" lon="121.51438107700353">
        <ele>6.539342322386801</ele>
        <time>2026-03-22T23:59:01Z</time>
        <extensions>
          <gpxtpx:TrackPointExtension>
            <gpxtpx:hr>131</gpxtpx:hr>
          </gpxtpx:TrackPointExtension>
        </extensions>
      </trkpt>
      <trkpt lat="38.83359940742273" lon="121.51444585818471">
        <ele>6.196440211497247</ele>
        <time>2026-03-22T23:59:04Z</time>
        <extensions>
          <gpxtpx:TrackPointExtension>
            <gpxtpx:hr>129</gpxtpx:hr>
          </gpxtpx:TrackPointExtension>
        </extensions>
      </trkpt>
      <trkpt lat="38.83355342899266" lon="121.51458837435143">
        <ele>6.380212499760091</ele>
        <time>2026-03-22T23:59:10Z</time>
        <extensions>
          <gpxtpx:TrackPointExtension>
            <gpxtpx:hr>127</gpxtpx:hr>
          </gpxtpx:TrackPointExtension>
        </extensions>
      </trkpt>
      <trkpt lat="38.83351815515049" lon="121.51463917995278">
        <ele>6.3208900317549706</ele>
        <time>2026-03-22T23:59:13Z</time>
        <extensions>
          <gpxtpx:TrackPointExtension>
            <gpxtpx:hr>127</gpxtpx:hr>
          </gpxtpx:TrackPointExtension>
        </extensions>
      </trkpt>
      <trkpt lat="38.833406234442556" lon="121.51496520859632">
        <ele>5.656384211033583</ele>
        <time>2026-03-22T23:59:28Z</time>
        <extensions>
          <gpxtpx:TrackPointExtension>
            <gpxtpx:hr>125</gpxtpx:hr>
          </gpxtpx:TrackPointExtension>
        </extensions>
      </trkpt>
      <trkpt lat="38.83332123577495" lon="121.5152389685408">
        <ele>6.56029652711004</ele>
        <time>2026-03-22T23:59:40Z</time>
        <extensions>
          <gpxtpx:TrackPointExtension>
            <gpxtpx:hr>130</gpxtpx:hr>
          </gpxtpx:TrackPointExtension>
        </extensions>
      </trkpt>
      <trkpt lat="38.83326940969348" lon="121.5153543139893">
        <ele>5.667853012681007</ele>
        <time>2026-03-22T23:59:46Z</time>
        <extensions>
          <gpxtpx:TrackPointExtension>
            <gpxtpx:hr>127</gpxtpx:hr>
          </gpxtpx:TrackPointExtension>
        </extensions>
      </trkpt>
      <trkpt lat="38.833221230672066" lon="121.51557654589463">
        <ele>6.6550472835078835</ele>
        <time>2026-03-22T23:59:55Z</time>
        <extensions>
          <gpxtpx:TrackPointExtension>
            <gpxtpx:hr>130</gpxtpx:hr>
          </gpxtpx:TrackPointExtension>
        </extensions>
      </trkpt>
      <trkpt lat="38.83313727348206" lon="121.51574847803897">
        <ele>7.8963418528437614</ele>
        <time>2026-03-23T00:00:04Z</time>
        <extensions>
          <gpxtpx:TrackPointExtension>
            <gpxtpx:hr>131</gpxtpx:hr>
          </gpxtpx:TrackPointExtension>
        </extensions>
      </trkpt>
      <trkpt lat="38.83291838014222" lon="121.51597832002176">
        <ele>6.2410236820578575</ele>
        <time>2026-03-23T00:00:19Z</time>
        <extensions>
          <gpxtpx:TrackPointExtension>
            <gpxtpx:hr>129</gpxtpx:hr>
          </gpxtpx:TrackPointExtension>
        </extensions>
      </trkpt>
      <trkpt lat="38.83269329328262" lon="121.51619935373353">
        <ele>5.8814047975465655</ele>
        <time>2026-03-23T00:00:34Z</time>
        <extensions>
          <gpxtpx:TrackPointExtension>
            <gpxtpx:hr>130</gpxtpx:hr>
          </gpxtpx:TrackPointExtension>
        </extensions>
      </trkpt>
      <trkpt lat="38.83242329515869" lon="121.51636432127292">
        <ele>4.8214688980951905</ele>
        <time>2026-03-23T00:00:49Z</time>
        <extensions>
          <gpxtpx:TrackPointExtension>
            <gpxtpx:hr>134</gpxtpx:hr>
          </gpxtpx:TrackPointExtension>
        </extensions>
      </trkpt>
      <trkpt lat="38.83231241107922" lon="121.51639403189664">
        <ele>4.6937761306762695</ele>
        <time>2026-03-23T00:00:55Z</time>
        <extensions>
          <gpxtpx:TrackPointExtension>
            <gpxtpx:hr>134</gpxtpx:hr>
          </gpxtpx:TrackPointExtension>
        </extensions>
      </trkpt>
      <trkpt lat="38.832256293187534" lon="121.51643227804698">
        <ele>5.529867718927562</ele>
        <time>2026-03-23T00:00:58Z</time>
        <extensions>
          <gpxtpx:TrackPointExtension>
            <gpxtpx:hr>135</gpxtpx:hr>
          </gpxtpx:TrackPointExtension>
        </extensions>
      </trkpt>
      <trkpt lat="38.83198499549581" lon="121.5164213215741">
        <ele>5.858828134834766</ele>
        <time>2026-03-23T00:01:10Z</time>
        <extensions>
          <gpxtpx:TrackPointExtension>
            <gpxtpx:hr>135</gpxtpx:hr>
          </gpxtpx:TrackPointExtension>
        </extensions>
      </trkpt>
      <trkpt lat="38.831711171433184" lon="121.51627507789746">
        <ele>6.45050941593945</ele>
        <time>2026-03-23T00:01:26Z</time>
        <extensions>
          <gpxtpx:TrackPointExtension>
            <gpxtpx:hr>135</gpxtpx:hr>
          </gpxtpx:TrackPointExtension>
        </extensions>
      </trkpt>
      <trkpt lat="38.83144945559112" lon="121.5161104159775">
        <ele>5.598447008058429</ele>
        <time>2026-03-23T00:01:41Z</time>
        <extensions>
          <gpxtpx:TrackPointExtension>
            <gpxtpx:hr>135</gpxtpx:hr>
          </gpxtpx:TrackPointExtension>
        </extensions>
      </trkpt>
      <trkpt lat="38.83119978105551" lon="121.51592708631108">
        <ele>5.814851623959839</ele>
        <time>2026-03-23T00:01:56Z</time>
        <extensions>
          <gpxtpx:TrackPointExtension>
            <gpxtpx:hr>136</gpxtpx:hr>
          </gpxtpx:TrackPointExtension>
        </extensions>
      </trkpt>
      <trkpt lat="38.83095458319874" lon="121.51573782072781">
        <ele>5.570686676539481</ele>
        <time>2026-03-23T00:02:11Z</time>
        <extensions>
          <gpxtpx:TrackPointExtension>
            <gpxtpx:hr>137</gpxtpx:hr>
          </gpxtpx:TrackPointExtension>
        </extensions>
      </trkpt>
      <trkpt lat="38.83070227800482" lon="121.51555345748159">
        <ele>5.418390376493335</ele>
        <time>2026-03-23T00:02:26Z</time>
        <extensions>
          <gpxtpx:TrackPointExtension>
            <gpxtpx:hr>133</gpxtpx:hr>
          </gpxtpx:TrackPointExtension>
        </extensions>
      </trkpt>
      <trkpt lat="38.83041954568286" lon="121.51535221521972">
        <ele>5.3677964666858315</ele>
        <time>2026-03-23T00:02:44Z</time>
        <extensions>
          <gpxtpx:TrackPointExtension>
            <gpxtpx:hr>134</gpxtpx:hr>
          </gpxtpx:TrackPointExtension>
        </extensions>
      </trkpt>
      <trkpt lat="38.8303685387862" lon="121.5153138746449">
        <ele>5.977234145626426</ele>
        <time>2026-03-23T00:02:47Z</time>
        <extensions>
          <gpxtpx:TrackPointExtension>
            <gpxtpx:hr>134</gpxtpx:hr>
          </gpxtpx:TrackPointExtension>
        </extensions>
      </trkpt>
      <trkpt lat="38.830412107863665" lon="121.51523309243325">
        <ele>4.693730064667761</ele>
        <time>2026-03-23T00:02:50Z</time>
        <extensions>
          <gpxtpx:TrackPointExtension>
            <gpxtpx:hr>136</gpxtpx:hr>
          </gpxtpx:TrackPointExtension>
        </extensions>
      </trkpt>
      <trkpt lat="38.83047982937806" lon="121.51523435184565">
        <ele>5.140260421670973</ele>
        <time>2026-03-23T00:02:53Z</time>
        <extensions>
          <gpxtpx:TrackPointExtension>
            <gpxtpx:hr>136</gpxtpx:hr>
          </gpxtpx:TrackPointExtension>
        </extensions>
      </trkpt>
      <trkpt lat="38.83060838149449" lon="121.51526823921695">
        <ele>6.195987792685628</ele>
        <time>2026-03-23T00:02:59Z</time>
        <extensions>
          <gpxtpx:TrackPointExtension>
            <gpxtpx:hr>133</gpxtpx:hr>
          </gpxtpx:TrackPointExtension>
        </extensions>
      </trkpt>
      <trkpt lat="38.8308902996436" lon="121.5154207361975">
        <ele>5.820253982208669</ele>
        <time>2026-03-23T00:03:14Z</time>
        <extensions>
          <gpxtpx:TrackPointExtension>
            <gpxtpx:hr>134</gpxtpx:hr>
          </gpxtpx:TrackPointExtension>
        </extensions>
      </trkpt>
      <trkpt lat="38.83116952038544" lon="121.51565862071068">
        <ele>8.181146894581616</ele>
        <time>2026-03-23T00:03:30Z</time>
        <extensions>
          <gpxtpx:TrackPointExtension>
            <gpxtpx:hr>134</gpxtpx:hr>
          </gpxtpx:TrackPointExtension>
        </extensions>
      </trkpt>
      <trkpt lat="38.83145112420425" lon="121.51585350110464">
        <ele>6.954055591486394</ele>
        <time>2026-03-23T00:03:46Z</time>
        <extensions>
          <gpxtpx:TrackPointExtension>
            <gpxtpx:hr>136</gpxtpx:hr>
          </gpxtpx:TrackPointExtension>
        </extensions>
      </trkpt>
      <trkpt lat="38.83173247744986" lon="121.51602379308969">
        <ele>5.560291006229818</ele>
        <time>2026-03-23T00:04:02Z</time>
        <extensions>
          <gpxtpx:TrackPointExtension>
            <gpxtpx:hr>135</gpxtpx:hr>
          </gpxtpx:TrackPointExtension>
        </extensions>
      </trkpt>
      <trkpt lat="38.83194601947286" lon="121.51617812008078">
        <ele>6.105383243411779</ele>
        <time>2026-03-23T00:04:20Z</time>
        <extensions>
          <gpxtpx:TrackPointExtension>
            <gpxtpx:hr>138</gpxtpx:hr>
          </gpxtpx:TrackPointExtension>
        </extensions>
      </trkpt>
      <trkpt lat="38.83223809637084" lon="121.51617839721864">
        <ele>8.550537048839033</ele>
        <time>2026-03-23T00:04:35Z</time>
        <extensions>
          <gpxtpx:TrackPointExtension>
            <gpxtpx:hr>134</gpxtpx:hr>
          </gpxtpx:TrackPointExtension>
        </extensions>
      </trkpt>
      <trkpt lat="38.83246103527383" lon="121.51610043909658">
        <ele>9.809491399675608</ele>
        <time>2026-03-23T00:04:47Z</time>
        <extensions>
          <gpxtpx:TrackPointExtension>
            <gpxtpx:hr>132</gpxtpx:hr>
          </gpxtpx:TrackPointExtension>
        </extensions>
      </trkpt>
      <trkpt lat="38.8327092716344" lon="121.51589824720645">
        <ele>9.826554520986974</ele>
        <time>2026-03-23T00:05:02Z</time>
        <extensions>
          <gpxtpx:TrackPointExtension>
            <gpxtpx:hr>134</gpxtpx:hr>
          </gpxtpx:TrackPointExtension>
        </extensions>
      </trkpt>
      <trkpt lat="38.83285616813818" lon="121.51574163623467">
        <ele>10.042745719663799</ele>
        <time>2026-03-23T00:05:11Z</time>
        <extensions>
          <gpxtpx:TrackPointExtension>
            <gpxtpx:hr>136</gpxtpx:hr>
          </gpxtpx:TrackPointExtension>
        </extensions>
      </trkpt>
      <trkpt lat="38.83293253854321" lon="121.51560586674879">
        <ele>9.370843323878944</ele>
        <time>2026-03-23T00:05:17Z</time>
        <extensions>
          <gpxtpx:TrackPointExtension>
            <gpxtpx:hr>137</gpxtpx:hr>
          </gpxtpx:TrackPointExtension>
        </extensions>
      </trkpt>
      <trkpt lat="38.83308039211577" lon="121.51525941559493">
        <ele>6.370492788031697</ele>
        <time>2026-03-23T00:05:32Z</time>
        <extensions>
          <gpxtpx:TrackPointExtension>
            <gpxtpx:hr>139</gpxtpx:hr>
          </gpxtpx:TrackPointExtension>
        </extensions>
      </trkpt>
      <trkpt lat="38.83319645181944" lon="121.51490914167624">
        <ele>6.004292001016438</ele>
        <time>2026-03-23T00:05:47Z</time>
        <extensions>
          <gpxtpx:TrackPointExtension>
            <gpxtpx:hr>140</gpxtpx:hr>
          </gpxtpx:TrackPointExtension>
        </extensions>
      </trkpt>
      <trkpt lat="38.83324273355863" lon="121.51475851644693">
        <ele>6.435893530957401</ele>
        <time>2026-03-23T00:05:53Z</time>
        <extensions>
          <gpxtpx:TrackPointExtension>
            <gpxtpx:hr>140</gpxtpx:hr>
          </gpxtpx:TrackPointExtension>
        </extensions>
      </trkpt>
      <trkpt lat="38.83327757459853" lon="121.51469886842459">
        <ele>6.084265791811049</ele>
        <time>2026-03-23T00:05:56Z</time>
        <extensions>
          <gpxtpx:TrackPointExtension>
            <gpxtpx:hr>141</gpxtpx:hr>
          </gpxtpx:TrackPointExtension>
        </extensions>
      </trkpt>
      <trkpt lat="38.833384829518074" lon="121.51433865153629">
        <ele>6.438918775878847</ele>
        <time>2026-03-23T00:06:11Z</time>
        <extensions>
          <gpxtpx:TrackPointExtension>
            <gpxtpx:hr>143</gpxtpx:hr>
          </gpxtpx:TrackPointExtension>
        </extensions>
      </trkpt>
      <trkpt lat="38.8334292595922" lon="121.51418137594953">
        <ele>7.385347619652748</ele>
        <time>2026-03-23T00:06:17Z</time>
        <extensions>
          <gpxtpx:TrackPointExtension>
            <gpxtpx:hr>143</gpxtpx:hr>
          </gpxtpx:TrackPointExtension>
        </extensions>
      </trkpt>
      <trkpt lat="38.833560722895136" lon="121.51383094650012">
        <ele>6.342383947223425</ele>
        <time>2026-03-23T00:06:32Z</time>
        <extensions>
          <gpxtpx:TrackPointExtension>
            <gpxtpx:hr>145</gpxtpx:hr>
          </gpxtpx:TrackPointExtension>
        </extensions>
      </trkpt>
      <trkpt lat="38.833678166875785" lon="121.51345313159733">
        <ele>6.879732960835099</ele>
        <time>2026-03-23T00:06:47Z</time>
        <extensions>
          <gpxtpx:TrackPointExtension>
            <gpxtpx:hr>141</gpxtpx:hr>
          </gpxtpx:TrackPointExtension>
        </extensions>
      </trkpt>
      <trkpt lat="38.83378923614403" lon="121.51318326883316">
        <ele>8.10142414458096</ele>
        <time>2026-03-23T00:06:59Z</time>
        <extensions>
          <gpxtpx:TrackPointExtension>
            <gpxtpx:hr>146</gpxtpx:hr>
          </gpxtpx:TrackPointExtension>
        </extensions>
      </trkpt>
      <trkpt lat="38.833810877069496" lon="121.51303216327865">
        <ele>7.372893393971026</ele>
        <time>2026-03-23T00:07:05Z</time>
        <extensions>
          <gpxtpx:TrackPointExtension>
            <gpxtpx:hr>145</gpxtpx:hr>
          </gpxtpx:TrackPointExtension>
        </extensions>
      </trkpt>
      <trkpt lat="38.83393386599709" lon="121.51270070785642">
        <ele>7.312388869002461</ele>
        <time>2026-03-23T00:07:20Z</time>
        <extensions>
          <gpxtpx:TrackPointExtension>
            <gpxtpx:hr>144</gpxtpx:hr>
          </gpxtpx:TrackPointExtension>
        </extensions>
      </trkpt>
      <trkpt lat="38.83404059800756" lon="121.51235936946827">
        <ele>7.342379781417549</ele>
        <time>2026-03-23T00:07:35Z</time>
        <extensions>
          <gpxtpx:TrackPointExtension>
            <gpxtpx:hr>146</gpxtpx:hr>
          </gpxtpx:TrackPointExtension>
        </extensions>
      </trkpt>
      <trkpt lat="38.83418892143332" lon="121.5119830615312">
        <ele>9.519385508261621</ele>
        <time>2026-03-23T00:07:50Z</time>
        <extensions>
          <gpxtpx:TrackPointExtension>
            <gpxtpx:hr>148</gpxtpx:hr>
          </gpxtpx:TrackPointExtension>
        </extensions>
      </trkpt>
      <trkpt lat="38.83422350625123" lon="121.51181073302337">
        <ele>9.062023719772696</ele>
        <time>2026-03-23T00:07:57Z</time>
        <extensions>
          <gpxtpx:TrackPointExtension>
            <gpxtpx:hr>147</gpxtpx:hr>
          </gpxtpx:TrackPointExtension>
        </extensions>
      </trkpt>
      <trkpt lat="38.834261127154356" lon="121.51175235578941">
        <ele>8.765456107445061</ele>
        <time>2026-03-23T00:08:00Z</time>
        <extensions>
          <gpxtpx:TrackPointExtension>
            <gpxtpx:hr>148</gpxtpx:hr>
          </gpxtpx:TrackPointExtension>
        </extensions>
      </trkpt>
      <trkpt lat="38.834373070528976" lon="121.51138536798271">
        <ele>9.202857283875346</ele>
        <time>2026-03-23T00:08:15Z</time>
        <extensions>
          <gpxtpx:TrackPointExtension>
            <gpxtpx:hr>144</gpxtpx:hr>
          </gpxtpx:TrackPointExtension>
        </extensions>
      </trkpt>
      <trkpt lat="38.83437783439305" lon="121.51134851603649">
        <ele>9.902971053496003</ele>
        <time>2026-03-23T00:08:18Z</time>
        <extensions>
          <gpxtpx:TrackPointExtension>
            <gpxtpx:hr>144</gpxtpx:hr>
          </gpxtpx:TrackPointExtension>
        </extensions>
      </trkpt>
    </trkseg>
  </trk>
</gpx>