<?xml version="1.0" encoding="UTF-8"?>
<gpx xmlns="http://www.topografix.com/GPX/1/1" xmlns:gpxtpx="http://www.garmin.com/xmlschemas/TrackPointExtension/v1" xmlns:xsi="http://www.w3.org/2001/XMLSchema-instance" xsi:schemaLocation="http://www.topografix.com/GPX/1/1 http://www.topografix.com/GPX/1/1/gpx.xsd" version="1.1" creator="gpx.py -- https://github.com/tkrajina/gpxpy">
  <trk>
    <name>gpx from keep</name>
    <type>Run</type>
    <trkseg>
      <trkpt lat="38.83744510830355" lon="121.50595801081076">
        <ele>10.557992790810637</ele>
        <time>2026-08-01T01:39:14Z</time>
        <extensions>
          <gpxtpx:TrackPointExtension>
            <gpxtpx:hr>82</gpxtpx:hr>
          </gpxtpx:TrackPointExtension>
        </extensions>
      </trkpt>
      <trkpt lat="38.837451336992544" lon="121.50605615228619">
        <ele>10.696030646562576</ele>
        <time>2026-08-01T01:39:20Z</time>
        <extensions>
          <gpxtpx:TrackPointExtension>
            <gpxtpx:hr>83</gpxtpx:hr>
          </gpxtpx:TrackPointExtension>
        </extensions>
      </trkpt>
      <trkpt lat="38.837277782486844" lon="121.50637427991582">
        <ele>10.902674000710249</ele>
        <time>2026-08-01T01:39:35Z</time>
        <extensions>
          <gpxtpx:TrackPointExtension>
            <gpxtpx:hr>95</gpxtpx:hr>
          </gpxtpx:TrackPointExtension>
        </extensions>
      </trkpt>
      <trkpt lat="38.837247734008486" lon="121.50646466757253">
        <ele>13.240669323131442</ele>
        <time>2026-08-01T01:39:38Z</time>
        <extensions>
          <gpxtpx:TrackPointExtension>
            <gpxtpx:hr>99</gpxtpx:hr>
          </gpxtpx:TrackPointExtension>
        </extensions>
      </trkpt>
      <trkpt lat="38.83708239765787" lon="121.50671717346005">
        <ele>13.55398781504482</ele>
        <time>2026-08-01T01:39:50Z</time>
        <extensions>
          <gpxtpx:TrackPointExtension>
            <gpxtpx:hr>101</gpxtpx:hr>
          </gpxtpx:TrackPointExtension>
        </extensions>
      </trkpt>
      <trkpt lat="38.83705247945967" lon="121.50680706186965">
        <ele>12.366913230158389</ele>
        <time>2026-08-01T01:39:53Z</time>
        <extensions>
          <gpxtpx:TrackPointExtension>
            <gpxtpx:hr>102</gpxtpx:hr>
          </gpxtpx:TrackPointExtension>
        </extensions>
      </trkpt>
      <trkpt lat="38.83701080957615" lon="121.50683296887699">
        <ele>11.935326525941491</ele>
        <time>2026-08-01T01:39:56Z</time>
        <extensions>
          <gpxtpx:TrackPointExtension>
            <gpxtpx:hr>102</gpxtpx:hr>
          </gpxtpx:TrackPointExtension>
        </extensions>
      </trkpt>
      <trkpt lat="38.83693910957458" lon="121.50695953320543">
        <ele>12.193404540419579</ele>
        <time>2026-08-01T01:40:02Z</time>
        <extensions>
          <gpxtpx:TrackPointExtension>
            <gpxtpx:hr>103</gpxtpx:hr>
          </gpxtpx:TrackPointExtension>
        </extensions>
      </trkpt>
      <trkpt lat="38.83689213616422" lon="121.50701015184237">
        <ele>12.192049984820187</ele>
        <time>2026-08-01T01:40:05Z</time>
        <extensions>
          <gpxtpx:TrackPointExtension>
            <gpxtpx:hr>104</gpxtpx:hr>
          </gpxtpx:TrackPointExtension>
        </extensions>
      </trkpt>
      <trkpt lat="38.83683027303962" lon="121.50717708290011">
        <ele>12.314295212738216</ele>
        <time>2026-08-01T01:40:11Z</time>
        <extensions>
          <gpxtpx:TrackPointExtension>
            <gpxtpx:hr>105</gpxtpx:hr>
          </gpxtpx:TrackPointExtension>
        </extensions>
      </trkpt>
      <trkpt lat="38.836780797518" lon="121.5072204744608">
        <ele>11.854850757867098</ele>
        <time>2026-08-01T01:40:14Z</time>
        <extensions>
          <gpxtpx:TrackPointExtension>
            <gpxtpx:hr>106</gpxtpx:hr>
          </gpxtpx:TrackPointExtension>
        </extensions>
      </trkpt>
      <trkpt lat="38.83671025408884" lon="121.50721473665969">
        <ele>10.946699660271406</ele>
        <time>2026-08-01T01:40:17Z</time>
        <extensions>
          <gpxtpx:TrackPointExtension>
            <gpxtpx:hr>106</gpxtpx:hr>
          </gpxtpx:TrackPointExtension>
        </extensions>
      </trkpt>
      <trkpt lat="38.83652516643042" lon="121.50703723134882">
        <ele>10.385114395059645</ele>
        <time>2026-08-01T01:40:27Z</time>
        <extensions>
          <gpxtpx:TrackPointExtension>
            <gpxtpx:hr>109</gpxtpx:hr>
          </gpxtpx:TrackPointExtension>
        </extensions>
      </trkpt>
      <trkpt lat="38.836282697649196" lon="121.50685432712888">
        <ele>9.25901732314378</ele>
        <time>2026-08-01T01:40:39Z</time>
        <extensions>
          <gpxtpx:TrackPointExtension>
            <gpxtpx:hr>112</gpxtpx:hr>
          </gpxtpx:TrackPointExtension>
        </extensions>
      </trkpt>
      <trkpt lat="38.836172294259455" lon="121.50677257842887">
        <ele>10.049894236959517</ele>
        <time>2026-08-01T01:40:48Z</time>
        <extensions>
          <gpxtpx:TrackPointExtension>
            <gpxtpx:hr>113</gpxtpx:hr>
          </gpxtpx:TrackPointExtension>
        </extensions>
      </trkpt>
      <trkpt lat="38.836011418438325" lon="121.50715037327161">
        <ele>9.08647192362696</ele>
        <time>2026-08-01T01:41:06Z</time>
        <extensions>
          <gpxtpx:TrackPointExtension>
            <gpxtpx:hr>111</gpxtpx:hr>
          </gpxtpx:TrackPointExtension>
        </extensions>
      </trkpt>
      <trkpt lat="38.83590699492656" lon="121.50749965926562">
        <ele>9.037417105399072</ele>
        <time>2026-08-01T01:41:19Z</time>
        <extensions>
          <gpxtpx:TrackPointExtension>
            <gpxtpx:hr>115</gpxtpx:hr>
          </gpxtpx:TrackPointExtension>
        </extensions>
      </trkpt>
      <trkpt lat="38.83578539631086" lon="121.50780964145598">
        <ele>8.74457092769444</ele>
        <time>2026-08-01T01:41:31Z</time>
        <extensions>
          <gpxtpx:TrackPointExtension>
            <gpxtpx:hr>117</gpxtpx:hr>
          </gpxtpx:TrackPointExtension>
        </extensions>
      </trkpt>
      <trkpt lat="38.83568246744128" lon="121.50815179578339">
        <ele>9.023088400252163</ele>
        <time>2026-08-01T01:41:43Z</time>
        <extensions>
          <gpxtpx:TrackPointExtension>
            <gpxtpx:hr>122</gpxtpx:hr>
          </gpxtpx:TrackPointExtension>
        </extensions>
      </trkpt>
      <trkpt lat="38.835602445629405" lon="121.508346477115">
        <ele>9.82983335852623</ele>
        <time>2026-08-01T01:41:50Z</time>
        <extensions>
          <gpxtpx:TrackPointExtension>
            <gpxtpx:hr>123</gpxtpx:hr>
          </gpxtpx:TrackPointExtension>
        </extensions>
      </trkpt>
      <trkpt lat="38.83549228985825" lon="121.50870162335154">
        <ele>9.854403835721314</ele>
        <time>2026-08-01T01:42:05Z</time>
        <extensions>
          <gpxtpx:TrackPointExtension>
            <gpxtpx:hr>123</gpxtpx:hr>
          </gpxtpx:TrackPointExtension>
        </extensions>
      </trkpt>
      <trkpt lat="38.83538906273479" lon="121.50901836389755">
        <ele>9.594796542078257</ele>
        <time>2026-08-01T01:42:17Z</time>
        <extensions>
          <gpxtpx:TrackPointExtension>
            <gpxtpx:hr>122</gpxtpx:hr>
          </gpxtpx:TrackPointExtension>
        </extensions>
      </trkpt>
      <trkpt lat="38.835348494227574" lon="121.50909165284624">
        <ele>10.200578638352454</ele>
        <time>2026-08-01T01:42:20Z</time>
        <extensions>
          <gpxtpx:TrackPointExtension>
            <gpxtpx:hr>122</gpxtpx:hr>
          </gpxtpx:TrackPointExtension>
        </extensions>
      </trkpt>
      <trkpt lat="38.835280093017246" lon="121.50933654311164">
        <ele>9.767103835009038</ele>
        <time>2026-08-01T01:42:29Z</time>
        <extensions>
          <gpxtpx:TrackPointExtension>
            <gpxtpx:hr>122</gpxtpx:hr>
          </gpxtpx:TrackPointExtension>
        </extensions>
      </trkpt>
      <trkpt lat="38.83524413020202" lon="121.50941713066631">
        <ele>9.313655546866357</ele>
        <time>2026-08-01T01:42:32Z</time>
        <extensions>
          <gpxtpx:TrackPointExtension>
            <gpxtpx:hr>122</gpxtpx:hr>
          </gpxtpx:TrackPointExtension>
        </extensions>
      </trkpt>
      <trkpt lat="38.835234599503934" lon="121.50951577186567">
        <ele>8.824682815931737</ele>
        <time>2026-08-01T01:42:35Z</time>
      </trkpt>
      <trkpt lat="38.83515752452856" lon="121.50966670914627">
        <ele>8.965443049557507</ele>
        <time>2026-08-01T01:42:41Z</time>
      </trkpt>
      <trkpt lat="38.83508428740471" lon="121.50992516498702">
        <ele>8.218742257915437</ele>
        <time>2026-08-01T01:42:50Z</time>
      </trkpt>
      <trkpt lat="38.8350715693614" lon="121.51002341547255">
        <ele>9.069729109294713</ele>
        <time>2026-08-01T01:42:53Z</time>
      </trkpt>
      <trkpt lat="38.83501435037529" lon="121.51008780971284">
        <ele>8.634347063489258</ele>
        <time>2026-08-01T01:42:56Z</time>
      </trkpt>
      <trkpt lat="38.83496919703531" lon="121.51026899059435">
        <ele>8.512638164684176</ele>
        <time>2026-08-01T01:43:02Z</time>
      </trkpt>
      <trkpt lat="38.83486212988004" lon="121.5105881642448">
        <ele>7.675886002369225</ele>
        <time>2026-08-01T01:43:14Z</time>
      </trkpt>
      <trkpt lat="38.83474027012083" lon="121.51095868065802">
        <ele>7.997888162732124</ele>
        <time>2026-08-01T01:43:27Z</time>
        <extensions>
          <gpxtpx:TrackPointExtension>
            <gpxtpx:hr>134</gpxtpx:hr>
          </gpxtpx:TrackPointExtension>
        </extensions>
      </trkpt>
      <trkpt lat="38.83469278793335" lon="121.51106752416811">
        <ele>8.032511096447706</ele>
        <time>2026-08-01T01:43:31Z</time>
        <extensions>
          <gpxtpx:TrackPointExtension>
            <gpxtpx:hr>134</gpxtpx:hr>
          </gpxtpx:TrackPointExtension>
        </extensions>
      </trkpt>
      <trkpt lat="38.834672662391576" lon="121.51118289803317">
        <ele>8.160705069079995</ele>
        <time>2026-08-01T01:43:35Z</time>
        <extensions>
          <gpxtpx:TrackPointExtension>
            <gpxtpx:hr>134</gpxtpx:hr>
          </gpxtpx:TrackPointExtension>
        </extensions>
      </trkpt>
      <trkpt lat="38.83456195236574" lon="121.51150276848479">
        <ele>6.6185640804469585</ele>
        <time>2026-08-01T01:43:46Z</time>
        <extensions>
          <gpxtpx:TrackPointExtension>
            <gpxtpx:hr>134</gpxtpx:hr>
          </gpxtpx:TrackPointExtension>
        </extensions>
      </trkpt>
      <trkpt lat="38.83448952573631" lon="121.51175546732688">
        <ele>6.354154939763248</ele>
        <time>2026-08-01T01:43:55Z</time>
        <extensions>
          <gpxtpx:TrackPointExtension>
            <gpxtpx:hr>132</gpxtpx:hr>
          </gpxtpx:TrackPointExtension>
        </extensions>
      </trkpt>
      <trkpt lat="38.834347321864584" lon="121.5121419468374">
        <ele>7.511655367910862</ele>
        <time>2026-08-01T01:44:10Z</time>
        <extensions>
          <gpxtpx:TrackPointExtension>
            <gpxtpx:hr>138</gpxtpx:hr>
          </gpxtpx:TrackPointExtension>
        </extensions>
      </trkpt>
      <trkpt lat="38.83430755859767" lon="121.51232085564175">
        <ele>8.021430130116642</ele>
        <time>2026-08-01T01:44:16Z</time>
        <extensions>
          <gpxtpx:TrackPointExtension>
            <gpxtpx:hr>138</gpxtpx:hr>
          </gpxtpx:TrackPointExtension>
        </extensions>
      </trkpt>
      <trkpt lat="38.83425628352845" lon="121.51239785357652">
        <ele>6.883396032266319</ele>
        <time>2026-08-01T01:44:19Z</time>
        <extensions>
          <gpxtpx:TrackPointExtension>
            <gpxtpx:hr>138</gpxtpx:hr>
          </gpxtpx:TrackPointExtension>
        </extensions>
      </trkpt>
      <trkpt lat="38.83415081358949" lon="121.51275516718881">
        <ele>6.693322553299367</ele>
        <time>2026-08-01T01:44:31Z</time>
        <extensions>
          <gpxtpx:TrackPointExtension>
            <gpxtpx:hr>138</gpxtpx:hr>
          </gpxtpx:TrackPointExtension>
        </extensions>
      </trkpt>
      <trkpt lat="38.83403649438033" lon="121.51310651710301">
        <ele>5.558588707819581</ele>
        <time>2026-08-01T01:44:43Z</time>
      </trkpt>
      <trkpt lat="38.83391767321062" lon="121.5134853407784">
        <ele>5.759128597564995</ele>
        <time>2026-08-01T01:44:56Z</time>
      </trkpt>
      <trkpt lat="38.83379200308144" lon="121.51382395796293">
        <ele>6.540506702847779</ele>
        <time>2026-08-01T01:45:08Z</time>
      </trkpt>
      <trkpt lat="38.833676192291904" lon="121.51417448020432">
        <ele>5.568880712613463</ele>
        <time>2026-08-01T01:45:20Z</time>
      </trkpt>
      <trkpt lat="38.83361661687088" lon="121.5143597822403">
        <ele>6.209052827209234</ele>
        <time>2026-08-01T01:45:26Z</time>
      </trkpt>
      <trkpt lat="38.83357297984699" lon="121.51444255651575">
        <ele>5.938041559420526</ele>
        <time>2026-08-01T01:45:29Z</time>
      </trkpt>
      <trkpt lat="38.8334886753095" lon="121.51481571158403">
        <ele>4.505097332410514</ele>
        <time>2026-08-01T01:45:41Z</time>
      </trkpt>
      <trkpt lat="38.833347174921464" lon="121.51518074304876">
        <ele>4.47754514310509</ele>
        <time>2026-08-01T01:45:54Z</time>
        <extensions>
          <gpxtpx:TrackPointExtension>
            <gpxtpx:hr>143</gpxtpx:hr>
          </gpxtpx:TrackPointExtension>
        </extensions>
      </trkpt>
      <trkpt lat="38.83326542978282" lon="121.51543708622178">
        <ele>4.32603625766933</ele>
        <time>2026-08-01T01:46:03Z</time>
        <extensions>
          <gpxtpx:TrackPointExtension>
            <gpxtpx:hr>143</gpxtpx:hr>
          </gpxtpx:TrackPointExtension>
        </extensions>
      </trkpt>
      <trkpt lat="38.833260627387105" lon="121.51550007953563">
        <ele>4.106681197881699</ele>
        <time>2026-08-01T01:46:06Z</time>
        <extensions>
          <gpxtpx:TrackPointExtension>
            <gpxtpx:hr>143</gpxtpx:hr>
          </gpxtpx:TrackPointExtension>
        </extensions>
      </trkpt>
      <trkpt lat="38.833378648624226" lon="121.51511263167168">
        <ele>4.6500867903232574</ele>
        <time>2026-08-01T01:46:21Z</time>
        <extensions>
          <gpxtpx:TrackPointExtension>
            <gpxtpx:hr>144</gpxtpx:hr>
          </gpxtpx:TrackPointExtension>
        </extensions>
      </trkpt>
      <trkpt lat="38.83350408286631" lon="121.51471831612685">
        <ele>5.683491177856922</ele>
        <time>2026-08-01T01:46:36Z</time>
        <extensions>
          <gpxtpx:TrackPointExtension>
            <gpxtpx:hr>144</gpxtpx:hr>
          </gpxtpx:TrackPointExtension>
        </extensions>
      </trkpt>
      <trkpt lat="38.83361233267201" lon="121.51438473024103">
        <ele>3.5731342248618603</ele>
        <time>2026-08-01T01:46:48Z</time>
      </trkpt>
      <trkpt lat="38.83372353347122" lon="121.51403786619265">
        <ele>7.572273938916624</ele>
        <time>2026-08-01T01:47:00Z</time>
      </trkpt>
      <trkpt lat="38.833843389233344" lon="121.51369378296882">
        <ele>6.094833025708795</ele>
        <time>2026-08-01T01:47:12Z</time>
      </trkpt>
      <trkpt lat="38.83394516637085" lon="121.5133548273491">
        <ele>7.46056420635432</ele>
        <time>2026-08-01T01:47:24Z</time>
        <extensions>
          <gpxtpx:TrackPointExtension>
            <gpxtpx:hr>147</gpxtpx:hr>
          </gpxtpx:TrackPointExtension>
        </extensions>
      </trkpt>
      <trkpt lat="38.83405228477043" lon="121.51310415412392">
        <ele>6.249889726750553</ele>
        <time>2026-08-01T01:47:33Z</time>
        <extensions>
          <gpxtpx:TrackPointExtension>
            <gpxtpx:hr>147</gpxtpx:hr>
          </gpxtpx:TrackPointExtension>
        </extensions>
      </trkpt>
      <trkpt lat="38.83406963047656" lon="121.51298612019448">
        <ele>7.0818409053608775</ele>
        <time>2026-08-01T01:47:37Z</time>
        <extensions>
          <gpxtpx:TrackPointExtension>
            <gpxtpx:hr>147</gpxtpx:hr>
          </gpxtpx:TrackPointExtension>
        </extensions>
      </trkpt>
      <trkpt lat="38.83418633608427" lon="121.51262118172035">
        <ele>8.318015086464584</ele>
        <time>2026-08-01T01:47:50Z</time>
        <extensions>
          <gpxtpx:TrackPointExtension>
            <gpxtpx:hr>150</gpxtpx:hr>
          </gpxtpx:TrackPointExtension>
        </extensions>
      </trkpt>
      <trkpt lat="38.834300910657674" lon="121.51228221044794">
        <ele>8.20094374474138</ele>
        <time>2026-08-01T01:48:02Z</time>
        <extensions>
          <gpxtpx:TrackPointExtension>
            <gpxtpx:hr>151</gpxtpx:hr>
          </gpxtpx:TrackPointExtension>
        </extensions>
      </trkpt>
      <trkpt lat="38.834423878903294" lon="121.51195514621017">
        <ele>8.167368377558887</ele>
        <time>2026-08-01T01:48:14Z</time>
        <extensions>
          <gpxtpx:TrackPointExtension>
            <gpxtpx:hr>153</gpxtpx:hr>
          </gpxtpx:TrackPointExtension>
        </extensions>
      </trkpt>
      <trkpt lat="38.83449224965421" lon="121.51170678402171">
        <ele>7.302494210191071</ele>
        <time>2026-08-01T01:48:23Z</time>
        <extensions>
          <gpxtpx:TrackPointExtension>
            <gpxtpx:hr>152</gpxtpx:hr>
          </gpxtpx:TrackPointExtension>
        </extensions>
      </trkpt>
      <trkpt lat="38.83460836214417" lon="121.51138186794033">
        <ele>7.427217044867575</ele>
        <time>2026-08-01T01:48:35Z</time>
        <extensions>
          <gpxtpx:TrackPointExtension>
            <gpxtpx:hr>152</gpxtpx:hr>
          </gpxtpx:TrackPointExtension>
        </extensions>
      </trkpt>
      <trkpt lat="38.83470962572929" lon="121.51104475804286">
        <ele>7.863267419859767</ele>
        <time>2026-08-01T01:48:47Z</time>
        <extensions>
          <gpxtpx:TrackPointExtension>
            <gpxtpx:hr>149</gpxtpx:hr>
          </gpxtpx:TrackPointExtension>
        </extensions>
      </trkpt>
      <trkpt lat="38.83482903622809" lon="121.510707977964">
        <ele>8.715006003156304</ele>
        <time>2026-08-01T01:48:59Z</time>
        <extensions>
          <gpxtpx:TrackPointExtension>
            <gpxtpx:hr>150</gpxtpx:hr>
          </gpxtpx:TrackPointExtension>
        </extensions>
      </trkpt>
      <trkpt lat="38.83494226400078" lon="121.51036919186025">
        <ele>8.240964372642338</ele>
        <time>2026-08-01T01:49:11Z</time>
        <extensions>
          <gpxtpx:TrackPointExtension>
            <gpxtpx:hr>153</gpxtpx:hr>
          </gpxtpx:TrackPointExtension>
        </extensions>
      </trkpt>
      <trkpt lat="38.835055145413016" lon="121.51003702912793">
        <ele>8.98477543797344</ele>
        <time>2026-08-01T01:49:23Z</time>
        <extensions>
          <gpxtpx:TrackPointExtension>
            <gpxtpx:hr>155</gpxtpx:hr>
          </gpxtpx:TrackPointExtension>
        </extensions>
      </trkpt>
      <trkpt lat="38.83509063546065" lon="121.50995561974864">
        <ele>9.306330063380301</ele>
        <time>2026-08-01T01:49:26Z</time>
        <extensions>
          <gpxtpx:TrackPointExtension>
            <gpxtpx:hr>154</gpxtpx:hr>
          </gpxtpx:TrackPointExtension>
        </extensions>
      </trkpt>
      <trkpt lat="38.83518380779507" lon="121.50962348142137">
        <ele>9.019555232487619</ele>
        <time>2026-08-01T01:49:38Z</time>
        <extensions>
          <gpxtpx:TrackPointExtension>
            <gpxtpx:hr>154</gpxtpx:hr>
          </gpxtpx:TrackPointExtension>
        </extensions>
      </trkpt>
      <trkpt lat="38.8352266359259" lon="121.50953501416735">
        <ele>8.502340414561331</ele>
        <time>2026-08-01T01:49:41Z</time>
        <extensions>
          <gpxtpx:TrackPointExtension>
            <gpxtpx:hr>154</gpxtpx:hr>
          </gpxtpx:TrackPointExtension>
        </extensions>
      </trkpt>
      <trkpt lat="38.835249207771824" lon="121.50940655228332">
        <ele>6.434246886521578</ele>
        <time>2026-08-01T01:49:45Z</time>
        <extensions>
          <gpxtpx:TrackPointExtension>
            <gpxtpx:hr>154</gpxtpx:hr>
          </gpxtpx:TrackPointExtension>
        </extensions>
      </trkpt>
      <trkpt lat="38.835414621035675" lon="121.5090182489698">
        <ele>7.003301810473204</ele>
        <time>2026-08-01T01:50:00Z</time>
        <extensions>
          <gpxtpx:TrackPointExtension>
            <gpxtpx:hr>153</gpxtpx:hr>
          </gpxtpx:TrackPointExtension>
        </extensions>
      </trkpt>
      <trkpt lat="38.83547136749258" lon="121.50885293073075">
        <ele>9.499814038164914</ele>
        <time>2026-08-01T01:50:06Z</time>
        <extensions>
          <gpxtpx:TrackPointExtension>
            <gpxtpx:hr>155</gpxtpx:hr>
          </gpxtpx:TrackPointExtension>
        </extensions>
      </trkpt>
      <trkpt lat="38.83547691669436" lon="121.50877048851805">
        <ele>10.740889618173242</ele>
        <time>2026-08-01T01:50:09Z</time>
        <extensions>
          <gpxtpx:TrackPointExtension>
            <gpxtpx:hr>155</gpxtpx:hr>
          </gpxtpx:TrackPointExtension>
        </extensions>
      </trkpt>
      <trkpt lat="38.83560480473979" lon="121.50844651256865">
        <ele>9.350350159220397</ele>
        <time>2026-08-01T01:50:21Z</time>
        <extensions>
          <gpxtpx:TrackPointExtension>
            <gpxtpx:hr>153</gpxtpx:hr>
          </gpxtpx:TrackPointExtension>
        </extensions>
      </trkpt>
      <trkpt lat="38.83569493524061" lon="121.50811185618113">
        <ele>9.842650325037539</ele>
        <time>2026-08-01T01:50:33Z</time>
        <extensions>
          <gpxtpx:TrackPointExtension>
            <gpxtpx:hr>155</gpxtpx:hr>
          </gpxtpx:TrackPointExtension>
        </extensions>
      </trkpt>
      <trkpt lat="38.835826663339084" lon="121.50776399565078">
        <ele>8.925350675359368</ele>
        <time>2026-08-01T01:50:45Z</time>
        <extensions>
          <gpxtpx:TrackPointExtension>
            <gpxtpx:hr>155</gpxtpx:hr>
          </gpxtpx:TrackPointExtension>
        </extensions>
      </trkpt>
      <trkpt lat="38.83592993116726" lon="121.50742839907944">
        <ele>9.410693479701877</ele>
        <time>2026-08-01T01:50:57Z</time>
        <extensions>
          <gpxtpx:TrackPointExtension>
            <gpxtpx:hr>158</gpxtpx:hr>
          </gpxtpx:TrackPointExtension>
        </extensions>
      </trkpt>
      <trkpt lat="38.836048858479124" lon="121.50709092445967">
        <ele>8.785925040952861</ele>
        <time>2026-08-01T01:51:09Z</time>
        <extensions>
          <gpxtpx:TrackPointExtension>
            <gpxtpx:hr>158</gpxtpx:hr>
          </gpxtpx:TrackPointExtension>
        </extensions>
      </trkpt>
      <trkpt lat="38.836076219260605" lon="121.50699933694263">
        <ele>8.962114611640573</ele>
        <time>2026-08-01T01:51:12Z</time>
        <extensions>
          <gpxtpx:TrackPointExtension>
            <gpxtpx:hr>158</gpxtpx:hr>
          </gpxtpx:TrackPointExtension>
        </extensions>
      </trkpt>
      <trkpt lat="38.83611708680747" lon="121.50697446490297">
        <ele>9.706475499086082</ele>
        <time>2026-08-01T01:51:21Z</time>
      </trkpt>
      <trkpt lat="38.83617842934901" lon="121.50681173490158">
        <ele>7.570175562985241</ele>
        <time>2026-08-01T01:51:33Z</time>
      </trkpt>
      <trkpt lat="38.836242202507854" lon="121.50681229333621">
        <ele>7.422393512912095</ele>
        <time>2026-08-01T01:51:36Z</time>
        <extensions>
          <gpxtpx:TrackPointExtension>
            <gpxtpx:hr>152</gpxtpx:hr>
          </gpxtpx:TrackPointExtension>
        </extensions>
      </trkpt>
      <trkpt lat="38.83646064470212" lon="121.50701003128916">
        <ele>7.787349690683186</ele>
        <time>2026-08-01T01:51:49Z</time>
        <extensions>
          <gpxtpx:TrackPointExtension>
            <gpxtpx:hr>152</gpxtpx:hr>
          </gpxtpx:TrackPointExtension>
        </extensions>
      </trkpt>
      <trkpt lat="38.83670939026634" lon="121.50718283817395">
        <ele>9.880047254264355</ele>
        <time>2026-08-01T01:52:01Z</time>
        <extensions>
          <gpxtpx:TrackPointExtension>
            <gpxtpx:hr>152</gpxtpx:hr>
          </gpxtpx:TrackPointExtension>
        </extensions>
      </trkpt>
      <trkpt lat="38.836775304990994" lon="121.50719109821445">
        <ele>9.741209930740297</ele>
        <time>2026-08-01T01:52:04Z</time>
        <extensions>
          <gpxtpx:TrackPointExtension>
            <gpxtpx:hr>152</gpxtpx:hr>
          </gpxtpx:TrackPointExtension>
        </extensions>
      </trkpt>
      <trkpt lat="38.83684342701823" lon="121.50714203293431">
        <ele>10.481019352562726</ele>
        <time>2026-08-01T01:52:07Z</time>
        <extensions>
          <gpxtpx:TrackPointExtension>
            <gpxtpx:hr>153</gpxtpx:hr>
          </gpxtpx:TrackPointExtension>
        </extensions>
      </trkpt>
      <trkpt lat="38.8369764573001" lon="121.50694862806075">
        <ele>11.247655957005918</ele>
        <time>2026-08-01T01:52:16Z</time>
        <extensions>
          <gpxtpx:TrackPointExtension>
            <gpxtpx:hr>153</gpxtpx:hr>
          </gpxtpx:TrackPointExtension>
        </extensions>
      </trkpt>
      <trkpt lat="38.836998689888965" lon="121.5068927571317">
        <ele>10.795962579548359</ele>
        <time>2026-08-01T01:52:19Z</time>
        <extensions>
          <gpxtpx:TrackPointExtension>
            <gpxtpx:hr>153</gpxtpx:hr>
          </gpxtpx:TrackPointExtension>
        </extensions>
      </trkpt>
      <trkpt lat="38.837102507134404" lon="121.50685513914927">
        <ele>10.318262657150626</ele>
        <time>2026-08-01T01:52:25Z</time>
        <extensions>
          <gpxtpx:TrackPointExtension>
            <gpxtpx:hr>155</gpxtpx:hr>
          </gpxtpx:TrackPointExtension>
        </extensions>
      </trkpt>
      <trkpt lat="38.837154144904886" lon="121.5067789868242">
        <ele>10.481628297828138</ele>
        <time>2026-08-01T01:52:28Z</time>
        <extensions>
          <gpxtpx:TrackPointExtension>
            <gpxtpx:hr>154</gpxtpx:hr>
          </gpxtpx:TrackPointExtension>
        </extensions>
      </trkpt>
      <trkpt lat="38.83725711121286" lon="121.50666048787349">
        <ele>10.579131631180644</ele>
        <time>2026-08-01T01:52:34Z</time>
        <extensions>
          <gpxtpx:TrackPointExtension>
            <gpxtpx:hr>156</gpxtpx:hr>
          </gpxtpx:TrackPointExtension>
        </extensions>
      </trkpt>
      <trkpt lat="38.837295588653085" lon="121.50658803711987">
        <ele>11.206040364690125</ele>
        <time>2026-08-01T01:52:37Z</time>
        <extensions>
          <gpxtpx:TrackPointExtension>
            <gpxtpx:hr>156</gpxtpx:hr>
          </gpxtpx:TrackPointExtension>
        </extensions>
      </trkpt>
      <trkpt lat="38.837351463703406" lon="121.50655197199598">
        <ele>9.944018570706248</ele>
        <time>2026-08-01T01:52:40Z</time>
        <extensions>
          <gpxtpx:TrackPointExtension>
            <gpxtpx:hr>156</gpxtpx:hr>
          </gpxtpx:TrackPointExtension>
        </extensions>
      </trkpt>
      <trkpt lat="38.83736126064569" lon="121.50648411438917">
        <ele>10.986534538678825</ele>
        <time>2026-08-01T01:52:43Z</time>
        <extensions>
          <gpxtpx:TrackPointExtension>
            <gpxtpx:hr>156</gpxtpx:hr>
          </gpxtpx:TrackPointExtension>
        </extensions>
      </trkpt>
      <trkpt lat="38.83736126064569" lon="121.50648411438917">
        <ele>10.986534538678825</ele>
        <time>2026-08-01T01:52:44Z</time>
        <extensions>
          <gpxtpx:TrackPointExtension>
            <gpxtpx:hr>156</gpxtpx:hr>
          </gpxtpx:TrackPointExtension>
        </extensions>
      </trkpt>
    </trkseg>
  </trk>
</gpx>