<?xml version="1.0" encoding="UTF-8"?>
<gpx xmlns="http://www.topografix.com/GPX/1/1" xmlns:gpxtpx="http://www.garmin.com/xmlschemas/TrackPointExtension/v1" xmlns:xsi="http://www.w3.org/2001/XMLSchema-instance" xsi:schemaLocation="http://www.topografix.com/GPX/1/1 http://www.topografix.com/GPX/1/1/gpx.xsd" version="1.1" creator="gpx.py -- https://github.com/tkrajina/gpxpy">
  <trk>
    <name>gpx from keep</name>
    <type>Run</type>
    <trkseg>
      <trkpt lat="38.836834180561645" lon="121.50473616287869">
        <ele>9.660879544226674</ele>
        <time>2026-07-14T01:48:38Z</time>
        <extensions>
          <gpxtpx:TrackPointExtension>
            <gpxtpx:hr>76</gpxtpx:hr>
          </gpxtpx:TrackPointExtension>
        </extensions>
      </trkpt>
      <trkpt lat="38.836808943974376" lon="121.50482125878005">
        <ele>9.704571017064154</ele>
        <time>2026-07-14T01:48:44Z</time>
        <extensions>
          <gpxtpx:TrackPointExtension>
            <gpxtpx:hr>76</gpxtpx:hr>
          </gpxtpx:TrackPointExtension>
        </extensions>
      </trkpt>
      <trkpt lat="38.83674460176623" lon="121.50491271347283">
        <ele>9.069400047883391</ele>
        <time>2026-07-14T01:48:51Z</time>
        <extensions>
          <gpxtpx:TrackPointExtension>
            <gpxtpx:hr>76</gpxtpx:hr>
          </gpxtpx:TrackPointExtension>
        </extensions>
      </trkpt>
      <trkpt lat="38.836690102155515" lon="121.50510428046891">
        <ele>8.91519095376134</ele>
        <time>2026-07-14T01:48:59Z</time>
        <extensions>
          <gpxtpx:TrackPointExtension>
            <gpxtpx:hr>76</gpxtpx:hr>
          </gpxtpx:TrackPointExtension>
        </extensions>
      </trkpt>
      <trkpt lat="38.8366835233356" lon="121.50520001275382">
        <ele>10.7885672301054</ele>
        <time>2026-07-14T01:49:03Z</time>
      </trkpt>
      <trkpt lat="38.836634866475436" lon="121.50533850470596">
        <ele>10.833583164960146</ele>
        <time>2026-07-14T01:49:09Z</time>
      </trkpt>
      <trkpt lat="38.83660048244766" lon="121.5054745109121">
        <ele>11.45474134478718</ele>
        <time>2026-07-14T01:49:15Z</time>
      </trkpt>
      <trkpt lat="38.83652302832904" lon="121.50561002067633">
        <ele>10.18538467399776</ele>
        <time>2026-07-14T01:49:21Z</time>
      </trkpt>
      <trkpt lat="38.83645366249057" lon="121.50582924905977">
        <ele>9.774233634583652</ele>
        <time>2026-07-14T01:49:30Z</time>
      </trkpt>
      <trkpt lat="38.83642147502766" lon="121.50588868920097">
        <ele>11.020744216628373</ele>
        <time>2026-07-14T01:49:33Z</time>
      </trkpt>
      <trkpt lat="38.83631680401995" lon="121.50625566367626">
        <ele>10.177874728105962</ele>
        <time>2026-07-14T01:49:48Z</time>
        <extensions>
          <gpxtpx:TrackPointExtension>
            <gpxtpx:hr>119</gpxtpx:hr>
          </gpxtpx:TrackPointExtension>
        </extensions>
      </trkpt>
      <trkpt lat="38.83619099188866" lon="121.50660326444395">
        <ele>10.272057556547225</ele>
        <time>2026-07-14T01:50:03Z</time>
        <extensions>
          <gpxtpx:TrackPointExtension>
            <gpxtpx:hr>117</gpxtpx:hr>
          </gpxtpx:TrackPointExtension>
        </extensions>
      </trkpt>
      <trkpt lat="38.83612290693475" lon="121.50691547026848">
        <ele>9.307876383885741</ele>
        <time>2026-07-14T01:50:21Z</time>
        <extensions>
          <gpxtpx:TrackPointExtension>
            <gpxtpx:hr>120</gpxtpx:hr>
          </gpxtpx:TrackPointExtension>
        </extensions>
      </trkpt>
      <trkpt lat="38.836016231173325" lon="121.50712463549175">
        <ele>10.251845065504313</ele>
        <time>2026-07-14T01:50:33Z</time>
        <extensions>
          <gpxtpx:TrackPointExtension>
            <gpxtpx:hr>118</gpxtpx:hr>
          </gpxtpx:TrackPointExtension>
        </extensions>
      </trkpt>
      <trkpt lat="38.83589975745356" lon="121.50751874705446">
        <ele>10.157469782046974</ele>
        <time>2026-07-14T01:50:47Z</time>
        <extensions>
          <gpxtpx:TrackPointExtension>
            <gpxtpx:hr>118</gpxtpx:hr>
          </gpxtpx:TrackPointExtension>
        </extensions>
      </trkpt>
      <trkpt lat="38.83575707113441" lon="121.50790928540724">
        <ele>9.950136030092835</ele>
        <time>2026-07-14T01:51:03Z</time>
        <extensions>
          <gpxtpx:TrackPointExtension>
            <gpxtpx:hr>121</gpxtpx:hr>
          </gpxtpx:TrackPointExtension>
        </extensions>
      </trkpt>
      <trkpt lat="38.83565608734033" lon="121.50823592181091">
        <ele>9.32933796569705</ele>
        <time>2026-07-14T01:51:15Z</time>
        <extensions>
          <gpxtpx:TrackPointExtension>
            <gpxtpx:hr>120</gpxtpx:hr>
          </gpxtpx:TrackPointExtension>
        </extensions>
      </trkpt>
      <trkpt lat="38.83552749458323" lon="121.50861629790171">
        <ele>9.949681263417006</ele>
        <time>2026-07-14T01:51:30Z</time>
        <extensions>
          <gpxtpx:TrackPointExtension>
            <gpxtpx:hr>122</gpxtpx:hr>
          </gpxtpx:TrackPointExtension>
        </extensions>
      </trkpt>
      <trkpt lat="38.83544926544563" lon="121.50883567249963">
        <ele>11.264544852077961</ele>
        <time>2026-07-14T01:51:39Z</time>
        <extensions>
          <gpxtpx:TrackPointExtension>
            <gpxtpx:hr>123</gpxtpx:hr>
          </gpxtpx:TrackPointExtension>
        </extensions>
      </trkpt>
      <trkpt lat="38.835407248424914" lon="121.50888295396612">
        <ele>11.746666547842324</ele>
        <time>2026-07-14T01:51:42Z</time>
        <extensions>
          <gpxtpx:TrackPointExtension>
            <gpxtpx:hr>126</gpxtpx:hr>
          </gpxtpx:TrackPointExtension>
        </extensions>
      </trkpt>
      <trkpt lat="38.83530617694317" lon="121.50922098140077">
        <ele>9.79332372918725</ele>
        <time>2026-07-14T01:51:54Z</time>
        <extensions>
          <gpxtpx:TrackPointExtension>
            <gpxtpx:hr>128</gpxtpx:hr>
          </gpxtpx:TrackPointExtension>
        </extensions>
      </trkpt>
      <trkpt lat="38.83525549348287" lon="121.50937522536059">
        <ele>9.816490972414613</ele>
        <time>2026-07-14T01:52:06Z</time>
        <extensions>
          <gpxtpx:TrackPointExtension>
            <gpxtpx:hr>131</gpxtpx:hr>
          </gpxtpx:TrackPointExtension>
        </extensions>
      </trkpt>
      <trkpt lat="38.83519110367178" lon="121.50943212099939">
        <ele>8.707020574249327</ele>
        <time>2026-07-14T01:52:12Z</time>
        <extensions>
          <gpxtpx:TrackPointExtension>
            <gpxtpx:hr>131</gpxtpx:hr>
          </gpxtpx:TrackPointExtension>
        </extensions>
      </trkpt>
      <trkpt lat="38.83508448112425" lon="121.50982376029248">
        <ele>7.943464724346995</ele>
        <time>2026-07-14T01:52:30Z</time>
        <extensions>
          <gpxtpx:TrackPointExtension>
            <gpxtpx:hr>125</gpxtpx:hr>
          </gpxtpx:TrackPointExtension>
        </extensions>
      </trkpt>
      <trkpt lat="38.834984570599374" lon="121.51008750762368">
        <ele>8.500425092875957</ele>
        <time>2026-07-14T01:52:39Z</time>
        <extensions>
          <gpxtpx:TrackPointExtension>
            <gpxtpx:hr>128</gpxtpx:hr>
          </gpxtpx:TrackPointExtension>
        </extensions>
      </trkpt>
      <trkpt lat="38.83488771276081" lon="121.51036121555907">
        <ele>8.716911820694804</ele>
        <time>2026-07-14T01:52:49Z</time>
        <extensions>
          <gpxtpx:TrackPointExtension>
            <gpxtpx:hr>127</gpxtpx:hr>
          </gpxtpx:TrackPointExtension>
        </extensions>
      </trkpt>
      <trkpt lat="38.83486712688233" lon="121.51047393876932">
        <ele>8.755188922397792</ele>
        <time>2026-07-14T01:52:53Z</time>
        <extensions>
          <gpxtpx:TrackPointExtension>
            <gpxtpx:hr>127</gpxtpx:hr>
          </gpxtpx:TrackPointExtension>
        </extensions>
      </trkpt>
      <trkpt lat="38.834829408435574" lon="121.51056986309163">
        <ele>8.109085259027779</ele>
        <time>2026-07-14T01:52:57Z</time>
        <extensions>
          <gpxtpx:TrackPointExtension>
            <gpxtpx:hr>129</gpxtpx:hr>
          </gpxtpx:TrackPointExtension>
        </extensions>
      </trkpt>
      <trkpt lat="38.83472357623034" lon="121.51089191118838">
        <ele>7.996114309877157</ele>
        <time>2026-07-14T01:53:09Z</time>
        <extensions>
          <gpxtpx:TrackPointExtension>
            <gpxtpx:hr>128</gpxtpx:hr>
          </gpxtpx:TrackPointExtension>
        </extensions>
      </trkpt>
      <trkpt lat="38.83470373910802" lon="121.51099770113593">
        <ele>7.956165861338377</ele>
        <time>2026-07-14T01:53:13Z</time>
        <extensions>
          <gpxtpx:TrackPointExtension>
            <gpxtpx:hr>129</gpxtpx:hr>
          </gpxtpx:TrackPointExtension>
        </extensions>
      </trkpt>
      <trkpt lat="38.834653631805" lon="121.51108863182411">
        <ele>8.292398505844176</ele>
        <time>2026-07-14T01:53:17Z</time>
        <extensions>
          <gpxtpx:TrackPointExtension>
            <gpxtpx:hr>129</gpxtpx:hr>
          </gpxtpx:TrackPointExtension>
        </extensions>
      </trkpt>
      <trkpt lat="38.83458974782915" lon="121.51137673506264">
        <ele>7.771385113708675</ele>
        <time>2026-07-14T01:53:28Z</time>
        <extensions>
          <gpxtpx:TrackPointExtension>
            <gpxtpx:hr>129</gpxtpx:hr>
          </gpxtpx:TrackPointExtension>
        </extensions>
      </trkpt>
      <trkpt lat="38.83447065856135" lon="121.51169025537469">
        <ele>7.1169662941247225</ele>
        <time>2026-07-14T01:53:40Z</time>
        <extensions>
          <gpxtpx:TrackPointExtension>
            <gpxtpx:hr>127</gpxtpx:hr>
          </gpxtpx:TrackPointExtension>
        </extensions>
      </trkpt>
      <trkpt lat="38.834404824704855" lon="121.51192420042948">
        <ele>7.926831656135619</ele>
        <time>2026-07-14T01:53:49Z</time>
        <extensions>
          <gpxtpx:TrackPointExtension>
            <gpxtpx:hr>127</gpxtpx:hr>
          </gpxtpx:TrackPointExtension>
        </extensions>
      </trkpt>
      <trkpt lat="38.83428759623053" lon="121.51221960089906">
        <ele>8.67180298641324</ele>
        <time>2026-07-14T01:54:01Z</time>
        <extensions>
          <gpxtpx:TrackPointExtension>
            <gpxtpx:hr>130</gpxtpx:hr>
          </gpxtpx:TrackPointExtension>
        </extensions>
      </trkpt>
      <trkpt lat="38.83427580356413" lon="121.51230738930482">
        <ele>8.611337017267942</ele>
        <time>2026-07-14T01:54:04Z</time>
        <extensions>
          <gpxtpx:TrackPointExtension>
            <gpxtpx:hr>132</gpxtpx:hr>
          </gpxtpx:TrackPointExtension>
        </extensions>
      </trkpt>
      <trkpt lat="38.834167331641794" lon="121.51261947791672">
        <ele>8.01332725211978</ele>
        <time>2026-07-14T01:54:16Z</time>
        <extensions>
          <gpxtpx:TrackPointExtension>
            <gpxtpx:hr>133</gpxtpx:hr>
          </gpxtpx:TrackPointExtension>
        </extensions>
      </trkpt>
      <trkpt lat="38.83412832794912" lon="121.51269449877199">
        <ele>8.541913817636669</ele>
        <time>2026-07-14T01:54:19Z</time>
        <extensions>
          <gpxtpx:TrackPointExtension>
            <gpxtpx:hr>135</gpxtpx:hr>
          </gpxtpx:TrackPointExtension>
        </extensions>
      </trkpt>
      <trkpt lat="38.834024598937646" lon="121.51300496096404">
        <ele>8.998194397427142</ele>
        <time>2026-07-14T01:54:31Z</time>
        <extensions>
          <gpxtpx:TrackPointExtension>
            <gpxtpx:hr>135</gpxtpx:hr>
          </gpxtpx:TrackPointExtension>
        </extensions>
      </trkpt>
      <trkpt lat="38.83401374497982" lon="121.51309853743254">
        <ele>9.388360273092985</ele>
        <time>2026-07-14T01:54:34Z</time>
        <extensions>
          <gpxtpx:TrackPointExtension>
            <gpxtpx:hr>136</gpxtpx:hr>
          </gpxtpx:TrackPointExtension>
        </extensions>
      </trkpt>
      <trkpt lat="38.833938582229834" lon="121.51334236818398">
        <ele>7.572939932346344</ele>
        <time>2026-07-14T01:54:43Z</time>
        <extensions>
          <gpxtpx:TrackPointExtension>
            <gpxtpx:hr>137</gpxtpx:hr>
          </gpxtpx:TrackPointExtension>
        </extensions>
      </trkpt>
      <trkpt lat="38.83389941881416" lon="121.51340706135824">
        <ele>6.902190201915801</ele>
        <time>2026-07-14T01:54:46Z</time>
        <extensions>
          <gpxtpx:TrackPointExtension>
            <gpxtpx:hr>137</gpxtpx:hr>
          </gpxtpx:TrackPointExtension>
        </extensions>
      </trkpt>
      <trkpt lat="38.83388593130242" lon="121.5134893418728">
        <ele>7.388423425145447</ele>
        <time>2026-07-14T01:54:49Z</time>
        <extensions>
          <gpxtpx:TrackPointExtension>
            <gpxtpx:hr>139</gpxtpx:hr>
          </gpxtpx:TrackPointExtension>
        </extensions>
      </trkpt>
      <trkpt lat="38.833843065292626" lon="121.51356419594788">
        <ele>6.103535586968064</ele>
        <time>2026-07-14T01:54:52Z</time>
        <extensions>
          <gpxtpx:TrackPointExtension>
            <gpxtpx:hr>139</gpxtpx:hr>
          </gpxtpx:TrackPointExtension>
        </extensions>
      </trkpt>
      <trkpt lat="38.833736517432335" lon="121.51389186872706">
        <ele>7.583267931826413</ele>
        <time>2026-07-14T01:55:04Z</time>
        <extensions>
          <gpxtpx:TrackPointExtension>
            <gpxtpx:hr>141</gpxtpx:hr>
          </gpxtpx:TrackPointExtension>
        </extensions>
      </trkpt>
      <trkpt lat="38.83363031344709" lon="121.51421864158786">
        <ele>7.111679689958692</ele>
        <time>2026-07-14T01:55:16Z</time>
        <extensions>
          <gpxtpx:TrackPointExtension>
            <gpxtpx:hr>143</gpxtpx:hr>
          </gpxtpx:TrackPointExtension>
        </extensions>
      </trkpt>
      <trkpt lat="38.83360913717298" lon="121.51433024708727">
        <ele>6.824863560497761</ele>
        <time>2026-07-14T01:55:20Z</time>
        <extensions>
          <gpxtpx:TrackPointExtension>
            <gpxtpx:hr>144</gpxtpx:hr>
          </gpxtpx:TrackPointExtension>
        </extensions>
      </trkpt>
      <trkpt lat="38.833508868413816" lon="121.51454731001438">
        <ele>6.67227859608829</ele>
        <time>2026-07-14T01:55:28Z</time>
        <extensions>
          <gpxtpx:TrackPointExtension>
            <gpxtpx:hr>143</gpxtpx:hr>
          </gpxtpx:TrackPointExtension>
        </extensions>
      </trkpt>
      <trkpt lat="38.83341871350638" lon="121.51483839149252">
        <ele>6.688672953285277</ele>
        <time>2026-07-14T01:55:38Z</time>
        <extensions>
          <gpxtpx:TrackPointExtension>
            <gpxtpx:hr>144</gpxtpx:hr>
          </gpxtpx:TrackPointExtension>
        </extensions>
      </trkpt>
      <trkpt lat="38.833407404888106" lon="121.51491587147672">
        <ele>5.936087541282177</ele>
        <time>2026-07-14T01:55:41Z</time>
        <extensions>
          <gpxtpx:TrackPointExtension>
            <gpxtpx:hr>145</gpxtpx:hr>
          </gpxtpx:TrackPointExtension>
        </extensions>
      </trkpt>
      <trkpt lat="38.83327198095588" lon="121.51525655034514">
        <ele>6.818546705879271</ele>
        <time>2026-07-14T01:55:53Z</time>
        <extensions>
          <gpxtpx:TrackPointExtension>
            <gpxtpx:hr>145</gpxtpx:hr>
          </gpxtpx:TrackPointExtension>
        </extensions>
      </trkpt>
      <trkpt lat="38.83315293967551" lon="121.5156285534026">
        <ele>5.580390169285238</ele>
        <time>2026-07-14T01:56:08Z</time>
        <extensions>
          <gpxtpx:TrackPointExtension>
            <gpxtpx:hr>147</gpxtpx:hr>
          </gpxtpx:TrackPointExtension>
        </extensions>
      </trkpt>
      <trkpt lat="38.833120957276435" lon="121.51577931479126">
        <ele>5.566445988602936</ele>
        <time>2026-07-14T01:56:14Z</time>
        <extensions>
          <gpxtpx:TrackPointExtension>
            <gpxtpx:hr>143</gpxtpx:hr>
          </gpxtpx:TrackPointExtension>
        </extensions>
      </trkpt>
      <trkpt lat="38.832968356330845" lon="121.51614149931557">
        <ele>7.302499055862427</ele>
        <time>2026-07-14T01:56:29Z</time>
        <extensions>
          <gpxtpx:TrackPointExtension>
            <gpxtpx:hr>142</gpxtpx:hr>
          </gpxtpx:TrackPointExtension>
        </extensions>
      </trkpt>
      <trkpt lat="38.83292041631907" lon="121.51629608317873">
        <ele>6.585834442637861</ele>
        <time>2026-07-14T01:56:35Z</time>
        <extensions>
          <gpxtpx:TrackPointExtension>
            <gpxtpx:hr>142</gpxtpx:hr>
          </gpxtpx:TrackPointExtension>
        </extensions>
      </trkpt>
      <trkpt lat="38.8327567841576" lon="121.5166484366357">
        <ele>5.91504645254463</ele>
        <time>2026-07-14T01:56:50Z</time>
        <extensions>
          <gpxtpx:TrackPointExtension>
            <gpxtpx:hr>142</gpxtpx:hr>
          </gpxtpx:TrackPointExtension>
        </extensions>
      </trkpt>
      <trkpt lat="38.83269346918177" lon="121.51668580286311">
        <ele>6.7830626424402</ele>
        <time>2026-07-14T01:56:53Z</time>
        <extensions>
          <gpxtpx:TrackPointExtension>
            <gpxtpx:hr>143</gpxtpx:hr>
          </gpxtpx:TrackPointExtension>
        </extensions>
      </trkpt>
      <trkpt lat="38.83237010741673" lon="121.51672645850483">
        <ele>6.2258892469108105</ele>
        <time>2026-07-14T01:57:07Z</time>
        <extensions>
          <gpxtpx:TrackPointExtension>
            <gpxtpx:hr>146</gpxtpx:hr>
          </gpxtpx:TrackPointExtension>
        </extensions>
      </trkpt>
      <trkpt lat="38.83227399103928" lon="121.51675182062357">
        <ele>6.748523905873299</ele>
        <time>2026-07-14T01:57:11Z</time>
        <extensions>
          <gpxtpx:TrackPointExtension>
            <gpxtpx:hr>146</gpxtpx:hr>
          </gpxtpx:TrackPointExtension>
        </extensions>
      </trkpt>
      <trkpt lat="38.83209589245411" lon="121.51673371698844">
        <ele>5.835097836330533</ele>
        <time>2026-07-14T01:57:19Z</time>
        <extensions>
          <gpxtpx:TrackPointExtension>
            <gpxtpx:hr>147</gpxtpx:hr>
          </gpxtpx:TrackPointExtension>
        </extensions>
      </trkpt>
      <trkpt lat="38.8318042263228" lon="121.51665852147724">
        <ele>5.548957797698677</ele>
        <time>2026-07-14T01:57:31Z</time>
        <extensions>
          <gpxtpx:TrackPointExtension>
            <gpxtpx:hr>148</gpxtpx:hr>
          </gpxtpx:TrackPointExtension>
        </extensions>
      </trkpt>
      <trkpt lat="38.831734688904945" lon="121.5166227789685">
        <ele>6.676869007758796</ele>
        <time>2026-07-14T01:57:35Z</time>
        <extensions>
          <gpxtpx:TrackPointExtension>
            <gpxtpx:hr>148</gpxtpx:hr>
          </gpxtpx:TrackPointExtension>
        </extensions>
      </trkpt>
      <trkpt lat="38.831680001280056" lon="121.51656581954406">
        <ele>6.142686469480395</ele>
        <time>2026-07-14T01:57:38Z</time>
        <extensions>
          <gpxtpx:TrackPointExtension>
            <gpxtpx:hr>149</gpxtpx:hr>
          </gpxtpx:TrackPointExtension>
        </extensions>
      </trkpt>
      <trkpt lat="38.83155850359829" lon="121.51652840097225">
        <ele>6.246698951348662</ele>
        <time>2026-07-14T01:57:44Z</time>
        <extensions>
          <gpxtpx:TrackPointExtension>
            <gpxtpx:hr>146</gpxtpx:hr>
          </gpxtpx:TrackPointExtension>
        </extensions>
      </trkpt>
      <trkpt lat="38.83152551947572" lon="121.51645741070416">
        <ele>6.060262126848102</ele>
        <time>2026-07-14T01:57:51Z</time>
        <extensions>
          <gpxtpx:TrackPointExtension>
            <gpxtpx:hr>143</gpxtpx:hr>
          </gpxtpx:TrackPointExtension>
        </extensions>
      </trkpt>
      <trkpt lat="38.831457953083046" lon="121.51640571633408">
        <ele>7.459676864556968</ele>
        <time>2026-07-14T01:57:57Z</time>
        <extensions>
          <gpxtpx:TrackPointExtension>
            <gpxtpx:hr>141</gpxtpx:hr>
          </gpxtpx:TrackPointExtension>
        </extensions>
      </trkpt>
      <trkpt lat="38.83143141434418" lon="121.51632283035656">
        <ele>5.874250522814691</ele>
        <time>2026-07-14T01:58:03Z</time>
        <extensions>
          <gpxtpx:TrackPointExtension>
            <gpxtpx:hr>140</gpxtpx:hr>
          </gpxtpx:TrackPointExtension>
        </extensions>
      </trkpt>
      <trkpt lat="38.83129600384328" lon="121.51616028463827">
        <ele>6.276189488358796</ele>
        <time>2026-07-14T01:58:12Z</time>
        <extensions>
          <gpxtpx:TrackPointExtension>
            <gpxtpx:hr>136</gpxtpx:hr>
          </gpxtpx:TrackPointExtension>
        </extensions>
      </trkpt>
      <trkpt lat="38.83109631758156" lon="121.51601582173477">
        <ele>6.8364206831902266</ele>
        <time>2026-07-14T01:58:21Z</time>
        <extensions>
          <gpxtpx:TrackPointExtension>
            <gpxtpx:hr>133</gpxtpx:hr>
          </gpxtpx:TrackPointExtension>
        </extensions>
      </trkpt>
      <trkpt lat="38.83104093782924" lon="121.51601577638542">
        <ele>6.825344925746322</ele>
        <time>2026-07-14T01:58:24Z</time>
        <extensions>
          <gpxtpx:TrackPointExtension>
            <gpxtpx:hr>133</gpxtpx:hr>
          </gpxtpx:TrackPointExtension>
        </extensions>
      </trkpt>
      <trkpt lat="38.83086634715212" lon="121.515848660631">
        <ele>5.594106930308044</ele>
        <time>2026-07-14T01:58:33Z</time>
        <extensions>
          <gpxtpx:TrackPointExtension>
            <gpxtpx:hr>137</gpxtpx:hr>
          </gpxtpx:TrackPointExtension>
        </extensions>
      </trkpt>
      <trkpt lat="38.83079056215179" lon="121.51580958612027">
        <ele>5.942443576641381</ele>
        <time>2026-07-14T01:58:36Z</time>
        <extensions>
          <gpxtpx:TrackPointExtension>
            <gpxtpx:hr>137</gpxtpx:hr>
          </gpxtpx:TrackPointExtension>
        </extensions>
      </trkpt>
      <trkpt lat="38.83072071627038" lon="121.51582231062453">
        <ele>6.489810662344098</ele>
        <time>2026-07-14T01:58:39Z</time>
        <extensions>
          <gpxtpx:TrackPointExtension>
            <gpxtpx:hr>140</gpxtpx:hr>
          </gpxtpx:TrackPointExtension>
        </extensions>
      </trkpt>
      <trkpt lat="38.83059306367819" lon="121.51573236607916">
        <ele>7.035004576668143</ele>
        <time>2026-07-14T01:58:45Z</time>
        <extensions>
          <gpxtpx:TrackPointExtension>
            <gpxtpx:hr>140</gpxtpx:hr>
          </gpxtpx:TrackPointExtension>
        </extensions>
      </trkpt>
      <trkpt lat="38.830297924388624" lon="121.51562005196861">
        <ele>6.943368154577911</ele>
        <time>2026-07-14T01:58:57Z</time>
        <extensions>
          <gpxtpx:TrackPointExtension>
            <gpxtpx:hr>144</gpxtpx:hr>
          </gpxtpx:TrackPointExtension>
        </extensions>
      </trkpt>
      <trkpt lat="38.830244057427976" lon="121.51553112875852">
        <ele>5.919400067999959</ele>
        <time>2026-07-14T01:59:00Z</time>
        <extensions>
          <gpxtpx:TrackPointExtension>
            <gpxtpx:hr>144</gpxtpx:hr>
          </gpxtpx:TrackPointExtension>
        </extensions>
      </trkpt>
      <trkpt lat="38.8301805968612" lon="121.51557251697146">
        <ele>7.685083112679422</ele>
        <time>2026-07-14T01:59:03Z</time>
        <extensions>
          <gpxtpx:TrackPointExtension>
            <gpxtpx:hr>144</gpxtpx:hr>
          </gpxtpx:TrackPointExtension>
        </extensions>
      </trkpt>
      <trkpt lat="38.83012435332606" lon="121.51556655036853">
        <ele>6.053752375766635</ele>
        <time>2026-07-14T01:59:10Z</time>
        <extensions>
          <gpxtpx:TrackPointExtension>
            <gpxtpx:hr>146</gpxtpx:hr>
          </gpxtpx:TrackPointExtension>
        </extensions>
      </trkpt>
      <trkpt lat="38.830042712143666" lon="121.51547387192944">
        <ele>4.69824846368283</ele>
        <time>2026-07-14T01:59:22Z</time>
        <extensions>
          <gpxtpx:TrackPointExtension>
            <gpxtpx:hr>147</gpxtpx:hr>
          </gpxtpx:TrackPointExtension>
        </extensions>
      </trkpt>
      <trkpt lat="38.830005169238696" lon="121.51536288971393">
        <ele>5.02298157196492</ele>
        <time>2026-07-14T01:59:26Z</time>
        <extensions>
          <gpxtpx:TrackPointExtension>
            <gpxtpx:hr>145</gpxtpx:hr>
          </gpxtpx:TrackPointExtension>
        </extensions>
      </trkpt>
      <trkpt lat="38.830017788678994" lon="121.51525905557433">
        <ele>5.130400243215263</ele>
        <time>2026-07-14T01:59:30Z</time>
        <extensions>
          <gpxtpx:TrackPointExtension>
            <gpxtpx:hr>145</gpxtpx:hr>
          </gpxtpx:TrackPointExtension>
        </extensions>
      </trkpt>
      <trkpt lat="38.83012706847203" lon="121.51514262749113">
        <ele>4.923289638012648</ele>
        <time>2026-07-14T01:59:40Z</time>
        <extensions>
          <gpxtpx:TrackPointExtension>
            <gpxtpx:hr>141</gpxtpx:hr>
          </gpxtpx:TrackPointExtension>
        </extensions>
      </trkpt>
      <trkpt lat="38.830376311928845" lon="121.51528267552466">
        <ele>7.036105156876147</ele>
        <time>2026-07-14T01:59:52Z</time>
        <extensions>
          <gpxtpx:TrackPointExtension>
            <gpxtpx:hr>137</gpxtpx:hr>
          </gpxtpx:TrackPointExtension>
        </extensions>
      </trkpt>
      <trkpt lat="38.83063960389573" lon="121.51546240589325">
        <ele>6.621526321396232</ele>
        <time>2026-07-14T02:00:04Z</time>
        <extensions>
          <gpxtpx:TrackPointExtension>
            <gpxtpx:hr>139</gpxtpx:hr>
          </gpxtpx:TrackPointExtension>
        </extensions>
      </trkpt>
      <trkpt lat="38.83088921472501" lon="121.51564542849506">
        <ele>5.990769515745342</ele>
        <time>2026-07-14T02:00:16Z</time>
        <extensions>
          <gpxtpx:TrackPointExtension>
            <gpxtpx:hr>140</gpxtpx:hr>
          </gpxtpx:TrackPointExtension>
        </extensions>
      </trkpt>
      <trkpt lat="38.83113630545379" lon="121.51581977327207">
        <ele>5.728608340024948</ele>
        <time>2026-07-14T02:00:28Z</time>
        <extensions>
          <gpxtpx:TrackPointExtension>
            <gpxtpx:hr>142</gpxtpx:hr>
          </gpxtpx:TrackPointExtension>
        </extensions>
      </trkpt>
      <trkpt lat="38.83138324768105" lon="121.5160051755345">
        <ele>6.272868029773235</ele>
        <time>2026-07-14T02:00:40Z</time>
        <extensions>
          <gpxtpx:TrackPointExtension>
            <gpxtpx:hr>145</gpxtpx:hr>
          </gpxtpx:TrackPointExtension>
        </extensions>
      </trkpt>
      <trkpt lat="38.83158365166947" lon="121.51613710667014">
        <ele>5.5362266302108765</ele>
        <time>2026-07-14T02:00:49Z</time>
        <extensions>
          <gpxtpx:TrackPointExtension>
            <gpxtpx:hr>145</gpxtpx:hr>
          </gpxtpx:TrackPointExtension>
        </extensions>
      </trkpt>
      <trkpt lat="38.831794993843864" lon="121.51615835491178">
        <ele>5.325018681585789</ele>
        <time>2026-07-14T02:00:58Z</time>
        <extensions>
          <gpxtpx:TrackPointExtension>
            <gpxtpx:hr>147</gpxtpx:hr>
          </gpxtpx:TrackPointExtension>
        </extensions>
      </trkpt>
      <trkpt lat="38.831863220277505" lon="121.51619910111377">
        <ele>5.905129261314869</ele>
        <time>2026-07-14T02:01:01Z</time>
        <extensions>
          <gpxtpx:TrackPointExtension>
            <gpxtpx:hr>147</gpxtpx:hr>
          </gpxtpx:TrackPointExtension>
        </extensions>
      </trkpt>
      <trkpt lat="38.832165926150594" lon="121.51622229273733">
        <ele>6.694420898333192</ele>
        <time>2026-07-14T02:01:14Z</time>
        <extensions>
          <gpxtpx:TrackPointExtension>
            <gpxtpx:hr>149</gpxtpx:hr>
          </gpxtpx:TrackPointExtension>
        </extensions>
      </trkpt>
      <trkpt lat="38.8323078865768" lon="121.51619042788666">
        <ele>6.830127814784646</ele>
        <time>2026-07-14T02:01:20Z</time>
        <extensions>
          <gpxtpx:TrackPointExtension>
            <gpxtpx:hr>149</gpxtpx:hr>
          </gpxtpx:TrackPointExtension>
        </extensions>
      </trkpt>
      <trkpt lat="38.83261222310664" lon="121.51601740283664">
        <ele>8.43944511283189</ele>
        <time>2026-07-14T02:01:34Z</time>
        <extensions>
          <gpxtpx:TrackPointExtension>
            <gpxtpx:hr>152</gpxtpx:hr>
          </gpxtpx:TrackPointExtension>
        </extensions>
      </trkpt>
      <trkpt lat="38.832782084473614" lon="121.51586789506734">
        <ele>9.98849999718368</ele>
        <time>2026-07-14T02:01:43Z</time>
        <extensions>
          <gpxtpx:TrackPointExtension>
            <gpxtpx:hr>150</gpxtpx:hr>
          </gpxtpx:TrackPointExtension>
        </extensions>
      </trkpt>
      <trkpt lat="38.83296469583871" lon="121.51559353298829">
        <ele>8.585460970178246</ele>
        <time>2026-07-14T02:01:55Z</time>
        <extensions>
          <gpxtpx:TrackPointExtension>
            <gpxtpx:hr>150</gpxtpx:hr>
          </gpxtpx:TrackPointExtension>
        </extensions>
      </trkpt>
      <trkpt lat="38.83300384959566" lon="121.51541182909233">
        <ele>8.947355036623776</ele>
        <time>2026-07-14T02:02:01Z</time>
        <extensions>
          <gpxtpx:TrackPointExtension>
            <gpxtpx:hr>153</gpxtpx:hr>
          </gpxtpx:TrackPointExtension>
        </extensions>
      </trkpt>
      <trkpt lat="38.83306231379003" lon="121.51534396156156">
        <ele>8.583445206284523</ele>
        <time>2026-07-14T02:02:04Z</time>
        <extensions>
          <gpxtpx:TrackPointExtension>
            <gpxtpx:hr>153</gpxtpx:hr>
          </gpxtpx:TrackPointExtension>
        </extensions>
      </trkpt>
      <trkpt lat="38.83312568841575" lon="121.51505920026986">
        <ele>7.784605511464179</ele>
        <time>2026-07-14T02:02:13Z</time>
        <extensions>
          <gpxtpx:TrackPointExtension>
            <gpxtpx:hr>153</gpxtpx:hr>
          </gpxtpx:TrackPointExtension>
        </extensions>
      </trkpt>
      <trkpt lat="38.83321270506141" lon="121.51490375229459">
        <ele>8.660027108155191</ele>
        <time>2026-07-14T02:02:19Z</time>
        <extensions>
          <gpxtpx:TrackPointExtension>
            <gpxtpx:hr>152</gpxtpx:hr>
          </gpxtpx:TrackPointExtension>
        </extensions>
      </trkpt>
      <trkpt lat="38.833248809667175" lon="121.51472265402815">
        <ele>8.248198481276631</ele>
        <time>2026-07-14T02:02:25Z</time>
        <extensions>
          <gpxtpx:TrackPointExtension>
            <gpxtpx:hr>153</gpxtpx:hr>
          </gpxtpx:TrackPointExtension>
        </extensions>
      </trkpt>
      <trkpt lat="38.83329891637742" lon="121.51456146497392">
        <ele>8.306194858625531</ele>
        <time>2026-07-14T02:02:31Z</time>
        <extensions>
          <gpxtpx:TrackPointExtension>
            <gpxtpx:hr>155</gpxtpx:hr>
          </gpxtpx:TrackPointExtension>
        </extensions>
      </trkpt>
      <trkpt lat="38.833341731418585" lon="121.51447524800962">
        <ele>8.736327216029167</ele>
        <time>2026-07-14T02:02:34Z</time>
        <extensions>
          <gpxtpx:TrackPointExtension>
            <gpxtpx:hr>155</gpxtpx:hr>
          </gpxtpx:TrackPointExtension>
        </extensions>
      </trkpt>
      <trkpt lat="38.83343616080914" lon="121.51413657461774">
        <ele>8.987079318612814</ele>
        <time>2026-07-14T02:02:46Z</time>
        <extensions>
          <gpxtpx:TrackPointExtension>
            <gpxtpx:hr>155</gpxtpx:hr>
          </gpxtpx:TrackPointExtension>
        </extensions>
      </trkpt>
      <trkpt lat="38.83354556662432" lon="121.51380446127246">
        <ele>8.610474039800465</ele>
        <time>2026-07-14T02:02:58Z</time>
        <extensions>
          <gpxtpx:TrackPointExtension>
            <gpxtpx:hr>156</gpxtpx:hr>
          </gpxtpx:TrackPointExtension>
        </extensions>
      </trkpt>
      <trkpt lat="38.83359037398224" lon="121.51373462017337">
        <ele>8.371087706647813</ele>
        <time>2026-07-14T02:03:01Z</time>
        <extensions>
          <gpxtpx:TrackPointExtension>
            <gpxtpx:hr>156</gpxtpx:hr>
          </gpxtpx:TrackPointExtension>
        </extensions>
      </trkpt>
      <trkpt lat="38.83370312748322" lon="121.51340660153717">
        <ele>8.186472425237298</ele>
        <time>2026-07-14T02:03:13Z</time>
        <extensions>
          <gpxtpx:TrackPointExtension>
            <gpxtpx:hr>156</gpxtpx:hr>
          </gpxtpx:TrackPointExtension>
        </extensions>
      </trkpt>
      <trkpt lat="38.83383222173122" lon="121.51300724808968">
        <ele>7.819102994166315</ele>
        <time>2026-07-14T02:03:28Z</time>
        <extensions>
          <gpxtpx:TrackPointExtension>
            <gpxtpx:hr>153</gpxtpx:hr>
          </gpxtpx:TrackPointExtension>
        </extensions>
      </trkpt>
      <trkpt lat="38.83388273650647" lon="121.51289863033068">
        <ele>7.831490766257048</ele>
        <time>2026-07-14T02:03:32Z</time>
        <extensions>
          <gpxtpx:TrackPointExtension>
            <gpxtpx:hr>155</gpxtpx:hr>
          </gpxtpx:TrackPointExtension>
        </extensions>
      </trkpt>
      <trkpt lat="38.83399094325925" lon="121.51257234358832">
        <ele>8.99994541425258</ele>
        <time>2026-07-14T02:03:44Z</time>
        <extensions>
          <gpxtpx:TrackPointExtension>
            <gpxtpx:hr>155</gpxtpx:hr>
          </gpxtpx:TrackPointExtension>
        </extensions>
      </trkpt>
      <trkpt lat="38.8341014501031" lon="121.51223037390612">
        <ele>9.438518941402435</ele>
        <time>2026-07-14T02:03:56Z</time>
        <extensions>
          <gpxtpx:TrackPointExtension>
            <gpxtpx:hr>155</gpxtpx:hr>
          </gpxtpx:TrackPointExtension>
        </extensions>
      </trkpt>
      <trkpt lat="38.83420456256128" lon="121.51191290648384">
        <ele>9.141077063977718</ele>
        <time>2026-07-14T02:04:08Z</time>
        <extensions>
          <gpxtpx:TrackPointExtension>
            <gpxtpx:hr>156</gpxtpx:hr>
          </gpxtpx:TrackPointExtension>
        </extensions>
      </trkpt>
      <trkpt lat="38.83425051840551" lon="121.5117255403655">
        <ele>10.0075024953112</ele>
        <time>2026-07-14T02:04:14Z</time>
        <extensions>
          <gpxtpx:TrackPointExtension>
            <gpxtpx:hr>156</gpxtpx:hr>
          </gpxtpx:TrackPointExtension>
        </extensions>
      </trkpt>
      <trkpt lat="38.8343045702492" lon="121.51166498601344">
        <ele>9.546304916962981</ele>
        <time>2026-07-14T02:04:17Z</time>
        <extensions>
          <gpxtpx:TrackPointExtension>
            <gpxtpx:hr>155</gpxtpx:hr>
          </gpxtpx:TrackPointExtension>
        </extensions>
      </trkpt>
      <trkpt lat="38.834371397200215" lon="121.51137185786367">
        <ele>10.330226693302393</ele>
        <time>2026-07-14T02:04:26Z</time>
        <extensions>
          <gpxtpx:TrackPointExtension>
            <gpxtpx:hr>154</gpxtpx:hr>
          </gpxtpx:TrackPointExtension>
        </extensions>
      </trkpt>
      <trkpt lat="38.8344898844855" lon="121.51105116818597">
        <ele>9.097560876049101</ele>
        <time>2026-07-14T02:04:38Z</time>
        <extensions>
          <gpxtpx:TrackPointExtension>
            <gpxtpx:hr>158</gpxtpx:hr>
          </gpxtpx:TrackPointExtension>
        </extensions>
      </trkpt>
      <trkpt lat="38.834601291215954" lon="121.51071290757662">
        <ele>9.225637510418892</ele>
        <time>2026-07-14T02:04:50Z</time>
        <extensions>
          <gpxtpx:TrackPointExtension>
            <gpxtpx:hr>160</gpxtpx:hr>
          </gpxtpx:TrackPointExtension>
        </extensions>
      </trkpt>
      <trkpt lat="38.83471319120122" lon="121.5103922004139">
        <ele>9.51834868080914</ele>
        <time>2026-07-14T02:05:02Z</time>
        <extensions>
          <gpxtpx:TrackPointExtension>
            <gpxtpx:hr>157</gpxtpx:hr>
          </gpxtpx:TrackPointExtension>
        </extensions>
      </trkpt>
      <trkpt lat="38.83474693898602" lon="121.51031341619161">
        <ele>10.222564519383013</ele>
        <time>2026-07-14T02:05:05Z</time>
        <extensions>
          <gpxtpx:TrackPointExtension>
            <gpxtpx:hr>157</gpxtpx:hr>
          </gpxtpx:TrackPointExtension>
        </extensions>
      </trkpt>
      <trkpt lat="38.83478266584824" lon="121.51005532995086">
        <ele>9.005380937829614</ele>
        <time>2026-07-14T02:05:14Z</time>
        <extensions>
          <gpxtpx:TrackPointExtension>
            <gpxtpx:hr>158</gpxtpx:hr>
          </gpxtpx:TrackPointExtension>
        </extensions>
      </trkpt>
      <trkpt lat="38.83486182776866" lon="121.50994822286377">
        <ele>9.55661537963897</ele>
        <time>2026-07-14T02:05:23Z</time>
        <extensions>
          <gpxtpx:TrackPointExtension>
            <gpxtpx:hr>159</gpxtpx:hr>
          </gpxtpx:TrackPointExtension>
        </extensions>
      </trkpt>
      <trkpt lat="38.83482578817757" lon="121.5098796538213">
        <ele>10.165310977958143</ele>
        <time>2026-07-14T02:05:27Z</time>
        <extensions>
          <gpxtpx:TrackPointExtension>
            <gpxtpx:hr>157</gpxtpx:hr>
          </gpxtpx:TrackPointExtension>
        </extensions>
      </trkpt>
      <trkpt lat="38.834872760855234" lon="121.50985420211852">
        <ele>10.331531642004848</ele>
        <time>2026-07-14T02:05:30Z</time>
        <extensions>
          <gpxtpx:TrackPointExtension>
            <gpxtpx:hr>157</gpxtpx:hr>
          </gpxtpx:TrackPointExtension>
        </extensions>
      </trkpt>
      <trkpt lat="38.83500261479327" lon="121.50946685280155">
        <ele>8.956105050630867</ele>
        <time>2026-07-14T02:06:01Z</time>
        <extensions>
          <gpxtpx:TrackPointExtension>
            <gpxtpx:hr>147</gpxtpx:hr>
          </gpxtpx:TrackPointExtension>
        </extensions>
      </trkpt>
      <trkpt lat="38.83505701521474" lon="121.50924376858254">
        <ele>9.807469275780022</ele>
        <time>2026-07-14T02:06:19Z</time>
        <extensions>
          <gpxtpx:TrackPointExtension>
            <gpxtpx:hr>135</gpxtpx:hr>
          </gpxtpx:TrackPointExtension>
        </extensions>
      </trkpt>
      <trkpt lat="38.83518785636632" lon="121.50928377273223">
        <ele>7.31274080183357</ele>
        <time>2026-07-14T02:06:34Z</time>
        <extensions>
          <gpxtpx:TrackPointExtension>
            <gpxtpx:hr>132</gpxtpx:hr>
          </gpxtpx:TrackPointExtension>
        </extensions>
      </trkpt>
      <trkpt lat="38.83524808964915" lon="121.50927654426064">
        <ele>9.276696428656578</ele>
        <time>2026-07-14T02:06:40Z</time>
        <extensions>
          <gpxtpx:TrackPointExtension>
            <gpxtpx:hr>129</gpxtpx:hr>
          </gpxtpx:TrackPointExtension>
        </extensions>
      </trkpt>
      <trkpt lat="38.83524808964915" lon="121.50927654426064">
        <ele>9.276696428656578</ele>
        <time>2026-07-14T02:06:43Z</time>
        <extensions>
          <gpxtpx:TrackPointExtension>
            <gpxtpx:hr>129</gpxtpx:hr>
          </gpxtpx:TrackPointExtension>
        </extensions>
      </trkpt>
    </trkseg>
  </trk>
</gpx>