<?xml version="1.0" encoding="UTF-8"?>
<gpx xmlns="http://www.topografix.com/GPX/1/1" xmlns:gpxtpx="http://www.garmin.com/xmlschemas/TrackPointExtension/v1" xmlns:xsi="http://www.w3.org/2001/XMLSchema-instance" xsi:schemaLocation="http://www.topografix.com/GPX/1/1 http://www.topografix.com/GPX/1/1/gpx.xsd" version="1.1" creator="gpx.py -- https://github.com/tkrajina/gpxpy">
  <trk>
    <name>gpx from keep</name>
    <type>Run</type>
    <trkseg>
      <trkpt lat="38.83304533699449" lon="121.50783690667781">
        <ele>2.7655715456223753</ele>
        <time>2025-11-07T04:48:16Z</time>
      </trkpt>
      <trkpt lat="38.83314180465557" lon="121.50763623309692">
        <ele>1.7802564445883036</ele>
        <time>2025-11-07T04:48:30Z</time>
      </trkpt>
      <trkpt lat="38.83318892633379" lon="121.50744825910286">
        <ele>1.5996337123215199</ele>
        <time>2025-11-07T04:48:39Z</time>
      </trkpt>
      <trkpt lat="38.83318065123036" lon="121.50716860197367">
        <ele>3.596691948361695</ele>
        <time>2025-11-07T04:48:50Z</time>
      </trkpt>
      <trkpt lat="38.83314917882116" lon="121.5070664705426">
        <ele>3.2113857846707106</ele>
        <time>2025-11-07T04:48:54Z</time>
      </trkpt>
      <trkpt lat="38.832971461886615" lon="121.5067881317496">
        <ele>1.4543322520330548</ele>
        <time>2025-11-07T04:49:08Z</time>
      </trkpt>
      <trkpt lat="38.832830083142234" lon="121.50664630977323">
        <ele>1.596045813523233</ele>
        <time>2025-11-07T04:49:17Z</time>
      </trkpt>
      <trkpt lat="38.832599244222266" lon="121.506562769446">
        <ele>1.3816562006250024</ele>
        <time>2025-11-07T04:49:29Z</time>
        <extensions>
          <gpxtpx:TrackPointExtension>
            <gpxtpx:hr>121</gpxtpx:hr>
          </gpxtpx:TrackPointExtension>
        </extensions>
      </trkpt>
      <trkpt lat="38.832415739693005" lon="121.50654125873493">
        <ele>0.6357451975345612</ele>
        <time>2025-11-07T04:49:38Z</time>
        <extensions>
          <gpxtpx:TrackPointExtension>
            <gpxtpx:hr>121</gpxtpx:hr>
          </gpxtpx:TrackPointExtension>
        </extensions>
      </trkpt>
      <trkpt lat="38.83229790080389" lon="121.50648971845683">
        <ele>0.2346776444464922</ele>
        <time>2025-11-07T04:49:44Z</time>
        <extensions>
          <gpxtpx:TrackPointExtension>
            <gpxtpx:hr>120</gpxtpx:hr>
          </gpxtpx:TrackPointExtension>
        </extensions>
      </trkpt>
      <trkpt lat="38.832133349009524" lon="121.50634196286619">
        <ele>2.106252278201282</ele>
        <time>2025-11-07T04:49:53Z</time>
        <extensions>
          <gpxtpx:TrackPointExtension>
            <gpxtpx:hr>122</gpxtpx:hr>
          </gpxtpx:TrackPointExtension>
        </extensions>
      </trkpt>
      <trkpt lat="38.83205065549102" lon="121.50621211066871">
        <ele>2.2700561294332147</ele>
        <time>2025-11-07T04:49:59Z</time>
        <extensions>
          <gpxtpx:TrackPointExtension>
            <gpxtpx:hr>123</gpxtpx:hr>
          </gpxtpx:TrackPointExtension>
        </extensions>
      </trkpt>
      <trkpt lat="38.831995345976125" lon="121.50608193306533">
        <ele>3.1168905468657613</ele>
        <time>2025-11-07T04:50:05Z</time>
        <extensions>
          <gpxtpx:TrackPointExtension>
            <gpxtpx:hr>123</gpxtpx:hr>
          </gpxtpx:TrackPointExtension>
        </extensions>
      </trkpt>
      <trkpt lat="38.831967036210095" lon="121.50592580130261">
        <ele>2.3069543996825814</ele>
        <time>2025-11-07T04:50:11Z</time>
        <extensions>
          <gpxtpx:TrackPointExtension>
            <gpxtpx:hr>125</gpxtpx:hr>
          </gpxtpx:TrackPointExtension>
        </extensions>
      </trkpt>
      <trkpt lat="38.8317919637454" lon="121.50557899527128">
        <ele>3.012740857899189</ele>
        <time>2025-11-07T04:50:27Z</time>
        <extensions>
          <gpxtpx:TrackPointExtension>
            <gpxtpx:hr>123</gpxtpx:hr>
          </gpxtpx:TrackPointExtension>
        </extensions>
      </trkpt>
      <trkpt lat="38.83152251563068" lon="121.5053628009733">
        <ele>1.569863200187683</ele>
        <time>2025-11-07T04:50:43Z</time>
        <extensions>
          <gpxtpx:TrackPointExtension>
            <gpxtpx:hr>122</gpxtpx:hr>
          </gpxtpx:TrackPointExtension>
        </extensions>
      </trkpt>
      <trkpt lat="38.83136774052815" lon="121.50531535173435">
        <ele>2.5613383213058114</ele>
        <time>2025-11-07T04:50:51Z</time>
        <extensions>
          <gpxtpx:TrackPointExtension>
            <gpxtpx:hr>120</gpxtpx:hr>
          </gpxtpx:TrackPointExtension>
        </extensions>
      </trkpt>
      <trkpt lat="38.83133421361665" lon="121.50518945709156">
        <ele>2.9561592703685164</ele>
        <time>2025-11-07T04:50:58Z</time>
        <extensions>
          <gpxtpx:TrackPointExtension>
            <gpxtpx:hr>118</gpxtpx:hr>
          </gpxtpx:TrackPointExtension>
        </extensions>
      </trkpt>
      <trkpt lat="38.83127392119689" lon="121.50515242698343">
        <ele>2.942601064220071</ele>
        <time>2025-11-07T04:51:01Z</time>
        <extensions>
          <gpxtpx:TrackPointExtension>
            <gpxtpx:hr>118</gpxtpx:hr>
          </gpxtpx:TrackPointExtension>
        </extensions>
      </trkpt>
      <trkpt lat="38.831107140177025" lon="121.5051328427022">
        <ele>2.979872638359666</ele>
        <time>2025-11-07T04:51:10Z</time>
        <extensions>
          <gpxtpx:TrackPointExtension>
            <gpxtpx:hr>119</gpxtpx:hr>
          </gpxtpx:TrackPointExtension>
        </extensions>
      </trkpt>
      <trkpt lat="38.831046471985196" lon="121.5051457312807">
        <ele>3.2423268696293235</ele>
        <time>2025-11-07T04:51:13Z</time>
        <extensions>
          <gpxtpx:TrackPointExtension>
            <gpxtpx:hr>120</gpxtpx:hr>
          </gpxtpx:TrackPointExtension>
        </extensions>
      </trkpt>
      <trkpt lat="38.830989133118855" lon="121.50511514073621">
        <ele>3.567412785254419</ele>
        <time>2025-11-07T04:51:16Z</time>
        <extensions>
          <gpxtpx:TrackPointExtension>
            <gpxtpx:hr>119</gpxtpx:hr>
          </gpxtpx:TrackPointExtension>
        </extensions>
      </trkpt>
      <trkpt lat="38.830860721174844" lon="121.50510583178111">
        <ele>4.17721080686897</ele>
        <time>2025-11-07T04:51:22Z</time>
        <extensions>
          <gpxtpx:TrackPointExtension>
            <gpxtpx:hr>118</gpxtpx:hr>
          </gpxtpx:TrackPointExtension>
        </extensions>
      </trkpt>
      <trkpt lat="38.83073735212844" lon="121.50516638281873">
        <ele>3.9788951221853495</ele>
        <time>2025-11-07T04:51:28Z</time>
        <extensions>
          <gpxtpx:TrackPointExtension>
            <gpxtpx:hr>122</gpxtpx:hr>
          </gpxtpx:TrackPointExtension>
        </extensions>
      </trkpt>
      <trkpt lat="38.830675114171704" lon="121.50516694056996">
        <ele>4.08750391472131</ele>
        <time>2025-11-07T04:51:31Z</time>
        <extensions>
          <gpxtpx:TrackPointExtension>
            <gpxtpx:hr>122</gpxtpx:hr>
          </gpxtpx:TrackPointExtension>
        </extensions>
      </trkpt>
      <trkpt lat="38.83048548164757" lon="121.50500387638185">
        <ele>1.939281220547855</ele>
        <time>2025-11-07T04:51:43Z</time>
        <extensions>
          <gpxtpx:TrackPointExtension>
            <gpxtpx:hr>126</gpxtpx:hr>
          </gpxtpx:TrackPointExtension>
        </extensions>
      </trkpt>
      <trkpt lat="38.8302668227417" lon="121.5048717063392">
        <ele>1.5352189717814326</ele>
        <time>2025-11-07T04:51:55Z</time>
        <extensions>
          <gpxtpx:TrackPointExtension>
            <gpxtpx:hr>122</gpxtpx:hr>
          </gpxtpx:TrackPointExtension>
        </extensions>
      </trkpt>
      <trkpt lat="38.830083959100975" lon="121.50480111906742">
        <ele>1.6844353768974543</ele>
        <time>2025-11-07T04:52:04Z</time>
        <extensions>
          <gpxtpx:TrackPointExtension>
            <gpxtpx:hr>125</gpxtpx:hr>
          </gpxtpx:TrackPointExtension>
        </extensions>
      </trkpt>
      <trkpt lat="38.829827056774285" lon="121.50454559369274">
        <ele>1.9149648686870933</ele>
        <time>2025-11-07T04:52:19Z</time>
        <extensions>
          <gpxtpx:TrackPointExtension>
            <gpxtpx:hr>125</gpxtpx:hr>
          </gpxtpx:TrackPointExtension>
        </extensions>
      </trkpt>
      <trkpt lat="38.829590862167635" lon="121.50427231490957">
        <ele>1.050019295886159</ele>
        <time>2025-11-07T04:52:35Z</time>
        <extensions>
          <gpxtpx:TrackPointExtension>
            <gpxtpx:hr>123</gpxtpx:hr>
          </gpxtpx:TrackPointExtension>
        </extensions>
      </trkpt>
      <trkpt lat="38.8292688921419" lon="121.50409602086391">
        <ele>0.6393291130661964</ele>
        <time>2025-11-07T04:52:51Z</time>
        <extensions>
          <gpxtpx:TrackPointExtension>
            <gpxtpx:hr>131</gpxtpx:hr>
          </gpxtpx:TrackPointExtension>
        </extensions>
      </trkpt>
      <trkpt lat="38.82919407664223" lon="121.50405910347004">
        <ele>1.7227013120427728</ele>
        <time>2025-11-07T04:52:55Z</time>
        <extensions>
          <gpxtpx:TrackPointExtension>
            <gpxtpx:hr>131</gpxtpx:hr>
          </gpxtpx:TrackPointExtension>
        </extensions>
      </trkpt>
      <trkpt lat="38.82904620156325" lon="121.50405459484655">
        <ele>2.9286019764840603</ele>
        <time>2025-11-07T04:53:02Z</time>
        <extensions>
          <gpxtpx:TrackPointExtension>
            <gpxtpx:hr>131</gpxtpx:hr>
          </gpxtpx:TrackPointExtension>
        </extensions>
      </trkpt>
      <trkpt lat="38.828909471329816" lon="121.50408573184394">
        <ele>2.885475846938789</ele>
        <time>2025-11-07T04:53:08Z</time>
        <extensions>
          <gpxtpx:TrackPointExtension>
            <gpxtpx:hr>129</gpxtpx:hr>
          </gpxtpx:TrackPointExtension>
        </extensions>
      </trkpt>
      <trkpt lat="38.828788398194966" lon="121.50403002990413">
        <ele>1.9404596965759993</ele>
        <time>2025-11-07T04:53:14Z</time>
        <extensions>
          <gpxtpx:TrackPointExtension>
            <gpxtpx:hr>129</gpxtpx:hr>
          </gpxtpx:TrackPointExtension>
        </extensions>
      </trkpt>
      <trkpt lat="38.828520998535744" lon="121.50409346909026">
        <ele>2.3515650732442737</ele>
        <time>2025-11-07T04:53:26Z</time>
        <extensions>
          <gpxtpx:TrackPointExtension>
            <gpxtpx:hr>134</gpxtpx:hr>
          </gpxtpx:TrackPointExtension>
        </extensions>
      </trkpt>
      <trkpt lat="38.8282552051834" lon="121.50406283963862">
        <ele>2.3759008459746838</ele>
        <time>2025-11-07T04:53:38Z</time>
        <extensions>
          <gpxtpx:TrackPointExtension>
            <gpxtpx:hr>134</gpxtpx:hr>
          </gpxtpx:TrackPointExtension>
        </extensions>
      </trkpt>
      <trkpt lat="38.828067578156784" lon="121.50394249044338">
        <ele>3.4546975130215287</ele>
        <time>2025-11-07T04:53:47Z</time>
        <extensions>
          <gpxtpx:TrackPointExtension>
            <gpxtpx:hr>136</gpxtpx:hr>
          </gpxtpx:TrackPointExtension>
        </extensions>
      </trkpt>
      <trkpt lat="38.82793525010068" lon="121.50374275006934">
        <ele>2.957836630754173</ele>
        <time>2025-11-07T04:53:56Z</time>
        <extensions>
          <gpxtpx:TrackPointExtension>
            <gpxtpx:hr>136</gpxtpx:hr>
          </gpxtpx:TrackPointExtension>
        </extensions>
      </trkpt>
      <trkpt lat="38.82785334233508" lon="121.50338826008388">
        <ele>1.7498005982488394</ele>
        <time>2025-11-07T04:54:11Z</time>
        <extensions>
          <gpxtpx:TrackPointExtension>
            <gpxtpx:hr>133</gpxtpx:hr>
          </gpxtpx:TrackPointExtension>
        </extensions>
      </trkpt>
      <trkpt lat="38.82782338863703" lon="121.50331935157074">
        <ele>1.7654963601380587</ele>
        <time>2025-11-07T04:54:14Z</time>
        <extensions>
          <gpxtpx:TrackPointExtension>
            <gpxtpx:hr>133</gpxtpx:hr>
          </gpxtpx:TrackPointExtension>
        </extensions>
      </trkpt>
      <trkpt lat="38.82761310636771" lon="121.50309768651856">
        <ele>3.40081999450922</ele>
        <time>2025-11-07T04:54:26Z</time>
        <extensions>
          <gpxtpx:TrackPointExtension>
            <gpxtpx:hr>135</gpxtpx:hr>
          </gpxtpx:TrackPointExtension>
        </extensions>
      </trkpt>
      <trkpt lat="38.827517797921146" lon="121.50303678087893">
        <ele>1.1780980974435806</ele>
        <time>2025-11-07T04:54:32Z</time>
        <extensions>
          <gpxtpx:TrackPointExtension>
            <gpxtpx:hr>133</gpxtpx:hr>
          </gpxtpx:TrackPointExtension>
        </extensions>
      </trkpt>
      <trkpt lat="38.827278907848516" lon="121.50302031525239">
        <ele>2.6046904884278774</ele>
        <time>2025-11-07T04:54:43Z</time>
        <extensions>
          <gpxtpx:TrackPointExtension>
            <gpxtpx:hr>131</gpxtpx:hr>
          </gpxtpx:TrackPointExtension>
        </extensions>
      </trkpt>
      <trkpt lat="38.82704975966962" lon="121.50310629215625">
        <ele>2.0181245217099786</ele>
        <time>2025-11-07T04:54:55Z</time>
        <extensions>
          <gpxtpx:TrackPointExtension>
            <gpxtpx:hr>132</gpxtpx:hr>
          </gpxtpx:TrackPointExtension>
        </extensions>
      </trkpt>
      <trkpt lat="38.826886635427854" lon="121.50328812520218">
        <ele>2.747603302821517</ele>
        <time>2025-11-07T04:55:05Z</time>
        <extensions>
          <gpxtpx:TrackPointExtension>
            <gpxtpx:hr>131</gpxtpx:hr>
          </gpxtpx:TrackPointExtension>
        </extensions>
      </trkpt>
      <trkpt lat="38.82669228228609" lon="121.50348399034908">
        <ele>2.001582202501595</ele>
        <time>2025-11-07T04:55:17Z</time>
        <extensions>
          <gpxtpx:TrackPointExtension>
            <gpxtpx:hr>132</gpxtpx:hr>
          </gpxtpx:TrackPointExtension>
        </extensions>
      </trkpt>
      <trkpt lat="38.82659604911667" lon="121.50367466162498">
        <ele>2.4276736583560705</ele>
        <time>2025-11-07T04:55:26Z</time>
        <extensions>
          <gpxtpx:TrackPointExtension>
            <gpxtpx:hr>130</gpxtpx:hr>
          </gpxtpx:TrackPointExtension>
        </extensions>
      </trkpt>
      <trkpt lat="38.826553887241026" lon="121.50388568700133">
        <ele>1.9661288959905505</ele>
        <time>2025-11-07T04:55:35Z</time>
        <extensions>
          <gpxtpx:TrackPointExtension>
            <gpxtpx:hr>130</gpxtpx:hr>
          </gpxtpx:TrackPointExtension>
        </extensions>
      </trkpt>
      <trkpt lat="38.82655656769998" lon="121.50422385843063">
        <ele>0.5018823808059096</ele>
        <time>2025-11-07T04:55:47Z</time>
        <extensions>
          <gpxtpx:TrackPointExtension>
            <gpxtpx:hr>132</gpxtpx:hr>
          </gpxtpx:TrackPointExtension>
        </extensions>
      </trkpt>
      <trkpt lat="38.826471811634775" lon="121.50461195900276">
        <ele>2.167991429567337</ele>
        <time>2025-11-07T04:56:02Z</time>
        <extensions>
          <gpxtpx:TrackPointExtension>
            <gpxtpx:hr>131</gpxtpx:hr>
          </gpxtpx:TrackPointExtension>
        </extensions>
      </trkpt>
      <trkpt lat="38.826404035081964" lon="121.50476215824571">
        <ele>3.5161786414682865</ele>
        <time>2025-11-07T04:56:08Z</time>
        <extensions>
          <gpxtpx:TrackPointExtension>
            <gpxtpx:hr>132</gpxtpx:hr>
          </gpxtpx:TrackPointExtension>
        </extensions>
      </trkpt>
      <trkpt lat="38.82619586609086" lon="121.50491831685102">
        <ele>3.3412346690893173</ele>
        <time>2025-11-07T04:56:20Z</time>
        <extensions>
          <gpxtpx:TrackPointExtension>
            <gpxtpx:hr>131</gpxtpx:hr>
          </gpxtpx:TrackPointExtension>
        </extensions>
      </trkpt>
      <trkpt lat="38.826142982557215" lon="121.5048828776675">
        <ele>2.9346565706655383</ele>
        <time>2025-11-07T04:56:23Z</time>
        <extensions>
          <gpxtpx:TrackPointExtension>
            <gpxtpx:hr>130</gpxtpx:hr>
          </gpxtpx:TrackPointExtension>
        </extensions>
      </trkpt>
      <trkpt lat="38.826223556778054" lon="121.50482045926903">
        <ele>3.3789998311549425</ele>
        <time>2025-11-07T04:56:26Z</time>
        <extensions>
          <gpxtpx:TrackPointExtension>
            <gpxtpx:hr>130</gpxtpx:hr>
          </gpxtpx:TrackPointExtension>
        </extensions>
      </trkpt>
      <trkpt lat="38.82639774245146" lon="121.5047472783434">
        <ele>2.7715894300490618</ele>
        <time>2025-11-07T04:56:35Z</time>
        <extensions>
          <gpxtpx:TrackPointExtension>
            <gpxtpx:hr>129</gpxtpx:hr>
          </gpxtpx:TrackPointExtension>
        </extensions>
      </trkpt>
      <trkpt lat="38.82651055453362" lon="121.50453506666564">
        <ele>2.336242975667119</ele>
        <time>2025-11-07T04:56:45Z</time>
        <extensions>
          <gpxtpx:TrackPointExtension>
            <gpxtpx:hr>130</gpxtpx:hr>
          </gpxtpx:TrackPointExtension>
        </extensions>
      </trkpt>
      <trkpt lat="38.82655178161938" lon="121.50438499457309">
        <ele>1.938504507765174</ele>
        <time>2025-11-07T04:56:51Z</time>
        <extensions>
          <gpxtpx:TrackPointExtension>
            <gpxtpx:hr>133</gpxtpx:hr>
          </gpxtpx:TrackPointExtension>
        </extensions>
      </trkpt>
      <trkpt lat="38.82656651664861" lon="121.5040908795107">
        <ele>1.6891856836155057</ele>
        <time>2025-11-07T04:57:02Z</time>
        <extensions>
          <gpxtpx:TrackPointExtension>
            <gpxtpx:hr>133</gpxtpx:hr>
          </gpxtpx:TrackPointExtension>
        </extensions>
      </trkpt>
      <trkpt lat="38.82654578566358" lon="121.503923599399">
        <ele>2.0953688016161323</ele>
        <time>2025-11-07T04:57:08Z</time>
        <extensions>
          <gpxtpx:TrackPointExtension>
            <gpxtpx:hr>132</gpxtpx:hr>
          </gpxtpx:TrackPointExtension>
        </extensions>
      </trkpt>
      <trkpt lat="38.82657799408344" lon="121.50384679518751">
        <ele>2.743464605882764</ele>
        <time>2025-11-07T04:57:11Z</time>
        <extensions>
          <gpxtpx:TrackPointExtension>
            <gpxtpx:hr>132</gpxtpx:hr>
          </gpxtpx:TrackPointExtension>
        </extensions>
      </trkpt>
      <trkpt lat="38.82658193479005" lon="121.50376690183245">
        <ele>2.1968936575576663</ele>
        <time>2025-11-07T04:57:14Z</time>
        <extensions>
          <gpxtpx:TrackPointExtension>
            <gpxtpx:hr>132</gpxtpx:hr>
          </gpxtpx:TrackPointExtension>
        </extensions>
      </trkpt>
      <trkpt lat="38.82666448804678" lon="121.50354693480797">
        <ele>2.9640415785834193</ele>
        <time>2025-11-07T04:57:23Z</time>
        <extensions>
          <gpxtpx:TrackPointExtension>
            <gpxtpx:hr>132</gpxtpx:hr>
          </gpxtpx:TrackPointExtension>
        </extensions>
      </trkpt>
      <trkpt lat="38.82689345578105" lon="121.5032994688559">
        <ele>2.3597173243761063</ele>
        <time>2025-11-07T04:57:38Z</time>
        <extensions>
          <gpxtpx:TrackPointExtension>
            <gpxtpx:hr>131</gpxtpx:hr>
          </gpxtpx:TrackPointExtension>
        </extensions>
      </trkpt>
      <trkpt lat="38.82702642905866" lon="121.50313957359066">
        <ele>2.854181157425046</ele>
        <time>2025-11-07T04:57:47Z</time>
        <extensions>
          <gpxtpx:TrackPointExtension>
            <gpxtpx:hr>131</gpxtpx:hr>
          </gpxtpx:TrackPointExtension>
        </extensions>
      </trkpt>
      <trkpt lat="38.827141902838896" lon="121.50306250991373">
        <ele>3.0912990728393197</ele>
        <time>2025-11-07T04:57:53Z</time>
        <extensions>
          <gpxtpx:TrackPointExtension>
            <gpxtpx:hr>131</gpxtpx:hr>
          </gpxtpx:TrackPointExtension>
        </extensions>
      </trkpt>
      <trkpt lat="38.82726769719619" lon="121.50301784856383">
        <ele>3.282809955999255</ele>
        <time>2025-11-07T04:57:59Z</time>
        <extensions>
          <gpxtpx:TrackPointExtension>
            <gpxtpx:hr>134</gpxtpx:hr>
          </gpxtpx:TrackPointExtension>
        </extensions>
      </trkpt>
      <trkpt lat="38.82745323214737" lon="121.50302782729116">
        <ele>4.098535964265466</ele>
        <time>2025-11-07T04:58:08Z</time>
        <extensions>
          <gpxtpx:TrackPointExtension>
            <gpxtpx:hr>132</gpxtpx:hr>
          </gpxtpx:TrackPointExtension>
        </extensions>
      </trkpt>
      <trkpt lat="38.82757364817622" lon="121.50307659442764">
        <ele>3.367050983943045</ele>
        <time>2025-11-07T04:58:14Z</time>
        <extensions>
          <gpxtpx:TrackPointExtension>
            <gpxtpx:hr>132</gpxtpx:hr>
          </gpxtpx:TrackPointExtension>
        </extensions>
      </trkpt>
      <trkpt lat="38.82762190721058" lon="121.50313674155034">
        <ele>2.77275169827044</ele>
        <time>2025-11-07T04:58:17Z</time>
        <extensions>
          <gpxtpx:TrackPointExtension>
            <gpxtpx:hr>132</gpxtpx:hr>
          </gpxtpx:TrackPointExtension>
        </extensions>
      </trkpt>
      <trkpt lat="38.82765330309255" lon="121.50321182021409">
        <ele>3.0880184546113014</ele>
        <time>2025-11-07T04:58:20Z</time>
        <extensions>
          <gpxtpx:TrackPointExtension>
            <gpxtpx:hr>132</gpxtpx:hr>
          </gpxtpx:TrackPointExtension>
        </extensions>
      </trkpt>
      <trkpt lat="38.82770878158684" lon="121.50325197765815">
        <ele>2.4420389235019684</ele>
        <time>2025-11-07T04:58:23Z</time>
        <extensions>
          <gpxtpx:TrackPointExtension>
            <gpxtpx:hr>135</gpxtpx:hr>
          </gpxtpx:TrackPointExtension>
        </extensions>
      </trkpt>
      <trkpt lat="38.82777025085332" lon="121.50324612486868">
        <ele>2.571398762986064</ele>
        <time>2025-11-07T04:58:26Z</time>
        <extensions>
          <gpxtpx:TrackPointExtension>
            <gpxtpx:hr>135</gpxtpx:hr>
          </gpxtpx:TrackPointExtension>
        </extensions>
      </trkpt>
      <trkpt lat="38.82784017211235" lon="121.50339346148193">
        <ele>1.7176619190722704</ele>
        <time>2025-11-07T04:58:32Z</time>
        <extensions>
          <gpxtpx:TrackPointExtension>
            <gpxtpx:hr>134</gpxtpx:hr>
          </gpxtpx:TrackPointExtension>
        </extensions>
      </trkpt>
      <trkpt lat="38.82791800559403" lon="121.50370531400215">
        <ele>1.55999056994915</ele>
        <time>2025-11-07T04:58:44Z</time>
        <extensions>
          <gpxtpx:TrackPointExtension>
            <gpxtpx:hr>135</gpxtpx:hr>
          </gpxtpx:TrackPointExtension>
        </extensions>
      </trkpt>
      <trkpt lat="38.828073420143625" lon="121.50396047493881">
        <ele>2.655954446643591</ele>
        <time>2025-11-07T04:58:55Z</time>
        <extensions>
          <gpxtpx:TrackPointExtension>
            <gpxtpx:hr>135</gpxtpx:hr>
          </gpxtpx:TrackPointExtension>
        </extensions>
      </trkpt>
      <trkpt lat="38.82814808613353" lon="121.50403774035728">
        <ele>3.430860087275505</ele>
        <time>2025-11-07T04:58:59Z</time>
        <extensions>
          <gpxtpx:TrackPointExtension>
            <gpxtpx:hr>135</gpxtpx:hr>
          </gpxtpx:TrackPointExtension>
        </extensions>
      </trkpt>
      <trkpt lat="38.82838267232065" lon="121.5041012192544">
        <ele>3.3273715376853943</ele>
        <time>2025-11-07T04:59:11Z</time>
        <extensions>
          <gpxtpx:TrackPointExtension>
            <gpxtpx:hr>135</gpxtpx:hr>
          </gpxtpx:TrackPointExtension>
        </extensions>
      </trkpt>
      <trkpt lat="38.82870065333586" lon="121.50405057793039">
        <ele>2.3588172513991594</ele>
        <time>2025-11-07T04:59:26Z</time>
        <extensions>
          <gpxtpx:TrackPointExtension>
            <gpxtpx:hr>134</gpxtpx:hr>
          </gpxtpx:TrackPointExtension>
        </extensions>
      </trkpt>
      <trkpt lat="38.82882143553706" lon="121.50403408762668">
        <ele>3.4300250178202987</ele>
        <time>2025-11-07T04:59:32Z</time>
        <extensions>
          <gpxtpx:TrackPointExtension>
            <gpxtpx:hr>135</gpxtpx:hr>
          </gpxtpx:TrackPointExtension>
        </extensions>
      </trkpt>
      <trkpt lat="38.82894272210625" lon="121.50408280279142">
        <ele>3.0384139753878117</ele>
        <time>2025-11-07T04:59:38Z</time>
        <extensions>
          <gpxtpx:TrackPointExtension>
            <gpxtpx:hr>135</gpxtpx:hr>
          </gpxtpx:TrackPointExtension>
        </extensions>
      </trkpt>
      <trkpt lat="38.82907888263646" lon="121.50404028433442">
        <ele>3.840127137489617</ele>
        <time>2025-11-07T04:59:44Z</time>
        <extensions>
          <gpxtpx:TrackPointExtension>
            <gpxtpx:hr>135</gpxtpx:hr>
          </gpxtpx:TrackPointExtension>
        </extensions>
      </trkpt>
      <trkpt lat="38.82914471952482" lon="121.50404318553679">
        <ele>4.451936429366469</ele>
        <time>2025-11-07T04:59:47Z</time>
        <extensions>
          <gpxtpx:TrackPointExtension>
            <gpxtpx:hr>136</gpxtpx:hr>
          </gpxtpx:TrackPointExtension>
        </extensions>
      </trkpt>
      <trkpt lat="38.829270314757416" lon="121.50408528724743">
        <ele>4.2950475458055735</ele>
        <time>2025-11-07T04:59:53Z</time>
        <extensions>
          <gpxtpx:TrackPointExtension>
            <gpxtpx:hr>137</gpxtpx:hr>
          </gpxtpx:TrackPointExtension>
        </extensions>
      </trkpt>
      <trkpt lat="38.82933195806266" lon="121.50413142658238">
        <ele>4.2598941177129745</ele>
        <time>2025-11-07T04:59:56Z</time>
        <extensions>
          <gpxtpx:TrackPointExtension>
            <gpxtpx:hr>137</gpxtpx:hr>
          </gpxtpx:TrackPointExtension>
        </extensions>
      </trkpt>
      <trkpt lat="38.82962440025921" lon="121.5043030947717">
        <ele>3.5538850743323565</ele>
        <time>2025-11-07T05:00:11Z</time>
        <extensions>
          <gpxtpx:TrackPointExtension>
            <gpxtpx:hr>136</gpxtpx:hr>
          </gpxtpx:TrackPointExtension>
        </extensions>
      </trkpt>
      <trkpt lat="38.82972062410782" lon="121.50439106430466">
        <ele>3.3549520913511515</ele>
        <time>2025-11-07T05:00:17Z</time>
        <extensions>
          <gpxtpx:TrackPointExtension>
            <gpxtpx:hr>137</gpxtpx:hr>
          </gpxtpx:TrackPointExtension>
        </extensions>
      </trkpt>
      <trkpt lat="38.829764486593476" lon="121.50446756836752">
        <ele>3.8901525549590588</ele>
        <time>2025-11-07T05:00:20Z</time>
        <extensions>
          <gpxtpx:TrackPointExtension>
            <gpxtpx:hr>137</gpxtpx:hr>
          </gpxtpx:TrackPointExtension>
        </extensions>
      </trkpt>
      <trkpt lat="38.8299079417142" lon="121.50460914816725">
        <ele>3.1210671737790108</ele>
        <time>2025-11-07T05:00:29Z</time>
        <extensions>
          <gpxtpx:TrackPointExtension>
            <gpxtpx:hr>135</gpxtpx:hr>
          </gpxtpx:TrackPointExtension>
        </extensions>
      </trkpt>
      <trkpt lat="38.82993415622168" lon="121.50468151644543">
        <ele>3.4176355050876737</ele>
        <time>2025-11-07T05:00:32Z</time>
        <extensions>
          <gpxtpx:TrackPointExtension>
            <gpxtpx:hr>136</gpxtpx:hr>
          </gpxtpx:TrackPointExtension>
        </extensions>
      </trkpt>
      <trkpt lat="38.83014702568805" lon="121.50481789704118">
        <ele>3.424275169149041</ele>
        <time>2025-11-07T05:00:44Z</time>
        <extensions>
          <gpxtpx:TrackPointExtension>
            <gpxtpx:hr>138</gpxtpx:hr>
          </gpxtpx:TrackPointExtension>
        </extensions>
      </trkpt>
      <trkpt lat="38.83044007078107" lon="121.50496610890448">
        <ele>3.827528089284897</ele>
        <time>2025-11-07T05:01:00Z</time>
        <extensions>
          <gpxtpx:TrackPointExtension>
            <gpxtpx:hr>134</gpxtpx:hr>
          </gpxtpx:TrackPointExtension>
        </extensions>
      </trkpt>
      <trkpt lat="38.83066979617593" lon="121.50517113630612">
        <ele>3.5158848240971565</ele>
        <time>2025-11-07T05:01:14Z</time>
        <extensions>
          <gpxtpx:TrackPointExtension>
            <gpxtpx:hr>132</gpxtpx:hr>
          </gpxtpx:TrackPointExtension>
        </extensions>
      </trkpt>
      <trkpt lat="38.83085877566169" lon="121.50534329367335">
        <ele>3.9603609470650554</ele>
        <time>2025-11-07T05:01:26Z</time>
        <extensions>
          <gpxtpx:TrackPointExtension>
            <gpxtpx:hr>132</gpxtpx:hr>
          </gpxtpx:TrackPointExtension>
        </extensions>
      </trkpt>
      <trkpt lat="38.83091203261755" lon="121.50531129126098">
        <ele>3.8646215396001935</ele>
        <time>2025-11-07T05:01:35Z</time>
        <extensions>
          <gpxtpx:TrackPointExtension>
            <gpxtpx:hr>132</gpxtpx:hr>
          </gpxtpx:TrackPointExtension>
        </extensions>
      </trkpt>
      <trkpt lat="38.83099747834273" lon="121.50516528667825">
        <ele>3.563054452650249</ele>
        <time>2025-11-07T05:01:50Z</time>
        <extensions>
          <gpxtpx:TrackPointExtension>
            <gpxtpx:hr>123</gpxtpx:hr>
          </gpxtpx:TrackPointExtension>
        </extensions>
      </trkpt>
      <trkpt lat="38.831265666659505" lon="121.50514697393682">
        <ele>4.200126168318093</ele>
        <time>2025-11-07T05:02:03Z</time>
        <extensions>
          <gpxtpx:TrackPointExtension>
            <gpxtpx:hr>119</gpxtpx:hr>
          </gpxtpx:TrackPointExtension>
        </extensions>
      </trkpt>
      <trkpt lat="38.831338969913844" lon="121.50516633961108">
        <ele>4.252418273128569</ele>
        <time>2025-11-07T05:02:06Z</time>
        <extensions>
          <gpxtpx:TrackPointExtension>
            <gpxtpx:hr>119</gpxtpx:hr>
          </gpxtpx:TrackPointExtension>
        </extensions>
      </trkpt>
      <trkpt lat="38.83140580409403" lon="121.50531963614308">
        <ele>4.434396526776254</ele>
        <time>2025-11-07T05:02:12Z</time>
        <extensions>
          <gpxtpx:TrackPointExtension>
            <gpxtpx:hr>122</gpxtpx:hr>
          </gpxtpx:TrackPointExtension>
        </extensions>
      </trkpt>
      <trkpt lat="38.831576513093474" lon="121.5053907983708">
        <ele>3.9981063436716795</ele>
        <time>2025-11-07T05:02:21Z</time>
        <extensions>
          <gpxtpx:TrackPointExtension>
            <gpxtpx:hr>125</gpxtpx:hr>
          </gpxtpx:TrackPointExtension>
        </extensions>
      </trkpt>
      <trkpt lat="38.83179729594899" lon="121.50557802738277">
        <ele>4.669611242599785</ele>
        <time>2025-11-07T05:02:33Z</time>
        <extensions>
          <gpxtpx:TrackPointExtension>
            <gpxtpx:hr>127</gpxtpx:hr>
          </gpxtpx:TrackPointExtension>
        </extensions>
      </trkpt>
      <trkpt lat="38.831842411274344" lon="121.50563472595351">
        <ele>4.347308233380318</ele>
        <time>2025-11-07T05:02:36Z</time>
        <extensions>
          <gpxtpx:TrackPointExtension>
            <gpxtpx:hr>127</gpxtpx:hr>
          </gpxtpx:TrackPointExtension>
        </extensions>
      </trkpt>
      <trkpt lat="38.8318663884663" lon="121.50571894298469">
        <ele>4.175981285981834</ele>
        <time>2025-11-07T05:02:39Z</time>
        <extensions>
          <gpxtpx:TrackPointExtension>
            <gpxtpx:hr>129</gpxtpx:hr>
          </gpxtpx:TrackPointExtension>
        </extensions>
      </trkpt>
      <trkpt lat="38.8319091095488" lon="121.50578681477799">
        <ele>3.9490255005657673</ele>
        <time>2025-11-07T05:02:42Z</time>
        <extensions>
          <gpxtpx:TrackPointExtension>
            <gpxtpx:hr>130</gpxtpx:hr>
          </gpxtpx:TrackPointExtension>
        </extensions>
      </trkpt>
      <trkpt lat="38.831967611718845" lon="121.50601102715947">
        <ele>2.916621122509241</ele>
        <time>2025-11-07T05:02:51Z</time>
        <extensions>
          <gpxtpx:TrackPointExtension>
            <gpxtpx:hr>134</gpxtpx:hr>
          </gpxtpx:TrackPointExtension>
        </extensions>
      </trkpt>
      <trkpt lat="38.832072575145645" lon="121.50623050635411">
        <ele>3.0861268509179354</ele>
        <time>2025-11-07T05:03:00Z</time>
        <extensions>
          <gpxtpx:TrackPointExtension>
            <gpxtpx:hr>133</gpxtpx:hr>
          </gpxtpx:TrackPointExtension>
        </extensions>
      </trkpt>
      <trkpt lat="38.8321968303315" lon="121.50639180306909">
        <ele>1.8276681005954742</ele>
        <time>2025-11-07T05:03:08Z</time>
        <extensions>
          <gpxtpx:TrackPointExtension>
            <gpxtpx:hr>134</gpxtpx:hr>
          </gpxtpx:TrackPointExtension>
        </extensions>
      </trkpt>
      <trkpt lat="38.83235597324882" lon="121.50649757763786">
        <ele>3.0128463935106993</ele>
        <time>2025-11-07T05:03:17Z</time>
        <extensions>
          <gpxtpx:TrackPointExtension>
            <gpxtpx:hr>136</gpxtpx:hr>
          </gpxtpx:TrackPointExtension>
        </extensions>
      </trkpt>
      <trkpt lat="38.83244055411591" lon="121.50652027559372">
        <ele>3.5408458029851317</ele>
        <time>2025-11-07T05:03:20Z</time>
        <extensions>
          <gpxtpx:TrackPointExtension>
            <gpxtpx:hr>135</gpxtpx:hr>
          </gpxtpx:TrackPointExtension>
        </extensions>
      </trkpt>
      <trkpt lat="38.83244055411591" lon="121.50652027559372">
        <ele>3.5408458029851317</ele>
        <time>2025-11-07T05:03:26Z</time>
        <extensions>
          <gpxtpx:TrackPointExtension>
            <gpxtpx:hr>135</gpxtpx:hr>
          </gpxtpx:TrackPointExtension>
        </extensions>
      </trkpt>
    </trkseg>
  </trk>
</gpx>