<?xml version="1.0" encoding="UTF-8"?>
<gpx xmlns="http://www.topografix.com/GPX/1/1" xmlns:gpxtpx="http://www.garmin.com/xmlschemas/TrackPointExtension/v1" xmlns:xsi="http://www.w3.org/2001/XMLSchema-instance" xsi:schemaLocation="http://www.topografix.com/GPX/1/1 http://www.topografix.com/GPX/1/1/gpx.xsd" version="1.1" creator="gpx.py -- https://github.com/tkrajina/gpxpy">
  <trk>
    <name>gpx from keep</name>
    <type>Run</type>
    <trkseg>
      <trkpt lat="38.83627069318346" lon="121.51037693457143">
        <ele>8.792221130219243</ele>
        <time>2025-11-17T00:02:18Z</time>
      </trkpt>
      <trkpt lat="38.836208807756954" lon="121.51047804458301">
        <ele>7.061624043373493</ele>
        <time>2025-11-17T00:02:22Z</time>
      </trkpt>
      <trkpt lat="38.83625308038714" lon="121.51066443258175">
        <ele>7.422325436025858</ele>
        <time>2025-11-17T00:02:30Z</time>
      </trkpt>
      <trkpt lat="38.83612351621651" lon="121.51100806654523">
        <ele>7.095453822053969</ele>
        <time>2025-11-17T00:02:46Z</time>
      </trkpt>
      <trkpt lat="38.836001827753336" lon="121.51124614595913">
        <ele>6.091783215291798</ele>
        <time>2025-11-17T00:02:58Z</time>
      </trkpt>
      <trkpt lat="38.835966914215035" lon="121.5114213532944">
        <ele>6.06863809376955</ele>
        <time>2025-11-17T00:03:06Z</time>
      </trkpt>
      <trkpt lat="38.83598047623109" lon="121.51160126887174">
        <ele>6.064223081804812</ele>
        <time>2025-11-17T00:03:14Z</time>
      </trkpt>
      <trkpt lat="38.836069256150985" lon="121.51182773915565">
        <ele>4.1683202451094985</ele>
        <time>2025-11-17T00:03:26Z</time>
      </trkpt>
      <trkpt lat="38.83616515859957" lon="121.51191592941458">
        <ele>3.5459077348932624</ele>
        <time>2025-11-17T00:03:33Z</time>
      </trkpt>
      <trkpt lat="38.836324868306015" lon="121.51194245572236">
        <ele>4.043251094408333</ele>
        <time>2025-11-17T00:03:42Z</time>
      </trkpt>
      <trkpt lat="38.83660408437827" lon="121.51181690475515">
        <ele>6.702087489888072</ele>
        <time>2025-11-17T00:03:57Z</time>
      </trkpt>
      <trkpt lat="38.83680309322044" lon="121.51153067582058">
        <ele>8.407558674924076</ele>
        <time>2025-11-17T00:04:15Z</time>
      </trkpt>
      <trkpt lat="38.83683980919812" lon="121.51148853228267">
        <ele>7.873945441097021</ele>
        <time>2025-11-17T00:04:18Z</time>
      </trkpt>
      <trkpt lat="38.836974843430205" lon="121.51112788237116">
        <ele>10.114546469412744</ele>
        <time>2025-11-17T00:04:37Z</time>
      </trkpt>
      <trkpt lat="38.837088323991054" lon="121.51080241324739">
        <ele>8.970963306725025</ele>
        <time>2025-11-17T00:04:52Z</time>
      </trkpt>
      <trkpt lat="38.83712172995299" lon="121.51075671033048">
        <ele>8.437913847155869</ele>
        <time>2025-11-17T00:04:55Z</time>
      </trkpt>
      <trkpt lat="38.83714110298745" lon="121.51068758882624">
        <ele>9.56862476002425</ele>
        <time>2025-11-17T00:04:58Z</time>
      </trkpt>
      <trkpt lat="38.837286324274935" lon="121.51047690395765">
        <ele>10.368762235157192</ele>
        <time>2025-11-17T00:05:10Z</time>
      </trkpt>
      <trkpt lat="38.837543274080474" lon="121.51022618141353">
        <ele>11.715187823399901</ele>
        <time>2025-11-17T00:05:28Z</time>
      </trkpt>
      <trkpt lat="38.83763534604284" lon="121.51014824847022">
        <ele>11.366488209925592</ele>
        <time>2025-11-17T00:05:34Z</time>
      </trkpt>
      <trkpt lat="38.837723046923095" lon="121.50997625575104">
        <ele>11.742581124417484</ele>
        <time>2025-11-17T00:05:43Z</time>
      </trkpt>
      <trkpt lat="38.83773767143237" lon="121.5099187035003">
        <ele>10.72411566413939</ele>
        <time>2025-11-17T00:05:46Z</time>
      </trkpt>
      <trkpt lat="38.83780214848166" lon="121.50992088535621">
        <ele>10.505807462148368</ele>
        <time>2025-11-17T00:05:49Z</time>
      </trkpt>
      <trkpt lat="38.83790378821077" lon="121.50974515708447">
        <ele>10.523075926117599</ele>
        <time>2025-11-17T00:05:58Z</time>
      </trkpt>
      <trkpt lat="38.83797658638634" lon="121.50940213714226">
        <ele>11.494890850968659</ele>
        <time>2025-11-17T00:06:13Z</time>
      </trkpt>
      <trkpt lat="38.838056991468505" lon="121.50930007336153">
        <ele>11.137887080200016</ele>
        <time>2025-11-17T00:06:19Z</time>
      </trkpt>
      <trkpt lat="38.83815305365862" lon="121.50923967328906">
        <ele>10.769406072795391</ele>
        <time>2025-11-17T00:06:25Z</time>
      </trkpt>
      <trkpt lat="38.838262544965744" lon="121.50912477589465">
        <ele>11.888206265866756</ele>
        <time>2025-11-17T00:06:32Z</time>
      </trkpt>
      <trkpt lat="38.83825472559022" lon="121.50903004774702">
        <ele>10.921550090424716</ele>
        <time>2025-11-17T00:06:36Z</time>
      </trkpt>
      <trkpt lat="38.83815263267275" lon="121.5089254909131">
        <ele>10.310391200706363</ele>
        <time>2025-11-17T00:06:43Z</time>
      </trkpt>
      <trkpt lat="38.83799392735084" lon="121.50887259827645">
        <ele>11.697519234381616</ele>
        <time>2025-11-17T00:06:52Z</time>
      </trkpt>
      <trkpt lat="38.8379451547662" lon="121.50883080861551">
        <ele>11.147288772277534</ele>
        <time>2025-11-17T00:06:55Z</time>
      </trkpt>
      <trkpt lat="38.837750629460245" lon="121.50856257492745">
        <ele>9.892009251751006</ele>
        <time>2025-11-17T00:07:10Z</time>
      </trkpt>
      <trkpt lat="38.83764090334992" lon="121.50851277229056">
        <ele>10.36357418820262</ele>
        <time>2025-11-17T00:07:16Z</time>
      </trkpt>
      <trkpt lat="38.83755168371303" lon="121.50861772660683">
        <ele>10.39600726775825</ele>
        <time>2025-11-17T00:07:22Z</time>
      </trkpt>
      <trkpt lat="38.837438536037304" lon="121.5089702799843">
        <ele>11.446584464982152</ele>
        <time>2025-11-17T00:07:37Z</time>
      </trkpt>
      <trkpt lat="38.83739721047124" lon="121.50903815051477">
        <ele>11.521407627500594</ele>
        <time>2025-11-17T00:07:40Z</time>
      </trkpt>
      <trkpt lat="38.8372482889846" lon="121.50917270139219">
        <ele>9.92768688686192</ele>
        <time>2025-11-17T00:07:49Z</time>
      </trkpt>
      <trkpt lat="38.83707972499681" lon="121.5095071797334">
        <ele>11.539379162713885</ele>
        <time>2025-11-17T00:08:04Z</time>
      </trkpt>
      <trkpt lat="38.83699982631437" lon="121.50970528687637">
        <ele>11.379913063719869</ele>
        <time>2025-11-17T00:08:13Z</time>
      </trkpt>
      <trkpt lat="38.836834346187636" lon="121.50991961215439">
        <ele>10.678427272476256</ele>
        <time>2025-11-17T00:08:25Z</time>
      </trkpt>
      <trkpt lat="38.83672841746303" lon="121.50997184293756">
        <ele>10.239341753534973</ele>
        <time>2025-11-17T00:08:31Z</time>
      </trkpt>
      <trkpt lat="38.83637929815718" lon="121.51000115858423">
        <ele>9.37044785823673</ele>
        <time>2025-11-17T00:08:49Z</time>
      </trkpt>
      <trkpt lat="38.83626006854784" lon="121.51003061103975">
        <ele>9.169384948909283</ele>
        <time>2025-11-17T00:08:55Z</time>
      </trkpt>
      <trkpt lat="38.83614438088769" lon="121.51009660281294">
        <ele>8.849023628048599</ele>
        <time>2025-11-17T00:09:01Z</time>
      </trkpt>
      <trkpt lat="38.83609921448776" lon="121.51014768313277">
        <ele>9.095613161101937</ele>
        <time>2025-11-17T00:09:04Z</time>
      </trkpt>
      <trkpt lat="38.83610675324707" lon="121.51023305351951">
        <ele>8.418900012038648</ele>
        <time>2025-11-17T00:09:07Z</time>
      </trkpt>
      <trkpt lat="38.83622682634227" lon="121.51054616713222">
        <ele>8.061754756607115</ele>
        <time>2025-11-17T00:09:21Z</time>
      </trkpt>
      <trkpt lat="38.83623082916889" lon="121.51070584557016">
        <ele>7.604401464574039</ele>
        <time>2025-11-17T00:09:27Z</time>
      </trkpt>
      <trkpt lat="38.836153183069214" lon="121.51095724174178">
        <ele>8.154867180623114</ele>
        <time>2025-11-17T00:09:37Z</time>
      </trkpt>
      <trkpt lat="38.836018465739784" lon="121.51119240998868">
        <ele>6.751762960106134</ele>
        <time>2025-11-17T00:09:49Z</time>
      </trkpt>
      <trkpt lat="38.83596214646147" lon="121.51153640773123">
        <ele>6.622215379029512</ele>
        <time>2025-11-17T00:10:04Z</time>
      </trkpt>
      <trkpt lat="38.8359881964489" lon="121.51160171787302">
        <ele>5.36207652837038</ele>
        <time>2025-11-17T00:10:07Z</time>
      </trkpt>
      <trkpt lat="38.8359948760277" lon="121.51167444539152">
        <ele>6.293087476864457</ele>
        <time>2025-11-17T00:10:10Z</time>
      </trkpt>
      <trkpt lat="38.83609291343865" lon="121.51186032805155">
        <ele>5.039157398045063</ele>
        <time>2025-11-17T00:10:19Z</time>
      </trkpt>
      <trkpt lat="38.83619433502735" lon="121.51193204507396">
        <ele>5.130228300578892</ele>
        <time>2025-11-17T00:10:25Z</time>
      </trkpt>
      <trkpt lat="38.83631685057361" lon="121.51195219535435">
        <ele>3.4808457121253014</ele>
        <time>2025-11-17T00:10:31Z</time>
      </trkpt>
      <trkpt lat="38.836435205756004" lon="121.51191390977122">
        <ele>5.352535980753601</ele>
        <time>2025-11-17T00:10:37Z</time>
      </trkpt>
      <trkpt lat="38.83663240280756" lon="121.51178914510764">
        <ele>7.115981046110392</ele>
        <time>2025-11-17T00:10:47Z</time>
      </trkpt>
      <trkpt lat="38.83674115366099" lon="121.51165970597015">
        <ele>8.002184803597629</ele>
        <time>2025-11-17T00:10:54Z</time>
      </trkpt>
      <trkpt lat="38.83681001660367" lon="121.51151702708009">
        <ele>9.26600279007107</ele>
        <time>2025-11-17T00:11:00Z</time>
      </trkpt>
      <trkpt lat="38.83690015780438" lon="121.51139593402975">
        <ele>9.25032408349216</ele>
        <time>2025-11-17T00:11:06Z</time>
      </trkpt>
      <trkpt lat="38.83699799279931" lon="121.51104096186745">
        <ele>8.673689489252865</ele>
        <time>2025-11-17T00:11:21Z</time>
      </trkpt>
      <trkpt lat="38.83702850617109" lon="121.51090290773416">
        <ele>8.367798731662333</ele>
        <time>2025-11-17T00:11:27Z</time>
      </trkpt>
      <trkpt lat="38.83708098607076" lon="121.51075976510948">
        <ele>9.427332252264023</ele>
        <time>2025-11-17T00:11:33Z</time>
      </trkpt>
      <trkpt lat="38.837258082497385" lon="121.51048793967827">
        <ele>10.533304632641375</ele>
        <time>2025-11-17T00:11:48Z</time>
      </trkpt>
      <trkpt lat="38.83749212333607" lon="121.51027676589946">
        <ele>11.969081025570631</ele>
        <time>2025-11-17T00:12:03Z</time>
      </trkpt>
      <trkpt lat="38.8376346604983" lon="121.5101338449148">
        <ele>11.690244316123426</ele>
        <time>2025-11-17T00:12:12Z</time>
      </trkpt>
      <trkpt lat="38.83773173174408" lon="121.50994026432748">
        <ele>10.718535269610584</ele>
        <time>2025-11-17T00:12:21Z</time>
      </trkpt>
      <trkpt lat="38.837845203376546" lon="121.50987947241714">
        <ele>9.684481234289706</ele>
        <time>2025-11-17T00:12:27Z</time>
      </trkpt>
      <trkpt lat="38.83790667487066" lon="121.50974457170287">
        <ele>10.771190846338868</ele>
        <time>2025-11-17T00:12:33Z</time>
      </trkpt>
      <trkpt lat="38.837935486337734" lon="121.50957968316476">
        <ele>12.313891191966832</ele>
        <time>2025-11-17T00:12:39Z</time>
      </trkpt>
      <trkpt lat="38.83799727913044" lon="121.50942343390457">
        <ele>12.026037657633424</ele>
        <time>2025-11-17T00:12:45Z</time>
      </trkpt>
      <trkpt lat="38.83817893522999" lon="121.50921121645848">
        <ele>12.148176931776106</ele>
        <time>2025-11-17T00:12:57Z</time>
      </trkpt>
      <trkpt lat="38.83825216895572" lon="121.50915848370948">
        <ele>11.520519396290183</ele>
        <time>2025-11-17T00:13:01Z</time>
      </trkpt>
      <trkpt lat="38.8382922311161" lon="121.5090904305479">
        <ele>10.89708855189383</ele>
        <time>2025-11-17T00:13:04Z</time>
      </trkpt>
      <trkpt lat="38.83824746276423" lon="121.5089988103621">
        <ele>10.96457391884178</ele>
        <time>2025-11-17T00:13:07Z</time>
      </trkpt>
      <trkpt lat="38.83799455323374" lon="121.50876213657824">
        <ele>11.378426043316722</ele>
        <time>2025-11-17T00:13:22Z</time>
      </trkpt>
      <trkpt lat="38.83774115398753" lon="121.50851558062303">
        <ele>9.897949883714318</ele>
        <time>2025-11-17T00:13:37Z</time>
      </trkpt>
      <trkpt lat="38.837686480067745" lon="121.50846315337374">
        <ele>10.045555372722447</ele>
        <time>2025-11-17T00:13:40Z</time>
      </trkpt>
      <trkpt lat="38.83760649742233" lon="121.50833047664514">
        <ele>9.51934164389968</ele>
        <time>2025-11-17T00:13:46Z</time>
      </trkpt>
      <trkpt lat="38.83733375841631" lon="121.5081234226435">
        <ele>8.745624542236328</ele>
        <time>2025-11-17T00:14:04Z</time>
      </trkpt>
      <trkpt lat="38.83716669615609" lon="121.50792525819018">
        <ele>9.615308943204582</ele>
        <time>2025-11-17T00:14:13Z</time>
      </trkpt>
      <trkpt lat="38.83693844702688" lon="121.50772575631851">
        <ele>9.942192719317973</ele>
        <time>2025-11-17T00:14:25Z</time>
      </trkpt>
      <trkpt lat="38.836744097404186" lon="121.50752888022457">
        <ele>10.974339955486357</ele>
        <time>2025-11-17T00:14:43Z</time>
      </trkpt>
      <trkpt lat="38.83669813404591" lon="121.50745455885918">
        <ele>10.616610416211188</ele>
        <time>2025-11-17T00:14:53Z</time>
      </trkpt>
      <trkpt lat="38.836464019407785" lon="121.50727963987518">
        <ele>9.645435051061213</ele>
        <time>2025-11-17T00:15:12Z</time>
      </trkpt>
      <trkpt lat="38.83622159390319" lon="121.50709245507133">
        <ele>10.29067634884268</ele>
        <time>2025-11-17T00:15:24Z</time>
      </trkpt>
      <trkpt lat="38.83608420507007" lon="121.50695701441302">
        <ele>10.454489840194583</ele>
        <time>2025-11-17T00:15:36Z</time>
      </trkpt>
      <trkpt lat="38.83614375251568" lon="121.50683873761706">
        <ele>10.031817719340324</ele>
        <time>2025-11-17T00:15:54Z</time>
      </trkpt>
      <trkpt lat="38.836167791977324" lon="121.50675094347876">
        <ele>10.03433143813163</ele>
        <time>2025-11-17T00:16:00Z</time>
      </trkpt>
      <trkpt lat="38.836162539091056" lon="121.50667725972673">
        <ele>9.666355984285474</ele>
        <time>2025-11-17T00:16:06Z</time>
      </trkpt>
      <trkpt lat="38.83629045876264" lon="121.5063227355294">
        <ele>8.145203864201903</ele>
        <time>2025-11-17T00:16:36Z</time>
      </trkpt>
      <trkpt lat="38.836413579106186" lon="121.5059567217267">
        <ele>8.491410719230771</ele>
        <time>2025-11-17T00:17:07Z</time>
      </trkpt>
      <trkpt lat="38.83653774214573" lon="121.50556329285831">
        <ele>8.929732925258577</ele>
        <time>2025-11-17T00:17:38Z</time>
      </trkpt>
      <trkpt lat="38.83666046327494" lon="121.50516421479561">
        <ele>9.581844188272953</ele>
        <time>2025-11-17T00:18:08Z</time>
      </trkpt>
      <trkpt lat="38.83670487486621" lon="121.50509412167946">
        <ele>10.043263453058898</ele>
        <time>2025-11-17T00:18:14Z</time>
      </trkpt>
      <trkpt lat="38.836821879322294" lon="121.50473284482995">
        <ele>9.118180780671537</ele>
        <time>2025-11-17T00:18:41Z</time>
      </trkpt>
      <trkpt lat="38.83683451093562" lon="121.50464701221408">
        <ele>9.66888608969748</ele>
        <time>2025-11-17T00:18:47Z</time>
      </trkpt>
      <trkpt lat="38.83693030989363" lon="121.50436869674904">
        <ele>9.581329938955605</ele>
        <time>2025-11-17T00:19:06Z</time>
      </trkpt>
      <trkpt lat="38.83701685543493" lon="121.50424938850401">
        <ele>9.470864091999829</ele>
        <time>2025-11-17T00:19:18Z</time>
      </trkpt>
      <trkpt lat="38.83707273144379" lon="121.50421936096924">
        <ele>8.260375315323472</ele>
        <time>2025-11-17T00:19:24Z</time>
      </trkpt>
      <trkpt lat="38.83720399953895" lon="121.50427820283906">
        <ele>8.182376478798687</ele>
        <time>2025-11-17T00:19:36Z</time>
      </trkpt>
      <trkpt lat="38.83720399953895" lon="121.50427820283906">
        <ele>8.182376478798687</ele>
        <time>2025-11-17T00:19:41Z</time>
      </trkpt>
    </trkseg>
  </trk>
</gpx>