<?xml version="1.0" encoding="UTF-8"?>
<gpx xmlns="http://www.topografix.com/GPX/1/1" xmlns:gpxtpx="http://www.garmin.com/xmlschemas/TrackPointExtension/v1" xmlns:xsi="http://www.w3.org/2001/XMLSchema-instance" xsi:schemaLocation="http://www.topografix.com/GPX/1/1 http://www.topografix.com/GPX/1/1/gpx.xsd" version="1.1" creator="gpx.py -- https://github.com/tkrajina/gpxpy">
  <trk>
    <name>gpx from keep</name>
    <type>Run</type>
    <trkseg>
      <trkpt lat="38.83201921163617" lon="121.50607058485693">
        <ele>4.469725352711976</ele>
        <time>2024-09-11T00:02:18Z</time>
      </trkpt>
      <trkpt lat="38.832022083918226" lon="121.50598932121412">
        <ele>4.770442205481231</ele>
        <time>2024-09-11T00:02:22Z</time>
      </trkpt>
      <trkpt lat="38.83196912316965" lon="121.50579192035885">
        <ele>3.753692270256579</ele>
        <time>2024-09-11T00:02:30Z</time>
      </trkpt>
      <trkpt lat="38.831926486341075" lon="121.5056899744964">
        <ele>4.479857731610537</ele>
        <time>2024-09-11T00:02:34Z</time>
      </trkpt>
      <trkpt lat="38.83178566486603" lon="121.50549702084308">
        <ele>4.765011558309197</ele>
        <time>2024-09-11T00:02:42Z</time>
      </trkpt>
      <trkpt lat="38.83164943484946" lon="121.50535890348287">
        <ele>5.127655819989741</ele>
        <time>2024-09-11T00:02:49Z</time>
      </trkpt>
      <trkpt lat="38.831460006567745" lon="121.50524504944431">
        <ele>6.922812486067414</ele>
        <time>2024-09-11T00:02:58Z</time>
      </trkpt>
      <trkpt lat="38.83137090986677" lon="121.50523142240561">
        <ele>6.930915942415595</ele>
        <time>2024-09-11T00:03:02Z</time>
      </trkpt>
      <trkpt lat="38.83120132758991" lon="121.50526976454717">
        <ele>5.105974634177983</ele>
        <time>2024-09-11T00:03:10Z</time>
      </trkpt>
      <trkpt lat="38.83110740952637" lon="121.50524775104857">
        <ele>5.4774839617311954</ele>
        <time>2024-09-11T00:03:14Z</time>
      </trkpt>
      <trkpt lat="38.83090186313279" lon="121.50526152911686">
        <ele>4.939675481058657</ele>
        <time>2024-09-11T00:03:22Z</time>
      </trkpt>
      <trkpt lat="38.830746865136234" lon="121.50513812839823">
        <ele>5.437971984036267</ele>
        <time>2024-09-11T00:03:30Z</time>
      </trkpt>
      <trkpt lat="38.83052400510988" lon="121.50492997418127">
        <ele>5.706219385378063</ele>
        <time>2024-09-11T00:03:42Z</time>
      </trkpt>
      <trkpt lat="38.83036260794556" lon="121.50482597453075">
        <ele>5.477698529139161</ele>
        <time>2024-09-11T00:03:50Z</time>
      </trkpt>
      <trkpt lat="38.8301935466059" lon="121.50474747319366">
        <ele>4.623081578873098</ele>
        <time>2024-09-11T00:03:58Z</time>
      </trkpt>
      <trkpt lat="38.83001993506428" lon="121.50462790342574">
        <ele>4.812832958996296</ele>
        <time>2024-09-11T00:04:06Z</time>
      </trkpt>
      <trkpt lat="38.82974828217609" lon="121.5043238841015">
        <ele>4.382287390530109</ele>
        <time>2024-09-11T00:04:22Z</time>
      </trkpt>
      <trkpt lat="38.829676953057536" lon="121.50424520390455">
        <ele>4.235204228200018</ele>
        <time>2024-09-11T00:04:26Z</time>
      </trkpt>
      <trkpt lat="38.82942961956804" lon="121.5040860574557">
        <ele>5.287243055179715</ele>
        <time>2024-09-11T00:04:38Z</time>
      </trkpt>
      <trkpt lat="38.829181045645925" lon="121.50397014015185">
        <ele>5.372882114723325</ele>
        <time>2024-09-11T00:04:50Z</time>
      </trkpt>
      <trkpt lat="38.82912147731756" lon="121.50391200080024">
        <ele>5.727181449532509</ele>
        <time>2024-09-11T00:04:53Z</time>
      </trkpt>
      <trkpt lat="38.82896615382345" lon="121.50385758997201">
        <ele>5.055190694518387</ele>
        <time>2024-09-11T00:05:00Z</time>
      </trkpt>
      <trkpt lat="38.828777245259026" lon="121.50387274515062">
        <ele>5.369129873812199</ele>
        <time>2024-09-11T00:05:08Z</time>
      </trkpt>
      <trkpt lat="38.82859287359298" lon="121.50393079461944">
        <ele>4.947347373701632</ele>
        <time>2024-09-11T00:05:16Z</time>
      </trkpt>
      <trkpt lat="38.828402858243315" lon="121.50393807142754">
        <ele>4.694125982001424</ele>
        <time>2024-09-11T00:05:24Z</time>
      </trkpt>
      <trkpt lat="38.82822938815007" lon="121.5038741065804">
        <ele>4.588231686502695</ele>
        <time>2024-09-11T00:05:32Z</time>
      </trkpt>
      <trkpt lat="38.828101090183004" lon="121.50374204633617">
        <ele>3.995582975447178</ele>
        <time>2024-09-11T00:05:39Z</time>
      </trkpt>
      <trkpt lat="38.82801733747166" lon="121.50353754165663">
        <ele>4.046425487846136</ele>
        <time>2024-09-11T00:05:47Z</time>
      </trkpt>
      <trkpt lat="38.827975389478524" lon="121.503299788991">
        <ele>3.4761483781039715</ele>
        <time>2024-09-11T00:05:55Z</time>
      </trkpt>
      <trkpt lat="38.82788460337262" lon="121.50307135621361">
        <ele>3.779425977729261</ele>
        <time>2024-09-11T00:06:03Z</time>
      </trkpt>
      <trkpt lat="38.82782324708966" lon="121.50297476860922">
        <ele>4.636196496896446</ele>
        <time>2024-09-11T00:06:07Z</time>
      </trkpt>
      <trkpt lat="38.827729169688645" lon="121.50291702756167">
        <ele>6.58301345538348</ele>
        <time>2024-09-11T00:06:11Z</time>
      </trkpt>
      <trkpt lat="38.82745688273899" lon="121.50284485400181">
        <ele>6.676091603934765</ele>
        <time>2024-09-11T00:06:23Z</time>
        <extensions>
          <gpxtpx:TrackPointExtension>
            <gpxtpx:hr>141</gpxtpx:hr>
          </gpxtpx:TrackPointExtension>
        </extensions>
      </trkpt>
      <trkpt lat="38.827263908993864" lon="121.50283326986731">
        <ele>6.465736980549991</ele>
        <time>2024-09-11T00:06:31Z</time>
        <extensions>
          <gpxtpx:TrackPointExtension>
            <gpxtpx:hr>141</gpxtpx:hr>
          </gpxtpx:TrackPointExtension>
        </extensions>
      </trkpt>
      <trkpt lat="38.8271757050173" lon="121.50284768468026">
        <ele>6.419842381961644</ele>
        <time>2024-09-11T00:06:35Z</time>
        <extensions>
          <gpxtpx:TrackPointExtension>
            <gpxtpx:hr>142</gpxtpx:hr>
          </gpxtpx:TrackPointExtension>
        </extensions>
      </trkpt>
      <trkpt lat="38.82700622345008" lon="121.50296666510982">
        <ele>5.9102219780907035</ele>
        <time>2024-09-11T00:06:43Z</time>
        <extensions>
          <gpxtpx:TrackPointExtension>
            <gpxtpx:hr>141</gpxtpx:hr>
          </gpxtpx:TrackPointExtension>
        </extensions>
      </trkpt>
      <trkpt lat="38.82679528766278" lon="121.50321069434406">
        <ele>5.278509184718132</ele>
        <time>2024-09-11T00:06:55Z</time>
        <extensions>
          <gpxtpx:TrackPointExtension>
            <gpxtpx:hr>142</gpxtpx:hr>
          </gpxtpx:TrackPointExtension>
        </extensions>
      </trkpt>
      <trkpt lat="38.82661608124295" lon="121.50341300723427">
        <ele>4.759866730310023</ele>
        <time>2024-09-11T00:07:06Z</time>
        <extensions>
          <gpxtpx:TrackPointExtension>
            <gpxtpx:hr>143</gpxtpx:hr>
          </gpxtpx:TrackPointExtension>
        </extensions>
      </trkpt>
      <trkpt lat="38.826503246195664" lon="121.50359516023761">
        <ele>6.5801457511261106</ele>
        <time>2024-09-11T00:07:14Z</time>
        <extensions>
          <gpxtpx:TrackPointExtension>
            <gpxtpx:hr>144</gpxtpx:hr>
          </gpxtpx:TrackPointExtension>
        </extensions>
      </trkpt>
      <trkpt lat="38.82645519408464" lon="121.50381534982199">
        <ele>7.055098067037761</ele>
        <time>2024-09-11T00:07:22Z</time>
        <extensions>
          <gpxtpx:TrackPointExtension>
            <gpxtpx:hr>144</gpxtpx:hr>
          </gpxtpx:TrackPointExtension>
        </extensions>
      </trkpt>
      <trkpt lat="38.82644081699795" lon="121.50404925213896">
        <ele>5.700405096635222</ele>
        <time>2024-09-11T00:07:30Z</time>
        <extensions>
          <gpxtpx:TrackPointExtension>
            <gpxtpx:hr>145</gpxtpx:hr>
          </gpxtpx:TrackPointExtension>
        </extensions>
      </trkpt>
      <trkpt lat="38.82644895800604" lon="121.50416773591478">
        <ele>5.335885535925627</ele>
        <time>2024-09-11T00:07:34Z</time>
        <extensions>
          <gpxtpx:TrackPointExtension>
            <gpxtpx:hr>145</gpxtpx:hr>
          </gpxtpx:TrackPointExtension>
        </extensions>
      </trkpt>
      <trkpt lat="38.826475283691245" lon="121.50427673580359">
        <ele>4.384458283893764</ele>
        <time>2024-09-11T00:07:38Z</time>
        <extensions>
          <gpxtpx:TrackPointExtension>
            <gpxtpx:hr>146</gpxtpx:hr>
          </gpxtpx:TrackPointExtension>
        </extensions>
      </trkpt>
      <trkpt lat="38.82641396057927" lon="121.50452314127303">
        <ele>4.954298108816147</ele>
        <time>2024-09-11T00:07:46Z</time>
        <extensions>
          <gpxtpx:TrackPointExtension>
            <gpxtpx:hr>146</gpxtpx:hr>
          </gpxtpx:TrackPointExtension>
        </extensions>
      </trkpt>
      <trkpt lat="38.82637207647241" lon="121.5046239545668">
        <ele>5.124205304309726</ele>
        <time>2024-09-11T00:07:50Z</time>
        <extensions>
          <gpxtpx:TrackPointExtension>
            <gpxtpx:hr>146</gpxtpx:hr>
          </gpxtpx:TrackPointExtension>
        </extensions>
      </trkpt>
      <trkpt lat="38.82630087760371" lon="121.50472076644323">
        <ele>5.2655293578282</ele>
        <time>2024-09-11T00:07:54Z</time>
        <extensions>
          <gpxtpx:TrackPointExtension>
            <gpxtpx:hr>146</gpxtpx:hr>
          </gpxtpx:TrackPointExtension>
        </extensions>
      </trkpt>
      <trkpt lat="38.826197159138964" lon="121.50471642999588">
        <ele>4.329194798134267</ele>
        <time>2024-09-11T00:07:58Z</time>
        <extensions>
          <gpxtpx:TrackPointExtension>
            <gpxtpx:hr>147</gpxtpx:hr>
          </gpxtpx:TrackPointExtension>
        </extensions>
      </trkpt>
      <trkpt lat="38.82601024233473" lon="121.50473512925828">
        <ele>5.422950247302651</ele>
        <time>2024-09-11T00:08:06Z</time>
        <extensions>
          <gpxtpx:TrackPointExtension>
            <gpxtpx:hr>148</gpxtpx:hr>
          </gpxtpx:TrackPointExtension>
        </extensions>
      </trkpt>
      <trkpt lat="38.82582867003794" lon="121.50468982344697">
        <ele>5.869434602558613</ele>
        <time>2024-09-11T00:08:14Z</time>
        <extensions>
          <gpxtpx:TrackPointExtension>
            <gpxtpx:hr>149</gpxtpx:hr>
          </gpxtpx:TrackPointExtension>
        </extensions>
      </trkpt>
      <trkpt lat="38.825483828312805" lon="121.50469978224797">
        <ele>6.195081567391753</ele>
        <time>2024-09-11T00:08:30Z</time>
        <extensions>
          <gpxtpx:TrackPointExtension>
            <gpxtpx:hr>149</gpxtpx:hr>
          </gpxtpx:TrackPointExtension>
        </extensions>
      </trkpt>
      <trkpt lat="38.8252143944072" lon="121.50474664775803">
        <ele>6.4392570136114955</ele>
        <time>2024-09-11T00:08:42Z</time>
        <extensions>
          <gpxtpx:TrackPointExtension>
            <gpxtpx:hr>149</gpxtpx:hr>
          </gpxtpx:TrackPointExtension>
        </extensions>
      </trkpt>
      <trkpt lat="38.82513251638452" lon="121.50474562380025">
        <ele>6.261694602668285</ele>
        <time>2024-09-11T00:08:46Z</time>
        <extensions>
          <gpxtpx:TrackPointExtension>
            <gpxtpx:hr>149</gpxtpx:hr>
          </gpxtpx:TrackPointExtension>
        </extensions>
      </trkpt>
      <trkpt lat="38.825177731538304" lon="121.50482341815372">
        <ele>6.421870383433998</ele>
        <time>2024-09-11T00:08:50Z</time>
        <extensions>
          <gpxtpx:TrackPointExtension>
            <gpxtpx:hr>150</gpxtpx:hr>
          </gpxtpx:TrackPointExtension>
        </extensions>
      </trkpt>
      <trkpt lat="38.825266026363764" lon="121.50478816365708">
        <ele>4.755549891851842</ele>
        <time>2024-09-11T00:08:54Z</time>
        <extensions>
          <gpxtpx:TrackPointExtension>
            <gpxtpx:hr>149</gpxtpx:hr>
          </gpxtpx:TrackPointExtension>
        </extensions>
      </trkpt>
      <trkpt lat="38.82545346400326" lon="121.50478304034398">
        <ele>4.137750193476677</ele>
        <time>2024-09-11T00:09:02Z</time>
        <extensions>
          <gpxtpx:TrackPointExtension>
            <gpxtpx:hr>148</gpxtpx:hr>
          </gpxtpx:TrackPointExtension>
        </extensions>
      </trkpt>
      <trkpt lat="38.825536678516734" lon="121.50492651862623">
        <ele>5.803336099721491</ele>
        <time>2024-09-11T00:09:08Z</time>
        <extensions>
          <gpxtpx:TrackPointExtension>
            <gpxtpx:hr>150</gpxtpx:hr>
          </gpxtpx:TrackPointExtension>
        </extensions>
      </trkpt>
      <trkpt lat="38.82560837024063" lon="121.50497681816395">
        <ele>5.284296561963856</ele>
        <time>2024-09-11T00:09:11Z</time>
        <extensions>
          <gpxtpx:TrackPointExtension>
            <gpxtpx:hr>150</gpxtpx:hr>
          </gpxtpx:TrackPointExtension>
        </extensions>
      </trkpt>
      <trkpt lat="38.825912953012136" lon="121.50494048855192">
        <ele>4.855768986046314</ele>
        <time>2024-09-11T00:09:23Z</time>
        <extensions>
          <gpxtpx:TrackPointExtension>
            <gpxtpx:hr>150</gpxtpx:hr>
          </gpxtpx:TrackPointExtension>
        </extensions>
      </trkpt>
      <trkpt lat="38.826121605583516" lon="121.504914919575">
        <ele>5.203960790298879</ele>
        <time>2024-09-11T00:09:31Z</time>
        <extensions>
          <gpxtpx:TrackPointExtension>
            <gpxtpx:hr>149</gpxtpx:hr>
          </gpxtpx:TrackPointExtension>
        </extensions>
      </trkpt>
      <trkpt lat="38.826284000998555" lon="121.50480567855037">
        <ele>3.782268600538373</ele>
        <time>2024-09-11T00:09:39Z</time>
        <extensions>
          <gpxtpx:TrackPointExtension>
            <gpxtpx:hr>152</gpxtpx:hr>
          </gpxtpx:TrackPointExtension>
        </extensions>
      </trkpt>
      <trkpt lat="38.82642237224151" lon="121.5046640406421">
        <ele>3.723315696232021</ele>
        <time>2024-09-11T00:09:47Z</time>
        <extensions>
          <gpxtpx:TrackPointExtension>
            <gpxtpx:hr>154</gpxtpx:hr>
          </gpxtpx:TrackPointExtension>
        </extensions>
      </trkpt>
      <trkpt lat="38.82651397965821" lon="121.5043243029716">
        <ele>3.650386031717062</ele>
        <time>2024-09-11T00:09:59Z</time>
        <extensions>
          <gpxtpx:TrackPointExtension>
            <gpxtpx:hr>154</gpxtpx:hr>
          </gpxtpx:TrackPointExtension>
        </extensions>
      </trkpt>
      <trkpt lat="38.82657518376572" lon="121.5040925470489">
        <ele>3.9247968532145023</ele>
        <time>2024-09-11T00:10:07Z</time>
        <extensions>
          <gpxtpx:TrackPointExtension>
            <gpxtpx:hr>155</gpxtpx:hr>
          </gpxtpx:TrackPointExtension>
        </extensions>
      </trkpt>
      <trkpt lat="38.82657519216291" lon="121.50386347252727">
        <ele>3.518463546410203</ele>
        <time>2024-09-11T00:10:15Z</time>
        <extensions>
          <gpxtpx:TrackPointExtension>
            <gpxtpx:hr>156</gpxtpx:hr>
          </gpxtpx:TrackPointExtension>
        </extensions>
      </trkpt>
      <trkpt lat="38.8266117383411" lon="121.5036338143021">
        <ele>3.649260802194476</ele>
        <time>2024-09-11T00:10:23Z</time>
        <extensions>
          <gpxtpx:TrackPointExtension>
            <gpxtpx:hr>156</gpxtpx:hr>
          </gpxtpx:TrackPointExtension>
        </extensions>
      </trkpt>
      <trkpt lat="38.82665165152269" lon="121.50352066707661">
        <ele>4.495965912938118</ele>
        <time>2024-09-11T00:10:27Z</time>
        <extensions>
          <gpxtpx:TrackPointExtension>
            <gpxtpx:hr>156</gpxtpx:hr>
          </gpxtpx:TrackPointExtension>
        </extensions>
      </trkpt>
      <trkpt lat="38.826772948818004" lon="121.5033249420421">
        <ele>4.0720125567168</ele>
        <time>2024-09-11T00:10:35Z</time>
        <extensions>
          <gpxtpx:TrackPointExtension>
            <gpxtpx:hr>157</gpxtpx:hr>
          </gpxtpx:TrackPointExtension>
        </extensions>
      </trkpt>
      <trkpt lat="38.826850554718725" lon="121.50326413928212">
        <ele>4.424157119356096</ele>
        <time>2024-09-11T00:10:39Z</time>
        <extensions>
          <gpxtpx:TrackPointExtension>
            <gpxtpx:hr>155</gpxtpx:hr>
          </gpxtpx:TrackPointExtension>
        </extensions>
      </trkpt>
      <trkpt lat="38.82690409310792" lon="121.50317326997296">
        <ele>4.093022501096129</ele>
        <time>2024-09-11T00:10:43Z</time>
        <extensions>
          <gpxtpx:TrackPointExtension>
            <gpxtpx:hr>155</gpxtpx:hr>
          </gpxtpx:TrackPointExtension>
        </extensions>
      </trkpt>
      <trkpt lat="38.8270621392436" lon="121.50301921046996">
        <ele>5.046156267635524</ele>
        <time>2024-09-11T00:10:51Z</time>
        <extensions>
          <gpxtpx:TrackPointExtension>
            <gpxtpx:hr>155</gpxtpx:hr>
          </gpxtpx:TrackPointExtension>
        </extensions>
      </trkpt>
      <trkpt lat="38.827242964695934" lon="121.50293196240196">
        <ele>5.441181247122586</ele>
        <time>2024-09-11T00:10:59Z</time>
        <extensions>
          <gpxtpx:TrackPointExtension>
            <gpxtpx:hr>155</gpxtpx:hr>
          </gpxtpx:TrackPointExtension>
        </extensions>
      </trkpt>
      <trkpt lat="38.827514937616655" lon="121.50291729381756">
        <ele>4.076523454859853</ele>
        <time>2024-09-11T00:11:10Z</time>
        <extensions>
          <gpxtpx:TrackPointExtension>
            <gpxtpx:hr>157</gpxtpx:hr>
          </gpxtpx:TrackPointExtension>
        </extensions>
      </trkpt>
      <trkpt lat="38.827687016119974" lon="121.50292840492303">
        <ele>4.935564572922885</ele>
        <time>2024-09-11T00:11:17Z</time>
        <extensions>
          <gpxtpx:TrackPointExtension>
            <gpxtpx:hr>157</gpxtpx:hr>
          </gpxtpx:TrackPointExtension>
        </extensions>
      </trkpt>
      <trkpt lat="38.827780725395954" lon="121.50295473015021">
        <ele>4.9562642853707075</ele>
        <time>2024-09-11T00:11:21Z</time>
        <extensions>
          <gpxtpx:TrackPointExtension>
            <gpxtpx:hr>157</gpxtpx:hr>
          </gpxtpx:TrackPointExtension>
        </extensions>
      </trkpt>
      <trkpt lat="38.82786503585334" lon="121.50300969867058">
        <ele>4.456967552192509</ele>
        <time>2024-09-11T00:11:25Z</time>
        <extensions>
          <gpxtpx:TrackPointExtension>
            <gpxtpx:hr>157</gpxtpx:hr>
          </gpxtpx:TrackPointExtension>
        </extensions>
      </trkpt>
      <trkpt lat="38.82798397552266" lon="121.50318670018326">
        <ele>2.678881950676441</ele>
        <time>2024-09-11T00:11:33Z</time>
        <extensions>
          <gpxtpx:TrackPointExtension>
            <gpxtpx:hr>158</gpxtpx:hr>
          </gpxtpx:TrackPointExtension>
        </extensions>
      </trkpt>
      <trkpt lat="38.828021604846505" lon="121.5032793324377">
        <ele>3.123102219775319</ele>
        <time>2024-09-11T00:11:37Z</time>
        <extensions>
          <gpxtpx:TrackPointExtension>
            <gpxtpx:hr>158</gpxtpx:hr>
          </gpxtpx:TrackPointExtension>
        </extensions>
      </trkpt>
      <trkpt lat="38.82806548391581" lon="121.50352753574772">
        <ele>2.308779938146472</ele>
        <time>2024-09-11T00:11:45Z</time>
        <extensions>
          <gpxtpx:TrackPointExtension>
            <gpxtpx:hr>157</gpxtpx:hr>
          </gpxtpx:TrackPointExtension>
        </extensions>
      </trkpt>
      <trkpt lat="38.82811099075695" lon="121.50365161686109">
        <ele>3.937215095385909</ele>
        <time>2024-09-11T00:11:49Z</time>
        <extensions>
          <gpxtpx:TrackPointExtension>
            <gpxtpx:hr>156</gpxtpx:hr>
          </gpxtpx:TrackPointExtension>
        </extensions>
      </trkpt>
      <trkpt lat="38.828169914163155" lon="121.50374917691227">
        <ele>3.286289577372372</ele>
        <time>2024-09-11T00:11:53Z</time>
        <extensions>
          <gpxtpx:TrackPointExtension>
            <gpxtpx:hr>156</gpxtpx:hr>
          </gpxtpx:TrackPointExtension>
        </extensions>
      </trkpt>
      <trkpt lat="38.828331620196316" lon="121.50387362702615">
        <ele>3.8349252305924892</ele>
        <time>2024-09-11T00:12:01Z</time>
        <extensions>
          <gpxtpx:TrackPointExtension>
            <gpxtpx:hr>156</gpxtpx:hr>
          </gpxtpx:TrackPointExtension>
        </extensions>
      </trkpt>
      <trkpt lat="38.828429510703295" lon="121.5039145582142">
        <ele>3.3859383445233107</ele>
        <time>2024-09-11T00:12:05Z</time>
        <extensions>
          <gpxtpx:TrackPointExtension>
            <gpxtpx:hr>156</gpxtpx:hr>
          </gpxtpx:TrackPointExtension>
        </extensions>
      </trkpt>
      <trkpt lat="38.82877367164271" lon="121.50384068605081">
        <ele>3.8915557079017162</ele>
        <time>2024-09-11T00:12:21Z</time>
        <extensions>
          <gpxtpx:TrackPointExtension>
            <gpxtpx:hr>156</gpxtpx:hr>
          </gpxtpx:TrackPointExtension>
        </extensions>
      </trkpt>
      <trkpt lat="38.82896612739731" lon="121.50382702221746">
        <ele>2.8576499819755554</ele>
        <time>2024-09-11T00:12:29Z</time>
        <extensions>
          <gpxtpx:TrackPointExtension>
            <gpxtpx:hr>154</gpxtpx:hr>
          </gpxtpx:TrackPointExtension>
        </extensions>
      </trkpt>
      <trkpt lat="38.82924934930936" lon="121.50391039704881">
        <ele>4.772570729255676</ele>
        <time>2024-09-11T00:12:41Z</time>
        <extensions>
          <gpxtpx:TrackPointExtension>
            <gpxtpx:hr>155</gpxtpx:hr>
          </gpxtpx:TrackPointExtension>
        </extensions>
      </trkpt>
      <trkpt lat="38.82951683080103" lon="121.5040307890412">
        <ele>6.1636349353939295</ele>
        <time>2024-09-11T00:12:53Z</time>
        <extensions>
          <gpxtpx:TrackPointExtension>
            <gpxtpx:hr>156</gpxtpx:hr>
          </gpxtpx:TrackPointExtension>
        </extensions>
      </trkpt>
      <trkpt lat="38.82975125955312" lon="121.50420829524644">
        <ele>6.500151715241373</ele>
        <time>2024-09-11T00:13:05Z</time>
        <extensions>
          <gpxtpx:TrackPointExtension>
            <gpxtpx:hr>155</gpxtpx:hr>
          </gpxtpx:TrackPointExtension>
        </extensions>
      </trkpt>
      <trkpt lat="38.829818408650254" lon="121.50427859665176">
        <ele>5.857757829129696</ele>
        <time>2024-09-11T00:13:09Z</time>
        <extensions>
          <gpxtpx:TrackPointExtension>
            <gpxtpx:hr>156</gpxtpx:hr>
          </gpxtpx:TrackPointExtension>
        </extensions>
      </trkpt>
      <trkpt lat="38.829909372821064" lon="121.50433464179848">
        <ele>6.499204860068858</ele>
        <time>2024-09-11T00:13:13Z</time>
        <extensions>
          <gpxtpx:TrackPointExtension>
            <gpxtpx:hr>157</gpxtpx:hr>
          </gpxtpx:TrackPointExtension>
        </extensions>
      </trkpt>
      <trkpt lat="38.83000210182903" lon="121.50447607170729">
        <ele>5.524238687008619</ele>
        <time>2024-09-11T00:13:19Z</time>
        <extensions>
          <gpxtpx:TrackPointExtension>
            <gpxtpx:hr>157</gpxtpx:hr>
          </gpxtpx:TrackPointExtension>
        </extensions>
      </trkpt>
      <trkpt lat="38.8301586301113" lon="121.50461577731821">
        <ele>5.239902322180569</ele>
        <time>2024-09-11T00:13:27Z</time>
        <extensions>
          <gpxtpx:TrackPointExtension>
            <gpxtpx:hr>157</gpxtpx:hr>
          </gpxtpx:TrackPointExtension>
        </extensions>
      </trkpt>
      <trkpt lat="38.830431244176744" lon="121.50479004201864">
        <ele>6.168893861584365</ele>
        <time>2024-09-11T00:13:39Z</time>
        <extensions>
          <gpxtpx:TrackPointExtension>
            <gpxtpx:hr>156</gpxtpx:hr>
          </gpxtpx:TrackPointExtension>
        </extensions>
      </trkpt>
      <trkpt lat="38.83060314493514" lon="121.50486431016184">
        <ele>3.6216650241985917</ele>
        <time>2024-09-11T00:13:47Z</time>
        <extensions>
          <gpxtpx:TrackPointExtension>
            <gpxtpx:hr>156</gpxtpx:hr>
          </gpxtpx:TrackPointExtension>
        </extensions>
      </trkpt>
      <trkpt lat="38.830677096271806" lon="121.50493983909396">
        <ele>5.743820956908166</ele>
        <time>2024-09-11T00:13:51Z</time>
        <extensions>
          <gpxtpx:TrackPointExtension>
            <gpxtpx:hr>157</gpxtpx:hr>
          </gpxtpx:TrackPointExtension>
        </extensions>
      </trkpt>
      <trkpt lat="38.83075568288308" lon="121.50497341762468">
        <ele>4.654202834703028</ele>
        <time>2024-09-11T00:13:55Z</time>
        <extensions>
          <gpxtpx:TrackPointExtension>
            <gpxtpx:hr>158</gpxtpx:hr>
          </gpxtpx:TrackPointExtension>
        </extensions>
      </trkpt>
      <trkpt lat="38.83084072519051" lon="121.50504924372645">
        <ele>5.152910395525396</ele>
        <time>2024-09-11T00:13:59Z</time>
        <extensions>
          <gpxtpx:TrackPointExtension>
            <gpxtpx:hr>157</gpxtpx:hr>
          </gpxtpx:TrackPointExtension>
        </extensions>
      </trkpt>
      <trkpt lat="38.83101884379819" lon="121.50513643917006">
        <ele>5.227242421358824</ele>
        <time>2024-09-11T00:14:07Z</time>
        <extensions>
          <gpxtpx:TrackPointExtension>
            <gpxtpx:hr>159</gpxtpx:hr>
          </gpxtpx:TrackPointExtension>
        </extensions>
      </trkpt>
      <trkpt lat="38.831131032455346" lon="121.50516307846043">
        <ele>6.311775120906532</ele>
        <time>2024-09-11T00:14:11Z</time>
        <extensions>
          <gpxtpx:TrackPointExtension>
            <gpxtpx:hr>159</gpxtpx:hr>
          </gpxtpx:TrackPointExtension>
        </extensions>
      </trkpt>
      <trkpt lat="38.831321526855774" lon="121.50515812581773">
        <ele>5.856018215417862</ele>
        <time>2024-09-11T00:14:19Z</time>
        <extensions>
          <gpxtpx:TrackPointExtension>
            <gpxtpx:hr>161</gpxtpx:hr>
          </gpxtpx:TrackPointExtension>
        </extensions>
      </trkpt>
      <trkpt lat="38.83152105613845" lon="121.50519665532303">
        <ele>6.499862649478018</ele>
        <time>2024-09-11T00:14:27Z</time>
        <extensions>
          <gpxtpx:TrackPointExtension>
            <gpxtpx:hr>161</gpxtpx:hr>
          </gpxtpx:TrackPointExtension>
        </extensions>
      </trkpt>
      <trkpt lat="38.83168855621183" lon="121.50528651930576">
        <ele>6.769445065408945</ele>
        <time>2024-09-11T00:14:35Z</time>
        <extensions>
          <gpxtpx:TrackPointExtension>
            <gpxtpx:hr>163</gpxtpx:hr>
          </gpxtpx:TrackPointExtension>
        </extensions>
      </trkpt>
      <trkpt lat="38.83185081435422" lon="121.505413769021">
        <ele>6.576278652064502</ele>
        <time>2024-09-11T00:14:43Z</time>
        <extensions>
          <gpxtpx:TrackPointExtension>
            <gpxtpx:hr>164</gpxtpx:hr>
          </gpxtpx:TrackPointExtension>
        </extensions>
      </trkpt>
      <trkpt lat="38.83192173778654" lon="121.5054945619209">
        <ele>7.293091852217913</ele>
        <time>2024-09-11T00:14:47Z</time>
        <extensions>
          <gpxtpx:TrackPointExtension>
            <gpxtpx:hr>164</gpxtpx:hr>
          </gpxtpx:TrackPointExtension>
        </extensions>
      </trkpt>
      <trkpt lat="38.83206883298025" lon="121.5057903264246">
        <ele>6.837275905534625</ele>
        <time>2024-09-11T00:14:59Z</time>
        <extensions>
          <gpxtpx:TrackPointExtension>
            <gpxtpx:hr>164</gpxtpx:hr>
          </gpxtpx:TrackPointExtension>
        </extensions>
      </trkpt>
      <trkpt lat="38.83213603223896" lon="121.50602446151788">
        <ele>5.837982406839728</ele>
        <time>2024-09-11T00:15:07Z</time>
        <extensions>
          <gpxtpx:TrackPointExtension>
            <gpxtpx:hr>163</gpxtpx:hr>
          </gpxtpx:TrackPointExtension>
        </extensions>
      </trkpt>
      <trkpt lat="38.83213603223896" lon="121.50602446151788">
        <ele>5.837982406839728</ele>
        <time>2024-09-11T00:15:07Z</time>
        <extensions>
          <gpxtpx:TrackPointExtension>
            <gpxtpx:hr>163</gpxtpx:hr>
          </gpxtpx:TrackPointExtension>
        </extensions>
      </trkpt>
    </trkseg>
  </trk>
</gpx>