<?xml version="1.0" encoding="UTF-8"?>
<gpx xmlns="http://www.topografix.com/GPX/1/1" xmlns:gpxtpx="http://www.garmin.com/xmlschemas/TrackPointExtension/v1" xmlns:xsi="http://www.w3.org/2001/XMLSchema-instance" xsi:schemaLocation="http://www.topografix.com/GPX/1/1 http://www.topografix.com/GPX/1/1/gpx.xsd" version="1.1" creator="gpx.py -- https://github.com/tkrajina/gpxpy">
  <trk>
    <name>gpx from keep</name>
    <type>Run</type>
    <trkseg>
      <trkpt lat="38.83599501317439" lon="121.50742538876607">
        <ele>10.142722112958559</ele>
        <time>2026-01-19T23:51:34Z</time>
      </trkpt>
      <trkpt lat="38.835951331234945" lon="121.50747519520417">
        <ele>9.827984229760393</ele>
        <time>2026-01-19T23:51:43Z</time>
      </trkpt>
      <trkpt lat="38.83585296427687" lon="121.50776212893508">
        <ele>9.990632469765842</ele>
        <time>2026-01-19T23:52:02Z</time>
      </trkpt>
      <trkpt lat="38.83579238048872" lon="121.50787159756266">
        <ele>10.007913479581475</ele>
        <time>2026-01-19T23:52:06Z</time>
      </trkpt>
      <trkpt lat="38.835743313206535" lon="121.50804681416056">
        <ele>10.33996192459017</ele>
        <time>2026-01-19T23:52:14Z</time>
      </trkpt>
      <trkpt lat="38.83566959792118" lon="121.50820182568471">
        <ele>11.08677996788174</ele>
        <time>2026-01-19T23:52:22Z</time>
      </trkpt>
      <trkpt lat="38.835552704448595" lon="121.5086026413526">
        <ele>12.062000802718103</ele>
        <time>2026-01-19T23:52:40Z</time>
      </trkpt>
      <trkpt lat="38.835506511877504" lon="121.50872029535006">
        <ele>10.343747550621629</ele>
        <time>2026-01-19T23:52:46Z</time>
      </trkpt>
      <trkpt lat="38.835400445667574" lon="121.50907963902976">
        <ele>9.850104173645377</ele>
        <time>2026-01-19T23:53:01Z</time>
      </trkpt>
      <trkpt lat="38.835316496996015" lon="121.5092630621919">
        <ele>9.150326900184155</ele>
        <time>2026-01-19T23:53:10Z</time>
      </trkpt>
      <trkpt lat="38.83530549201495" lon="121.5093415563405">
        <ele>9.535081808455288</ele>
        <time>2026-01-19T23:53:13Z</time>
      </trkpt>
      <trkpt lat="38.83546425731476" lon="121.50948913945768">
        <ele>9.050547829829156</ele>
        <time>2026-01-19T23:53:23Z</time>
      </trkpt>
      <trkpt lat="38.83551653528212" lon="121.50951291676289">
        <ele>7.868219994939864</ele>
        <time>2026-01-19T23:53:26Z</time>
      </trkpt>
      <trkpt lat="38.8355570323703" lon="121.50957665575264">
        <ele>7.5077032670378685</ele>
        <time>2026-01-19T23:53:29Z</time>
      </trkpt>
      <trkpt lat="38.8355701309438" lon="121.50965054152348">
        <ele>8.55915766954422</ele>
        <time>2026-01-19T23:53:32Z</time>
        <extensions>
          <gpxtpx:TrackPointExtension>
            <gpxtpx:hr>120</gpxtpx:hr>
          </gpxtpx:TrackPointExtension>
        </extensions>
      </trkpt>
      <trkpt lat="38.83561813295026" lon="121.50967247493357">
        <ele>7.79755764734</ele>
        <time>2026-01-19T23:53:35Z</time>
        <extensions>
          <gpxtpx:TrackPointExtension>
            <gpxtpx:hr>120</gpxtpx:hr>
          </gpxtpx:TrackPointExtension>
        </extensions>
      </trkpt>
      <trkpt lat="38.83570589263254" lon="121.50974813381893">
        <ele>7.1871908800676465</ele>
        <time>2026-01-19T23:53:41Z</time>
        <extensions>
          <gpxtpx:TrackPointExtension>
            <gpxtpx:hr>120</gpxtpx:hr>
          </gpxtpx:TrackPointExtension>
        </extensions>
      </trkpt>
      <trkpt lat="38.83575650343953" lon="121.50981676489052">
        <ele>8.330273617058992</ele>
        <time>2026-01-19T23:53:45Z</time>
        <extensions>
          <gpxtpx:TrackPointExtension>
            <gpxtpx:hr>121</gpxtpx:hr>
          </gpxtpx:TrackPointExtension>
        </extensions>
      </trkpt>
      <trkpt lat="38.83596924898535" lon="121.50997291029319">
        <ele>7.75455673225224</ele>
        <time>2026-01-19T23:53:57Z</time>
        <extensions>
          <gpxtpx:TrackPointExtension>
            <gpxtpx:hr>120</gpxtpx:hr>
          </gpxtpx:TrackPointExtension>
        </extensions>
      </trkpt>
      <trkpt lat="38.836010569754" lon="121.51006736570152">
        <ele>5.592829615809023</ele>
        <time>2026-01-19T23:54:01Z</time>
        <extensions>
          <gpxtpx:TrackPointExtension>
            <gpxtpx:hr>122</gpxtpx:hr>
          </gpxtpx:TrackPointExtension>
        </extensions>
      </trkpt>
      <trkpt lat="38.83601300869533" lon="121.5102027525484">
        <ele>7.792022506706417</ele>
        <time>2026-01-19T23:54:05Z</time>
        <extensions>
          <gpxtpx:TrackPointExtension>
            <gpxtpx:hr>122</gpxtpx:hr>
          </gpxtpx:TrackPointExtension>
        </extensions>
      </trkpt>
      <trkpt lat="38.836100165282275" lon="121.51024394373759">
        <ele>8.639558152295649</ele>
        <time>2026-01-19T23:54:09Z</time>
        <extensions>
          <gpxtpx:TrackPointExtension>
            <gpxtpx:hr>122</gpxtpx:hr>
          </gpxtpx:TrackPointExtension>
        </extensions>
      </trkpt>
      <trkpt lat="38.83616176476829" lon="121.51031562592367">
        <ele>7.968853092752397</ele>
        <time>2026-01-19T23:54:13Z</time>
        <extensions>
          <gpxtpx:TrackPointExtension>
            <gpxtpx:hr>123</gpxtpx:hr>
          </gpxtpx:TrackPointExtension>
        </extensions>
      </trkpt>
      <trkpt lat="38.836246159262814" lon="121.5105502974449">
        <ele>7.5541536984965205</ele>
        <time>2026-01-19T23:54:22Z</time>
        <extensions>
          <gpxtpx:TrackPointExtension>
            <gpxtpx:hr>126</gpxtpx:hr>
          </gpxtpx:TrackPointExtension>
        </extensions>
      </trkpt>
      <trkpt lat="38.83625928247653" lon="121.51062936903944">
        <ele>7.120939013548195</ele>
        <time>2026-01-19T23:54:25Z</time>
        <extensions>
          <gpxtpx:TrackPointExtension>
            <gpxtpx:hr>126</gpxtpx:hr>
          </gpxtpx:TrackPointExtension>
        </extensions>
      </trkpt>
      <trkpt lat="38.836135060186876" lon="121.5109954405366">
        <ele>7.725166165269911</ele>
        <time>2026-01-19T23:54:40Z</time>
        <extensions>
          <gpxtpx:TrackPointExtension>
            <gpxtpx:hr>131</gpxtpx:hr>
          </gpxtpx:TrackPointExtension>
        </extensions>
      </trkpt>
      <trkpt lat="38.83609533906979" lon="121.51105689904054">
        <ele>8.162829285487533</ele>
        <time>2026-01-19T23:54:43Z</time>
        <extensions>
          <gpxtpx:TrackPointExtension>
            <gpxtpx:hr>131</gpxtpx:hr>
          </gpxtpx:TrackPointExtension>
        </extensions>
      </trkpt>
      <trkpt lat="38.836040511129774" lon="121.51110419530362">
        <ele>7.91654072329402</ele>
        <time>2026-01-19T23:54:46Z</time>
        <extensions>
          <gpxtpx:TrackPointExtension>
            <gpxtpx:hr>131</gpxtpx:hr>
          </gpxtpx:TrackPointExtension>
        </extensions>
      </trkpt>
      <trkpt lat="38.83596482974525" lon="121.51140454649607">
        <ele>7.7994657112285495</ele>
        <time>2026-01-19T23:54:58Z</time>
        <extensions>
          <gpxtpx:TrackPointExtension>
            <gpxtpx:hr>131</gpxtpx:hr>
          </gpxtpx:TrackPointExtension>
        </extensions>
      </trkpt>
      <trkpt lat="38.83597667101269" lon="121.51155689586996">
        <ele>7.115475468337536</ele>
        <time>2026-01-19T23:55:04Z</time>
        <extensions>
          <gpxtpx:TrackPointExtension>
            <gpxtpx:hr>131</gpxtpx:hr>
          </gpxtpx:TrackPointExtension>
        </extensions>
      </trkpt>
      <trkpt lat="38.836021599864374" lon="121.51171255455816">
        <ele>5.921875214204192</ele>
        <time>2026-01-19T23:55:10Z</time>
      </trkpt>
      <trkpt lat="38.836092547946606" lon="121.51183698361848">
        <ele>6.145153908059001</ele>
        <time>2026-01-19T23:55:16Z</time>
      </trkpt>
      <trkpt lat="38.83625196330585" lon="121.511945924876">
        <ele>4.532625584863126</ele>
        <time>2026-01-19T23:55:25Z</time>
      </trkpt>
      <trkpt lat="38.83644757267207" lon="121.51191616700703">
        <ele>4.755056496709585</ele>
        <time>2026-01-19T23:55:34Z</time>
      </trkpt>
      <trkpt lat="38.836563530043854" lon="121.51186072373577">
        <ele>5.4498539743945</ele>
        <time>2026-01-19T23:55:40Z</time>
      </trkpt>
      <trkpt lat="38.836672562923056" lon="121.511769239409">
        <ele>6.843580719083548</ele>
        <time>2026-01-19T23:55:46Z</time>
      </trkpt>
      <trkpt lat="38.83689961658804" lon="121.51145187044182">
        <ele>8.04052903316915</ele>
        <time>2026-01-19T23:56:02Z</time>
      </trkpt>
      <trkpt lat="38.836977435523046" lon="121.51126639804839">
        <ele>8.732835036702454</ele>
        <time>2026-01-19T23:56:10Z</time>
      </trkpt>
      <trkpt lat="38.83707365378942" lon="121.51085391257469">
        <ele>8.454795599915087</ele>
        <time>2026-01-19T23:56:26Z</time>
        <extensions>
          <gpxtpx:TrackPointExtension>
            <gpxtpx:hr>132</gpxtpx:hr>
          </gpxtpx:TrackPointExtension>
        </extensions>
      </trkpt>
      <trkpt lat="38.837265167656675" lon="121.51053171658357">
        <ele>9.631466379389167</ele>
        <time>2026-01-19T23:56:41Z</time>
        <extensions>
          <gpxtpx:TrackPointExtension>
            <gpxtpx:hr>131</gpxtpx:hr>
          </gpxtpx:TrackPointExtension>
        </extensions>
      </trkpt>
      <trkpt lat="38.83750382192689" lon="121.51028978209744">
        <ele>9.393647373653948</ele>
        <time>2026-01-19T23:56:56Z</time>
        <extensions>
          <gpxtpx:TrackPointExtension>
            <gpxtpx:hr>130</gpxtpx:hr>
          </gpxtpx:TrackPointExtension>
        </extensions>
      </trkpt>
      <trkpt lat="38.83769662853087" lon="121.51010590390709">
        <ele>8.513826814480126</ele>
        <time>2026-01-19T23:57:08Z</time>
        <extensions>
          <gpxtpx:TrackPointExtension>
            <gpxtpx:hr>131</gpxtpx:hr>
          </gpxtpx:TrackPointExtension>
        </extensions>
      </trkpt>
      <trkpt lat="38.8377626269825" lon="121.50995600659073">
        <ele>9.306149455718696</ele>
        <time>2026-01-19T23:57:14Z</time>
        <extensions>
          <gpxtpx:TrackPointExtension>
            <gpxtpx:hr>129</gpxtpx:hr>
          </gpxtpx:TrackPointExtension>
        </extensions>
      </trkpt>
      <trkpt lat="38.83782069533822" lon="121.50994333997566">
        <ele>9.513794772326946</ele>
        <time>2026-01-19T23:57:17Z</time>
        <extensions>
          <gpxtpx:TrackPointExtension>
            <gpxtpx:hr>130</gpxtpx:hr>
          </gpxtpx:TrackPointExtension>
        </extensions>
      </trkpt>
      <trkpt lat="38.837939800639184" lon="121.50975105316078">
        <ele>9.518505449406803</ele>
        <time>2026-01-19T23:57:26Z</time>
        <extensions>
          <gpxtpx:TrackPointExtension>
            <gpxtpx:hr>132</gpxtpx:hr>
          </gpxtpx:TrackPointExtension>
        </extensions>
      </trkpt>
      <trkpt lat="38.838000273000645" lon="121.50943421069819">
        <ele>10.003754888661206</ele>
        <time>2026-01-19T23:57:38Z</time>
        <extensions>
          <gpxtpx:TrackPointExtension>
            <gpxtpx:hr>132</gpxtpx:hr>
          </gpxtpx:TrackPointExtension>
        </extensions>
      </trkpt>
      <trkpt lat="38.83803048804811" lon="121.50935729442804">
        <ele>11.091058197431266</ele>
        <time>2026-01-19T23:57:41Z</time>
        <extensions>
          <gpxtpx:TrackPointExtension>
            <gpxtpx:hr>133</gpxtpx:hr>
          </gpxtpx:TrackPointExtension>
        </extensions>
      </trkpt>
      <trkpt lat="38.83825526108541" lon="121.50919375611198">
        <ele>11.14983192551881</ele>
        <time>2026-01-19T23:57:53Z</time>
        <extensions>
          <gpxtpx:TrackPointExtension>
            <gpxtpx:hr>132</gpxtpx:hr>
          </gpxtpx:TrackPointExtension>
        </extensions>
      </trkpt>
      <trkpt lat="38.83830763564053" lon="121.50910919169888">
        <ele>9.67166353482753</ele>
        <time>2026-01-19T23:57:57Z</time>
        <extensions>
          <gpxtpx:TrackPointExtension>
            <gpxtpx:hr>132</gpxtpx:hr>
          </gpxtpx:TrackPointExtension>
        </extensions>
      </trkpt>
      <trkpt lat="38.83811600542459" lon="121.50884111553898">
        <ele>11.037699500098825</ele>
        <time>2026-01-19T23:58:09Z</time>
        <extensions>
          <gpxtpx:TrackPointExtension>
            <gpxtpx:hr>130</gpxtpx:hr>
          </gpxtpx:TrackPointExtension>
        </extensions>
      </trkpt>
      <trkpt lat="38.83795143384855" lon="121.50870959710859">
        <ele>10.005481177009642</ele>
        <time>2026-01-19T23:58:18Z</time>
        <extensions>
          <gpxtpx:TrackPointExtension>
            <gpxtpx:hr>133</gpxtpx:hr>
          </gpxtpx:TrackPointExtension>
        </extensions>
      </trkpt>
      <trkpt lat="38.837789047078175" lon="121.5085440633668">
        <ele>10.87767181172967</ele>
        <time>2026-01-19T23:58:27Z</time>
        <extensions>
          <gpxtpx:TrackPointExtension>
            <gpxtpx:hr>131</gpxtpx:hr>
          </gpxtpx:TrackPointExtension>
        </extensions>
      </trkpt>
      <trkpt lat="38.83772655372436" lon="121.5085089727764">
        <ele>11.419989521615207</ele>
        <time>2026-01-19T23:58:30Z</time>
        <extensions>
          <gpxtpx:TrackPointExtension>
            <gpxtpx:hr>133</gpxtpx:hr>
          </gpxtpx:TrackPointExtension>
        </extensions>
      </trkpt>
      <trkpt lat="38.83764963097393" lon="121.50849311568673">
        <ele>12.783390219323337</ele>
        <time>2026-01-19T23:58:33Z</time>
        <extensions>
          <gpxtpx:TrackPointExtension>
            <gpxtpx:hr>133</gpxtpx:hr>
          </gpxtpx:TrackPointExtension>
        </extensions>
      </trkpt>
      <trkpt lat="38.837594819078454" lon="121.50853796444783">
        <ele>13.387358496896923</ele>
        <time>2026-01-19T23:58:36Z</time>
        <extensions>
          <gpxtpx:TrackPointExtension>
            <gpxtpx:hr>133</gpxtpx:hr>
          </gpxtpx:TrackPointExtension>
        </extensions>
      </trkpt>
      <trkpt lat="38.8375121485662" lon="121.5088760185735">
        <ele>11.48404483217746</ele>
        <time>2026-01-19T23:58:48Z</time>
        <extensions>
          <gpxtpx:TrackPointExtension>
            <gpxtpx:hr>134</gpxtpx:hr>
          </gpxtpx:TrackPointExtension>
        </extensions>
      </trkpt>
      <trkpt lat="38.837375830859514" lon="121.50903962944753">
        <ele>12.335889356210828</ele>
        <time>2026-01-19T23:58:57Z</time>
        <extensions>
          <gpxtpx:TrackPointExtension>
            <gpxtpx:hr>137</gpxtpx:hr>
          </gpxtpx:TrackPointExtension>
        </extensions>
      </trkpt>
      <trkpt lat="38.83727278063227" lon="121.50913993837143">
        <ele>11.807275576516986</ele>
        <time>2026-01-19T23:59:03Z</time>
        <extensions>
          <gpxtpx:TrackPointExtension>
            <gpxtpx:hr>138</gpxtpx:hr>
          </gpxtpx:TrackPointExtension>
        </extensions>
      </trkpt>
      <trkpt lat="38.837120357415046" lon="121.50943080019705">
        <ele>11.444054434075952</ele>
        <time>2026-01-19T23:59:15Z</time>
        <extensions>
          <gpxtpx:TrackPointExtension>
            <gpxtpx:hr>137</gpxtpx:hr>
          </gpxtpx:TrackPointExtension>
        </extensions>
      </trkpt>
      <trkpt lat="38.83699569833591" lon="121.50970527892197">
        <ele>12.096711992286146</ele>
        <time>2026-01-19T23:59:27Z</time>
        <extensions>
          <gpxtpx:TrackPointExtension>
            <gpxtpx:hr>131</gpxtpx:hr>
          </gpxtpx:TrackPointExtension>
        </extensions>
      </trkpt>
      <trkpt lat="38.83687177716242" lon="121.50986059095327">
        <ele>10.891386675648391</ele>
        <time>2026-01-19T23:59:36Z</time>
        <extensions>
          <gpxtpx:TrackPointExtension>
            <gpxtpx:hr>128</gpxtpx:hr>
          </gpxtpx:TrackPointExtension>
        </extensions>
      </trkpt>
      <trkpt lat="38.83677162915087" lon="121.50992885439439">
        <ele>10.788620429113507</ele>
        <time>2026-01-19T23:59:42Z</time>
        <extensions>
          <gpxtpx:TrackPointExtension>
            <gpxtpx:hr>125</gpxtpx:hr>
          </gpxtpx:TrackPointExtension>
        </extensions>
      </trkpt>
      <trkpt lat="38.83647186966303" lon="121.50995694124448">
        <ele>10.913007115013897</ele>
        <time>2026-01-19T23:59:57Z</time>
        <extensions>
          <gpxtpx:TrackPointExtension>
            <gpxtpx:hr>126</gpxtpx:hr>
          </gpxtpx:TrackPointExtension>
        </extensions>
      </trkpt>
      <trkpt lat="38.836185437121614" lon="121.51008014484158">
        <ele>10.076132429763675</ele>
        <time>2026-01-20T00:00:11Z</time>
        <extensions>
          <gpxtpx:TrackPointExtension>
            <gpxtpx:hr>126</gpxtpx:hr>
          </gpxtpx:TrackPointExtension>
        </extensions>
      </trkpt>
      <trkpt lat="38.836118352483346" lon="121.51015669765712">
        <ele>9.69184261187911</ele>
        <time>2026-01-20T00:00:15Z</time>
        <extensions>
          <gpxtpx:TrackPointExtension>
            <gpxtpx:hr>126</gpxtpx:hr>
          </gpxtpx:TrackPointExtension>
        </extensions>
      </trkpt>
      <trkpt lat="38.836137465610406" lon="121.51024847499001">
        <ele>9.872951958328485</ele>
        <time>2026-01-20T00:00:18Z</time>
        <extensions>
          <gpxtpx:TrackPointExtension>
            <gpxtpx:hr>128</gpxtpx:hr>
          </gpxtpx:TrackPointExtension>
        </extensions>
      </trkpt>
      <trkpt lat="38.83617792436944" lon="121.51030527459218">
        <ele>10.17320806812495</ele>
        <time>2026-01-20T00:00:21Z</time>
        <extensions>
          <gpxtpx:TrackPointExtension>
            <gpxtpx:hr>128</gpxtpx:hr>
          </gpxtpx:TrackPointExtension>
        </extensions>
      </trkpt>
      <trkpt lat="38.83625052452261" lon="121.51060905645063">
        <ele>7.726727546192706</ele>
        <time>2026-01-20T00:00:33Z</time>
        <extensions>
          <gpxtpx:TrackPointExtension>
            <gpxtpx:hr>130</gpxtpx:hr>
          </gpxtpx:TrackPointExtension>
        </extensions>
      </trkpt>
      <trkpt lat="38.836251203924064" lon="121.51069178077063">
        <ele>8.222981525585055</ele>
        <time>2026-01-20T00:00:36Z</time>
        <extensions>
          <gpxtpx:TrackPointExtension>
            <gpxtpx:hr>129</gpxtpx:hr>
          </gpxtpx:TrackPointExtension>
        </extensions>
      </trkpt>
      <trkpt lat="38.83620920102089" lon="121.51084888256271">
        <ele>8.102003213018179</ele>
        <time>2026-01-20T00:00:42Z</time>
        <extensions>
          <gpxtpx:TrackPointExtension>
            <gpxtpx:hr>129</gpxtpx:hr>
          </gpxtpx:TrackPointExtension>
        </extensions>
      </trkpt>
      <trkpt lat="38.83604250559751" lon="121.51119010932247">
        <ele>8.835231268778443</ele>
        <time>2026-01-20T00:00:57Z</time>
        <extensions>
          <gpxtpx:TrackPointExtension>
            <gpxtpx:hr>131</gpxtpx:hr>
          </gpxtpx:TrackPointExtension>
        </extensions>
      </trkpt>
      <trkpt lat="38.83597198667914" lon="121.51141630456999">
        <ele>8.66011093184352</ele>
        <time>2026-01-20T00:01:06Z</time>
        <extensions>
          <gpxtpx:TrackPointExtension>
            <gpxtpx:hr>132</gpxtpx:hr>
          </gpxtpx:TrackPointExtension>
        </extensions>
      </trkpt>
      <trkpt lat="38.83600106579237" lon="121.51165472653294">
        <ele>7.271600035019219</ele>
        <time>2026-01-20T00:01:15Z</time>
        <extensions>
          <gpxtpx:TrackPointExtension>
            <gpxtpx:hr>130</gpxtpx:hr>
          </gpxtpx:TrackPointExtension>
        </extensions>
      </trkpt>
      <trkpt lat="38.83610053139051" lon="121.51185807952137">
        <ele>6.19493427593261</ele>
        <time>2026-01-20T00:01:24Z</time>
        <extensions>
          <gpxtpx:TrackPointExtension>
            <gpxtpx:hr>130</gpxtpx:hr>
          </gpxtpx:TrackPointExtension>
        </extensions>
      </trkpt>
      <trkpt lat="38.83621864457273" lon="121.5119399309697">
        <ele>5.297249845229089</ele>
        <time>2026-01-20T00:01:30Z</time>
        <extensions>
          <gpxtpx:TrackPointExtension>
            <gpxtpx:hr>134</gpxtpx:hr>
          </gpxtpx:TrackPointExtension>
        </extensions>
      </trkpt>
      <trkpt lat="38.83627971259113" lon="121.5119569974383">
        <ele>5.036713228560984</ele>
        <time>2026-01-20T00:01:33Z</time>
        <extensions>
          <gpxtpx:TrackPointExtension>
            <gpxtpx:hr>134</gpxtpx:hr>
          </gpxtpx:TrackPointExtension>
        </extensions>
      </trkpt>
      <trkpt lat="38.83641426156321" lon="121.51193566471163">
        <ele>5.471466702409089</ele>
        <time>2026-01-20T00:01:39Z</time>
        <extensions>
          <gpxtpx:TrackPointExtension>
            <gpxtpx:hr>135</gpxtpx:hr>
          </gpxtpx:TrackPointExtension>
        </extensions>
      </trkpt>
      <trkpt lat="38.83665365630405" lon="121.51179482498335">
        <ele>5.852313769981265</ele>
        <time>2026-01-20T00:01:51Z</time>
        <extensions>
          <gpxtpx:TrackPointExtension>
            <gpxtpx:hr>135</gpxtpx:hr>
          </gpxtpx:TrackPointExtension>
        </extensions>
      </trkpt>
      <trkpt lat="38.83685053338807" lon="121.51153911664944">
        <ele>7.828930517658591</ele>
        <time>2026-01-20T00:02:03Z</time>
        <extensions>
          <gpxtpx:TrackPointExtension>
            <gpxtpx:hr>137</gpxtpx:hr>
          </gpxtpx:TrackPointExtension>
        </extensions>
      </trkpt>
      <trkpt lat="38.83698348661877" lon="121.51128600902781">
        <ele>8.461313704960048</ele>
        <time>2026-01-20T00:02:14Z</time>
        <extensions>
          <gpxtpx:TrackPointExtension>
            <gpxtpx:hr>135</gpxtpx:hr>
          </gpxtpx:TrackPointExtension>
        </extensions>
      </trkpt>
      <trkpt lat="38.83705250557568" lon="121.51109312381125">
        <ele>8.695529327727854</ele>
        <time>2026-01-20T00:02:22Z</time>
        <extensions>
          <gpxtpx:TrackPointExtension>
            <gpxtpx:hr>135</gpxtpx:hr>
          </gpxtpx:TrackPointExtension>
        </extensions>
      </trkpt>
      <trkpt lat="38.8370550906495" lon="121.51100164034223">
        <ele>9.183837616816163</ele>
        <time>2026-01-20T00:02:25Z</time>
        <extensions>
          <gpxtpx:TrackPointExtension>
            <gpxtpx:hr>135</gpxtpx:hr>
          </gpxtpx:TrackPointExtension>
        </extensions>
      </trkpt>
      <trkpt lat="38.83710121991535" lon="121.51085135232499">
        <ele>9.412768922746181</ele>
        <time>2026-01-20T00:02:31Z</time>
        <extensions>
          <gpxtpx:TrackPointExtension>
            <gpxtpx:hr>135</gpxtpx:hr>
          </gpxtpx:TrackPointExtension>
        </extensions>
      </trkpt>
      <trkpt lat="38.83729480975898" lon="121.51054764883473">
        <ele>10.380640423856676</ele>
        <time>2026-01-20T00:02:46Z</time>
        <extensions>
          <gpxtpx:TrackPointExtension>
            <gpxtpx:hr>137</gpxtpx:hr>
          </gpxtpx:TrackPointExtension>
        </extensions>
      </trkpt>
      <trkpt lat="38.83741499736356" lon="121.51039132392413">
        <ele>10.691889775916934</ele>
        <time>2026-01-20T00:02:55Z</time>
        <extensions>
          <gpxtpx:TrackPointExtension>
            <gpxtpx:hr>137</gpxtpx:hr>
          </gpxtpx:TrackPointExtension>
        </extensions>
      </trkpt>
      <trkpt lat="38.837648688094326" lon="121.51018855708982">
        <ele>9.902574888430536</ele>
        <time>2026-01-20T00:03:10Z</time>
        <extensions>
          <gpxtpx:TrackPointExtension>
            <gpxtpx:hr>137</gpxtpx:hr>
          </gpxtpx:TrackPointExtension>
        </extensions>
      </trkpt>
      <trkpt lat="38.837734271555725" lon="121.51006432458496">
        <ele>10.499210525304079</ele>
        <time>2026-01-20T00:03:16Z</time>
        <extensions>
          <gpxtpx:TrackPointExtension>
            <gpxtpx:hr>137</gpxtpx:hr>
          </gpxtpx:TrackPointExtension>
        </extensions>
      </trkpt>
      <trkpt lat="38.83777787545677" lon="121.50992798777567">
        <ele>9.965918029658496</ele>
        <time>2026-01-20T00:03:22Z</time>
        <extensions>
          <gpxtpx:TrackPointExtension>
            <gpxtpx:hr>137</gpxtpx:hr>
          </gpxtpx:TrackPointExtension>
        </extensions>
      </trkpt>
      <trkpt lat="38.83785586734948" lon="121.50991303973679">
        <ele>8.200641273520887</ele>
        <time>2026-01-20T00:03:28Z</time>
        <extensions>
          <gpxtpx:TrackPointExtension>
            <gpxtpx:hr>135</gpxtpx:hr>
          </gpxtpx:TrackPointExtension>
        </extensions>
      </trkpt>
      <trkpt lat="38.83792676612274" lon="121.50975906965134">
        <ele>9.283372787758708</ele>
        <time>2026-01-20T00:03:34Z</time>
        <extensions>
          <gpxtpx:TrackPointExtension>
            <gpxtpx:hr>134</gpxtpx:hr>
          </gpxtpx:TrackPointExtension>
        </extensions>
      </trkpt>
      <trkpt lat="38.83793702882754" lon="121.50966808625259">
        <ele>11.0662238067016</ele>
        <time>2026-01-20T00:03:49Z</time>
        <extensions>
          <gpxtpx:TrackPointExtension>
            <gpxtpx:hr>133</gpxtpx:hr>
          </gpxtpx:TrackPointExtension>
        </extensions>
      </trkpt>
      <trkpt lat="38.838005788027075" lon="121.50943590398767">
        <ele>10.914742768742144</ele>
        <time>2026-01-20T00:04:01Z</time>
        <extensions>
          <gpxtpx:TrackPointExtension>
            <gpxtpx:hr>130</gpxtpx:hr>
          </gpxtpx:TrackPointExtension>
        </extensions>
      </trkpt>
      <trkpt lat="38.83804151668929" lon="121.50936318348646">
        <ele>11.329226753674448</ele>
        <time>2026-01-20T00:04:04Z</time>
        <extensions>
          <gpxtpx:TrackPointExtension>
            <gpxtpx:hr>130</gpxtpx:hr>
          </gpxtpx:TrackPointExtension>
        </extensions>
      </trkpt>
      <trkpt lat="38.83828206393204" lon="121.50915993153002">
        <ele>10.183251679874957</ele>
        <time>2026-01-20T00:04:20Z</time>
        <extensions>
          <gpxtpx:TrackPointExtension>
            <gpxtpx:hr>125</gpxtpx:hr>
          </gpxtpx:TrackPointExtension>
        </extensions>
      </trkpt>
      <trkpt lat="38.83829792376192" lon="121.50908137334325">
        <ele>11.042498998343945</ele>
        <time>2026-01-20T00:04:23Z</time>
        <extensions>
          <gpxtpx:TrackPointExtension>
            <gpxtpx:hr>125</gpxtpx:hr>
          </gpxtpx:TrackPointExtension>
        </extensions>
      </trkpt>
      <trkpt lat="38.838251232423104" lon="121.50900295076977">
        <ele>10.684842435643077</ele>
        <time>2026-01-20T00:04:26Z</time>
        <extensions>
          <gpxtpx:TrackPointExtension>
            <gpxtpx:hr>125</gpxtpx:hr>
          </gpxtpx:TrackPointExtension>
        </extensions>
      </trkpt>
      <trkpt lat="38.83802622909956" lon="121.50876992419504">
        <ele>11.10745581611991</ele>
        <time>2026-01-20T00:04:41Z</time>
        <extensions>
          <gpxtpx:TrackPointExtension>
            <gpxtpx:hr>128</gpxtpx:hr>
          </gpxtpx:TrackPointExtension>
        </extensions>
      </trkpt>
      <trkpt lat="38.83776761635888" lon="121.50853786792484">
        <ele>11.611000581644475</ele>
        <time>2026-01-20T00:04:56Z</time>
        <extensions>
          <gpxtpx:TrackPointExtension>
            <gpxtpx:hr>128</gpxtpx:hr>
          </gpxtpx:TrackPointExtension>
        </extensions>
      </trkpt>
      <trkpt lat="38.83766914794179" lon="121.50843753317112">
        <ele>11.086158401332796</ele>
        <time>2026-01-20T00:05:02Z</time>
        <extensions>
          <gpxtpx:TrackPointExtension>
            <gpxtpx:hr>130</gpxtpx:hr>
          </gpxtpx:TrackPointExtension>
        </extensions>
      </trkpt>
      <trkpt lat="38.8375906244983" lon="121.50830806651979">
        <ele>11.226932626217604</ele>
        <time>2026-01-20T00:05:08Z</time>
        <extensions>
          <gpxtpx:TrackPointExtension>
            <gpxtpx:hr>131</gpxtpx:hr>
          </gpxtpx:TrackPointExtension>
        </extensions>
      </trkpt>
      <trkpt lat="38.837442256043396" lon="121.50817022656733">
        <ele>10.42636012751609</ele>
        <time>2026-01-20T00:05:17Z</time>
        <extensions>
          <gpxtpx:TrackPointExtension>
            <gpxtpx:hr>132</gpxtpx:hr>
          </gpxtpx:TrackPointExtension>
        </extensions>
      </trkpt>
      <trkpt lat="38.837386170731996" lon="121.50814235764">
        <ele>11.668540994636714</ele>
        <time>2026-01-20T00:05:20Z</time>
        <extensions>
          <gpxtpx:TrackPointExtension>
            <gpxtpx:hr>134</gpxtpx:hr>
          </gpxtpx:TrackPointExtension>
        </extensions>
      </trkpt>
      <trkpt lat="38.83717800551564" lon="121.50791736346187">
        <ele>10.35061825439334</ele>
        <time>2026-01-20T00:05:32Z</time>
        <extensions>
          <gpxtpx:TrackPointExtension>
            <gpxtpx:hr>135</gpxtpx:hr>
          </gpxtpx:TrackPointExtension>
        </extensions>
      </trkpt>
      <trkpt lat="38.83691306470029" lon="121.50766884907097">
        <ele>11.606077476404607</ele>
        <time>2026-01-20T00:05:47Z</time>
        <extensions>
          <gpxtpx:TrackPointExtension>
            <gpxtpx:hr>135</gpxtpx:hr>
          </gpxtpx:TrackPointExtension>
        </extensions>
      </trkpt>
      <trkpt lat="38.83675972369707" lon="121.50753774650937">
        <ele>12.051445153541863</ele>
        <time>2026-01-20T00:05:56Z</time>
        <extensions>
          <gpxtpx:TrackPointExtension>
            <gpxtpx:hr>143</gpxtpx:hr>
          </gpxtpx:TrackPointExtension>
        </extensions>
      </trkpt>
      <trkpt lat="38.83665727734725" lon="121.50743399587704">
        <ele>10.810126188211143</ele>
        <time>2026-01-20T00:06:02Z</time>
        <extensions>
          <gpxtpx:TrackPointExtension>
            <gpxtpx:hr>144</gpxtpx:hr>
          </gpxtpx:TrackPointExtension>
        </extensions>
      </trkpt>
      <trkpt lat="38.83653790944723" lon="121.5073541579846">
        <ele>9.271237635985017</ele>
        <time>2026-01-20T00:06:08Z</time>
        <extensions>
          <gpxtpx:TrackPointExtension>
            <gpxtpx:hr>144</gpxtpx:hr>
          </gpxtpx:TrackPointExtension>
        </extensions>
      </trkpt>
      <trkpt lat="38.836286713445304" lon="121.50712599269822">
        <ele>10.440684542059898</ele>
        <time>2026-01-20T00:06:22Z</time>
        <extensions>
          <gpxtpx:TrackPointExtension>
            <gpxtpx:hr>144</gpxtpx:hr>
          </gpxtpx:TrackPointExtension>
        </extensions>
      </trkpt>
      <trkpt lat="38.83612248520013" lon="121.50699858228836">
        <ele>10.604862165637314</ele>
        <time>2026-01-20T00:06:31Z</time>
        <extensions>
          <gpxtpx:TrackPointExtension>
            <gpxtpx:hr>143</gpxtpx:hr>
          </gpxtpx:TrackPointExtension>
        </extensions>
      </trkpt>
      <trkpt lat="38.83611634254156" lon="121.50691203933187">
        <ele>10.408644558861852</ele>
        <time>2026-01-20T00:07:16Z</time>
        <extensions>
          <gpxtpx:TrackPointExtension>
            <gpxtpx:hr>111</gpxtpx:hr>
          </gpxtpx:TrackPointExtension>
        </extensions>
      </trkpt>
      <trkpt lat="38.83618430197805" lon="121.50674545180452">
        <ele>10.404472853988409</ele>
        <time>2026-01-20T00:07:28Z</time>
        <extensions>
          <gpxtpx:TrackPointExtension>
            <gpxtpx:hr>112</gpxtpx:hr>
          </gpxtpx:TrackPointExtension>
        </extensions>
      </trkpt>
      <trkpt lat="38.83618518731591" lon="121.50668000426259">
        <ele>10.316205248236656</ele>
        <time>2026-01-20T00:07:34Z</time>
        <extensions>
          <gpxtpx:TrackPointExtension>
            <gpxtpx:hr>107</gpxtpx:hr>
          </gpxtpx:TrackPointExtension>
        </extensions>
      </trkpt>
      <trkpt lat="38.83630302739534" lon="121.50635540072079">
        <ele>9.35215725749731</ele>
        <time>2026-01-20T00:08:04Z</time>
        <extensions>
          <gpxtpx:TrackPointExtension>
            <gpxtpx:hr>103</gpxtpx:hr>
          </gpxtpx:TrackPointExtension>
        </extensions>
      </trkpt>
      <trkpt lat="38.83640076927537" lon="121.50597956326291">
        <ele>10.340994697064161</ele>
        <time>2026-01-20T00:08:35Z</time>
        <extensions>
          <gpxtpx:TrackPointExtension>
            <gpxtpx:hr>100</gpxtpx:hr>
          </gpxtpx:TrackPointExtension>
        </extensions>
      </trkpt>
      <trkpt lat="38.836403123962704" lon="121.50590637483454">
        <ele>9.600610526278615</ele>
        <time>2026-01-20T00:08:41Z</time>
        <extensions>
          <gpxtpx:TrackPointExtension>
            <gpxtpx:hr>100</gpxtpx:hr>
          </gpxtpx:TrackPointExtension>
        </extensions>
      </trkpt>
      <trkpt lat="38.836526105891245" lon="121.5055705462958">
        <ele>8.486972607672215</ele>
        <time>2026-01-20T00:09:11Z</time>
        <extensions>
          <gpxtpx:TrackPointExtension>
            <gpxtpx:hr>98</gpxtpx:hr>
          </gpxtpx:TrackPointExtension>
        </extensions>
      </trkpt>
      <trkpt lat="38.836610809047436" lon="121.50529885706578">
        <ele>9.654862477444112</ele>
        <time>2026-01-20T00:09:35Z</time>
        <extensions>
          <gpxtpx:TrackPointExtension>
            <gpxtpx:hr>100</gpxtpx:hr>
          </gpxtpx:TrackPointExtension>
        </extensions>
      </trkpt>
      <trkpt lat="38.836734312624635" lon="121.50496274832437">
        <ele>9.591574303805828</ele>
        <time>2026-01-20T00:10:05Z</time>
        <extensions>
          <gpxtpx:TrackPointExtension>
            <gpxtpx:hr>98</gpxtpx:hr>
          </gpxtpx:TrackPointExtension>
        </extensions>
      </trkpt>
      <trkpt lat="38.83684694718951" lon="121.50462760525208">
        <ele>8.554752837866545</ele>
        <time>2026-01-20T00:10:36Z</time>
        <extensions>
          <gpxtpx:TrackPointExtension>
            <gpxtpx:hr>94</gpxtpx:hr>
          </gpxtpx:TrackPointExtension>
        </extensions>
      </trkpt>
      <trkpt lat="38.836962039724796" lon="121.50433390794815">
        <ele>9.884957320988178</ele>
        <time>2026-01-20T00:11:03Z</time>
        <extensions>
          <gpxtpx:TrackPointExtension>
            <gpxtpx:hr>95</gpxtpx:hr>
          </gpxtpx:TrackPointExtension>
        </extensions>
      </trkpt>
      <trkpt lat="38.83704529473679" lon="121.50422262609656">
        <ele>10.162586398422718</ele>
        <time>2026-01-20T00:11:15Z</time>
        <extensions>
          <gpxtpx:TrackPointExtension>
            <gpxtpx:hr>97</gpxtpx:hr>
          </gpxtpx:TrackPointExtension>
        </extensions>
      </trkpt>
      <trkpt lat="38.837094611013" lon="121.5041947759738">
        <ele>10.579269582405686</ele>
        <time>2026-01-20T00:11:21Z</time>
        <extensions>
          <gpxtpx:TrackPointExtension>
            <gpxtpx:hr>97</gpxtpx:hr>
          </gpxtpx:TrackPointExtension>
        </extensions>
      </trkpt>
      <trkpt lat="38.837284366251815" lon="121.50434368470894">
        <ele>8.475500988774002</ele>
        <time>2026-01-20T00:11:45Z</time>
        <extensions>
          <gpxtpx:TrackPointExtension>
            <gpxtpx:hr>96</gpxtpx:hr>
          </gpxtpx:TrackPointExtension>
        </extensions>
      </trkpt>
      <trkpt lat="38.83736727156603" lon="121.50443953547789">
        <ele>9.620610384270549</ele>
        <time>2026-01-20T00:11:57Z</time>
        <extensions>
          <gpxtpx:TrackPointExtension>
            <gpxtpx:hr>95</gpxtpx:hr>
          </gpxtpx:TrackPointExtension>
        </extensions>
      </trkpt>
      <trkpt lat="38.8374103005977" lon="121.50446499618744">
        <ele>7.849829003214836</ele>
        <time>2026-01-20T00:12:03Z</time>
        <extensions>
          <gpxtpx:TrackPointExtension>
            <gpxtpx:hr>96</gpxtpx:hr>
          </gpxtpx:TrackPointExtension>
        </extensions>
      </trkpt>
      <trkpt lat="38.837453212573045" lon="121.50452303687182">
        <ele>8.204028833657503</ele>
        <time>2026-01-20T00:12:12Z</time>
        <extensions>
          <gpxtpx:TrackPointExtension>
            <gpxtpx:hr>97</gpxtpx:hr>
          </gpxtpx:TrackPointExtension>
        </extensions>
      </trkpt>
      <trkpt lat="38.837528607638916" lon="121.50456374176106">
        <ele>9.768231053836644</ele>
        <time>2026-01-20T00:12:21Z</time>
        <extensions>
          <gpxtpx:TrackPointExtension>
            <gpxtpx:hr>98</gpxtpx:hr>
          </gpxtpx:TrackPointExtension>
        </extensions>
      </trkpt>
    </trkseg>
  </trk>
</gpx>