<?xml version="1.0" encoding="UTF-8"?>
<gpx xmlns="http://www.topografix.com/GPX/1/1" xmlns:gpxtpx="http://www.garmin.com/xmlschemas/TrackPointExtension/v1" xmlns:xsi="http://www.w3.org/2001/XMLSchema-instance" xsi:schemaLocation="http://www.topografix.com/GPX/1/1 http://www.topografix.com/GPX/1/1/gpx.xsd" version="1.1" creator="gpx.py -- https://github.com/tkrajina/gpxpy">
  <trk>
    <name>gpx from keep</name>
    <type>Run</type>
    <trkseg>
      <trkpt lat="38.83670519010233" lon="121.50718429070382">
        <ele>11.338159729726613</ele>
        <time>2026-04-19T00:10:02Z</time>
      </trkpt>
      <trkpt lat="38.83642384166384" lon="121.50700196383995">
        <ele>9.912593455985188</ele>
        <time>2026-04-19T00:10:17Z</time>
      </trkpt>
      <trkpt lat="38.836221663723734" lon="121.50684996394263">
        <ele>9.943841532804072</ele>
        <time>2026-04-19T00:10:29Z</time>
      </trkpt>
      <trkpt lat="38.83616093702598" lon="121.5068605358938">
        <ele>9.740048183128238</ele>
        <time>2026-04-19T00:10:32Z</time>
      </trkpt>
      <trkpt lat="38.83606102561204" lon="121.50695534920459">
        <ele>9.265926258638501</ele>
        <time>2026-04-19T00:10:38Z</time>
      </trkpt>
      <trkpt lat="38.83599568417788" lon="121.50696041290657">
        <ele>9.768241699784994</ele>
        <time>2026-04-19T00:10:41Z</time>
      </trkpt>
      <trkpt lat="38.835976382555444" lon="121.50690041251721">
        <ele>9.759496027603745</ele>
        <time>2026-04-19T00:10:44Z</time>
      </trkpt>
      <trkpt lat="38.83593788405082" lon="121.50686339042916">
        <ele>10.096309270709753</ele>
        <time>2026-04-19T00:10:47Z</time>
      </trkpt>
      <trkpt lat="38.8358708006841" lon="121.50690013430545">
        <ele>11.002884922549129</ele>
        <time>2026-04-19T00:10:50Z</time>
      </trkpt>
      <trkpt lat="38.83574547944241" lon="121.50729624060703">
        <ele>11.337684789672494</ele>
        <time>2026-04-19T00:11:06Z</time>
      </trkpt>
      <trkpt lat="38.83563067514406" lon="121.50766720659622">
        <ele>10.164833585731685</ele>
        <time>2026-04-19T00:11:22Z</time>
      </trkpt>
      <trkpt lat="38.83551332506667" lon="121.5079941075978">
        <ele>9.993209218606353</ele>
        <time>2026-04-19T00:11:38Z</time>
      </trkpt>
      <trkpt lat="38.835382735293734" lon="121.50834488372635">
        <ele>10.516360078006983</ele>
        <time>2026-04-19T00:11:56Z</time>
      </trkpt>
      <trkpt lat="38.835278846544014" lon="121.50868958139746">
        <ele>9.751885198056698</ele>
        <time>2026-04-19T00:12:11Z</time>
      </trkpt>
      <trkpt lat="38.835161989091674" lon="121.50901871485974">
        <ele>10.474171198904514</ele>
        <time>2026-04-19T00:12:26Z</time>
      </trkpt>
      <trkpt lat="38.83508144222511" lon="121.50922105169299">
        <ele>9.732970922254026</ele>
        <time>2026-04-19T00:12:35Z</time>
      </trkpt>
      <trkpt lat="38.83503979777449" lon="121.50927438652576">
        <ele>9.385440154001117</ele>
        <time>2026-04-19T00:12:38Z</time>
      </trkpt>
      <trkpt lat="38.834976179853385" lon="121.50927255648237">
        <ele>9.320190840400755</ele>
        <time>2026-04-19T00:12:41Z</time>
      </trkpt>
      <trkpt lat="38.8348771687982" lon="121.50918749992745">
        <ele>9.005285306833684</ele>
        <time>2026-04-19T00:12:47Z</time>
      </trkpt>
      <trkpt lat="38.83476325849337" lon="121.5091669497231">
        <ele>10.081392576918006</ele>
        <time>2026-04-19T00:12:53Z</time>
      </trkpt>
      <trkpt lat="38.83447018174197" lon="121.50898841849526">
        <ele>11.249780020676553</ele>
        <time>2026-04-19T00:13:09Z</time>
      </trkpt>
      <trkpt lat="38.83420441595794" lon="121.50882208682305">
        <ele>10.110785639844835</ele>
        <time>2026-04-19T00:13:25Z</time>
      </trkpt>
      <trkpt lat="38.83397358085204" lon="121.50863139812382">
        <ele>8.853600736707449</ele>
        <time>2026-04-19T00:13:40Z</time>
      </trkpt>
      <trkpt lat="38.833930246770485" lon="121.5085808207852">
        <ele>8.64776321966201</ele>
        <time>2026-04-19T00:13:43Z</time>
      </trkpt>
      <trkpt lat="38.83368297016447" lon="121.50840171329814">
        <ele>7.975481950677931</ele>
        <time>2026-04-19T00:13:58Z</time>
      </trkpt>
      <trkpt lat="38.83344629240355" lon="121.50822176617555">
        <ele>6.948161091655493</ele>
        <time>2026-04-19T00:14:13Z</time>
      </trkpt>
      <trkpt lat="38.833245852228785" lon="121.50805077322809">
        <ele>5.483378662727773</ele>
        <time>2026-04-19T00:14:25Z</time>
      </trkpt>
      <trkpt lat="38.83318879858249" lon="121.50802591461147">
        <ele>4.642325803637505</ele>
        <time>2026-04-19T00:14:28Z</time>
      </trkpt>
      <trkpt lat="38.833135699814484" lon="121.50805589246797">
        <ele>4.074074555188417</ele>
        <time>2026-04-19T00:14:31Z</time>
      </trkpt>
      <trkpt lat="38.83308418721334" lon="121.50817725625954">
        <ele>4.274782381951809</ele>
        <time>2026-04-19T00:14:37Z</time>
      </trkpt>
      <trkpt lat="38.83303720040348" lon="121.50822589325948">
        <ele>4.369505677372217</ele>
        <time>2026-04-19T00:14:40Z</time>
      </trkpt>
      <trkpt lat="38.8329795469662" lon="121.50824514073389">
        <ele>5.158099990338087</ele>
        <time>2026-04-19T00:14:43Z</time>
      </trkpt>
      <trkpt lat="38.832880353769426" lon="121.50838624530267">
        <ele>3.854432374238968</ele>
        <time>2026-04-19T00:14:52Z</time>
      </trkpt>
      <trkpt lat="38.83283694533346" lon="121.5084037284639">
        <ele>3.9598372476175427</ele>
        <time>2026-04-19T00:14:55Z</time>
      </trkpt>
      <trkpt lat="38.832783790540425" lon="121.50848492320179">
        <ele>3.9635544046759605</ele>
        <time>2026-04-19T00:15:09Z</time>
      </trkpt>
      <trkpt lat="38.832704379541134" lon="121.50850162648318">
        <ele>3.5802210196852684</ele>
        <time>2026-04-19T00:15:13Z</time>
      </trkpt>
      <trkpt lat="38.8326416220966" lon="121.50855745317263">
        <ele>3.3274071672931314</ele>
        <time>2026-04-19T00:15:17Z</time>
      </trkpt>
      <trkpt lat="38.83246645019244" lon="121.50863069163968">
        <ele>3.4164874739944935</ele>
        <time>2026-04-19T00:15:25Z</time>
      </trkpt>
      <trkpt lat="38.83222895041805" lon="121.50861231943021">
        <ele>3.5665416810661554</ele>
        <time>2026-04-19T00:15:37Z</time>
      </trkpt>
      <trkpt lat="38.832044019671216" lon="121.50850145263675">
        <ele>3.785477285273373</ele>
        <time>2026-04-19T00:15:47Z</time>
      </trkpt>
      <trkpt lat="38.83187625342859" lon="121.50829825417503">
        <ele>3.9872374925762415</ele>
        <time>2026-04-19T00:15:59Z</time>
      </trkpt>
      <trkpt lat="38.831844966487466" lon="121.50823555412417">
        <ele>3.7881827922537923</ele>
        <time>2026-04-19T00:16:02Z</time>
      </trkpt>
      <trkpt lat="38.83173103846652" lon="121.50807914058174">
        <ele>3.939992643892765</ele>
        <time>2026-04-19T00:16:11Z</time>
      </trkpt>
      <trkpt lat="38.83157393258768" lon="121.50785581406679">
        <ele>4.073052421212196</ele>
        <time>2026-04-19T00:16:23Z</time>
      </trkpt>
      <trkpt lat="38.8313480072987" lon="121.5077349659402">
        <ele>4.336175847798586</ele>
        <time>2026-04-19T00:16:35Z</time>
      </trkpt>
      <trkpt lat="38.83123533403131" lon="121.50772508748513">
        <ele>4.279190015047789</ele>
        <time>2026-04-19T00:16:41Z</time>
      </trkpt>
      <trkpt lat="38.83117978968549" lon="121.50774859169486">
        <ele>4.02942050807178</ele>
        <time>2026-04-19T00:16:44Z</time>
      </trkpt>
      <trkpt lat="38.83105982435855" lon="121.50776492082498">
        <ele>3.5134039288386703</ele>
        <time>2026-04-19T00:16:50Z</time>
      </trkpt>
      <trkpt lat="38.83082196215813" lon="121.5077192385201">
        <ele>3.7864809837192297</ele>
        <time>2026-04-19T00:17:03Z</time>
      </trkpt>
      <trkpt lat="38.83077918031076" lon="121.5076795584558">
        <ele>3.8925815476104617</ele>
        <time>2026-04-19T00:17:06Z</time>
      </trkpt>
      <trkpt lat="38.830714063991714" lon="121.5076523976248">
        <ele>3.0529144080355763</ele>
        <time>2026-04-19T00:17:10Z</time>
      </trkpt>
      <trkpt lat="38.83045003970419" lon="121.50744180163323">
        <ele>3.3222778290510178</ele>
        <time>2026-04-19T00:17:26Z</time>
      </trkpt>
      <trkpt lat="38.83034931076443" lon="121.50730576344993">
        <ele>3.524278173223138</ele>
        <time>2026-04-19T00:17:34Z</time>
      </trkpt>
      <trkpt lat="38.830241118904844" lon="121.50693335723173">
        <ele>3.676923556253314</ele>
        <time>2026-04-19T00:17:51Z</time>
      </trkpt>
      <trkpt lat="38.83014885661868" lon="121.50678261854361">
        <ele>3.740386161953211</ele>
        <time>2026-04-19T00:18:00Z</time>
      </trkpt>
      <trkpt lat="38.83005677141593" lon="121.50671361589497">
        <ele>2.9563091564923525</ele>
        <time>2026-04-19T00:18:06Z</time>
      </trkpt>
      <trkpt lat="38.83000132294718" lon="121.50669532465893">
        <ele>2.843648341484368</ele>
        <time>2026-04-19T00:18:09Z</time>
      </trkpt>
      <trkpt lat="38.82980859530812" lon="121.50655416692668">
        <ele>3.4906536685302854</ele>
        <time>2026-04-19T00:18:21Z</time>
      </trkpt>
      <trkpt lat="38.82975607660808" lon="121.50653701457064">
        <ele>3.6576015166938305</ele>
        <time>2026-04-19T00:18:24Z</time>
      </trkpt>
      <trkpt lat="38.82970530585891" lon="121.50649359510425">
        <ele>3.4196648551151156</ele>
        <time>2026-04-19T00:18:27Z</time>
      </trkpt>
      <trkpt lat="38.829677338914266" lon="121.50643267046324">
        <ele>3.077970303595066</ele>
        <time>2026-04-19T00:18:30Z</time>
      </trkpt>
      <trkpt lat="38.82945438687931" lon="121.50618745072678">
        <ele>4.230833295732737</ele>
        <time>2026-04-19T00:18:45Z</time>
      </trkpt>
      <trkpt lat="38.829289970376976" lon="121.50606547225507">
        <ele>4.037017474882305</ele>
        <time>2026-04-19T00:18:54Z</time>
      </trkpt>
      <trkpt lat="38.829114705090916" lon="121.50599303364184">
        <ele>3.7237355299293995</ele>
        <time>2026-04-19T00:19:03Z</time>
      </trkpt>
      <trkpt lat="38.82884360950558" lon="121.50604676353338">
        <ele>3.7643000381067395</ele>
        <time>2026-04-19T00:19:16Z</time>
      </trkpt>
      <trkpt lat="38.828642026415146" lon="121.50614642039321">
        <ele>3.051468661054969</ele>
        <time>2026-04-19T00:19:27Z</time>
      </trkpt>
      <trkpt lat="38.828436436465566" lon="121.50646490796497">
        <ele>3.9289253121241927</ele>
        <time>2026-04-19T00:19:44Z</time>
      </trkpt>
      <trkpt lat="38.828371098288244" lon="121.50672398129076">
        <ele>4.104287412017584</ele>
        <time>2026-04-19T00:19:56Z</time>
      </trkpt>
      <trkpt lat="38.82837302639576" lon="121.50697881016312">
        <ele>4.090295907109976</ele>
        <time>2026-04-19T00:20:08Z</time>
      </trkpt>
      <trkpt lat="38.82828044558842" lon="121.50735621594627">
        <ele>2.945699505507946</ele>
        <time>2026-04-19T00:20:26Z</time>
      </trkpt>
      <trkpt lat="38.82822104899154" lon="121.50748008799765">
        <ele>3.7182307420298457</ele>
        <time>2026-04-19T00:20:32Z</time>
      </trkpt>
      <trkpt lat="38.82801517000907" lon="121.50776371322438">
        <ele>3.711986182257533</ele>
        <time>2026-04-19T00:20:47Z</time>
      </trkpt>
      <trkpt lat="38.82797612896505" lon="121.50781981831825">
        <ele>3.76326696947217</ele>
        <time>2026-04-19T00:20:50Z</time>
      </trkpt>
      <trkpt lat="38.82791516686769" lon="121.50784249591086">
        <ele>3.6765273651108146</ele>
        <time>2026-04-19T00:20:53Z</time>
      </trkpt>
      <trkpt lat="38.827656982636" lon="121.50803219660904">
        <ele>3.5964575177058578</ele>
        <time>2026-04-19T00:21:08Z</time>
      </trkpt>
      <trkpt lat="38.827542594509815" lon="121.50806398369414">
        <ele>4.152890886180103</ele>
        <time>2026-04-19T00:21:14Z</time>
      </trkpt>
      <trkpt lat="38.82723970667461" lon="121.50810578880827">
        <ele>3.2124400911852717</ele>
        <time>2026-04-19T00:21:29Z</time>
      </trkpt>
      <trkpt lat="38.82709469602161" lon="121.50818191232472">
        <ele>3.2283380096778274</ele>
        <time>2026-04-19T00:21:37Z</time>
      </trkpt>
      <trkpt lat="38.82700036917633" lon="121.50826681331506">
        <ele>2.9834379572421312</ele>
        <time>2026-04-19T00:21:43Z</time>
      </trkpt>
      <trkpt lat="38.8268806831149" lon="121.50843086957526">
        <ele>3.126049095764756</ele>
        <time>2026-04-19T00:21:52Z</time>
      </trkpt>
      <trkpt lat="38.82678945921905" lon="121.50877883713862">
        <ele>3.5275044115260243</ele>
        <time>2026-04-19T00:22:07Z</time>
      </trkpt>
      <trkpt lat="38.82677029348852" lon="121.50898079201916">
        <ele>2.947480413131416</ele>
        <time>2026-04-19T00:22:16Z</time>
      </trkpt>
      <trkpt lat="38.82682569355313" lon="121.50919478651902">
        <ele>3.179337461479008</ele>
        <time>2026-04-19T00:22:25Z</time>
      </trkpt>
      <trkpt lat="38.82684056263633" lon="121.50956109898951">
        <ele>3.7816321114078164</ele>
        <time>2026-04-19T00:22:40Z</time>
      </trkpt>
      <trkpt lat="38.82683141058005" lon="121.50975697224973">
        <ele>4.286489071324468</ele>
        <time>2026-04-19T00:22:49Z</time>
      </trkpt>
      <trkpt lat="38.826816392549034" lon="121.5098170862987">
        <ele>4.518205176107585</ele>
        <time>2026-04-19T00:22:52Z</time>
      </trkpt>
      <trkpt lat="38.826774846911796" lon="121.5098718308401">
        <ele>3.568632870912552</ele>
        <time>2026-04-19T00:22:55Z</time>
      </trkpt>
      <trkpt lat="38.82669513665538" lon="121.51005399550527">
        <ele>4.01090968772769</ele>
        <time>2026-04-19T00:23:04Z</time>
      </trkpt>
      <trkpt lat="38.82662495855351" lon="121.51016298262812">
        <ele>3.8170165829360485</ele>
        <time>2026-04-19T00:23:10Z</time>
      </trkpt>
      <trkpt lat="38.82641425129783" lon="121.51039206942758">
        <ele>4.965907727368176</ele>
        <time>2026-04-19T00:23:25Z</time>
      </trkpt>
      <trkpt lat="38.82612992143899" lon="121.51050693288316">
        <ele>4.114340548403561</ele>
        <time>2026-04-19T00:23:41Z</time>
      </trkpt>
      <trkpt lat="38.825891347817304" lon="121.51068316094371">
        <ele>4.669846475124359</ele>
        <time>2026-04-19T00:23:56Z</time>
      </trkpt>
      <trkpt lat="38.825803046808886" lon="121.51076801707787">
        <ele>4.2050244165584445</ele>
        <time>2026-04-19T00:24:02Z</time>
      </trkpt>
      <trkpt lat="38.82574622887605" lon="121.51089510834784">
        <ele>4.96204116102308</ele>
        <time>2026-04-19T00:24:08Z</time>
      </trkpt>
      <trkpt lat="38.825733778770235" lon="121.51096588058354">
        <ele>5.0408671628683805</ele>
        <time>2026-04-19T00:24:11Z</time>
      </trkpt>
      <trkpt lat="38.8256891090657" lon="121.51108226505725">
        <ele>5.041601257398725</ele>
        <time>2026-04-19T00:24:17Z</time>
      </trkpt>
      <trkpt lat="38.825662358484365" lon="121.51146688531047">
        <ele>6.681981264613569</ele>
        <time>2026-04-19T00:24:35Z</time>
      </trkpt>
      <trkpt lat="38.82565943142266" lon="121.51180796078194">
        <ele>6.926164675503969</ele>
        <time>2026-04-19T00:24:50Z</time>
      </trkpt>
      <trkpt lat="38.825684534327195" lon="121.51216844264326">
        <ele>5.718616344034672</ele>
        <time>2026-04-19T00:25:05Z</time>
      </trkpt>
      <trkpt lat="38.82574695944575" lon="121.51252140573862">
        <ele>4.806127945892513</ele>
        <time>2026-04-19T00:25:20Z</time>
      </trkpt>
      <trkpt lat="38.82583614376191" lon="121.5128344874192">
        <ele>4.6079614367336035</ele>
        <time>2026-04-19T00:25:33Z</time>
      </trkpt>
      <trkpt lat="38.82591238299625" lon="121.51299383108592">
        <ele>4.786853026598692</ele>
        <time>2026-04-19T00:25:41Z</time>
      </trkpt>
      <trkpt lat="38.82604817850887" lon="121.51331508715809">
        <ele>3.4987898841500282</ele>
        <time>2026-04-19T00:25:56Z</time>
      </trkpt>
      <trkpt lat="38.82623001717571" lon="121.5136079689873">
        <ele>5.9644545475021005</ele>
        <time>2026-04-19T00:26:11Z</time>
      </trkpt>
      <trkpt lat="38.826418006481546" lon="121.5138021346506">
        <ele>5.249022637493908</ele>
        <time>2026-04-19T00:26:23Z</time>
      </trkpt>
      <trkpt lat="38.82668313722747" lon="121.51390894093966">
        <ele>5.743088496848941</ele>
        <time>2026-04-19T00:26:38Z</time>
      </trkpt>
      <trkpt lat="38.82696187884264" lon="121.51390641930442">
        <ele>5.301244551315904</ele>
        <time>2026-04-19T00:26:53Z</time>
      </trkpt>
      <trkpt lat="38.82723376269764" lon="121.51389088615937">
        <ele>6.295547327958047</ele>
        <time>2026-04-19T00:27:08Z</time>
      </trkpt>
      <trkpt lat="38.827495163040716" lon="121.5138941715856">
        <ele>7.3538201386108994</ele>
        <time>2026-04-19T00:27:23Z</time>
      </trkpt>
      <trkpt lat="38.82770532859434" lon="121.51394140640092">
        <ele>6.955677091144025</ele>
        <time>2026-04-19T00:27:35Z</time>
      </trkpt>
      <trkpt lat="38.82798767750701" lon="121.51396877719527">
        <ele>8.025271521881223</ele>
        <time>2026-04-19T00:27:51Z</time>
      </trkpt>
      <trkpt lat="38.828295663564084" lon="121.51404473658046">
        <ele>7.766060507856309</ele>
        <time>2026-04-19T00:28:12Z</time>
      </trkpt>
      <trkpt lat="38.82857386400327" lon="121.51411931838497">
        <ele>8.663503278046846</ele>
        <time>2026-04-19T00:28:27Z</time>
      </trkpt>
      <trkpt lat="38.82875014390636" lon="121.51421639026185">
        <ele>7.1787537122145295</ele>
        <time>2026-04-19T00:28:39Z</time>
      </trkpt>
      <trkpt lat="38.829046576661185" lon="121.51435536837559">
        <ele>8.169377547688782</ele>
        <time>2026-04-19T00:28:57Z</time>
      </trkpt>
      <trkpt lat="38.82929394319007" lon="121.51449616482714">
        <ele>7.446640499867499</ele>
        <time>2026-04-19T00:29:12Z</time>
      </trkpt>
      <trkpt lat="38.829573107844695" lon="121.5146916952759">
        <ele>6.341627160087228</ele>
        <time>2026-04-19T00:29:31Z</time>
      </trkpt>
      <trkpt lat="38.82982914702021" lon="121.51486359677527">
        <ele>7.076574229635298</ele>
        <time>2026-04-19T00:29:47Z</time>
      </trkpt>
      <trkpt lat="38.83007948806741" lon="121.51503430579318">
        <ele>6.602967040613294</ele>
        <time>2026-04-19T00:30:02Z</time>
      </trkpt>
      <trkpt lat="38.83033925557713" lon="121.5152451299736">
        <ele>6.2388247940689325</ele>
        <time>2026-04-19T00:30:20Z</time>
      </trkpt>
      <trkpt lat="38.830585394770125" lon="121.51542714869049">
        <ele>5.766085616312921</ele>
        <time>2026-04-19T00:30:35Z</time>
      </trkpt>
      <trkpt lat="38.83082742047828" lon="121.5156024942473">
        <ele>6.126613778993487</ele>
        <time>2026-04-19T00:30:50Z</time>
      </trkpt>
      <trkpt lat="38.831132286152105" lon="121.51582431438135">
        <ele>6.8151668924838305</ele>
        <time>2026-04-19T00:31:11Z</time>
      </trkpt>
      <trkpt lat="38.83138792647056" lon="121.5160117666896">
        <ele>5.899643369950354</ele>
        <time>2026-04-19T00:31:29Z</time>
      </trkpt>
      <trkpt lat="38.83164490747188" lon="121.51619949761775">
        <ele>5.348215674981475</ele>
        <time>2026-04-19T00:31:47Z</time>
      </trkpt>
      <trkpt lat="38.83191751815468" lon="121.51632986759294">
        <ele>7.0347984014078975</ele>
        <time>2026-04-19T00:32:04Z</time>
      </trkpt>
      <trkpt lat="38.83202365288693" lon="121.51636491022961">
        <ele>6.799828524701297</ele>
        <time>2026-04-19T00:32:10Z</time>
      </trkpt>
      <trkpt lat="38.83232836278339" lon="121.51633352818965">
        <ele>6.788376685231924</ele>
        <time>2026-04-19T00:32:28Z</time>
      </trkpt>
      <trkpt lat="38.83259430315732" lon="121.51618088803173">
        <ele>7.200493201613426</ele>
        <time>2026-04-19T00:32:46Z</time>
      </trkpt>
      <trkpt lat="38.83272516454316" lon="121.51611522565125">
        <ele>7.609955843538046</ele>
        <time>2026-04-19T00:32:55Z</time>
      </trkpt>
      <trkpt lat="38.83295943510163" lon="121.51586661448391">
        <ele>6.6895896615460515</ele>
        <time>2026-04-19T00:33:13Z</time>
      </trkpt>
      <trkpt lat="38.833154539849886" lon="121.51558612094838">
        <ele>6.315860467962921</ele>
        <time>2026-04-19T00:33:31Z</time>
      </trkpt>
      <trkpt lat="38.83330203270474" lon="121.51525099211587">
        <ele>5.698227806016803</ele>
        <time>2026-04-19T00:33:49Z</time>
      </trkpt>
      <trkpt lat="38.833429672138095" lon="121.51487346073236">
        <ele>5.55078290682286</ele>
        <time>2026-04-19T00:34:09Z</time>
      </trkpt>
      <trkpt lat="38.83355651419902" lon="121.51448130923227">
        <ele>6.082602120004594</ele>
        <time>2026-04-19T00:34:30Z</time>
      </trkpt>
      <trkpt lat="38.83364956039848" lon="121.51420122295798">
        <ele>5.913122184574604</ele>
        <time>2026-04-19T00:34:45Z</time>
      </trkpt>
      <trkpt lat="38.833758485311954" lon="121.51383945988842">
        <ele>8.064003800041974</ele>
        <time>2026-04-19T00:35:03Z</time>
      </trkpt>
      <trkpt lat="38.83388120637181" lon="121.51349490117022">
        <ele>7.633407827466726</ele>
        <time>2026-04-19T00:35:21Z</time>
      </trkpt>
      <trkpt lat="38.83401222046538" lon="121.5131218204766">
        <ele>7.961416863836348</ele>
        <time>2026-04-19T00:35:39Z</time>
      </trkpt>
      <trkpt lat="38.834128411035756" lon="121.51276619990094">
        <ele>8.498216267675161</ele>
        <time>2026-04-19T00:35:57Z</time>
      </trkpt>
      <trkpt lat="38.83425372705866" lon="121.51240294275023">
        <ele>8.291360549628735</ele>
        <time>2026-04-19T00:36:17Z</time>
      </trkpt>
      <trkpt lat="38.83434137425407" lon="121.51211971712306">
        <ele>7.601489964872599</ele>
        <time>2026-04-19T00:36:32Z</time>
      </trkpt>
      <trkpt lat="38.834343959683814" lon="121.51205298730721">
        <ele>8.273282386362553</ele>
        <time>2026-04-19T00:36:35Z</time>
      </trkpt>
      <trkpt lat="38.83443740860095" lon="121.51175698451591">
        <ele>8.776987897232175</ele>
        <time>2026-04-19T00:36:50Z</time>
      </trkpt>
      <trkpt lat="38.83446587679867" lon="121.51170857483932">
        <ele>7.977476606145501</ele>
        <time>2026-04-19T00:36:53Z</time>
      </trkpt>
      <trkpt lat="38.834575171498386" lon="121.51141160135464">
        <ele>8.066574262455106</ele>
        <time>2026-04-19T00:37:08Z</time>
      </trkpt>
      <trkpt lat="38.83460725966777" lon="121.51127263861127">
        <ele>8.73113712016493</ele>
        <time>2026-04-19T00:37:14Z</time>
      </trkpt>
      <trkpt lat="38.83473823092012" lon="121.51088877634058">
        <ele>8.30192471202463</ele>
        <time>2026-04-19T00:37:32Z</time>
      </trkpt>
      <trkpt lat="38.83480837837083" lon="121.51062485575083">
        <ele>8.591342773288488</ele>
        <time>2026-04-19T00:37:44Z</time>
      </trkpt>
      <trkpt lat="38.834945310727434" lon="121.51026259088471">
        <ele>9.879549237899482</ele>
        <time>2026-04-19T00:38:02Z</time>
      </trkpt>
      <trkpt lat="38.835061824253714" lon="121.50995412424746">
        <ele>9.29633916169405</ele>
        <time>2026-04-19T00:38:22Z</time>
      </trkpt>
      <trkpt lat="38.835061824253714" lon="121.50995412424746">
        <ele>9.29633916169405</ele>
        <time>2026-04-19T00:38:30Z</time>
      </trkpt>
    </trkseg>
  </trk>
</gpx>