<?xml version="1.0" encoding="UTF-8"?>
<gpx xmlns="http://www.topografix.com/GPX/1/1" xmlns:gpxtpx="http://www.garmin.com/xmlschemas/TrackPointExtension/v1" xmlns:xsi="http://www.w3.org/2001/XMLSchema-instance" xsi:schemaLocation="http://www.topografix.com/GPX/1/1 http://www.topografix.com/GPX/1/1/gpx.xsd" version="1.1" creator="gpx.py -- https://github.com/tkrajina/gpxpy">
  <trk>
    <name>gpx from keep</name>
    <type>Run</type>
    <trkseg>
      <trkpt lat="38.83785190833881" lon="121.50553195462679">
        <ele>11.178606952515235</ele>
        <time>2026-04-04T23:38:37Z</time>
      </trkpt>
      <trkpt lat="38.83779880292064" lon="121.50557738070238">
        <ele>9.774905657476218</ele>
        <time>2026-04-04T23:38:40Z</time>
      </trkpt>
      <trkpt lat="38.83773580954029" lon="121.50558527294048">
        <ele>11.179436254966063</ele>
        <time>2026-04-04T23:38:48Z</time>
      </trkpt>
      <trkpt lat="38.83751959446336" lon="121.50594467209834">
        <ele>12.829298557713628</ele>
        <time>2026-04-04T23:39:15Z</time>
      </trkpt>
      <trkpt lat="38.83733696990294" lon="121.5062665403139">
        <ele>11.972366257570684</ele>
        <time>2026-04-04T23:39:36Z</time>
      </trkpt>
      <trkpt lat="38.83722121254467" lon="121.5064976722646">
        <ele>11.237294956110418</ele>
        <time>2026-04-04T23:39:54Z</time>
      </trkpt>
      <trkpt lat="38.83702730839846" lon="121.5067859254465">
        <ele>10.656479963101447</ele>
        <time>2026-04-04T23:40:12Z</time>
      </trkpt>
      <trkpt lat="38.836871602807754" lon="121.50709084667058">
        <ele>10.74876254890114</ele>
        <time>2026-04-04T23:40:31Z</time>
      </trkpt>
      <trkpt lat="38.83679644266265" lon="121.50720439979006">
        <ele>10.658225188963115</ele>
        <time>2026-04-04T23:40:37Z</time>
      </trkpt>
      <trkpt lat="38.836684197626056" lon="121.50720421262088">
        <ele>10.568710504099727</ele>
        <time>2026-04-04T23:40:43Z</time>
      </trkpt>
      <trkpt lat="38.83639286152125" lon="121.50696611936111">
        <ele>9.365931232459843</ele>
        <time>2026-04-04T23:41:02Z</time>
      </trkpt>
      <trkpt lat="38.836257105088855" lon="121.50687793765562">
        <ele>9.885328721255064</ele>
        <time>2026-04-04T23:41:10Z</time>
      </trkpt>
      <trkpt lat="38.83619552018357" lon="121.50681484322014">
        <ele>9.657571355812252</ele>
        <time>2026-04-04T23:41:14Z</time>
      </trkpt>
      <trkpt lat="38.83605008123863" lon="121.50696977797341">
        <ele>8.847294522449374</ele>
        <time>2026-04-04T23:41:30Z</time>
      </trkpt>
      <trkpt lat="38.8359279034318" lon="121.50690190632635">
        <ele>10.030375164933503</ele>
        <time>2026-04-04T23:41:36Z</time>
      </trkpt>
      <trkpt lat="38.835871789782225" lon="121.50689007343294">
        <ele>8.556770221330225</ele>
        <time>2026-04-04T23:41:42Z</time>
      </trkpt>
      <trkpt lat="38.835824314738204" lon="121.50694516277079">
        <ele>9.71929128933698</ele>
        <time>2026-04-04T23:41:45Z</time>
      </trkpt>
      <trkpt lat="38.835737923500744" lon="121.50727838717013">
        <ele>9.37029963824898</ele>
        <time>2026-04-04T23:42:00Z</time>
      </trkpt>
      <trkpt lat="38.835628097098954" lon="121.50759299705342">
        <ele>9.545578876510262</ele>
        <time>2026-04-04T23:42:15Z</time>
      </trkpt>
      <trkpt lat="38.835511139025705" lon="121.50796543259803">
        <ele>9.038661214523017</ele>
        <time>2026-04-04T23:42:33Z</time>
      </trkpt>
      <trkpt lat="38.83539148217763" lon="121.50829204431142">
        <ele>9.279030458070338</ele>
        <time>2026-04-04T23:42:48Z</time>
      </trkpt>
      <trkpt lat="38.835280880060296" lon="121.5086390453617">
        <ele>9.553527087904513</ele>
        <time>2026-04-04T23:43:03Z</time>
      </trkpt>
      <trkpt lat="38.83516427790695" lon="121.50900737386505">
        <ele>9.290313470177352</ele>
        <time>2026-04-04T23:43:19Z</time>
      </trkpt>
      <trkpt lat="38.83511097561852" lon="121.50919694812383">
        <ele>9.49036493897438</ele>
        <time>2026-04-04T23:43:27Z</time>
      </trkpt>
      <trkpt lat="38.83506134142646" lon="121.50928256285704">
        <ele>9.263327659107745</ele>
        <time>2026-04-04T23:43:31Z</time>
      </trkpt>
      <trkpt lat="38.83499537744274" lon="121.50929389553124">
        <ele>9.151070451363921</ele>
        <time>2026-04-04T23:43:34Z</time>
      </trkpt>
      <trkpt lat="38.83472375096066" lon="121.50914307969668">
        <ele>9.068471429869533</ele>
        <time>2026-04-04T23:43:49Z</time>
      </trkpt>
      <trkpt lat="38.834452666372485" lon="121.50898661830652">
        <ele>9.611760593019426</ele>
        <time>2026-04-04T23:44:04Z</time>
      </trkpt>
      <trkpt lat="38.834206863806415" lon="121.50881276851034">
        <ele>9.380219495855272</ele>
        <time>2026-04-04T23:44:19Z</time>
      </trkpt>
      <trkpt lat="38.833971694781695" lon="121.50862748698667">
        <ele>8.762605710886419</ele>
        <time>2026-04-04T23:44:34Z</time>
      </trkpt>
      <trkpt lat="38.83372989331401" lon="121.50843182707894">
        <ele>7.389378240332007</ele>
        <time>2026-04-04T23:44:49Z</time>
      </trkpt>
      <trkpt lat="38.833448518954825" lon="121.50820158433808">
        <ele>5.398764988407493</ele>
        <time>2026-04-04T23:45:06Z</time>
      </trkpt>
      <trkpt lat="38.83325353708221" lon="121.50806797884152">
        <ele>3.6153144538402557</ele>
        <time>2026-04-04T23:45:18Z</time>
      </trkpt>
      <trkpt lat="38.833171226446446" lon="121.5080696351703">
        <ele>3.321963974274695</ele>
        <time>2026-04-04T23:45:22Z</time>
      </trkpt>
      <trkpt lat="38.8330980296601" lon="121.50812183503848">
        <ele>3.826348517090082</ele>
        <time>2026-04-04T23:45:26Z</time>
      </trkpt>
      <trkpt lat="38.83291275986779" lon="121.50838996496317">
        <ele>2.8114430168643594</ele>
        <time>2026-04-04T23:45:41Z</time>
      </trkpt>
      <trkpt lat="38.83272864331409" lon="121.50857005940414">
        <ele>2.9111601132899523</ele>
        <time>2026-04-04T23:45:53Z</time>
      </trkpt>
      <trkpt lat="38.8325197383011" lon="121.50865729355009">
        <ele>2.908716539852321</ele>
        <time>2026-04-04T23:46:05Z</time>
      </trkpt>
      <trkpt lat="38.832307649708184" lon="121.5086552765542">
        <ele>2.592850030399859</ele>
        <time>2026-04-04T23:46:17Z</time>
      </trkpt>
      <trkpt lat="38.83200733970914" lon="121.50851071004547">
        <ele>2.1340156299993396</ele>
        <time>2026-04-04T23:46:35Z</time>
      </trkpt>
      <trkpt lat="38.83196028315429" lon="121.5084749744156">
        <ele>2.608550475910306</ele>
        <time>2026-04-04T23:46:38Z</time>
      </trkpt>
      <trkpt lat="38.83177337869774" lon="121.50815004232109">
        <ele>2.1669877832755446</ele>
        <time>2026-04-04T23:46:56Z</time>
      </trkpt>
      <trkpt lat="38.831625627499406" lon="121.50791654057998">
        <ele>2.6253022784367204</ele>
        <time>2026-04-04T23:47:09Z</time>
      </trkpt>
      <trkpt lat="38.83144207622437" lon="121.50779136056154">
        <ele>2.749918063171208</ele>
        <time>2026-04-04T23:47:21Z</time>
      </trkpt>
      <trkpt lat="38.83130467236717" lon="121.50775091329311">
        <ele>2.4524464765563607</ele>
        <time>2026-04-04T23:47:29Z</time>
      </trkpt>
      <trkpt lat="38.831028007007305" lon="121.5077716645608">
        <ele>1.695323120802641</ele>
        <time>2026-04-04T23:47:45Z</time>
      </trkpt>
      <trkpt lat="38.83077659120538" lon="121.50773789952048">
        <ele>3.2595297154039145</ele>
        <time>2026-04-04T23:48:00Z</time>
      </trkpt>
      <trkpt lat="38.830518041168936" lon="121.50755170687916">
        <ele>3.105792108923197</ele>
        <time>2026-04-04T23:48:18Z</time>
      </trkpt>
      <trkpt lat="38.830328339977456" lon="121.5073073849536">
        <ele>2.5471235308796167</ele>
        <time>2026-04-04T23:48:33Z</time>
      </trkpt>
      <trkpt lat="38.83021905321161" lon="121.50694602521047">
        <ele>2.2937766928225756</ele>
        <time>2026-04-04T23:48:51Z</time>
      </trkpt>
      <trkpt lat="38.83012098832034" lon="121.50677845698105">
        <ele>3.080325262621045</ele>
        <time>2026-04-04T23:49:00Z</time>
      </trkpt>
      <trkpt lat="38.829850721059586" lon="121.50663943322098">
        <ele>4.008117795921862</ele>
        <time>2026-04-04T23:49:16Z</time>
      </trkpt>
      <trkpt lat="38.82978718672129" lon="121.5065972477161">
        <ele>3.057344079017639</ele>
        <time>2026-04-04T23:49:20Z</time>
      </trkpt>
      <trkpt lat="38.829543038031396" lon="121.50632078285024">
        <ele>2.1214588982984424</ele>
        <time>2026-04-04T23:49:38Z</time>
      </trkpt>
      <trkpt lat="38.829335316534255" lon="121.50610051431697">
        <ele>1.77578488830477</ele>
        <time>2026-04-04T23:49:53Z</time>
      </trkpt>
      <trkpt lat="38.82908167423901" lon="121.50600846273238">
        <ele>2.4592201691120863</ele>
        <time>2026-04-04T23:50:08Z</time>
      </trkpt>
      <trkpt lat="38.82897392961274" lon="121.50600030928346">
        <ele>1.6249577021226287</ele>
        <time>2026-04-04T23:50:14Z</time>
      </trkpt>
      <trkpt lat="38.82875366292093" lon="121.50607594560897">
        <ele>3.138827499933541</ele>
        <time>2026-04-04T23:50:26Z</time>
      </trkpt>
      <trkpt lat="38.828573933896486" lon="121.50623386654803">
        <ele>3.043375060893595</ele>
        <time>2026-04-04T23:50:38Z</time>
      </trkpt>
      <trkpt lat="38.82850413163321" lon="121.5063360821639">
        <ele>2.8733697598800063</ele>
        <time>2026-04-04T23:50:44Z</time>
      </trkpt>
      <trkpt lat="38.828458169123195" lon="121.50646445138837">
        <ele>2.997865633107722</ele>
        <time>2026-04-04T23:50:50Z</time>
      </trkpt>
      <trkpt lat="38.82844110746246" lon="121.50661565694172">
        <ele>2.8673852290958166</ele>
        <time>2026-04-04T23:50:56Z</time>
      </trkpt>
      <trkpt lat="38.8283638021568" lon="121.50682908774472">
        <ele>2.4767574397847056</ele>
        <time>2026-04-04T23:51:05Z</time>
      </trkpt>
      <trkpt lat="38.82835130778508" lon="121.50704839450583">
        <ele>2.498982430435717</ele>
        <time>2026-04-04T23:51:14Z</time>
      </trkpt>
      <trkpt lat="38.82824507610113" lon="121.50741353092835">
        <ele>2.2536506867036223</ele>
        <time>2026-04-04T23:51:30Z</time>
      </trkpt>
      <trkpt lat="38.828138584827094" lon="121.50764633433728">
        <ele>2.773796952329576</ele>
        <time>2026-04-04T23:51:40Z</time>
      </trkpt>
      <trkpt lat="38.82791137546745" lon="121.50788043921149">
        <ele>2.367464391514659</ele>
        <time>2026-04-04T23:51:55Z</time>
      </trkpt>
      <trkpt lat="38.82765879026355" lon="121.50806874945957">
        <ele>2.1679042698815465</ele>
        <time>2026-04-04T23:52:10Z</time>
      </trkpt>
      <trkpt lat="38.82760795330728" lon="121.50811242064657">
        <ele>3.576437626965344</ele>
        <time>2026-04-04T23:52:13Z</time>
      </trkpt>
      <trkpt lat="38.82730318284203" lon="121.50815111578251">
        <ele>2.7999906819313765</ele>
        <time>2026-04-04T23:52:28Z</time>
      </trkpt>
      <trkpt lat="38.82711572291592" lon="121.50821607487723">
        <ele>3.043714437633753</ele>
        <time>2026-04-04T23:52:38Z</time>
      </trkpt>
      <trkpt lat="38.82697984177456" lon="121.50834916480235">
        <ele>3.079796263948083</ele>
        <time>2026-04-04T23:52:47Z</time>
      </trkpt>
      <trkpt lat="38.82683882302096" lon="121.50859489348682">
        <ele>2.2713485173881054</ele>
        <time>2026-04-04T23:52:59Z</time>
      </trkpt>
      <trkpt lat="38.82680170508503" lon="121.5088889605865">
        <ele>1.6392086204141378</ele>
        <time>2026-04-04T23:53:11Z</time>
      </trkpt>
      <trkpt lat="38.826829089868504" lon="121.50910832715964">
        <ele>2.394479746930301</ele>
        <time>2026-04-04T23:53:20Z</time>
      </trkpt>
      <trkpt lat="38.82687763797833" lon="121.50935469049254">
        <ele>2.72876450791955</ele>
        <time>2026-04-04T23:53:30Z</time>
      </trkpt>
      <trkpt lat="38.82684618071685" lon="121.50968879537112">
        <ele>0.7626885818317533</ele>
        <time>2026-04-04T23:53:44Z</time>
      </trkpt>
      <trkpt lat="38.826795606389965" lon="121.50972793106291">
        <ele>1.5203867498785257</ele>
        <time>2026-04-04T23:53:47Z</time>
      </trkpt>
      <trkpt lat="38.826649361531814" lon="121.51004431535141">
        <ele>2.4469133699312806</ele>
        <time>2026-04-04T23:54:02Z</time>
      </trkpt>
      <trkpt lat="38.82642982228517" lon="121.5102953100092">
        <ele>2.6400919118896127</ele>
        <time>2026-04-04T23:54:17Z</time>
      </trkpt>
      <trkpt lat="38.82617330875052" lon="121.5104493792695">
        <ele>1.7738555194810033</ele>
        <time>2026-04-04T23:54:32Z</time>
      </trkpt>
      <trkpt lat="38.82591894430843" lon="121.51062835482935">
        <ele>2.2207903070375323</ele>
        <time>2026-04-04T23:54:47Z</time>
      </trkpt>
      <trkpt lat="38.82584020143339" lon="121.51073041124314">
        <ele>2.3581124329939485</ele>
        <time>2026-04-04T23:54:53Z</time>
      </trkpt>
      <trkpt lat="38.825782412229806" lon="121.51075719375669">
        <ele>3.7714599883183837</ele>
        <time>2026-04-04T23:54:59Z</time>
      </trkpt>
      <trkpt lat="38.825722618501125" lon="121.51090477442341">
        <ele>3.433438469655812</ele>
        <time>2026-04-04T23:55:05Z</time>
      </trkpt>
      <trkpt lat="38.825674580928876" lon="121.51124491974636">
        <ele>4.964082706719637</ele>
        <time>2026-04-04T23:55:17Z</time>
      </trkpt>
      <trkpt lat="38.825666059285446" lon="121.51166032182773">
        <ele>5.502240683883429</ele>
        <time>2026-04-04T23:55:33Z</time>
      </trkpt>
      <trkpt lat="38.825673148758305" lon="121.51201160741003">
        <ele>5.511661096476018</ele>
        <time>2026-04-04T23:55:48Z</time>
      </trkpt>
      <trkpt lat="38.825734842485545" lon="121.51236284055298">
        <ele>6.074531604535878</ele>
        <time>2026-04-04T23:56:03Z</time>
      </trkpt>
      <trkpt lat="38.82577720838421" lon="121.5125775555818">
        <ele>6.282842109911144</ele>
        <time>2026-04-04T23:56:12Z</time>
      </trkpt>
      <trkpt lat="38.82587192312768" lon="121.51292721347137">
        <ele>5.370025088079274</ele>
        <time>2026-04-04T23:56:27Z</time>
      </trkpt>
      <trkpt lat="38.826021788145866" lon="121.51327987125133">
        <ele>4.446324477903545</ele>
        <time>2026-04-04T23:56:45Z</time>
      </trkpt>
      <trkpt lat="38.82618533961917" lon="121.51356148188785">
        <ele>4.205705939792097</ele>
        <time>2026-04-04T23:57:00Z</time>
      </trkpt>
      <trkpt lat="38.82625300860882" lon="121.51367224805186">
        <ele>3.53712366707623</ele>
        <time>2026-04-04T23:57:06Z</time>
      </trkpt>
      <trkpt lat="38.826390672390175" lon="121.51380798977557">
        <ele>4.123132255859673</ele>
        <time>2026-04-04T23:57:15Z</time>
      </trkpt>
      <trkpt lat="38.826591864302195" lon="121.51392113442422">
        <ele>4.886864028871059</ele>
        <time>2026-04-04T23:57:27Z</time>
      </trkpt>
      <trkpt lat="38.82681399807222" lon="121.51394987261153">
        <ele>5.100159362889826</ele>
        <time>2026-04-04T23:57:40Z</time>
      </trkpt>
      <trkpt lat="38.8270873635133" lon="121.51392671696753">
        <ele>6.1034343438223</ele>
        <time>2026-04-04T23:57:56Z</time>
      </trkpt>
      <trkpt lat="38.82739613887525" lon="121.51391879981361">
        <ele>5.474932260811329</ele>
        <time>2026-04-04T23:58:14Z</time>
      </trkpt>
      <trkpt lat="38.82768590969291" lon="121.51393914588435">
        <ele>5.8685438092797995</ele>
        <time>2026-04-04T23:58:32Z</time>
      </trkpt>
      <trkpt lat="38.82797501213112" lon="121.51397637060053">
        <ele>6.586787210777402</ele>
        <time>2026-04-04T23:58:50Z</time>
      </trkpt>
      <trkpt lat="38.82827728175116" lon="121.51403540885345">
        <ele>6.932388972491026</ele>
        <time>2026-04-04T23:59:08Z</time>
      </trkpt>
      <trkpt lat="38.82833031930472" lon="121.51404083679358">
        <ele>7.143318494781852</ele>
        <time>2026-04-04T23:59:11Z</time>
      </trkpt>
      <trkpt lat="38.828421495802544" lon="121.51409429691984">
        <ele>6.4083342254161835</ele>
        <time>2026-04-04T23:59:17Z</time>
      </trkpt>
      <trkpt lat="38.828719548550616" lon="121.51421765503912">
        <ele>5.365509030409157</ele>
        <time>2026-04-04T23:59:35Z</time>
      </trkpt>
      <trkpt lat="38.82900070905769" lon="121.51436170343412">
        <ele>6.6948408195748925</ele>
        <time>2026-04-04T23:59:53Z</time>
      </trkpt>
      <trkpt lat="38.82931296948729" lon="121.51452486867133">
        <ele>5.337750497274101</ele>
        <time>2026-04-05T00:00:14Z</time>
      </trkpt>
      <trkpt lat="38.829566988675374" lon="121.51470108869621">
        <ele>5.167959917336702</ele>
        <time>2026-04-05T00:00:32Z</time>
      </trkpt>
      <trkpt lat="38.82983292620989" lon="121.51488666620436">
        <ele>5.021806771866977</ele>
        <time>2026-04-05T00:00:50Z</time>
      </trkpt>
      <trkpt lat="38.82994346729392" lon="121.51497772434456">
        <ele>4.227743714116514</ele>
        <time>2026-04-05T00:00:59Z</time>
      </trkpt>
      <trkpt lat="38.83023165972017" lon="121.51515165767732">
        <ele>5.593202598392963</ele>
        <time>2026-04-05T00:01:17Z</time>
      </trkpt>
      <trkpt lat="38.83040165200056" lon="121.5153026686479">
        <ele>5.168937217444181</ele>
        <time>2026-04-05T00:01:29Z</time>
      </trkpt>
      <trkpt lat="38.83068923687897" lon="121.51551230133987">
        <ele>4.246613811701536</ele>
        <time>2026-04-05T00:01:48Z</time>
      </trkpt>
      <trkpt lat="38.83093809064659" lon="121.5156982761199">
        <ele>4.878585702739656</ele>
        <time>2026-04-05T00:02:04Z</time>
      </trkpt>
      <trkpt lat="38.831214432108" lon="121.51590203147498">
        <ele>5.080381665378809</ele>
        <time>2026-04-05T00:02:22Z</time>
      </trkpt>
      <trkpt lat="38.83144740628145" lon="121.51608156284007">
        <ele>4.265820278786123</ele>
        <time>2026-04-05T00:02:37Z</time>
      </trkpt>
      <trkpt lat="38.83168793107833" lon="121.5162428136842">
        <ele>4.14629091322422</ele>
        <time>2026-04-05T00:02:52Z</time>
      </trkpt>
      <trkpt lat="38.83182474521231" lon="121.51633989343743">
        <ele>4.113367662765086</ele>
        <time>2026-04-05T00:03:01Z</time>
      </trkpt>
      <trkpt lat="38.832104899197496" lon="121.51638232343497">
        <ele>4.903124624863267</ele>
        <time>2026-04-05T00:03:16Z</time>
      </trkpt>
      <trkpt lat="38.832327062943875" lon="121.51636071656559">
        <ele>4.900068800896406</ele>
        <time>2026-04-05T00:03:28Z</time>
      </trkpt>
      <trkpt lat="38.832583057589474" lon="121.51621159440582">
        <ele>5.152185584418476</ele>
        <time>2026-04-05T00:03:43Z</time>
      </trkpt>
      <trkpt lat="38.83268855271882" lon="121.51616400766837">
        <ele>5.498285360634327</ele>
        <time>2026-04-05T00:03:49Z</time>
      </trkpt>
      <trkpt lat="38.832908742097096" lon="121.51593332744402">
        <ele>5.854170435108244</ele>
        <time>2026-04-05T00:04:05Z</time>
      </trkpt>
      <trkpt lat="38.83311751560306" lon="121.51564616476975">
        <ele>7.017573846504092</ele>
        <time>2026-04-05T00:04:23Z</time>
      </trkpt>
      <trkpt lat="38.83327308247764" lon="121.51530909510213">
        <ele>6.057228832505643</ele>
        <time>2026-04-05T00:04:41Z</time>
      </trkpt>
      <trkpt lat="38.83339813868545" lon="121.51496913539422">
        <ele>6.249383833259344</ele>
        <time>2026-04-05T00:04:57Z</time>
      </trkpt>
      <trkpt lat="38.83350631344072" lon="121.51464687027998">
        <ele>5.957428827881813</ele>
        <time>2026-04-05T00:05:12Z</time>
      </trkpt>
      <trkpt lat="38.83364177020855" lon="121.51422257966856">
        <ele>6.260275824926794</ele>
        <time>2026-04-05T00:05:33Z</time>
      </trkpt>
      <trkpt lat="38.833760757248065" lon="121.51387024192806">
        <ele>7.008255761116743</ele>
        <time>2026-04-05T00:05:51Z</time>
      </trkpt>
      <trkpt lat="38.833872835270455" lon="121.51350323342574">
        <ele>7.275522124953568</ele>
        <time>2026-04-05T00:06:10Z</time>
      </trkpt>
      <trkpt lat="38.83401525766219" lon="121.51309698360551">
        <ele>7.599264757707715</ele>
        <time>2026-04-05T00:06:31Z</time>
      </trkpt>
      <trkpt lat="38.834080536485274" lon="121.51286016124106">
        <ele>8.242306782864034</ele>
        <time>2026-04-05T00:06:43Z</time>
      </trkpt>
      <trkpt lat="38.83415314195812" lon="121.51269996776054">
        <ele>6.991829845122993</ele>
        <time>2026-04-05T00:06:52Z</time>
      </trkpt>
      <trkpt lat="38.834272121925224" lon="121.51232413734617">
        <ele>7.467591139487922</ele>
        <time>2026-04-05T00:07:10Z</time>
      </trkpt>
      <trkpt lat="38.834331096583284" lon="121.51206377293634">
        <ele>8.17051321361214</ele>
        <time>2026-04-05T00:07:22Z</time>
      </trkpt>
      <trkpt lat="38.83441729436936" lon="121.51181451850256">
        <ele>8.171474917791784</ele>
        <time>2026-04-05T00:07:34Z</time>
      </trkpt>
      <trkpt lat="38.83450496102275" lon="121.51164965386636">
        <ele>7.188976786099374</ele>
        <time>2026-04-05T00:07:43Z</time>
      </trkpt>
      <trkpt lat="38.83458323257797" lon="121.51131148557067">
        <ele>7.676650580018759</ele>
        <time>2026-04-05T00:07:58Z</time>
      </trkpt>
      <trkpt lat="38.83469701150508" lon="121.51096068312533">
        <ele>9.28198190126568</ele>
        <time>2026-04-05T00:08:14Z</time>
      </trkpt>
      <trkpt lat="38.83482333576682" lon="121.51060407599162">
        <ele>8.644493458792567</ele>
        <time>2026-04-05T00:08:32Z</time>
      </trkpt>
      <trkpt lat="38.83493066614716" lon="121.51024561657866">
        <ele>8.60036070086062</ele>
        <time>2026-04-05T00:08:50Z</time>
      </trkpt>
      <trkpt lat="38.835060390000066" lon="121.50987388309763">
        <ele>8.236929564736784</ele>
        <time>2026-04-05T00:09:08Z</time>
      </trkpt>
      <trkpt lat="38.835178495963355" lon="121.50950436540052">
        <ele>8.128794837743044</ele>
        <time>2026-04-05T00:09:26Z</time>
      </trkpt>
      <trkpt lat="38.83529074600446" lon="121.5091843267889">
        <ele>8.525881318375468</ele>
        <time>2026-04-05T00:09:41Z</time>
      </trkpt>
      <trkpt lat="38.83531146847872" lon="121.50911571853364">
        <ele>8.625019691884518</ele>
        <time>2026-04-05T00:09:44Z</time>
      </trkpt>
      <trkpt lat="38.83531146847872" lon="121.50911571853364">
        <ele>8.625019691884518</ele>
        <time>2026-04-05T00:09:49Z</time>
      </trkpt>
    </trkseg>
  </trk>
</gpx>