<?xml version="1.0" encoding="UTF-8"?>
<gpx xmlns="http://www.topografix.com/GPX/1/1" xmlns:gpxtpx="http://www.garmin.com/xmlschemas/TrackPointExtension/v1" xmlns:xsi="http://www.w3.org/2001/XMLSchema-instance" xsi:schemaLocation="http://www.topografix.com/GPX/1/1 http://www.topografix.com/GPX/1/1/gpx.xsd" version="1.1" creator="gpx.py -- https://github.com/tkrajina/gpxpy">
  <trk>
    <name>gpx from keep</name>
    <type>Run</type>
    <trkseg>
      <trkpt lat="38.833186628860595" lon="121.50722525568871">
        <ele>3.519747219979763</ele>
        <time>2025-06-14T01:44:02Z</time>
      </trkpt>
      <trkpt lat="38.833167263199734" lon="121.50709757513663">
        <ele>2.7950369538739324</ele>
        <time>2025-06-14T01:44:08Z</time>
      </trkpt>
      <trkpt lat="38.83302440059627" lon="121.50683264574583">
        <ele>3.5230815280228853</ele>
        <time>2025-06-14T01:44:17Z</time>
      </trkpt>
      <trkpt lat="38.83285867577793" lon="121.50663738590117">
        <ele>2.7112360959872603</ele>
        <time>2025-06-14T01:44:26Z</time>
      </trkpt>
      <trkpt lat="38.8327954224628" lon="121.50658586166139">
        <ele>2.8144674384966493</ele>
        <time>2025-06-14T01:44:29Z</time>
      </trkpt>
      <trkpt lat="38.8325559952605" lon="121.50651582722679">
        <ele>2.2929488541558385</ele>
        <time>2025-06-14T01:44:38Z</time>
      </trkpt>
      <trkpt lat="38.83242744802568" lon="121.50652891834761">
        <ele>2.172145739197731</ele>
        <time>2025-06-14T01:44:44Z</time>
        <extensions>
          <gpxtpx:TrackPointExtension>
            <gpxtpx:hr>132</gpxtpx:hr>
          </gpxtpx:TrackPointExtension>
        </extensions>
      </trkpt>
      <trkpt lat="38.8323416780663" lon="121.50650288912459">
        <ele>1.7688525766134262</ele>
        <time>2025-06-14T01:44:48Z</time>
        <extensions>
          <gpxtpx:TrackPointExtension>
            <gpxtpx:hr>132</gpxtpx:hr>
          </gpxtpx:TrackPointExtension>
        </extensions>
      </trkpt>
      <trkpt lat="38.832147823243034" lon="121.50633575403404">
        <ele>2.0913235545158386</ele>
        <time>2025-06-14T01:44:57Z</time>
        <extensions>
          <gpxtpx:TrackPointExtension>
            <gpxtpx:hr>132</gpxtpx:hr>
          </gpxtpx:TrackPointExtension>
        </extensions>
      </trkpt>
      <trkpt lat="38.83200196221523" lon="121.50610413035562">
        <ele>2.6696295272558928</ele>
        <time>2025-06-14T01:45:06Z</time>
        <extensions>
          <gpxtpx:TrackPointExtension>
            <gpxtpx:hr>133</gpxtpx:hr>
          </gpxtpx:TrackPointExtension>
        </extensions>
      </trkpt>
      <trkpt lat="38.83192917878339" lon="121.50582926764554">
        <ele>2.883890174329281</ele>
        <time>2025-06-14T01:45:15Z</time>
        <extensions>
          <gpxtpx:TrackPointExtension>
            <gpxtpx:hr>133</gpxtpx:hr>
          </gpxtpx:TrackPointExtension>
        </extensions>
      </trkpt>
      <trkpt lat="38.831796584287694" lon="121.50560282565391">
        <ele>3.335232822224498</ele>
        <time>2025-06-14T01:45:24Z</time>
        <extensions>
          <gpxtpx:TrackPointExtension>
            <gpxtpx:hr>133</gpxtpx:hr>
          </gpxtpx:TrackPointExtension>
        </extensions>
      </trkpt>
      <trkpt lat="38.83162414383997" lon="121.50543621262995">
        <ele>3.1833065543323755</ele>
        <time>2025-06-14T01:45:33Z</time>
      </trkpt>
      <trkpt lat="38.83141739962612" lon="121.50533779121983">
        <ele>3.061127287335694</ele>
        <time>2025-06-14T01:45:42Z</time>
        <extensions>
          <gpxtpx:TrackPointExtension>
            <gpxtpx:hr>134</gpxtpx:hr>
          </gpxtpx:TrackPointExtension>
        </extensions>
      </trkpt>
      <trkpt lat="38.83117906334908" lon="121.50532392699658">
        <ele>2.9348453218117356</ele>
        <time>2025-06-14T01:45:51Z</time>
        <extensions>
          <gpxtpx:TrackPointExtension>
            <gpxtpx:hr>134</gpxtpx:hr>
          </gpxtpx:TrackPointExtension>
        </extensions>
      </trkpt>
      <trkpt lat="38.83089958026443" lon="121.50537335952338">
        <ele>2.681089445017278</ele>
        <time>2025-06-14T01:46:03Z</time>
        <extensions>
          <gpxtpx:TrackPointExtension>
            <gpxtpx:hr>134</gpxtpx:hr>
          </gpxtpx:TrackPointExtension>
        </extensions>
      </trkpt>
      <trkpt lat="38.83082515239697" lon="121.50534097497966">
        <ele>2.51803897600621</ele>
        <time>2025-06-14T01:46:06Z</time>
        <extensions>
          <gpxtpx:TrackPointExtension>
            <gpxtpx:hr>134</gpxtpx:hr>
          </gpxtpx:TrackPointExtension>
        </extensions>
      </trkpt>
      <trkpt lat="38.83064683504719" lon="121.50513806980803">
        <ele>1.870561276562512</ele>
        <time>2025-06-14T01:46:15Z</time>
        <extensions>
          <gpxtpx:TrackPointExtension>
            <gpxtpx:hr>136</gpxtpx:hr>
          </gpxtpx:TrackPointExtension>
        </extensions>
      </trkpt>
      <trkpt lat="38.830590911599806" lon="121.50502391869564">
        <ele>2.861621046438813</ele>
        <time>2025-06-14T01:46:21Z</time>
        <extensions>
          <gpxtpx:TrackPointExtension>
            <gpxtpx:hr>136</gpxtpx:hr>
          </gpxtpx:TrackPointExtension>
        </extensions>
      </trkpt>
      <trkpt lat="38.83026008177957" lon="121.50487562443068">
        <ele>2.2490487610921264</ele>
        <time>2025-06-14T01:46:36Z</time>
        <extensions>
          <gpxtpx:TrackPointExtension>
            <gpxtpx:hr>134</gpxtpx:hr>
          </gpxtpx:TrackPointExtension>
        </extensions>
      </trkpt>
      <trkpt lat="38.83007076427393" lon="121.50479182838237">
        <ele>2.0712788617238402</ele>
        <time>2025-06-14T01:46:42Z</time>
        <extensions>
          <gpxtpx:TrackPointExtension>
            <gpxtpx:hr>132</gpxtpx:hr>
          </gpxtpx:TrackPointExtension>
        </extensions>
      </trkpt>
      <trkpt lat="38.829922957081905" lon="121.5046772981469">
        <ele>2.2399138305336237</ele>
        <time>2025-06-14T01:46:48Z</time>
        <extensions>
          <gpxtpx:TrackPointExtension>
            <gpxtpx:hr>132</gpxtpx:hr>
          </gpxtpx:TrackPointExtension>
        </extensions>
      </trkpt>
      <trkpt lat="38.82985366217425" lon="121.50457993092056">
        <ele>2.017080970108509</ele>
        <time>2025-06-14T01:46:52Z</time>
        <extensions>
          <gpxtpx:TrackPointExtension>
            <gpxtpx:hr>130</gpxtpx:hr>
          </gpxtpx:TrackPointExtension>
        </extensions>
      </trkpt>
      <trkpt lat="38.82976487522219" lon="121.50431310220665">
        <ele>2.41588687710464</ele>
        <time>2025-06-14T01:47:00Z</time>
        <extensions>
          <gpxtpx:TrackPointExtension>
            <gpxtpx:hr>133</gpxtpx:hr>
          </gpxtpx:TrackPointExtension>
        </extensions>
      </trkpt>
      <trkpt lat="38.8295581958057" lon="121.50425269718262">
        <ele>2.555209768936038</ele>
        <time>2025-06-14T01:47:07Z</time>
        <extensions>
          <gpxtpx:TrackPointExtension>
            <gpxtpx:hr>133</gpxtpx:hr>
          </gpxtpx:TrackPointExtension>
        </extensions>
      </trkpt>
      <trkpt lat="38.82940517626459" lon="121.50414302477323">
        <ele>2.3962610755115747</ele>
        <time>2025-06-14T01:47:14Z</time>
        <extensions>
          <gpxtpx:TrackPointExtension>
            <gpxtpx:hr>133</gpxtpx:hr>
          </gpxtpx:TrackPointExtension>
        </extensions>
      </trkpt>
      <trkpt lat="38.82912619413585" lon="121.50404023245181">
        <ele>2.7280173879116774</ele>
        <time>2025-06-14T01:47:26Z</time>
        <extensions>
          <gpxtpx:TrackPointExtension>
            <gpxtpx:hr>135</gpxtpx:hr>
          </gpxtpx:TrackPointExtension>
        </extensions>
      </trkpt>
      <trkpt lat="38.82884296444857" lon="121.50400261602212">
        <ele>2.2530746376141906</ele>
        <time>2025-06-14T01:47:38Z</time>
        <extensions>
          <gpxtpx:TrackPointExtension>
            <gpxtpx:hr>135</gpxtpx:hr>
          </gpxtpx:TrackPointExtension>
        </extensions>
      </trkpt>
      <trkpt lat="38.82856364433006" lon="121.50408647360389">
        <ele>2.19798506423831</ele>
        <time>2025-06-14T01:47:50Z</time>
        <extensions>
          <gpxtpx:TrackPointExtension>
            <gpxtpx:hr>134</gpxtpx:hr>
          </gpxtpx:TrackPointExtension>
        </extensions>
      </trkpt>
      <trkpt lat="38.82840654900035" lon="121.50411085566115">
        <ele>2.265445147641003</ele>
        <time>2025-06-14T01:47:56Z</time>
        <extensions>
          <gpxtpx:TrackPointExtension>
            <gpxtpx:hr>134</gpxtpx:hr>
          </gpxtpx:TrackPointExtension>
        </extensions>
      </trkpt>
      <trkpt lat="38.82825507588627" lon="121.50406676277697">
        <ele>2.4046605210751295</ele>
        <time>2025-06-14T01:48:02Z</time>
        <extensions>
          <gpxtpx:TrackPointExtension>
            <gpxtpx:hr>135</gpxtpx:hr>
          </gpxtpx:TrackPointExtension>
        </extensions>
      </trkpt>
      <trkpt lat="38.8280538569027" lon="121.50391608612539">
        <ele>2.2459905156865716</ele>
        <time>2025-06-14T01:48:11Z</time>
        <extensions>
          <gpxtpx:TrackPointExtension>
            <gpxtpx:hr>135</gpxtpx:hr>
          </gpxtpx:TrackPointExtension>
        </extensions>
      </trkpt>
      <trkpt lat="38.82794168624489" lon="121.50376417842529">
        <ele>2.360420472919941</ele>
        <time>2025-06-14T01:48:17Z</time>
        <extensions>
          <gpxtpx:TrackPointExtension>
            <gpxtpx:hr>134</gpxtpx:hr>
          </gpxtpx:TrackPointExtension>
        </extensions>
      </trkpt>
      <trkpt lat="38.82786507722309" lon="121.5034810083556">
        <ele>2.0231830524280667</ele>
        <time>2025-06-14T01:48:26Z</time>
        <extensions>
          <gpxtpx:TrackPointExtension>
            <gpxtpx:hr>134</gpxtpx:hr>
          </gpxtpx:TrackPointExtension>
        </extensions>
      </trkpt>
      <trkpt lat="38.8278253007213" lon="121.50329453110382">
        <ele>2.0681364703923464</ele>
        <time>2025-06-14T01:48:32Z</time>
        <extensions>
          <gpxtpx:TrackPointExtension>
            <gpxtpx:hr>134</gpxtpx:hr>
          </gpxtpx:TrackPointExtension>
        </extensions>
      </trkpt>
      <trkpt lat="38.82777983017118" lon="121.50322062795209">
        <ele>2.0777851147577167</ele>
        <time>2025-06-14T01:48:35Z</time>
        <extensions>
          <gpxtpx:TrackPointExtension>
            <gpxtpx:hr>135</gpxtpx:hr>
          </gpxtpx:TrackPointExtension>
        </extensions>
      </trkpt>
      <trkpt lat="38.827560303386406" lon="121.50305770353276">
        <ele>2.380680243484676</ele>
        <time>2025-06-14T01:48:44Z</time>
        <extensions>
          <gpxtpx:TrackPointExtension>
            <gpxtpx:hr>136</gpxtpx:hr>
          </gpxtpx:TrackPointExtension>
        </extensions>
      </trkpt>
      <trkpt lat="38.827318207090165" lon="121.50300650472987">
        <ele>2.4264274006709456</ele>
        <time>2025-06-14T01:48:53Z</time>
        <extensions>
          <gpxtpx:TrackPointExtension>
            <gpxtpx:hr>135</gpxtpx:hr>
          </gpxtpx:TrackPointExtension>
        </extensions>
      </trkpt>
      <trkpt lat="38.827242302805345" lon="121.50301549701443">
        <ele>2.5279982648789883</ele>
        <time>2025-06-14T01:48:56Z</time>
        <extensions>
          <gpxtpx:TrackPointExtension>
            <gpxtpx:hr>136</gpxtpx:hr>
          </gpxtpx:TrackPointExtension>
        </extensions>
      </trkpt>
      <trkpt lat="38.82714382990204" lon="121.50305553975373">
        <ele>2.570083553902805</ele>
        <time>2025-06-14T01:49:00Z</time>
        <extensions>
          <gpxtpx:TrackPointExtension>
            <gpxtpx:hr>139</gpxtpx:hr>
          </gpxtpx:TrackPointExtension>
        </extensions>
      </trkpt>
      <trkpt lat="38.826988407652635" lon="121.50318484582276">
        <ele>2.6693777833133936</ele>
        <time>2025-06-14T01:49:07Z</time>
        <extensions>
          <gpxtpx:TrackPointExtension>
            <gpxtpx:hr>139</gpxtpx:hr>
          </gpxtpx:TrackPointExtension>
        </extensions>
      </trkpt>
      <trkpt lat="38.82677060976079" lon="121.50343629969589">
        <ele>2.423445955850184</ele>
        <time>2025-06-14T01:49:18Z</time>
        <extensions>
          <gpxtpx:TrackPointExtension>
            <gpxtpx:hr>139</gpxtpx:hr>
          </gpxtpx:TrackPointExtension>
        </extensions>
      </trkpt>
      <trkpt lat="38.82666028382316" lon="121.50358826993799">
        <ele>2.296268468722701</ele>
        <time>2025-06-14T01:49:24Z</time>
        <extensions>
          <gpxtpx:TrackPointExtension>
            <gpxtpx:hr>142</gpxtpx:hr>
          </gpxtpx:TrackPointExtension>
        </extensions>
      </trkpt>
      <trkpt lat="38.82658129607276" lon="121.50385921214807">
        <ele>2.517469539307058</ele>
        <time>2025-06-14T01:49:33Z</time>
        <extensions>
          <gpxtpx:TrackPointExtension>
            <gpxtpx:hr>141</gpxtpx:hr>
          </gpxtpx:TrackPointExtension>
        </extensions>
      </trkpt>
      <trkpt lat="38.826590321070526" lon="121.50424273916954">
        <ele>2.0671242121607065</ele>
        <time>2025-06-14T01:49:45Z</time>
        <extensions>
          <gpxtpx:TrackPointExtension>
            <gpxtpx:hr>140</gpxtpx:hr>
          </gpxtpx:TrackPointExtension>
        </extensions>
      </trkpt>
      <trkpt lat="38.826537779608294" lon="121.5045364510202">
        <ele>1.7144156163558364</ele>
        <time>2025-06-14T01:49:54Z</time>
        <extensions>
          <gpxtpx:TrackPointExtension>
            <gpxtpx:hr>140</gpxtpx:hr>
          </gpxtpx:TrackPointExtension>
        </extensions>
      </trkpt>
      <trkpt lat="38.826368140715275" lon="121.50487114392729">
        <ele>2.4696913845837116</ele>
        <time>2025-06-14T01:50:06Z</time>
        <extensions>
          <gpxtpx:TrackPointExtension>
            <gpxtpx:hr>142</gpxtpx:hr>
          </gpxtpx:TrackPointExtension>
        </extensions>
      </trkpt>
      <trkpt lat="38.8262296407372" lon="121.50498234678236">
        <ele>2.370797861367464</ele>
        <time>2025-06-14T01:50:13Z</time>
        <extensions>
          <gpxtpx:TrackPointExtension>
            <gpxtpx:hr>142</gpxtpx:hr>
          </gpxtpx:TrackPointExtension>
        </extensions>
      </trkpt>
      <trkpt lat="38.82622568371629" lon="121.50487966753506">
        <ele>2.23019864782691</ele>
        <time>2025-06-14T01:50:16Z</time>
        <extensions>
          <gpxtpx:TrackPointExtension>
            <gpxtpx:hr>140</gpxtpx:hr>
          </gpxtpx:TrackPointExtension>
        </extensions>
      </trkpt>
      <trkpt lat="38.8262891854161" lon="121.50479671215236">
        <ele>1.921079301275313</ele>
        <time>2025-06-14T01:50:19Z</time>
        <extensions>
          <gpxtpx:TrackPointExtension>
            <gpxtpx:hr>140</gpxtpx:hr>
          </gpxtpx:TrackPointExtension>
        </extensions>
      </trkpt>
      <trkpt lat="38.82644055500225" lon="121.50473740666014">
        <ele>1.5387474158778787</ele>
        <time>2025-06-14T01:50:25Z</time>
        <extensions>
          <gpxtpx:TrackPointExtension>
            <gpxtpx:hr>140</gpxtpx:hr>
          </gpxtpx:TrackPointExtension>
        </extensions>
      </trkpt>
      <trkpt lat="38.82654030633664" lon="121.50448040306578">
        <ele>1.643974813632667</ele>
        <time>2025-06-14T01:50:34Z</time>
        <extensions>
          <gpxtpx:TrackPointExtension>
            <gpxtpx:hr>143</gpxtpx:hr>
          </gpxtpx:TrackPointExtension>
        </extensions>
      </trkpt>
      <trkpt lat="38.82657434946736" lon="121.50418667578975">
        <ele>2.0483560170978308</ele>
        <time>2025-06-14T01:50:43Z</time>
        <extensions>
          <gpxtpx:TrackPointExtension>
            <gpxtpx:hr>143</gpxtpx:hr>
          </gpxtpx:TrackPointExtension>
        </extensions>
      </trkpt>
      <trkpt lat="38.826565991321665" lon="121.50389360549988">
        <ele>2.602709653787315</ele>
        <time>2025-06-14T01:50:52Z</time>
        <extensions>
          <gpxtpx:TrackPointExtension>
            <gpxtpx:hr>145</gpxtpx:hr>
          </gpxtpx:TrackPointExtension>
        </extensions>
      </trkpt>
      <trkpt lat="38.826627088158666" lon="121.50359268954217">
        <ele>2.5721413353458047</ele>
        <time>2025-06-14T01:51:01Z</time>
        <extensions>
          <gpxtpx:TrackPointExtension>
            <gpxtpx:hr>145</gpxtpx:hr>
          </gpxtpx:TrackPointExtension>
        </extensions>
      </trkpt>
      <trkpt lat="38.82677310077155" lon="121.50339576496289">
        <ele>1.9188044900074601</ele>
        <time>2025-06-14T01:51:09Z</time>
        <extensions>
          <gpxtpx:TrackPointExtension>
            <gpxtpx:hr>145</gpxtpx:hr>
          </gpxtpx:TrackPointExtension>
        </extensions>
      </trkpt>
      <trkpt lat="38.82695852015941" lon="121.50321762933696">
        <ele>2.249435550533235</ele>
        <time>2025-06-14T01:51:17Z</time>
        <extensions>
          <gpxtpx:TrackPointExtension>
            <gpxtpx:hr>148</gpxtpx:hr>
          </gpxtpx:TrackPointExtension>
        </extensions>
      </trkpt>
      <trkpt lat="38.827023168047674" lon="121.50312405347367">
        <ele>2.511432006023824</ele>
        <time>2025-06-14T01:51:21Z</time>
        <extensions>
          <gpxtpx:TrackPointExtension>
            <gpxtpx:hr>149</gpxtpx:hr>
          </gpxtpx:TrackPointExtension>
        </extensions>
      </trkpt>
      <trkpt lat="38.82721010029503" lon="121.50299435066339">
        <ele>2.396149752661586</ele>
        <time>2025-06-14T01:51:29Z</time>
        <extensions>
          <gpxtpx:TrackPointExtension>
            <gpxtpx:hr>150</gpxtpx:hr>
          </gpxtpx:TrackPointExtension>
        </extensions>
      </trkpt>
      <trkpt lat="38.827332113330804" lon="121.50297773681496">
        <ele>2.593788204714656</ele>
        <time>2025-06-14T01:51:33Z</time>
        <extensions>
          <gpxtpx:TrackPointExtension>
            <gpxtpx:hr>150</gpxtpx:hr>
          </gpxtpx:TrackPointExtension>
        </extensions>
      </trkpt>
      <trkpt lat="38.82758034993823" lon="121.50304344347845">
        <ele>2.4333972670137882</ele>
        <time>2025-06-14T01:51:42Z</time>
        <extensions>
          <gpxtpx:TrackPointExtension>
            <gpxtpx:hr>150</gpxtpx:hr>
          </gpxtpx:TrackPointExtension>
        </extensions>
      </trkpt>
      <trkpt lat="38.827657928681354" lon="121.50310058488566">
        <ele>2.5951018361374736</ele>
        <time>2025-06-14T01:51:45Z</time>
        <extensions>
          <gpxtpx:TrackPointExtension>
            <gpxtpx:hr>152</gpxtpx:hr>
          </gpxtpx:TrackPointExtension>
        </extensions>
      </trkpt>
      <trkpt lat="38.82776424235569" lon="121.50323308935671">
        <ele>2.3782177697867155</ele>
        <time>2025-06-14T01:51:51Z</time>
        <extensions>
          <gpxtpx:TrackPointExtension>
            <gpxtpx:hr>154</gpxtpx:hr>
          </gpxtpx:TrackPointExtension>
        </extensions>
      </trkpt>
      <trkpt lat="38.827834210724326" lon="121.50325675316783">
        <ele>2.4887995775789022</ele>
        <time>2025-06-14T01:51:54Z</time>
        <extensions>
          <gpxtpx:TrackPointExtension>
            <gpxtpx:hr>154</gpxtpx:hr>
          </gpxtpx:TrackPointExtension>
        </extensions>
      </trkpt>
      <trkpt lat="38.827869652891444" lon="121.50335536548036">
        <ele>2.0982565712183714</ele>
        <time>2025-06-14T01:51:57Z</time>
        <extensions>
          <gpxtpx:TrackPointExtension>
            <gpxtpx:hr>154</gpxtpx:hr>
          </gpxtpx:TrackPointExtension>
        </extensions>
      </trkpt>
      <trkpt lat="38.82792783120458" lon="121.5036669928">
        <ele>2.029367228038609</ele>
        <time>2025-06-14T01:52:06Z</time>
        <extensions>
          <gpxtpx:TrackPointExtension>
            <gpxtpx:hr>153</gpxtpx:hr>
          </gpxtpx:TrackPointExtension>
        </extensions>
      </trkpt>
      <trkpt lat="38.82800929421363" lon="121.50383929895825">
        <ele>2.2259911065921187</ele>
        <time>2025-06-14T01:52:12Z</time>
        <extensions>
          <gpxtpx:TrackPointExtension>
            <gpxtpx:hr>154</gpxtpx:hr>
          </gpxtpx:TrackPointExtension>
        </extensions>
      </trkpt>
      <trkpt lat="38.82811117960519" lon="121.50397628624204">
        <ele>2.322751167230308</ele>
        <time>2025-06-14T01:52:18Z</time>
        <extensions>
          <gpxtpx:TrackPointExtension>
            <gpxtpx:hr>154</gpxtpx:hr>
          </gpxtpx:TrackPointExtension>
        </extensions>
      </trkpt>
      <trkpt lat="38.828176425885445" lon="121.50403007264161">
        <ele>2.2384884878993034</ele>
        <time>2025-06-14T01:52:21Z</time>
        <extensions>
          <gpxtpx:TrackPointExtension>
            <gpxtpx:hr>154</gpxtpx:hr>
          </gpxtpx:TrackPointExtension>
        </extensions>
      </trkpt>
      <trkpt lat="38.8284988989933" lon="121.5041057024655">
        <ele>1.9397009145468473</ele>
        <time>2025-06-14T01:52:33Z</time>
        <extensions>
          <gpxtpx:TrackPointExtension>
            <gpxtpx:hr>153</gpxtpx:hr>
          </gpxtpx:TrackPointExtension>
        </extensions>
      </trkpt>
      <trkpt lat="38.82879727591838" lon="121.50402106658981">
        <ele>2.110364976339042</ele>
        <time>2025-06-14T01:52:45Z</time>
        <extensions>
          <gpxtpx:TrackPointExtension>
            <gpxtpx:hr>152</gpxtpx:hr>
          </gpxtpx:TrackPointExtension>
        </extensions>
      </trkpt>
      <trkpt lat="38.82887329533043" lon="121.50401064409078">
        <ele>1.9333809949457645</ele>
        <time>2025-06-14T01:52:48Z</time>
        <extensions>
          <gpxtpx:TrackPointExtension>
            <gpxtpx:hr>152</gpxtpx:hr>
          </gpxtpx:TrackPointExtension>
        </extensions>
      </trkpt>
      <trkpt lat="38.829028342728414" lon="121.50406512851514">
        <ele>2.4813438868150115</ele>
        <time>2025-06-14T01:52:54Z</time>
        <extensions>
          <gpxtpx:TrackPointExtension>
            <gpxtpx:hr>152</gpxtpx:hr>
          </gpxtpx:TrackPointExtension>
        </extensions>
      </trkpt>
      <trkpt lat="38.82908613848953" lon="121.50400813549099">
        <ele>1.9875332731753588</ele>
        <time>2025-06-14T01:52:57Z</time>
        <extensions>
          <gpxtpx:TrackPointExtension>
            <gpxtpx:hr>152</gpxtpx:hr>
          </gpxtpx:TrackPointExtension>
        </extensions>
      </trkpt>
      <trkpt lat="38.82922064153781" lon="121.50401848529536">
        <ele>2.4765910021960735</ele>
        <time>2025-06-14T01:53:03Z</time>
        <extensions>
          <gpxtpx:TrackPointExtension>
            <gpxtpx:hr>152</gpxtpx:hr>
          </gpxtpx:TrackPointExtension>
        </extensions>
      </trkpt>
      <trkpt lat="38.82930256937872" lon="121.50405161671189">
        <ele>2.664130251854658</ele>
        <time>2025-06-14T01:53:06Z</time>
        <extensions>
          <gpxtpx:TrackPointExtension>
            <gpxtpx:hr>152</gpxtpx:hr>
          </gpxtpx:TrackPointExtension>
        </extensions>
      </trkpt>
      <trkpt lat="38.82939004110565" lon="121.50413424707128">
        <ele>2.745410860516131</ele>
        <time>2025-06-14T01:53:10Z</time>
        <extensions>
          <gpxtpx:TrackPointExtension>
            <gpxtpx:hr>152</gpxtpx:hr>
          </gpxtpx:TrackPointExtension>
        </extensions>
      </trkpt>
      <trkpt lat="38.82948412491831" lon="121.5041804000949">
        <ele>2.4229061817750335</ele>
        <time>2025-06-14T01:53:14Z</time>
        <extensions>
          <gpxtpx:TrackPointExtension>
            <gpxtpx:hr>152</gpxtpx:hr>
          </gpxtpx:TrackPointExtension>
        </extensions>
      </trkpt>
      <trkpt lat="38.82976161290816" lon="121.5044014069782">
        <ele>2.1699280058965087</ele>
        <time>2025-06-14T01:53:26Z</time>
        <extensions>
          <gpxtpx:TrackPointExtension>
            <gpxtpx:hr>152</gpxtpx:hr>
          </gpxtpx:TrackPointExtension>
        </extensions>
      </trkpt>
      <trkpt lat="38.82993097509833" lon="121.504640705707">
        <ele>2.364422094076872</ele>
        <time>2025-06-14T01:53:36Z</time>
        <extensions>
          <gpxtpx:TrackPointExtension>
            <gpxtpx:hr>153</gpxtpx:hr>
          </gpxtpx:TrackPointExtension>
        </extensions>
      </trkpt>
      <trkpt lat="38.830059419788114" lon="121.50475707913995">
        <ele>2.2542542722076178</ele>
        <time>2025-06-14T01:53:42Z</time>
        <extensions>
          <gpxtpx:TrackPointExtension>
            <gpxtpx:hr>155</gpxtpx:hr>
          </gpxtpx:TrackPointExtension>
        </extensions>
      </trkpt>
      <trkpt lat="38.83028575536338" lon="121.50483034395558">
        <ele>2.5193030079826713</ele>
        <time>2025-06-14T01:53:51Z</time>
        <extensions>
          <gpxtpx:TrackPointExtension>
            <gpxtpx:hr>154</gpxtpx:hr>
          </gpxtpx:TrackPointExtension>
        </extensions>
      </trkpt>
      <trkpt lat="38.83056838691839" lon="121.50502184764316">
        <ele>2.8552500484511256</ele>
        <time>2025-06-14T01:54:03Z</time>
        <extensions>
          <gpxtpx:TrackPointExtension>
            <gpxtpx:hr>154</gpxtpx:hr>
          </gpxtpx:TrackPointExtension>
        </extensions>
      </trkpt>
      <trkpt lat="38.83080662424413" lon="121.50529171923232">
        <ele>2.930708753876388</ele>
        <time>2025-06-14T01:54:15Z</time>
        <extensions>
          <gpxtpx:TrackPointExtension>
            <gpxtpx:hr>156</gpxtpx:hr>
          </gpxtpx:TrackPointExtension>
        </extensions>
      </trkpt>
      <trkpt lat="38.830877578714905" lon="121.50534823675176">
        <ele>2.6807452896609902</ele>
        <time>2025-06-14T01:54:18Z</time>
        <extensions>
          <gpxtpx:TrackPointExtension>
            <gpxtpx:hr>156</gpxtpx:hr>
          </gpxtpx:TrackPointExtension>
        </extensions>
      </trkpt>
      <trkpt lat="38.8311161877702" lon="121.50532728582493">
        <ele>2.5600613793358207</ele>
        <time>2025-06-14T01:54:27Z</time>
        <extensions>
          <gpxtpx:TrackPointExtension>
            <gpxtpx:hr>156</gpxtpx:hr>
          </gpxtpx:TrackPointExtension>
        </extensions>
      </trkpt>
      <trkpt lat="38.83127269427083" lon="121.50529268907944">
        <ele>2.829559177160263</ele>
        <time>2025-06-14T01:54:33Z</time>
        <extensions>
          <gpxtpx:TrackPointExtension>
            <gpxtpx:hr>157</gpxtpx:hr>
          </gpxtpx:TrackPointExtension>
        </extensions>
      </trkpt>
      <trkpt lat="38.83150355031185" lon="121.50533920249788">
        <ele>2.993929650634527</ele>
        <time>2025-06-14T01:54:42Z</time>
        <extensions>
          <gpxtpx:TrackPointExtension>
            <gpxtpx:hr>158</gpxtpx:hr>
          </gpxtpx:TrackPointExtension>
        </extensions>
      </trkpt>
      <trkpt lat="38.831653550871984" lon="121.50542089002997">
        <ele>3.3108355794101954</ele>
        <time>2025-06-14T01:54:48Z</time>
        <extensions>
          <gpxtpx:TrackPointExtension>
            <gpxtpx:hr>158</gpxtpx:hr>
          </gpxtpx:TrackPointExtension>
        </extensions>
      </trkpt>
      <trkpt lat="38.83183737294502" lon="121.50562341957934">
        <ele>3.520188784226775</ele>
        <time>2025-06-14T01:54:57Z</time>
        <extensions>
          <gpxtpx:TrackPointExtension>
            <gpxtpx:hr>159</gpxtpx:hr>
          </gpxtpx:TrackPointExtension>
        </extensions>
      </trkpt>
      <trkpt lat="38.83197842078392" lon="121.50589030502783">
        <ele>3.0013004057109356</ele>
        <time>2025-06-14T01:55:06Z</time>
        <extensions>
          <gpxtpx:TrackPointExtension>
            <gpxtpx:hr>158</gpxtpx:hr>
          </gpxtpx:TrackPointExtension>
        </extensions>
      </trkpt>
      <trkpt lat="38.832014121666425" lon="121.50608411449895">
        <ele>2.837325254455209</ele>
        <time>2025-06-14T01:55:12Z</time>
        <extensions>
          <gpxtpx:TrackPointExtension>
            <gpxtpx:hr>158</gpxtpx:hr>
          </gpxtpx:TrackPointExtension>
        </extensions>
      </trkpt>
      <trkpt lat="38.83205775735991" lon="121.50620667321907">
        <ele>2.4051346899941564</ele>
        <time>2025-06-14T01:55:16Z</time>
        <extensions>
          <gpxtpx:TrackPointExtension>
            <gpxtpx:hr>157</gpxtpx:hr>
          </gpxtpx:TrackPointExtension>
        </extensions>
      </trkpt>
      <trkpt lat="38.83218083044191" lon="121.5063719096805">
        <ele>2.2714133206754923</ele>
        <time>2025-06-14T01:55:23Z</time>
        <extensions>
          <gpxtpx:TrackPointExtension>
            <gpxtpx:hr>158</gpxtpx:hr>
          </gpxtpx:TrackPointExtension>
        </extensions>
      </trkpt>
      <trkpt lat="38.8323759360015" lon="121.50648717559353">
        <ele>2.3649028446525335</ele>
        <time>2025-06-14T01:55:31Z</time>
        <extensions>
          <gpxtpx:TrackPointExtension>
            <gpxtpx:hr>158</gpxtpx:hr>
          </gpxtpx:TrackPointExtension>
        </extensions>
      </trkpt>
      <trkpt lat="38.83272115165628" lon="121.50655108208423">
        <ele>2.034029790200293</ele>
        <time>2025-06-14T01:55:44Z</time>
        <extensions>
          <gpxtpx:TrackPointExtension>
            <gpxtpx:hr>159</gpxtpx:hr>
          </gpxtpx:TrackPointExtension>
        </extensions>
      </trkpt>
      <trkpt lat="38.832872288220074" lon="121.50661815882118">
        <ele>2.3381706830114126</ele>
        <time>2025-06-14T01:55:50Z</time>
        <extensions>
          <gpxtpx:TrackPointExtension>
            <gpxtpx:hr>158</gpxtpx:hr>
          </gpxtpx:TrackPointExtension>
        </extensions>
      </trkpt>
      <trkpt lat="38.832939385277115" lon="121.50667129662986">
        <ele>2.3045246936380863</ele>
        <time>2025-06-14T01:55:53Z</time>
        <extensions>
          <gpxtpx:TrackPointExtension>
            <gpxtpx:hr>158</gpxtpx:hr>
          </gpxtpx:TrackPointExtension>
        </extensions>
      </trkpt>
      <trkpt lat="38.83297496188249" lon="121.50672906487294">
        <ele>2.5344600919634104</ele>
        <time>2025-06-14T01:55:59Z</time>
        <extensions>
          <gpxtpx:TrackPointExtension>
            <gpxtpx:hr>158</gpxtpx:hr>
          </gpxtpx:TrackPointExtension>
        </extensions>
      </trkpt>
      <trkpt lat="38.83297496188249" lon="121.50672906487294">
        <ele>2.5344600919634104</ele>
        <time>2025-06-14T01:56:02Z</time>
        <extensions>
          <gpxtpx:TrackPointExtension>
            <gpxtpx:hr>158</gpxtpx:hr>
          </gpxtpx:TrackPointExtension>
        </extensions>
      </trkpt>
    </trkseg>
  </trk>
</gpx>