<?xml version="1.0" encoding="UTF-8"?>
<gpx xmlns="http://www.topografix.com/GPX/1/1" xmlns:gpxtpx="http://www.garmin.com/xmlschemas/TrackPointExtension/v1" xmlns:xsi="http://www.w3.org/2001/XMLSchema-instance" xsi:schemaLocation="http://www.topografix.com/GPX/1/1 http://www.topografix.com/GPX/1/1/gpx.xsd" version="1.1" creator="gpx.py -- https://github.com/tkrajina/gpxpy">
  <trk>
    <name>gpx from keep</name>
    <type>Run</type>
    <trkseg>
      <trkpt lat="38.832653381848495" lon="121.50860520783392">
        <ele>-1.2302327156066895</ele>
        <time>2024-12-10T05:37:13Z</time>
        <extensions>
          <gpxtpx:TrackPointExtension>
            <gpxtpx:hr>67</gpxtpx:hr>
          </gpxtpx:TrackPointExtension>
        </extensions>
      </trkpt>
      <trkpt lat="38.83238906558645" lon="121.50864107780004">
        <ele>-2.240028239786625</ele>
        <time>2024-12-10T05:37:25Z</time>
        <extensions>
          <gpxtpx:TrackPointExtension>
            <gpxtpx:hr>67</gpxtpx:hr>
          </gpxtpx:TrackPointExtension>
        </extensions>
      </trkpt>
      <trkpt lat="38.83210557217987" lon="121.50852846567516">
        <ele>-2.256477190181613</ele>
        <time>2024-12-10T05:37:37Z</time>
        <extensions>
          <gpxtpx:TrackPointExtension>
            <gpxtpx:hr>135</gpxtpx:hr>
          </gpxtpx:TrackPointExtension>
        </extensions>
      </trkpt>
      <trkpt lat="38.83195180152644" lon="121.50837086777075">
        <ele>1.3494968954473734</ele>
        <time>2024-12-10T05:37:45Z</time>
        <extensions>
          <gpxtpx:TrackPointExtension>
            <gpxtpx:hr>135</gpxtpx:hr>
          </gpxtpx:TrackPointExtension>
        </extensions>
      </trkpt>
      <trkpt lat="38.83188530903218" lon="121.508271176939">
        <ele>0.43667434342205524</ele>
        <time>2024-12-10T05:37:49Z</time>
        <extensions>
          <gpxtpx:TrackPointExtension>
            <gpxtpx:hr>135</gpxtpx:hr>
          </gpxtpx:TrackPointExtension>
        </extensions>
      </trkpt>
      <trkpt lat="38.83173901572868" lon="121.50794758120269">
        <ele>0.9150933297351003</ele>
        <time>2024-12-10T05:38:01Z</time>
        <extensions>
          <gpxtpx:TrackPointExtension>
            <gpxtpx:hr>118</gpxtpx:hr>
          </gpxtpx:TrackPointExtension>
        </extensions>
      </trkpt>
      <trkpt lat="38.83158773959787" lon="121.50779094248702">
        <ele>0.5774508696049452</ele>
        <time>2024-12-10T05:38:09Z</time>
        <extensions>
          <gpxtpx:TrackPointExtension>
            <gpxtpx:hr>121</gpxtpx:hr>
          </gpxtpx:TrackPointExtension>
        </extensions>
      </trkpt>
      <trkpt lat="38.83139774975391" lon="121.50771981908136">
        <ele>0.5782423410564661</ele>
        <time>2024-12-10T05:38:17Z</time>
        <extensions>
          <gpxtpx:TrackPointExtension>
            <gpxtpx:hr>124</gpxtpx:hr>
          </gpxtpx:TrackPointExtension>
        </extensions>
      </trkpt>
      <trkpt lat="38.83108384508134" lon="121.50775715149246">
        <ele>1.0645707873627543</ele>
        <time>2024-12-10T05:38:29Z</time>
        <extensions>
          <gpxtpx:TrackPointExtension>
            <gpxtpx:hr>117</gpxtpx:hr>
          </gpxtpx:TrackPointExtension>
        </extensions>
      </trkpt>
      <trkpt lat="38.830897807072155" lon="121.5077487279689">
        <ele>0.7615085858851671</ele>
        <time>2024-12-10T05:38:37Z</time>
        <extensions>
          <gpxtpx:TrackPointExtension>
            <gpxtpx:hr>116</gpxtpx:hr>
          </gpxtpx:TrackPointExtension>
        </extensions>
      </trkpt>
      <trkpt lat="38.8307037683991" lon="121.50767048127821">
        <ele>1.1243471782654524</ele>
        <time>2024-12-10T05:38:45Z</time>
        <extensions>
          <gpxtpx:TrackPointExtension>
            <gpxtpx:hr>118</gpxtpx:hr>
          </gpxtpx:TrackPointExtension>
        </extensions>
      </trkpt>
      <trkpt lat="38.830611181730596" lon="121.50760643835292">
        <ele>1.4850315051153302</ele>
        <time>2024-12-10T05:38:49Z</time>
        <extensions>
          <gpxtpx:TrackPointExtension>
            <gpxtpx:hr>121</gpxtpx:hr>
          </gpxtpx:TrackPointExtension>
        </extensions>
      </trkpt>
      <trkpt lat="38.830393642786724" lon="121.50735899328382">
        <ele>1.0670475224032998</ele>
        <time>2024-12-10T05:39:01Z</time>
        <extensions>
          <gpxtpx:TrackPointExtension>
            <gpxtpx:hr>130</gpxtpx:hr>
          </gpxtpx:TrackPointExtension>
        </extensions>
      </trkpt>
      <trkpt lat="38.830340955771554" lon="121.50725293817048">
        <ele>1.5708052832633257</ele>
        <time>2024-12-10T05:39:05Z</time>
        <extensions>
          <gpxtpx:TrackPointExtension>
            <gpxtpx:hr>130</gpxtpx:hr>
          </gpxtpx:TrackPointExtension>
        </extensions>
      </trkpt>
      <trkpt lat="38.83024372541629" lon="121.50689990857747">
        <ele>-0.11839578952640295</ele>
        <time>2024-12-10T05:39:17Z</time>
        <extensions>
          <gpxtpx:TrackPointExtension>
            <gpxtpx:hr>130</gpxtpx:hr>
          </gpxtpx:TrackPointExtension>
        </extensions>
      </trkpt>
      <trkpt lat="38.83012612726955" lon="121.50672766538958">
        <ele>0.10547844227403402</ele>
        <time>2024-12-10T05:39:24Z</time>
        <extensions>
          <gpxtpx:TrackPointExtension>
            <gpxtpx:hr>136</gpxtpx:hr>
          </gpxtpx:TrackPointExtension>
        </extensions>
      </trkpt>
      <trkpt lat="38.829939165828286" lon="121.5066366216196">
        <ele>0.1663964306935668</ele>
        <time>2024-12-10T05:39:32Z</time>
        <extensions>
          <gpxtpx:TrackPointExtension>
            <gpxtpx:hr>135</gpxtpx:hr>
          </gpxtpx:TrackPointExtension>
        </extensions>
      </trkpt>
      <trkpt lat="38.829698357652646" lon="121.50644579195406">
        <ele>0.5087627749890089</ele>
        <time>2024-12-10T05:39:44Z</time>
        <extensions>
          <gpxtpx:TrackPointExtension>
            <gpxtpx:hr>137</gpxtpx:hr>
          </gpxtpx:TrackPointExtension>
        </extensions>
      </trkpt>
      <trkpt lat="38.829546089386355" lon="121.50629531119601">
        <ele>0.1975025301799178</ele>
        <time>2024-12-10T05:39:52Z</time>
        <extensions>
          <gpxtpx:TrackPointExtension>
            <gpxtpx:hr>136</gpxtpx:hr>
          </gpxtpx:TrackPointExtension>
        </extensions>
      </trkpt>
      <trkpt lat="38.8295074988268" lon="121.50617274178617">
        <ele>0.697703430429101</ele>
        <time>2024-12-10T05:39:56Z</time>
        <extensions>
          <gpxtpx:TrackPointExtension>
            <gpxtpx:hr>135</gpxtpx:hr>
          </gpxtpx:TrackPointExtension>
        </extensions>
      </trkpt>
      <trkpt lat="38.829347270237" lon="121.50603092880769">
        <ele>0.0504757696762681</ele>
        <time>2024-12-10T05:40:04Z</time>
        <extensions>
          <gpxtpx:TrackPointExtension>
            <gpxtpx:hr>136</gpxtpx:hr>
          </gpxtpx:TrackPointExtension>
        </extensions>
      </trkpt>
      <trkpt lat="38.82915355473015" lon="121.50594757370258">
        <ele>1.279632675461471</ele>
        <time>2024-12-10T05:40:12Z</time>
        <extensions>
          <gpxtpx:TrackPointExtension>
            <gpxtpx:hr>136</gpxtpx:hr>
          </gpxtpx:TrackPointExtension>
        </extensions>
      </trkpt>
      <trkpt lat="38.82896393547035" lon="121.5059475187628">
        <ele>-0.05134431645274162</ele>
        <time>2024-12-10T05:40:20Z</time>
        <extensions>
          <gpxtpx:TrackPointExtension>
            <gpxtpx:hr>137</gpxtpx:hr>
          </gpxtpx:TrackPointExtension>
        </extensions>
      </trkpt>
      <trkpt lat="38.82869285349219" lon="121.50606330541261">
        <ele>-0.5382680175825953</ele>
        <time>2024-12-10T05:40:32Z</time>
        <extensions>
          <gpxtpx:TrackPointExtension>
            <gpxtpx:hr>138</gpxtpx:hr>
          </gpxtpx:TrackPointExtension>
        </extensions>
      </trkpt>
      <trkpt lat="38.82860675708767" lon="121.50614081526726">
        <ele>0.5346104372292757</ele>
        <time>2024-12-10T05:40:36Z</time>
        <extensions>
          <gpxtpx:TrackPointExtension>
            <gpxtpx:hr>138</gpxtpx:hr>
          </gpxtpx:TrackPointExtension>
        </extensions>
      </trkpt>
      <trkpt lat="38.82853197495462" lon="121.50623961817305">
        <ele>-0.05683550797402859</ele>
        <time>2024-12-10T05:40:40Z</time>
        <extensions>
          <gpxtpx:TrackPointExtension>
            <gpxtpx:hr>138</gpxtpx:hr>
          </gpxtpx:TrackPointExtension>
        </extensions>
      </trkpt>
      <trkpt lat="38.828490779810174" lon="121.50632903613275">
        <ele>-0.3968410389497876</ele>
        <time>2024-12-10T05:40:44Z</time>
        <extensions>
          <gpxtpx:TrackPointExtension>
            <gpxtpx:hr>138</gpxtpx:hr>
          </gpxtpx:TrackPointExtension>
        </extensions>
      </trkpt>
      <trkpt lat="38.828490045861734" lon="121.50645473314425">
        <ele>-0.2934574540704489</ele>
        <time>2024-12-10T05:40:48Z</time>
        <extensions>
          <gpxtpx:TrackPointExtension>
            <gpxtpx:hr>137</gpxtpx:hr>
          </gpxtpx:TrackPointExtension>
        </extensions>
      </trkpt>
      <trkpt lat="38.82844382194265" lon="121.50655509910769">
        <ele>-0.4138609226793051</ele>
        <time>2024-12-10T05:40:52Z</time>
        <extensions>
          <gpxtpx:TrackPointExtension>
            <gpxtpx:hr>138</gpxtpx:hr>
          </gpxtpx:TrackPointExtension>
        </extensions>
      </trkpt>
      <trkpt lat="38.828368306814745" lon="121.50680042928023">
        <ele>-0.5019264165312052</ele>
        <time>2024-12-10T05:41:00Z</time>
        <extensions>
          <gpxtpx:TrackPointExtension>
            <gpxtpx:hr>136</gpxtpx:hr>
          </gpxtpx:TrackPointExtension>
        </extensions>
      </trkpt>
      <trkpt lat="38.82837515201434" lon="121.50692023641469">
        <ele>-1.497729011811316</ele>
        <time>2024-12-10T05:41:04Z</time>
        <extensions>
          <gpxtpx:TrackPointExtension>
            <gpxtpx:hr>137</gpxtpx:hr>
          </gpxtpx:TrackPointExtension>
        </extensions>
      </trkpt>
      <trkpt lat="38.82832604535392" lon="121.50718142652883">
        <ele>-0.8316711941733956</ele>
        <time>2024-12-10T05:41:12Z</time>
        <extensions>
          <gpxtpx:TrackPointExtension>
            <gpxtpx:hr>137</gpxtpx:hr>
          </gpxtpx:TrackPointExtension>
        </extensions>
      </trkpt>
      <trkpt lat="38.828339083755154" lon="121.507256539135">
        <ele>-1.6369162667542696</ele>
        <time>2024-12-10T05:41:16Z</time>
        <extensions>
          <gpxtpx:TrackPointExtension>
            <gpxtpx:hr>140</gpxtpx:hr>
          </gpxtpx:TrackPointExtension>
        </extensions>
      </trkpt>
      <trkpt lat="38.82819719074805" lon="121.50757416420748">
        <ele>0.5831459909677505</ele>
        <time>2024-12-10T05:41:27Z</time>
        <extensions>
          <gpxtpx:TrackPointExtension>
            <gpxtpx:hr>133</gpxtpx:hr>
          </gpxtpx:TrackPointExtension>
        </extensions>
      </trkpt>
      <trkpt lat="38.82804996592423" lon="121.50775516937058">
        <ele>0.22015265095978975</ele>
        <time>2024-12-10T05:41:35Z</time>
        <extensions>
          <gpxtpx:TrackPointExtension>
            <gpxtpx:hr>143</gpxtpx:hr>
          </gpxtpx:TrackPointExtension>
        </extensions>
      </trkpt>
      <trkpt lat="38.827784426643014" lon="121.50796006231478">
        <ele>0.22404625918716192</ele>
        <time>2024-12-10T05:41:47Z</time>
        <extensions>
          <gpxtpx:TrackPointExtension>
            <gpxtpx:hr>143</gpxtpx:hr>
          </gpxtpx:TrackPointExtension>
        </extensions>
      </trkpt>
      <trkpt lat="38.82760852875822" lon="121.50808389330552">
        <ele>0.5364220282062888</ele>
        <time>2024-12-10T05:41:55Z</time>
        <extensions>
          <gpxtpx:TrackPointExtension>
            <gpxtpx:hr>144</gpxtpx:hr>
          </gpxtpx:TrackPointExtension>
        </extensions>
      </trkpt>
      <trkpt lat="38.82731689772959" lon="121.50815651046653">
        <ele>0.045855563133955</ele>
        <time>2024-12-10T05:42:07Z</time>
        <extensions>
          <gpxtpx:TrackPointExtension>
            <gpxtpx:hr>146</gpxtpx:hr>
          </gpxtpx:TrackPointExtension>
        </extensions>
      </trkpt>
      <trkpt lat="38.827210742100775" lon="121.50816175472863">
        <ele>0.01989214774221182</ele>
        <time>2024-12-10T05:42:11Z</time>
        <extensions>
          <gpxtpx:TrackPointExtension>
            <gpxtpx:hr>146</gpxtpx:hr>
          </gpxtpx:TrackPointExtension>
        </extensions>
      </trkpt>
      <trkpt lat="38.827117443887616" lon="121.50821819059036">
        <ele>-0.1044984795153141</ele>
        <time>2024-12-10T05:42:15Z</time>
        <extensions>
          <gpxtpx:TrackPointExtension>
            <gpxtpx:hr>146</gpxtpx:hr>
          </gpxtpx:TrackPointExtension>
        </extensions>
      </trkpt>
      <trkpt lat="38.8269580886692" lon="121.50838598431194">
        <ele>-0.8576703313738108</ele>
        <time>2024-12-10T05:42:23Z</time>
        <extensions>
          <gpxtpx:TrackPointExtension>
            <gpxtpx:hr>147</gpxtpx:hr>
          </gpxtpx:TrackPointExtension>
        </extensions>
      </trkpt>
      <trkpt lat="38.82690676922547" lon="121.50848305025168">
        <ele>-1.5223164893686771</ele>
        <time>2024-12-10T05:42:27Z</time>
        <extensions>
          <gpxtpx:TrackPointExtension>
            <gpxtpx:hr>147</gpxtpx:hr>
          </gpxtpx:TrackPointExtension>
        </extensions>
      </trkpt>
      <trkpt lat="38.826876738118045" lon="121.50860644367053">
        <ele>-2.0537558868527412</ele>
        <time>2024-12-10T05:42:31Z</time>
        <extensions>
          <gpxtpx:TrackPointExtension>
            <gpxtpx:hr>147</gpxtpx:hr>
          </gpxtpx:TrackPointExtension>
        </extensions>
      </trkpt>
      <trkpt lat="38.82682833625982" lon="121.5087156319847">
        <ele>-2.0302547374740243</ele>
        <time>2024-12-10T05:42:35Z</time>
        <extensions>
          <gpxtpx:TrackPointExtension>
            <gpxtpx:hr>147</gpxtpx:hr>
          </gpxtpx:TrackPointExtension>
        </extensions>
      </trkpt>
      <trkpt lat="38.82682209106347" lon="121.50896538755033">
        <ele>-2.239371607080102</ele>
        <time>2024-12-10T05:42:43Z</time>
        <extensions>
          <gpxtpx:TrackPointExtension>
            <gpxtpx:hr>147</gpxtpx:hr>
          </gpxtpx:TrackPointExtension>
        </extensions>
      </trkpt>
      <trkpt lat="38.82688792488566" lon="121.50935295756766">
        <ele>-1.944365629926324</ele>
        <time>2024-12-10T05:42:55Z</time>
        <extensions>
          <gpxtpx:TrackPointExtension>
            <gpxtpx:hr>149</gpxtpx:hr>
          </gpxtpx:TrackPointExtension>
        </extensions>
      </trkpt>
      <trkpt lat="38.826851295553205" lon="121.50970557780673">
        <ele>-1.904677583836019</ele>
        <time>2024-12-10T05:43:07Z</time>
        <extensions>
          <gpxtpx:TrackPointExtension>
            <gpxtpx:hr>147</gpxtpx:hr>
          </gpxtpx:TrackPointExtension>
        </extensions>
      </trkpt>
      <trkpt lat="38.82676072626699" lon="121.5099511068938">
        <ele>-0.475770584307611</ele>
        <time>2024-12-10T05:43:19Z</time>
        <extensions>
          <gpxtpx:TrackPointExtension>
            <gpxtpx:hr>146</gpxtpx:hr>
          </gpxtpx:TrackPointExtension>
        </extensions>
      </trkpt>
      <trkpt lat="38.82663167039217" lon="121.51015181741796">
        <ele>-0.3525127163156867</ele>
        <time>2024-12-10T05:43:27Z</time>
        <extensions>
          <gpxtpx:TrackPointExtension>
            <gpxtpx:hr>143</gpxtpx:hr>
          </gpxtpx:TrackPointExtension>
        </extensions>
      </trkpt>
      <trkpt lat="38.82646335459494" lon="121.51031045070896">
        <ele>0.19807959254831076</ele>
        <time>2024-12-10T05:43:35Z</time>
        <extensions>
          <gpxtpx:TrackPointExtension>
            <gpxtpx:hr>140</gpxtpx:hr>
          </gpxtpx:TrackPointExtension>
        </extensions>
      </trkpt>
      <trkpt lat="38.82630303801324" lon="121.51040244017568">
        <ele>-0.405054341070354</ele>
        <time>2024-12-10T05:43:43Z</time>
        <extensions>
          <gpxtpx:TrackPointExtension>
            <gpxtpx:hr>142</gpxtpx:hr>
          </gpxtpx:TrackPointExtension>
        </extensions>
      </trkpt>
      <trkpt lat="38.82641382779243" lon="121.51038997125839">
        <ele>-0.7178681148216128</ele>
        <time>2024-12-10T05:43:51Z</time>
        <extensions>
          <gpxtpx:TrackPointExtension>
            <gpxtpx:hr>141</gpxtpx:hr>
          </gpxtpx:TrackPointExtension>
        </extensions>
      </trkpt>
      <trkpt lat="38.82657621738021" lon="121.51025544600311">
        <ele>-1.1067192563787103</ele>
        <time>2024-12-10T05:43:59Z</time>
        <extensions>
          <gpxtpx:TrackPointExtension>
            <gpxtpx:hr>140</gpxtpx:hr>
          </gpxtpx:TrackPointExtension>
        </extensions>
      </trkpt>
      <trkpt lat="38.82671581623485" lon="121.51008133732465">
        <ele>-1.3191252751275897</ele>
        <time>2024-12-10T05:44:07Z</time>
        <extensions>
          <gpxtpx:TrackPointExtension>
            <gpxtpx:hr>139</gpxtpx:hr>
          </gpxtpx:TrackPointExtension>
        </extensions>
      </trkpt>
      <trkpt lat="38.82683248037101" lon="121.50972486205565">
        <ele>-0.9585561854764819</ele>
        <time>2024-12-10T05:44:19Z</time>
        <extensions>
          <gpxtpx:TrackPointExtension>
            <gpxtpx:hr>139</gpxtpx:hr>
          </gpxtpx:TrackPointExtension>
        </extensions>
      </trkpt>
      <trkpt lat="38.8268537985205" lon="121.50935412141966">
        <ele>-0.7179607981815934</ele>
        <time>2024-12-10T05:44:31Z</time>
        <extensions>
          <gpxtpx:TrackPointExtension>
            <gpxtpx:hr>143</gpxtpx:hr>
          </gpxtpx:TrackPointExtension>
        </extensions>
      </trkpt>
      <trkpt lat="38.82680961834964" lon="121.50899984933766">
        <ele>-0.4363823588937521</ele>
        <time>2024-12-10T05:44:43Z</time>
        <extensions>
          <gpxtpx:TrackPointExtension>
            <gpxtpx:hr>144</gpxtpx:hr>
          </gpxtpx:TrackPointExtension>
        </extensions>
      </trkpt>
      <trkpt lat="38.826809915769694" lon="121.50875951866362">
        <ele>-1.7077863849699497</ele>
        <time>2024-12-10T05:44:51Z</time>
        <extensions>
          <gpxtpx:TrackPointExtension>
            <gpxtpx:hr>142</gpxtpx:hr>
          </gpxtpx:TrackPointExtension>
        </extensions>
      </trkpt>
      <trkpt lat="38.82683305378935" lon="121.50863208394199">
        <ele>-1.884006637148559</ele>
        <time>2024-12-10T05:44:55Z</time>
        <extensions>
          <gpxtpx:TrackPointExtension>
            <gpxtpx:hr>142</gpxtpx:hr>
          </gpxtpx:TrackPointExtension>
        </extensions>
      </trkpt>
      <trkpt lat="38.82692652780763" lon="121.50841607747063">
        <ele>-1.5291737094521523</ele>
        <time>2024-12-10T05:45:03Z</time>
        <extensions>
          <gpxtpx:TrackPointExtension>
            <gpxtpx:hr>142</gpxtpx:hr>
          </gpxtpx:TrackPointExtension>
        </extensions>
      </trkpt>
      <trkpt lat="38.827128618700804" lon="121.50817702594553">
        <ele>-0.3179636765271425</ele>
        <time>2024-12-10T05:45:15Z</time>
        <extensions>
          <gpxtpx:TrackPointExtension>
            <gpxtpx:hr>144</gpxtpx:hr>
          </gpxtpx:TrackPointExtension>
        </extensions>
      </trkpt>
      <trkpt lat="38.8272177692011" lon="121.50813747954953">
        <ele>-1.506739859469235</ele>
        <time>2024-12-10T05:45:19Z</time>
        <extensions>
          <gpxtpx:TrackPointExtension>
            <gpxtpx:hr>144</gpxtpx:hr>
          </gpxtpx:TrackPointExtension>
        </extensions>
      </trkpt>
      <trkpt lat="38.82749510355246" lon="121.50809636263328">
        <ele>-0.8123179404065013</ele>
        <time>2024-12-10T05:45:31Z</time>
        <extensions>
          <gpxtpx:TrackPointExtension>
            <gpxtpx:hr>146</gpxtpx:hr>
          </gpxtpx:TrackPointExtension>
        </extensions>
      </trkpt>
      <trkpt lat="38.827584168778245" lon="121.50808960884325">
        <ele>-1.4701892687007785</ele>
        <time>2024-12-10T05:45:35Z</time>
        <extensions>
          <gpxtpx:TrackPointExtension>
            <gpxtpx:hr>146</gpxtpx:hr>
          </gpxtpx:TrackPointExtension>
        </extensions>
      </trkpt>
      <trkpt lat="38.827896904355974" lon="121.50787396611523">
        <ele>-1.1381861455738544</ele>
        <time>2024-12-10T05:45:50Z</time>
        <extensions>
          <gpxtpx:TrackPointExtension>
            <gpxtpx:hr>148</gpxtpx:hr>
          </gpxtpx:TrackPointExtension>
        </extensions>
      </trkpt>
      <trkpt lat="38.8279671735005" lon="121.5078025020294">
        <ele>-1.2274211319163442</ele>
        <time>2024-12-10T05:45:54Z</time>
        <extensions>
          <gpxtpx:TrackPointExtension>
            <gpxtpx:hr>148</gpxtpx:hr>
          </gpxtpx:TrackPointExtension>
        </extensions>
      </trkpt>
      <trkpt lat="38.828059266144855" lon="121.5077490364411">
        <ele>-0.7585778422653675</ele>
        <time>2024-12-10T05:45:58Z</time>
        <extensions>
          <gpxtpx:TrackPointExtension>
            <gpxtpx:hr>147</gpxtpx:hr>
          </gpxtpx:TrackPointExtension>
        </extensions>
      </trkpt>
      <trkpt lat="38.828243499827714" lon="121.50746139822662">
        <ele>-1.1032154262065887</ele>
        <time>2024-12-10T05:46:10Z</time>
        <extensions>
          <gpxtpx:TrackPointExtension>
            <gpxtpx:hr>144</gpxtpx:hr>
          </gpxtpx:TrackPointExtension>
        </extensions>
      </trkpt>
      <trkpt lat="38.82829853308261" lon="121.50735999278099">
        <ele>-1.3281070357188582</ele>
        <time>2024-12-10T05:46:14Z</time>
        <extensions>
          <gpxtpx:TrackPointExtension>
            <gpxtpx:hr>145</gpxtpx:hr>
          </gpxtpx:TrackPointExtension>
        </extensions>
      </trkpt>
      <trkpt lat="38.82839248616381" lon="121.5069995779553">
        <ele>-0.35951927211135626</ele>
        <time>2024-12-10T05:46:26Z</time>
        <extensions>
          <gpxtpx:TrackPointExtension>
            <gpxtpx:hr>145</gpxtpx:hr>
          </gpxtpx:TrackPointExtension>
        </extensions>
      </trkpt>
      <trkpt lat="38.8284165999028" lon="121.5066325023703">
        <ele>-1.1915949052199721</ele>
        <time>2024-12-10T05:46:38Z</time>
        <extensions>
          <gpxtpx:TrackPointExtension>
            <gpxtpx:hr>145</gpxtpx:hr>
          </gpxtpx:TrackPointExtension>
        </extensions>
      </trkpt>
      <trkpt lat="38.828486254590246" lon="121.50639453081021">
        <ele>-0.8272969583049417</ele>
        <time>2024-12-10T05:46:46Z</time>
        <extensions>
          <gpxtpx:TrackPointExtension>
            <gpxtpx:hr>146</gpxtpx:hr>
          </gpxtpx:TrackPointExtension>
        </extensions>
      </trkpt>
      <trkpt lat="38.828613460074926" lon="121.5062021079604">
        <ele>-0.93914376758039</ele>
        <time>2024-12-10T05:46:54Z</time>
        <extensions>
          <gpxtpx:TrackPointExtension>
            <gpxtpx:hr>147</gpxtpx:hr>
          </gpxtpx:TrackPointExtension>
        </extensions>
      </trkpt>
      <trkpt lat="38.8287541787754" lon="121.50604353460956">
        <ele>-1.128458064980805</ele>
        <time>2024-12-10T05:47:02Z</time>
        <extensions>
          <gpxtpx:TrackPointExtension>
            <gpxtpx:hr>147</gpxtpx:hr>
          </gpxtpx:TrackPointExtension>
        </extensions>
      </trkpt>
      <trkpt lat="38.82903438286433" lon="121.50596993104298">
        <ele>-1.0104830730706453</ele>
        <time>2024-12-10T05:47:14Z</time>
        <extensions>
          <gpxtpx:TrackPointExtension>
            <gpxtpx:hr>147</gpxtpx:hr>
          </gpxtpx:TrackPointExtension>
        </extensions>
      </trkpt>
      <trkpt lat="38.82924348741009" lon="121.5059956567157">
        <ele>-1.2198108350858092</ele>
        <time>2024-12-10T05:47:22Z</time>
        <extensions>
          <gpxtpx:TrackPointExtension>
            <gpxtpx:hr>147</gpxtpx:hr>
          </gpxtpx:TrackPointExtension>
        </extensions>
      </trkpt>
      <trkpt lat="38.82942369891344" lon="121.5061123958648">
        <ele>-1.847424085251987</ele>
        <time>2024-12-10T05:47:30Z</time>
        <extensions>
          <gpxtpx:TrackPointExtension>
            <gpxtpx:hr>146</gpxtpx:hr>
          </gpxtpx:TrackPointExtension>
        </extensions>
      </trkpt>
      <trkpt lat="38.82951221212674" lon="121.50619253091205">
        <ele>-1.5213220780715346</ele>
        <time>2024-12-10T05:47:34Z</time>
        <extensions>
          <gpxtpx:TrackPointExtension>
            <gpxtpx:hr>146</gpxtpx:hr>
          </gpxtpx:TrackPointExtension>
        </extensions>
      </trkpt>
      <trkpt lat="38.82965506967702" lon="121.50636061723763">
        <ele>-0.8180899638682604</ele>
        <time>2024-12-10T05:47:42Z</time>
        <extensions>
          <gpxtpx:TrackPointExtension>
            <gpxtpx:hr>149</gpxtpx:hr>
          </gpxtpx:TrackPointExtension>
        </extensions>
      </trkpt>
      <trkpt lat="38.8298199930749" lon="121.50651487453369">
        <ele>-0.2747519314289093</ele>
        <time>2024-12-10T05:47:51Z</time>
        <extensions>
          <gpxtpx:TrackPointExtension>
            <gpxtpx:hr>150</gpxtpx:hr>
          </gpxtpx:TrackPointExtension>
        </extensions>
      </trkpt>
      <trkpt lat="38.83006880423707" lon="121.50668664960452">
        <ele>-0.4182811826467514</ele>
        <time>2024-12-10T05:48:03Z</time>
        <extensions>
          <gpxtpx:TrackPointExtension>
            <gpxtpx:hr>151</gpxtpx:hr>
          </gpxtpx:TrackPointExtension>
        </extensions>
      </trkpt>
      <trkpt lat="38.83015570611554" lon="121.50673170667505">
        <ele>-0.5075134662911296</ele>
        <time>2024-12-10T05:48:07Z</time>
        <extensions>
          <gpxtpx:TrackPointExtension>
            <gpxtpx:hr>151</gpxtpx:hr>
          </gpxtpx:TrackPointExtension>
        </extensions>
      </trkpt>
      <trkpt lat="38.83022215234628" lon="121.50682023022706">
        <ele>-1.2116777561604977</ele>
        <time>2024-12-10T05:48:11Z</time>
        <extensions>
          <gpxtpx:TrackPointExtension>
            <gpxtpx:hr>151</gpxtpx:hr>
          </gpxtpx:TrackPointExtension>
        </extensions>
      </trkpt>
      <trkpt lat="38.83034219334253" lon="121.50717579670942">
        <ele>-1.0909638553857803</ele>
        <time>2024-12-10T05:48:23Z</time>
        <extensions>
          <gpxtpx:TrackPointExtension>
            <gpxtpx:hr>151</gpxtpx:hr>
          </gpxtpx:TrackPointExtension>
        </extensions>
      </trkpt>
      <trkpt lat="38.83045944991069" lon="121.50738784980051">
        <ele>-1.136366156861186</ele>
        <time>2024-12-10T05:48:31Z</time>
        <extensions>
          <gpxtpx:TrackPointExtension>
            <gpxtpx:hr>151</gpxtpx:hr>
          </gpxtpx:TrackPointExtension>
        </extensions>
      </trkpt>
      <trkpt lat="38.83060856022491" lon="121.5075600308877">
        <ele>-0.7822572318837047</ele>
        <time>2024-12-10T05:48:39Z</time>
        <extensions>
          <gpxtpx:TrackPointExtension>
            <gpxtpx:hr>152</gpxtpx:hr>
          </gpxtpx:TrackPointExtension>
        </extensions>
      </trkpt>
      <trkpt lat="38.83077987328077" lon="121.50767553598165">
        <ele>-1.5239701382815838</ele>
        <time>2024-12-10T05:48:47Z</time>
        <extensions>
          <gpxtpx:TrackPointExtension>
            <gpxtpx:hr>154</gpxtpx:hr>
          </gpxtpx:TrackPointExtension>
        </extensions>
      </trkpt>
      <trkpt lat="38.83098043991779" lon="121.50773501456196">
        <ele>-0.8764621056616306</ele>
        <time>2024-12-10T05:48:55Z</time>
        <extensions>
          <gpxtpx:TrackPointExtension>
            <gpxtpx:hr>156</gpxtpx:hr>
          </gpxtpx:TrackPointExtension>
        </extensions>
      </trkpt>
      <trkpt lat="38.83126441457075" lon="121.50773658243621">
        <ele>-1.7234887490049005</ele>
        <time>2024-12-10T05:49:07Z</time>
        <extensions>
          <gpxtpx:TrackPointExtension>
            <gpxtpx:hr>155</gpxtpx:hr>
          </gpxtpx:TrackPointExtension>
        </extensions>
      </trkpt>
      <trkpt lat="38.83135880924036" lon="121.50774942954368">
        <ele>-1.087415504269302</ele>
        <time>2024-12-10T05:49:11Z</time>
        <extensions>
          <gpxtpx:TrackPointExtension>
            <gpxtpx:hr>155</gpxtpx:hr>
          </gpxtpx:TrackPointExtension>
        </extensions>
      </trkpt>
      <trkpt lat="38.831521640667376" lon="121.50784419541948">
        <ele>-0.47342607006430626</ele>
        <time>2024-12-10T05:49:19Z</time>
        <extensions>
          <gpxtpx:TrackPointExtension>
            <gpxtpx:hr>153</gpxtpx:hr>
          </gpxtpx:TrackPointExtension>
        </extensions>
      </trkpt>
      <trkpt lat="38.831713253025775" lon="121.50791256105533">
        <ele>-1.1528096981346607</ele>
        <time>2024-12-10T05:49:27Z</time>
        <extensions>
          <gpxtpx:TrackPointExtension>
            <gpxtpx:hr>151</gpxtpx:hr>
          </gpxtpx:TrackPointExtension>
        </extensions>
      </trkpt>
      <trkpt lat="38.83182234818074" lon="121.50811380715403">
        <ele>-1.8746882984414697</ele>
        <time>2024-12-10T05:49:35Z</time>
        <extensions>
          <gpxtpx:TrackPointExtension>
            <gpxtpx:hr>150</gpxtpx:hr>
          </gpxtpx:TrackPointExtension>
        </extensions>
      </trkpt>
      <trkpt lat="38.831913667486305" lon="121.50831452181424">
        <ele>-1.0055161146447062</ele>
        <time>2024-12-10T05:49:43Z</time>
        <extensions>
          <gpxtpx:TrackPointExtension>
            <gpxtpx:hr>153</gpxtpx:hr>
          </gpxtpx:TrackPointExtension>
        </extensions>
      </trkpt>
      <trkpt lat="38.83203337499689" lon="121.5084684019735">
        <ele>-1.3788766916841269</ele>
        <time>2024-12-10T05:49:50Z</time>
        <extensions>
          <gpxtpx:TrackPointExtension>
            <gpxtpx:hr>155</gpxtpx:hr>
          </gpxtpx:TrackPointExtension>
        </extensions>
      </trkpt>
      <trkpt lat="38.832185724716844" lon="121.50856649656176">
        <ele>-0.567705319263041</ele>
        <time>2024-12-10T05:49:57Z</time>
        <extensions>
          <gpxtpx:TrackPointExtension>
            <gpxtpx:hr>155</gpxtpx:hr>
          </gpxtpx:TrackPointExtension>
        </extensions>
      </trkpt>
      <trkpt lat="38.83227627426406" lon="121.5085980332284">
        <ele>-0.7452429505065084</ele>
        <time>2024-12-10T05:50:01Z</time>
        <extensions>
          <gpxtpx:TrackPointExtension>
            <gpxtpx:hr>153</gpxtpx:hr>
          </gpxtpx:TrackPointExtension>
        </extensions>
      </trkpt>
      <trkpt lat="38.832349204506116" lon="121.5086013990468">
        <ele>0.17304512858390808</ele>
        <time>2024-12-10T05:50:09Z</time>
        <extensions>
          <gpxtpx:TrackPointExtension>
            <gpxtpx:hr>153</gpxtpx:hr>
          </gpxtpx:TrackPointExtension>
        </extensions>
      </trkpt>
    </trkseg>
  </trk>
</gpx>