<?xml version="1.0" encoding="UTF-8"?>
<gpx xmlns="http://www.topografix.com/GPX/1/1" xmlns:gpxtpx="http://www.garmin.com/xmlschemas/TrackPointExtension/v1" xmlns:xsi="http://www.w3.org/2001/XMLSchema-instance" xsi:schemaLocation="http://www.topografix.com/GPX/1/1 http://www.topografix.com/GPX/1/1/gpx.xsd" version="1.1" creator="gpx.py -- https://github.com/tkrajina/gpxpy">
  <trk>
    <name>gpx from keep</name>
    <type>Run</type>
    <trkseg>
      <trkpt lat="38.836791221792275" lon="121.5047703582443">
        <ele>9.594977942872372</ele>
        <time>2026-08-10T02:19:30Z</time>
      </trkpt>
      <trkpt lat="38.836642006151735" lon="121.50518177201288">
        <ele>9.77605253085494</ele>
        <time>2026-08-10T02:19:55Z</time>
      </trkpt>
      <trkpt lat="38.836521611170205" lon="121.50557409279385">
        <ele>9.979757148772478</ele>
        <time>2026-08-10T02:20:13Z</time>
        <extensions>
          <gpxtpx:TrackPointExtension>
            <gpxtpx:hr>109</gpxtpx:hr>
          </gpxtpx:TrackPointExtension>
        </extensions>
      </trkpt>
      <trkpt lat="38.83644128054463" lon="121.50584747946907">
        <ele>10.22091460134834</ele>
        <time>2026-08-10T02:20:25Z</time>
        <extensions>
          <gpxtpx:TrackPointExtension>
            <gpxtpx:hr>106</gpxtpx:hr>
          </gpxtpx:TrackPointExtension>
        </extensions>
      </trkpt>
      <trkpt lat="38.83631161702748" lon="121.506176185712">
        <ele>10.608108301647007</ele>
        <time>2026-08-10T02:20:40Z</time>
        <extensions>
          <gpxtpx:TrackPointExtension>
            <gpxtpx:hr>106</gpxtpx:hr>
          </gpxtpx:TrackPointExtension>
        </extensions>
      </trkpt>
      <trkpt lat="38.836207631343264" lon="121.50650344271394">
        <ele>10.249664793722332</ele>
        <time>2026-08-10T02:20:55Z</time>
        <extensions>
          <gpxtpx:TrackPointExtension>
            <gpxtpx:hr>108</gpxtpx:hr>
          </gpxtpx:TrackPointExtension>
        </extensions>
      </trkpt>
      <trkpt lat="38.83619563422711" lon="121.5066601434204">
        <ele>9.699571378529072</ele>
        <time>2026-08-10T02:21:01Z</time>
        <extensions>
          <gpxtpx:TrackPointExtension>
            <gpxtpx:hr>108</gpxtpx:hr>
          </gpxtpx:TrackPointExtension>
        </extensions>
      </trkpt>
      <trkpt lat="38.83616932091168" lon="121.50672770521948">
        <ele>10.838579832576215</ele>
        <time>2026-08-10T02:21:04Z</time>
        <extensions>
          <gpxtpx:TrackPointExtension>
            <gpxtpx:hr>108</gpxtpx:hr>
          </gpxtpx:TrackPointExtension>
        </extensions>
      </trkpt>
      <trkpt lat="38.83620698450262" lon="121.50668330738041">
        <ele>8.594747914001346</ele>
        <time>2026-08-10T02:21:22Z</time>
        <extensions>
          <gpxtpx:TrackPointExtension>
            <gpxtpx:hr>115</gpxtpx:hr>
          </gpxtpx:TrackPointExtension>
        </extensions>
      </trkpt>
      <trkpt lat="38.836169123340646" lon="121.50671750577908">
        <ele>8.815248916856945</ele>
        <time>2026-08-10T02:21:25Z</time>
        <extensions>
          <gpxtpx:TrackPointExtension>
            <gpxtpx:hr>115</gpxtpx:hr>
          </gpxtpx:TrackPointExtension>
        </extensions>
      </trkpt>
      <trkpt lat="38.83617674490101" lon="121.50679445694992">
        <ele>9.755670165643096</ele>
        <time>2026-08-10T02:21:44Z</time>
        <extensions>
          <gpxtpx:TrackPointExtension>
            <gpxtpx:hr>101</gpxtpx:hr>
          </gpxtpx:TrackPointExtension>
        </extensions>
      </trkpt>
      <trkpt lat="38.83601892380206" lon="121.50706465521903">
        <ele>7.915137181058526</ele>
        <time>2026-08-10T02:21:59Z</time>
        <extensions>
          <gpxtpx:TrackPointExtension>
            <gpxtpx:hr>93</gpxtpx:hr>
          </gpxtpx:TrackPointExtension>
        </extensions>
      </trkpt>
      <trkpt lat="38.83602265033472" lon="121.50714684641346">
        <ele>6.651986227370799</ele>
        <time>2026-08-10T02:22:02Z</time>
        <extensions>
          <gpxtpx:TrackPointExtension>
            <gpxtpx:hr>100</gpxtpx:hr>
          </gpxtpx:TrackPointExtension>
        </extensions>
      </trkpt>
      <trkpt lat="38.836006231379976" lon="121.50721041980326">
        <ele>7.583288894966245</ele>
        <time>2026-08-10T02:22:05Z</time>
        <extensions>
          <gpxtpx:TrackPointExtension>
            <gpxtpx:hr>101</gpxtpx:hr>
          </gpxtpx:TrackPointExtension>
        </extensions>
      </trkpt>
      <trkpt lat="38.836010060676884" lon="121.50727377768843">
        <ele>7.294054892845452</ele>
        <time>2026-08-10T02:22:08Z</time>
        <extensions>
          <gpxtpx:TrackPointExtension>
            <gpxtpx:hr>101</gpxtpx:hr>
          </gpxtpx:TrackPointExtension>
        </extensions>
      </trkpt>
      <trkpt lat="38.83591004439419" lon="121.5074976250518">
        <ele>11.051665874198079</ele>
        <time>2026-08-10T02:22:17Z</time>
        <extensions>
          <gpxtpx:TrackPointExtension>
            <gpxtpx:hr>101</gpxtpx:hr>
          </gpxtpx:TrackPointExtension>
        </extensions>
      </trkpt>
      <trkpt lat="38.83585135566941" lon="121.50754261446093">
        <ele>11.539689825847745</ele>
        <time>2026-08-10T02:22:20Z</time>
        <extensions>
          <gpxtpx:TrackPointExtension>
            <gpxtpx:hr>101</gpxtpx:hr>
          </gpxtpx:TrackPointExtension>
        </extensions>
      </trkpt>
      <trkpt lat="38.83575678449097" lon="121.50792078752309">
        <ele>10.984369503334165</ele>
        <time>2026-08-10T02:22:35Z</time>
        <extensions>
          <gpxtpx:TrackPointExtension>
            <gpxtpx:hr>113</gpxtpx:hr>
          </gpxtpx:TrackPointExtension>
        </extensions>
      </trkpt>
      <trkpt lat="38.8357194604564" lon="121.50799066722396">
        <ele>10.418819258920848</ele>
        <time>2026-08-10T02:22:38Z</time>
        <extensions>
          <gpxtpx:TrackPointExtension>
            <gpxtpx:hr>116</gpxtpx:hr>
          </gpxtpx:TrackPointExtension>
        </extensions>
      </trkpt>
      <trkpt lat="38.835635073183134" lon="121.5082656492456">
        <ele>10.94321069214493</ele>
        <time>2026-08-10T02:22:50Z</time>
        <extensions>
          <gpxtpx:TrackPointExtension>
            <gpxtpx:hr>121</gpxtpx:hr>
          </gpxtpx:TrackPointExtension>
        </extensions>
      </trkpt>
      <trkpt lat="38.835593984727616" lon="121.50833725421691">
        <ele>11.029103834182024</ele>
        <time>2026-08-10T02:22:53Z</time>
        <extensions>
          <gpxtpx:TrackPointExtension>
            <gpxtpx:hr>120</gpxtpx:hr>
          </gpxtpx:TrackPointExtension>
        </extensions>
      </trkpt>
      <trkpt lat="38.835588390949" lon="121.50843268320887">
        <ele>11.669462271034718</ele>
        <time>2026-08-10T02:22:56Z</time>
        <extensions>
          <gpxtpx:TrackPointExtension>
            <gpxtpx:hr>119</gpxtpx:hr>
          </gpxtpx:TrackPointExtension>
        </extensions>
      </trkpt>
      <trkpt lat="38.83554651329941" lon="121.5085101614908">
        <ele>11.76108019798994</ele>
        <time>2026-08-10T02:22:59Z</time>
        <extensions>
          <gpxtpx:TrackPointExtension>
            <gpxtpx:hr>119</gpxtpx:hr>
          </gpxtpx:TrackPointExtension>
        </extensions>
      </trkpt>
      <trkpt lat="38.835531356975096" lon="121.50858386233541">
        <ele>11.358890117146075</ele>
        <time>2026-08-10T02:23:02Z</time>
        <extensions>
          <gpxtpx:TrackPointExtension>
            <gpxtpx:hr>121</gpxtpx:hr>
          </gpxtpx:TrackPointExtension>
        </extensions>
      </trkpt>
      <trkpt lat="38.83538463825851" lon="121.50895104776104">
        <ele>11.9571118298918</ele>
        <time>2026-08-10T02:23:17Z</time>
        <extensions>
          <gpxtpx:TrackPointExtension>
            <gpxtpx:hr>122</gpxtpx:hr>
          </gpxtpx:TrackPointExtension>
        </extensions>
      </trkpt>
      <trkpt lat="38.83532907978947" lon="121.5091064841417">
        <ele>13.855480318889022</ele>
        <time>2026-08-10T02:23:23Z</time>
        <extensions>
          <gpxtpx:TrackPointExtension>
            <gpxtpx:hr>130</gpxtpx:hr>
          </gpxtpx:TrackPointExtension>
        </extensions>
      </trkpt>
      <trkpt lat="38.83525030290097" lon="121.50940673509295">
        <ele>11.705621561966836</ele>
        <time>2026-08-10T02:23:35Z</time>
        <extensions>
          <gpxtpx:TrackPointExtension>
            <gpxtpx:hr>132</gpxtpx:hr>
          </gpxtpx:TrackPointExtension>
        </extensions>
      </trkpt>
      <trkpt lat="38.835211303556996" lon="121.50947950631084">
        <ele>9.910085433162749</ele>
        <time>2026-08-10T02:23:38Z</time>
        <extensions>
          <gpxtpx:TrackPointExtension>
            <gpxtpx:hr>132</gpxtpx:hr>
          </gpxtpx:TrackPointExtension>
        </extensions>
      </trkpt>
      <trkpt lat="38.83520039844124" lon="121.50957344177928">
        <ele>11.076424513943493</ele>
        <time>2026-08-10T02:23:42Z</time>
        <extensions>
          <gpxtpx:TrackPointExtension>
            <gpxtpx:hr>132</gpxtpx:hr>
          </gpxtpx:TrackPointExtension>
        </extensions>
      </trkpt>
      <trkpt lat="38.835145571926724" lon="121.5097056501798">
        <ele>10.906861144118011</ele>
        <time>2026-08-10T02:23:48Z</time>
        <extensions>
          <gpxtpx:TrackPointExtension>
            <gpxtpx:hr>131</gpxtpx:hr>
          </gpxtpx:TrackPointExtension>
        </extensions>
      </trkpt>
      <trkpt lat="38.83505948091225" lon="121.5100402751251">
        <ele>10.954326978884637</ele>
        <time>2026-08-10T02:24:00Z</time>
        <extensions>
          <gpxtpx:TrackPointExtension>
            <gpxtpx:hr>133</gpxtpx:hr>
          </gpxtpx:TrackPointExtension>
        </extensions>
      </trkpt>
      <trkpt lat="38.8350209349397" lon="121.51011717956456">
        <ele>10.781669799238443</ele>
        <time>2026-08-10T02:24:03Z</time>
        <extensions>
          <gpxtpx:TrackPointExtension>
            <gpxtpx:hr>133</gpxtpx:hr>
          </gpxtpx:TrackPointExtension>
        </extensions>
      </trkpt>
      <trkpt lat="38.83489602515932" lon="121.51049313142296">
        <ele>9.7872956385836</ele>
        <time>2026-08-10T02:24:18Z</time>
        <extensions>
          <gpxtpx:TrackPointExtension>
            <gpxtpx:hr>137</gpxtpx:hr>
          </gpxtpx:TrackPointExtension>
        </extensions>
      </trkpt>
      <trkpt lat="38.83478358553772" lon="121.51086966242624">
        <ele>9.468390478752553</ele>
        <time>2026-08-10T02:24:33Z</time>
        <extensions>
          <gpxtpx:TrackPointExtension>
            <gpxtpx:hr>138</gpxtpx:hr>
          </gpxtpx:TrackPointExtension>
        </extensions>
      </trkpt>
      <trkpt lat="38.834658115175856" lon="121.51124251802008">
        <ele>8.81349716708064</ele>
        <time>2026-08-10T02:24:48Z</time>
        <extensions>
          <gpxtpx:TrackPointExtension>
            <gpxtpx:hr>136</gpxtpx:hr>
          </gpxtpx:TrackPointExtension>
        </extensions>
      </trkpt>
      <trkpt lat="38.8345212273492" lon="121.51162859989402">
        <ele>9.342540141195059</ele>
        <time>2026-08-10T02:25:03Z</time>
        <extensions>
          <gpxtpx:TrackPointExtension>
            <gpxtpx:hr>133</gpxtpx:hr>
          </gpxtpx:TrackPointExtension>
        </extensions>
      </trkpt>
      <trkpt lat="38.8343976008285" lon="121.51200922029307">
        <ele>9.282991479150951</ele>
        <time>2026-08-10T02:25:18Z</time>
        <extensions>
          <gpxtpx:TrackPointExtension>
            <gpxtpx:hr>137</gpxtpx:hr>
          </gpxtpx:TrackPointExtension>
        </extensions>
      </trkpt>
      <trkpt lat="38.83427556138599" lon="121.51236240162649">
        <ele>7.963604163378477</ele>
        <time>2026-08-10T02:25:33Z</time>
        <extensions>
          <gpxtpx:TrackPointExtension>
            <gpxtpx:hr>138</gpxtpx:hr>
          </gpxtpx:TrackPointExtension>
        </extensions>
      </trkpt>
      <trkpt lat="38.83422380943401" lon="121.51251338678306">
        <ele>7.8827057257294655</ele>
        <time>2026-08-10T02:25:39Z</time>
        <extensions>
          <gpxtpx:TrackPointExtension>
            <gpxtpx:hr>138</gpxtpx:hr>
          </gpxtpx:TrackPointExtension>
        </extensions>
      </trkpt>
      <trkpt lat="38.83420842357613" lon="121.51260415550723">
        <ele>8.747712522745132</ele>
        <time>2026-08-10T02:25:42Z</time>
        <extensions>
          <gpxtpx:TrackPointExtension>
            <gpxtpx:hr>138</gpxtpx:hr>
          </gpxtpx:TrackPointExtension>
        </extensions>
      </trkpt>
      <trkpt lat="38.834140571666495" lon="121.51278516045554">
        <ele>9.075401754118502</ele>
        <time>2026-08-10T02:25:49Z</time>
        <extensions>
          <gpxtpx:TrackPointExtension>
            <gpxtpx:hr>138</gpxtpx:hr>
          </gpxtpx:TrackPointExtension>
        </extensions>
      </trkpt>
      <trkpt lat="38.83413749644899" lon="121.51288023387094">
        <ele>6.8544314773753285</ele>
        <time>2026-08-10T02:25:53Z</time>
        <extensions>
          <gpxtpx:TrackPointExtension>
            <gpxtpx:hr>138</gpxtpx:hr>
          </gpxtpx:TrackPointExtension>
        </extensions>
      </trkpt>
      <trkpt lat="38.83401826616134" lon="121.51315458125669">
        <ele>7.5879451325163245</ele>
        <time>2026-08-10T02:26:04Z</time>
        <extensions>
          <gpxtpx:TrackPointExtension>
            <gpxtpx:hr>139</gpxtpx:hr>
          </gpxtpx:TrackPointExtension>
        </extensions>
      </trkpt>
      <trkpt lat="38.833998449958095" lon="121.5132382134293">
        <ele>8.871747304685414</ele>
        <time>2026-08-10T02:26:07Z</time>
        <extensions>
          <gpxtpx:TrackPointExtension>
            <gpxtpx:hr>141</gpxtpx:hr>
          </gpxtpx:TrackPointExtension>
        </extensions>
      </trkpt>
      <trkpt lat="38.83391595878862" lon="121.51347373974515">
        <ele>8.789311921223998</ele>
        <time>2026-08-10T02:26:16Z</time>
        <extensions>
          <gpxtpx:TrackPointExtension>
            <gpxtpx:hr>141</gpxtpx:hr>
          </gpxtpx:TrackPointExtension>
        </extensions>
      </trkpt>
      <trkpt lat="38.83389785636861" lon="121.51356478244834">
        <ele>9.32155052293092</ele>
        <time>2026-08-10T02:26:19Z</time>
        <extensions>
          <gpxtpx:TrackPointExtension>
            <gpxtpx:hr>141</gpxtpx:hr>
          </gpxtpx:TrackPointExtension>
        </extensions>
      </trkpt>
      <trkpt lat="38.833858659756494" lon="121.51361895192008">
        <ele>8.02121195755899</ele>
        <time>2026-08-10T02:26:22Z</time>
        <extensions>
          <gpxtpx:TrackPointExtension>
            <gpxtpx:hr>140</gpxtpx:hr>
          </gpxtpx:TrackPointExtension>
        </extensions>
      </trkpt>
      <trkpt lat="38.83377639687921" lon="121.51385202585091">
        <ele>9.282136513851583</ele>
        <time>2026-08-10T02:26:31Z</time>
        <extensions>
          <gpxtpx:TrackPointExtension>
            <gpxtpx:hr>141</gpxtpx:hr>
          </gpxtpx:TrackPointExtension>
        </extensions>
      </trkpt>
      <trkpt lat="38.83373711606071" lon="121.5140037378324">
        <ele>8.20719345845282</ele>
        <time>2026-08-10T02:26:37Z</time>
        <extensions>
          <gpxtpx:TrackPointExtension>
            <gpxtpx:hr>142</gpxtpx:hr>
          </gpxtpx:TrackPointExtension>
        </extensions>
      </trkpt>
      <trkpt lat="38.83373373370324" lon="121.51408101541456">
        <ele>7.314518968574703</ele>
        <time>2026-08-10T02:26:40Z</time>
        <extensions>
          <gpxtpx:TrackPointExtension>
            <gpxtpx:hr>142</gpxtpx:hr>
          </gpxtpx:TrackPointExtension>
        </extensions>
      </trkpt>
      <trkpt lat="38.83369115546191" lon="121.5141556303816">
        <ele>7.6485431576147676</ele>
        <time>2026-08-10T02:26:43Z</time>
        <extensions>
          <gpxtpx:TrackPointExtension>
            <gpxtpx:hr>143</gpxtpx:hr>
          </gpxtpx:TrackPointExtension>
        </extensions>
      </trkpt>
      <trkpt lat="38.83364232198199" lon="121.51431900570073">
        <ele>7.102829131297767</ele>
        <time>2026-08-10T02:26:49Z</time>
        <extensions>
          <gpxtpx:TrackPointExtension>
            <gpxtpx:hr>140</gpxtpx:hr>
          </gpxtpx:TrackPointExtension>
        </extensions>
      </trkpt>
      <trkpt lat="38.833572270849125" lon="121.5144726129616">
        <ele>6.391010532155633</ele>
        <time>2026-08-10T02:26:55Z</time>
        <extensions>
          <gpxtpx:TrackPointExtension>
            <gpxtpx:hr>141</gpxtpx:hr>
          </gpxtpx:TrackPointExtension>
        </extensions>
      </trkpt>
      <trkpt lat="38.83356232812043" lon="121.51455088919158">
        <ele>6.135118203237653</ele>
        <time>2026-08-10T02:26:58Z</time>
        <extensions>
          <gpxtpx:TrackPointExtension>
            <gpxtpx:hr>140</gpxtpx:hr>
          </gpxtpx:TrackPointExtension>
        </extensions>
      </trkpt>
      <trkpt lat="38.833452103513714" lon="121.51485270979597">
        <ele>5.5283047603443265</ele>
        <time>2026-08-10T02:27:10Z</time>
        <extensions>
          <gpxtpx:TrackPointExtension>
            <gpxtpx:hr>145</gpxtpx:hr>
          </gpxtpx:TrackPointExtension>
        </extensions>
      </trkpt>
      <trkpt lat="38.83331974957003" lon="121.51519320044329">
        <ele>7.309891521930695</ele>
        <time>2026-08-10T02:27:22Z</time>
        <extensions>
          <gpxtpx:TrackPointExtension>
            <gpxtpx:hr>146</gpxtpx:hr>
          </gpxtpx:TrackPointExtension>
        </extensions>
      </trkpt>
      <trkpt lat="38.83333134149797" lon="121.51525845091385">
        <ele>5.208641276694834</ele>
        <time>2026-08-10T02:27:25Z</time>
        <extensions>
          <gpxtpx:TrackPointExtension>
            <gpxtpx:hr>146</gpxtpx:hr>
          </gpxtpx:TrackPointExtension>
        </extensions>
      </trkpt>
      <trkpt lat="38.83319861178052" lon="121.51556882118649">
        <ele>4.812241238541901</ele>
        <time>2026-08-10T02:27:40Z</time>
        <extensions>
          <gpxtpx:TrackPointExtension>
            <gpxtpx:hr>144</gpxtpx:hr>
          </gpxtpx:TrackPointExtension>
        </extensions>
      </trkpt>
      <trkpt lat="38.83317836518278" lon="121.51562081711359">
        <ele>4.658432064577937</ele>
        <time>2026-08-10T02:27:46Z</time>
        <extensions>
          <gpxtpx:TrackPointExtension>
            <gpxtpx:hr>144</gpxtpx:hr>
          </gpxtpx:TrackPointExtension>
        </extensions>
      </trkpt>
      <trkpt lat="38.83331795787608" lon="121.51524153897283">
        <ele>4.74362254049629</ele>
        <time>2026-08-10T02:28:19Z</time>
        <extensions>
          <gpxtpx:TrackPointExtension>
            <gpxtpx:hr>131</gpxtpx:hr>
          </gpxtpx:TrackPointExtension>
        </extensions>
      </trkpt>
      <trkpt lat="38.83343150780595" lon="121.51484520429646">
        <ele>6.121328296139836</ele>
        <time>2026-08-10T02:28:34Z</time>
        <extensions>
          <gpxtpx:TrackPointExtension>
            <gpxtpx:hr>133</gpxtpx:hr>
          </gpxtpx:TrackPointExtension>
        </extensions>
      </trkpt>
      <trkpt lat="38.83355699563997" lon="121.51453639739846">
        <ele>4.211571108549833</ele>
        <time>2026-08-10T02:28:46Z</time>
        <extensions>
          <gpxtpx:TrackPointExtension>
            <gpxtpx:hr>137</gpxtpx:hr>
          </gpxtpx:TrackPointExtension>
        </extensions>
      </trkpt>
      <trkpt lat="38.833681121035866" lon="121.51416602405395">
        <ele>5.190782779827714</ele>
        <time>2026-08-10T02:29:01Z</time>
        <extensions>
          <gpxtpx:TrackPointExtension>
            <gpxtpx:hr>138</gpxtpx:hr>
          </gpxtpx:TrackPointExtension>
        </extensions>
      </trkpt>
      <trkpt lat="38.833792481775866" lon="121.51385036669406">
        <ele>8.647065632045269</ele>
        <time>2026-08-10T02:29:13Z</time>
        <extensions>
          <gpxtpx:TrackPointExtension>
            <gpxtpx:hr>138</gpxtpx:hr>
          </gpxtpx:TrackPointExtension>
        </extensions>
      </trkpt>
      <trkpt lat="38.83390299768987" lon="121.51349236692933">
        <ele>9.324670088477433</ele>
        <time>2026-08-10T02:29:28Z</time>
        <extensions>
          <gpxtpx:TrackPointExtension>
            <gpxtpx:hr>137</gpxtpx:hr>
          </gpxtpx:TrackPointExtension>
        </extensions>
      </trkpt>
      <trkpt lat="38.83402167648848" lon="121.51311789335583">
        <ele>9.937206131406128</ele>
        <time>2026-08-10T02:29:43Z</time>
        <extensions>
          <gpxtpx:TrackPointExtension>
            <gpxtpx:hr>141</gpxtpx:hr>
          </gpxtpx:TrackPointExtension>
        </extensions>
      </trkpt>
      <trkpt lat="38.83415459176429" lon="121.51271200188272">
        <ele>10.293368264101446</ele>
        <time>2026-08-10T02:29:59Z</time>
        <extensions>
          <gpxtpx:TrackPointExtension>
            <gpxtpx:hr>146</gpxtpx:hr>
          </gpxtpx:TrackPointExtension>
        </extensions>
      </trkpt>
      <trkpt lat="38.83421679708797" lon="121.51255156407541">
        <ele>10.639195546507835</ele>
        <time>2026-08-10T02:30:05Z</time>
        <extensions>
          <gpxtpx:TrackPointExtension>
            <gpxtpx:hr>145</gpxtpx:hr>
          </gpxtpx:TrackPointExtension>
        </extensions>
      </trkpt>
      <trkpt lat="38.834224974957145" lon="121.51246000895499">
        <ele>10.031108086928725</ele>
        <time>2026-08-10T02:30:09Z</time>
        <extensions>
          <gpxtpx:TrackPointExtension>
            <gpxtpx:hr>144</gpxtpx:hr>
          </gpxtpx:TrackPointExtension>
        </extensions>
      </trkpt>
      <trkpt lat="38.834342239448866" lon="121.51214345422095">
        <ele>10.688267359510064</ele>
        <time>2026-08-10T02:30:22Z</time>
        <extensions>
          <gpxtpx:TrackPointExtension>
            <gpxtpx:hr>141</gpxtpx:hr>
          </gpxtpx:TrackPointExtension>
        </extensions>
      </trkpt>
      <trkpt lat="38.834367428644214" lon="121.51202259800303">
        <ele>10.552403868176043</ele>
        <time>2026-08-10T02:30:26Z</time>
        <extensions>
          <gpxtpx:TrackPointExtension>
            <gpxtpx:hr>141</gpxtpx:hr>
          </gpxtpx:TrackPointExtension>
        </extensions>
      </trkpt>
      <trkpt lat="38.834504077046965" lon="121.51165150560333">
        <ele>10.16821797657758</ele>
        <time>2026-08-10T02:30:41Z</time>
        <extensions>
          <gpxtpx:TrackPointExtension>
            <gpxtpx:hr>144</gpxtpx:hr>
          </gpxtpx:TrackPointExtension>
        </extensions>
      </trkpt>
      <trkpt lat="38.834618869036305" lon="121.51132672463717">
        <ele>9.979872276075184</ele>
        <time>2026-08-10T02:30:53Z</time>
        <extensions>
          <gpxtpx:TrackPointExtension>
            <gpxtpx:hr>146</gpxtpx:hr>
          </gpxtpx:TrackPointExtension>
        </extensions>
      </trkpt>
      <trkpt lat="38.8347271110851" lon="121.51099018441978">
        <ele>10.480455815792084</ele>
        <time>2026-08-10T02:31:05Z</time>
        <extensions>
          <gpxtpx:TrackPointExtension>
            <gpxtpx:hr>149</gpxtpx:hr>
          </gpxtpx:TrackPointExtension>
        </extensions>
      </trkpt>
      <trkpt lat="38.83485381776116" lon="121.5106223380187">
        <ele>10.425042181275785</ele>
        <time>2026-08-10T02:31:20Z</time>
        <extensions>
          <gpxtpx:TrackPointExtension>
            <gpxtpx:hr>148</gpxtpx:hr>
          </gpxtpx:TrackPointExtension>
        </extensions>
      </trkpt>
      <trkpt lat="38.83487912900092" lon="121.51053257946234">
        <ele>10.584380033425987</ele>
        <time>2026-08-10T02:31:23Z</time>
        <extensions>
          <gpxtpx:TrackPointExtension>
            <gpxtpx:hr>147</gpxtpx:hr>
          </gpxtpx:TrackPointExtension>
        </extensions>
      </trkpt>
      <trkpt lat="38.83492185956174" lon="121.51046506377756">
        <ele>11.300152841955423</ele>
        <time>2026-08-10T02:31:26Z</time>
        <extensions>
          <gpxtpx:TrackPointExtension>
            <gpxtpx:hr>147</gpxtpx:hr>
          </gpxtpx:TrackPointExtension>
        </extensions>
      </trkpt>
      <trkpt lat="38.83498825036657" lon="121.51022338944013">
        <ele>9.67695095576346</ele>
        <time>2026-08-10T02:31:35Z</time>
        <extensions>
          <gpxtpx:TrackPointExtension>
            <gpxtpx:hr>148</gpxtpx:hr>
          </gpxtpx:TrackPointExtension>
        </extensions>
      </trkpt>
      <trkpt lat="38.83501168312782" lon="121.51007103677462">
        <ele>8.25506734661758</ele>
        <time>2026-08-10T02:31:41Z</time>
        <extensions>
          <gpxtpx:TrackPointExtension>
            <gpxtpx:hr>148</gpxtpx:hr>
          </gpxtpx:TrackPointExtension>
        </extensions>
      </trkpt>
      <trkpt lat="38.835057944030794" lon="121.51001562704286">
        <ele>7.648724551312625</ele>
        <time>2026-08-10T02:31:47Z</time>
        <extensions>
          <gpxtpx:TrackPointExtension>
            <gpxtpx:hr>148</gpxtpx:hr>
          </gpxtpx:TrackPointExtension>
        </extensions>
      </trkpt>
      <trkpt lat="38.83516308448157" lon="121.50966023760455">
        <ele>9.095169648528099</ele>
        <time>2026-08-10T02:32:02Z</time>
        <extensions>
          <gpxtpx:TrackPointExtension>
            <gpxtpx:hr>144</gpxtpx:hr>
          </gpxtpx:TrackPointExtension>
        </extensions>
      </trkpt>
      <trkpt lat="38.83521904062243" lon="121.50955528741773">
        <ele>9.576898857951164</ele>
        <time>2026-08-10T02:32:06Z</time>
        <extensions>
          <gpxtpx:TrackPointExtension>
            <gpxtpx:hr>144</gpxtpx:hr>
          </gpxtpx:TrackPointExtension>
        </extensions>
      </trkpt>
      <trkpt lat="38.8352042479995" lon="121.50939611555853">
        <ele>9.466961008496583</ele>
        <time>2026-08-10T02:32:12Z</time>
        <extensions>
          <gpxtpx:TrackPointExtension>
            <gpxtpx:hr>144</gpxtpx:hr>
          </gpxtpx:TrackPointExtension>
        </extensions>
      </trkpt>
      <trkpt lat="38.835328219978386" lon="121.50925876678076">
        <ele>10.824554853141308</ele>
        <time>2026-08-10T02:32:19Z</time>
        <extensions>
          <gpxtpx:TrackPointExtension>
            <gpxtpx:hr>144</gpxtpx:hr>
          </gpxtpx:TrackPointExtension>
        </extensions>
      </trkpt>
      <trkpt lat="38.83530689104393" lon="121.50916428584533">
        <ele>11.108124051243067</ele>
        <time>2026-08-10T02:32:22Z</time>
        <extensions>
          <gpxtpx:TrackPointExtension>
            <gpxtpx:hr>144</gpxtpx:hr>
          </gpxtpx:TrackPointExtension>
        </extensions>
      </trkpt>
      <trkpt lat="38.83532160948589" lon="121.50909858051993">
        <ele>10.8844700679183</ele>
        <time>2026-08-10T02:32:25Z</time>
        <extensions>
          <gpxtpx:TrackPointExtension>
            <gpxtpx:hr>144</gpxtpx:hr>
          </gpxtpx:TrackPointExtension>
        </extensions>
      </trkpt>
      <trkpt lat="38.83547612134624" lon="121.50875242369119">
        <ele>10.05335449706763</ele>
        <time>2026-08-10T02:32:37Z</time>
        <extensions>
          <gpxtpx:TrackPointExtension>
            <gpxtpx:hr>148</gpxtpx:hr>
          </gpxtpx:TrackPointExtension>
        </extensions>
      </trkpt>
      <trkpt lat="38.83558662020708" lon="121.50843214486868">
        <ele>9.361856576986611</ele>
        <time>2026-08-10T02:32:49Z</time>
        <extensions>
          <gpxtpx:TrackPointExtension>
            <gpxtpx:hr>151</gpxtpx:hr>
          </gpxtpx:TrackPointExtension>
        </extensions>
      </trkpt>
      <trkpt lat="38.83567228630246" lon="121.50830716872721">
        <ele>9.070829461328685</ele>
        <time>2026-08-10T02:32:55Z</time>
        <extensions>
          <gpxtpx:TrackPointExtension>
            <gpxtpx:hr>151</gpxtpx:hr>
          </gpxtpx:TrackPointExtension>
        </extensions>
      </trkpt>
      <trkpt lat="38.83572138878815" lon="121.50809923103395">
        <ele>9.308197554200888</ele>
        <time>2026-08-10T02:33:01Z</time>
        <extensions>
          <gpxtpx:TrackPointExtension>
            <gpxtpx:hr>151</gpxtpx:hr>
          </gpxtpx:TrackPointExtension>
        </extensions>
      </trkpt>
      <trkpt lat="38.835716661683634" lon="121.5079997787889">
        <ele>9.755293159745634</ele>
        <time>2026-08-10T02:33:04Z</time>
        <extensions>
          <gpxtpx:TrackPointExtension>
            <gpxtpx:hr>150</gpxtpx:hr>
          </gpxtpx:TrackPointExtension>
        </extensions>
      </trkpt>
      <trkpt lat="38.83576527848544" lon="121.5079360490213">
        <ele>9.147797422483563</ele>
        <time>2026-08-10T02:33:07Z</time>
        <extensions>
          <gpxtpx:TrackPointExtension>
            <gpxtpx:hr>150</gpxtpx:hr>
          </gpxtpx:TrackPointExtension>
        </extensions>
      </trkpt>
      <trkpt lat="38.83587074358834" lon="121.50759457147846">
        <ele>8.059849647805095</ele>
        <time>2026-08-10T02:33:19Z</time>
        <extensions>
          <gpxtpx:TrackPointExtension>
            <gpxtpx:hr>151</gpxtpx:hr>
          </gpxtpx:TrackPointExtension>
        </extensions>
      </trkpt>
      <trkpt lat="38.835997704007525" lon="121.50718297446659">
        <ele>9.155963784083724</ele>
        <time>2026-08-10T02:33:34Z</time>
        <extensions>
          <gpxtpx:TrackPointExtension>
            <gpxtpx:hr>150</gpxtpx:hr>
          </gpxtpx:TrackPointExtension>
        </extensions>
      </trkpt>
      <trkpt lat="38.8360789131524" lon="121.50695707064668">
        <ele>10.559893394820392</ele>
        <time>2026-08-10T02:33:43Z</time>
        <extensions>
          <gpxtpx:TrackPointExtension>
            <gpxtpx:hr>150</gpxtpx:hr>
          </gpxtpx:TrackPointExtension>
        </extensions>
      </trkpt>
      <trkpt lat="38.83612480931699" lon="121.50697570036323">
        <ele>11.79413200262934</ele>
        <time>2026-08-10T02:33:46Z</time>
        <extensions>
          <gpxtpx:TrackPointExtension>
            <gpxtpx:hr>150</gpxtpx:hr>
          </gpxtpx:TrackPointExtension>
        </extensions>
      </trkpt>
      <trkpt lat="38.836116525844936" lon="121.50691140145595">
        <ele>10.391479264944792</ele>
        <time>2026-08-10T02:34:36Z</time>
        <extensions>
          <gpxtpx:TrackPointExtension>
            <gpxtpx:hr>123</gpxtpx:hr>
          </gpxtpx:TrackPointExtension>
        </extensions>
      </trkpt>
      <trkpt lat="38.83619434960148" lon="121.5067782657614">
        <ele>9.555153528228402</ele>
        <time>2026-08-10T02:34:42Z</time>
        <extensions>
          <gpxtpx:TrackPointExtension>
            <gpxtpx:hr>123</gpxtpx:hr>
          </gpxtpx:TrackPointExtension>
        </extensions>
      </trkpt>
      <trkpt lat="38.836185023304395" lon="121.50668406622148">
        <ele>8.657862621359527</ele>
        <time>2026-08-10T02:34:45Z</time>
        <extensions>
          <gpxtpx:TrackPointExtension>
            <gpxtpx:hr>123</gpxtpx:hr>
          </gpxtpx:TrackPointExtension>
        </extensions>
      </trkpt>
      <trkpt lat="38.836196709045616" lon="121.50660569346077">
        <ele>7.829573605209589</ele>
        <time>2026-08-10T02:34:48Z</time>
        <extensions>
          <gpxtpx:TrackPointExtension>
            <gpxtpx:hr>121</gpxtpx:hr>
          </gpxtpx:TrackPointExtension>
        </extensions>
      </trkpt>
      <trkpt lat="38.836239805752186" lon="121.5065146319226">
        <ele>8.165622608736157</ele>
        <time>2026-08-10T02:34:51Z</time>
        <extensions>
          <gpxtpx:TrackPointExtension>
            <gpxtpx:hr>121</gpxtpx:hr>
          </gpxtpx:TrackPointExtension>
        </extensions>
      </trkpt>
      <trkpt lat="38.83625624735976" lon="121.50639790251846">
        <ele>8.559477819129825</ele>
        <time>2026-08-10T02:34:54Z</time>
        <extensions>
          <gpxtpx:TrackPointExtension>
            <gpxtpx:hr>130</gpxtpx:hr>
          </gpxtpx:TrackPointExtension>
        </extensions>
      </trkpt>
      <trkpt lat="38.8363734234473" lon="121.50608051314579">
        <ele>9.626283801160753</ele>
        <time>2026-08-10T02:35:06Z</time>
        <extensions>
          <gpxtpx:TrackPointExtension>
            <gpxtpx:hr>135</gpxtpx:hr>
          </gpxtpx:TrackPointExtension>
        </extensions>
      </trkpt>
      <trkpt lat="38.83641964602913" lon="121.50600690053572">
        <ele>9.714547355659306</ele>
        <time>2026-08-10T02:35:09Z</time>
        <extensions>
          <gpxtpx:TrackPointExtension>
            <gpxtpx:hr>135</gpxtpx:hr>
          </gpxtpx:TrackPointExtension>
        </extensions>
      </trkpt>
      <trkpt lat="38.836496316046905" lon="121.50568971393831">
        <ele>9.67420173343271</ele>
        <time>2026-08-10T02:35:21Z</time>
        <extensions>
          <gpxtpx:TrackPointExtension>
            <gpxtpx:hr>139</gpxtpx:hr>
          </gpxtpx:TrackPointExtension>
        </extensions>
      </trkpt>
      <trkpt lat="38.83656275682729" lon="121.50554316080094">
        <ele>9.881541499868035</ele>
        <time>2026-08-10T02:35:27Z</time>
        <extensions>
          <gpxtpx:TrackPointExtension>
            <gpxtpx:hr>142</gpxtpx:hr>
          </gpxtpx:TrackPointExtension>
        </extensions>
      </trkpt>
      <trkpt lat="38.836573739253865" lon="121.50547211570833">
        <ele>11.307041358202696</ele>
        <time>2026-08-10T02:35:30Z</time>
        <extensions>
          <gpxtpx:TrackPointExtension>
            <gpxtpx:hr>142</gpxtpx:hr>
          </gpxtpx:TrackPointExtension>
        </extensions>
      </trkpt>
      <trkpt lat="38.83660886210514" lon="121.5054060626796">
        <ele>9.006873955950141</ele>
        <time>2026-08-10T02:35:33Z</time>
        <extensions>
          <gpxtpx:TrackPointExtension>
            <gpxtpx:hr>144</gpxtpx:hr>
          </gpxtpx:TrackPointExtension>
        </extensions>
      </trkpt>
      <trkpt lat="38.83660886210514" lon="121.5054060626796">
        <ele>9.006873955950141</ele>
        <time>2026-08-10T02:35:35Z</time>
        <extensions>
          <gpxtpx:TrackPointExtension>
            <gpxtpx:hr>144</gpxtpx:hr>
          </gpxtpx:TrackPointExtension>
        </extensions>
      </trkpt>
    </trkseg>
  </trk>
</gpx>