<?xml version="1.0" encoding="UTF-8"?>
<gpx xmlns="http://www.topografix.com/GPX/1/1" xmlns:gpxtpx="http://www.garmin.com/xmlschemas/TrackPointExtension/v1" xmlns:xsi="http://www.w3.org/2001/XMLSchema-instance" xsi:schemaLocation="http://www.topografix.com/GPX/1/1 http://www.topografix.com/GPX/1/1/gpx.xsd" version="1.1" creator="gpx.py -- https://github.com/tkrajina/gpxpy">
  <trk>
    <name>gpx from keep</name>
    <type>Run</type>
    <trkseg>
      <trkpt lat="38.83321500955872" lon="121.50745721703578">
        <ele>3.950650782547388</ele>
        <time>2025-07-25T23:38:42Z</time>
      </trkpt>
      <trkpt lat="38.83323381187967" lon="121.50731289385388">
        <ele>3.5096358308295645</ele>
        <time>2025-07-25T23:38:50Z</time>
      </trkpt>
      <trkpt lat="38.83318141079701" lon="121.50704043496404">
        <ele>2.939631468616426</ele>
        <time>2025-07-25T23:39:02Z</time>
      </trkpt>
      <trkpt lat="38.833091624425414" lon="121.50688926221298">
        <ele>2.7448111549019814</ele>
        <time>2025-07-25T23:39:10Z</time>
      </trkpt>
      <trkpt lat="38.83285224031146" lon="121.50663526728356">
        <ele>2.6511074351146817</ele>
        <time>2025-07-25T23:39:26Z</time>
      </trkpt>
      <trkpt lat="38.832725327210134" lon="121.50654758189854">
        <ele>3.047757218591869</ele>
        <time>2025-07-25T23:39:34Z</time>
      </trkpt>
      <trkpt lat="38.832431773596525" lon="121.50649276328352">
        <ele>1.8762664357200265</ele>
        <time>2025-07-25T23:39:50Z</time>
      </trkpt>
      <trkpt lat="38.83224615551326" lon="121.50639308874797">
        <ele>2.1973552126437426</ele>
        <time>2025-07-25T23:40:02Z</time>
      </trkpt>
      <trkpt lat="38.832139236545984" lon="121.50629294177043">
        <ele>2.5368756875395775</ele>
        <time>2025-07-25T23:40:10Z</time>
      </trkpt>
      <trkpt lat="38.83205097812877" lon="121.50613342776582">
        <ele>3.0921244602650404</ele>
        <time>2025-07-25T23:40:18Z</time>
      </trkpt>
      <trkpt lat="38.83191981143602" lon="121.50577670691179">
        <ele>3.4549407847225666</ele>
        <time>2025-07-25T23:40:34Z</time>
      </trkpt>
      <trkpt lat="38.83184020872884" lon="121.50562754920212">
        <ele>3.4611890595406294</ele>
        <time>2025-07-25T23:40:42Z</time>
      </trkpt>
      <trkpt lat="38.83177547433439" lon="121.50551770766334">
        <ele>2.8011785726994276</ele>
        <time>2025-07-25T23:41:02Z</time>
      </trkpt>
      <trkpt lat="38.831509289454154" lon="121.50532042002145">
        <ele>3.8048693034797907</ele>
        <time>2025-07-25T23:41:17Z</time>
      </trkpt>
      <trkpt lat="38.831316191233135" lon="121.50528546875876">
        <ele>2.7280562464147806</ele>
        <time>2025-07-25T23:41:26Z</time>
      </trkpt>
      <trkpt lat="38.83108314009227" lon="121.50532770935575">
        <ele>3.4317223764955997</ele>
        <time>2025-07-25T23:41:38Z</time>
      </trkpt>
      <trkpt lat="38.8309250019883" lon="121.5052969846259">
        <ele>3.058264872059226</ele>
        <time>2025-07-25T23:41:46Z</time>
      </trkpt>
      <trkpt lat="38.830766533032964" lon="121.50522019594288">
        <ele>2.2839891398325562</ele>
        <time>2025-07-25T23:41:54Z</time>
      </trkpt>
      <trkpt lat="38.830571177458864" lon="121.50502635550164">
        <ele>3.3207875173538923</ele>
        <time>2025-07-25T23:42:06Z</time>
      </trkpt>
      <trkpt lat="38.83026783445546" lon="121.50486441026227">
        <ele>3.1270224126055837</ele>
        <time>2025-07-25T23:42:22Z</time>
      </trkpt>
      <trkpt lat="38.83004557369802" lon="121.50474878806739">
        <ele>2.508832680992782</ele>
        <time>2025-07-25T23:42:34Z</time>
      </trkpt>
      <trkpt lat="38.829799188714404" lon="121.50448845169986">
        <ele>1.8164985226467252</ele>
        <time>2025-07-25T23:42:50Z</time>
      </trkpt>
      <trkpt lat="38.82957692481249" lon="121.50424476699818">
        <ele>2.816607159562409</ele>
        <time>2025-07-25T23:43:04Z</time>
      </trkpt>
      <trkpt lat="38.829519013272474" lon="121.50419181120965">
        <ele>3.042353211902082</ele>
        <time>2025-07-25T23:43:07Z</time>
      </trkpt>
      <trkpt lat="38.82945800065242" lon="121.50417523624617">
        <ele>2.553777702152729</ele>
        <time>2025-07-25T23:43:10Z</time>
      </trkpt>
      <trkpt lat="38.82921939120609" lon="121.50405035300119">
        <ele>3.414435211569071</ele>
        <time>2025-07-25T23:43:22Z</time>
      </trkpt>
      <trkpt lat="38.82904739542837" lon="121.50402122862566">
        <ele>3.506941692903638</ele>
        <time>2025-07-25T23:43:30Z</time>
      </trkpt>
      <trkpt lat="38.82896292221884" lon="121.50398463967608">
        <ele>2.2500610006973147</ele>
        <time>2025-07-25T23:43:34Z</time>
      </trkpt>
      <trkpt lat="38.828875793078254" lon="121.50398071343567">
        <ele>2.936488274484873</ele>
        <time>2025-07-25T23:43:38Z</time>
      </trkpt>
      <trkpt lat="38.82854640509797" lon="121.50408924277447">
        <ele>2.2523814756423235</ele>
        <time>2025-07-25T23:43:54Z</time>
      </trkpt>
      <trkpt lat="38.828369390603626" lon="121.50408788188172">
        <ele>1.9473528722301126</ele>
        <time>2025-07-25T23:44:02Z</time>
      </trkpt>
      <trkpt lat="38.828197768499955" lon="121.5040418912572">
        <ele>2.5877302419394255</ele>
        <time>2025-07-25T23:44:10Z</time>
      </trkpt>
      <trkpt lat="38.828119479875355" lon="121.50399990278552">
        <ele>1.9716647071763873</ele>
        <time>2025-07-25T23:44:14Z</time>
      </trkpt>
      <trkpt lat="38.82796479906652" lon="121.5037554261227">
        <ele>2.6279021948575974</ele>
        <time>2025-07-25T23:44:26Z</time>
      </trkpt>
      <trkpt lat="38.827907541611424" lon="121.50355304071037">
        <ele>2.0050343442708254</ele>
        <time>2025-07-25T23:44:34Z</time>
      </trkpt>
      <trkpt lat="38.82789576992321" lon="121.50343989301813">
        <ele>2.2914845822378993</ele>
        <time>2025-07-25T23:44:38Z</time>
      </trkpt>
      <trkpt lat="38.82785404570102" lon="121.5033260193683">
        <ele>2.059010276570916</ele>
        <time>2025-07-25T23:44:42Z</time>
      </trkpt>
      <trkpt lat="38.82770959059644" lon="121.50321816484993">
        <ele>2.299193875864148</ele>
        <time>2025-07-25T23:44:50Z</time>
      </trkpt>
      <trkpt lat="38.82757109406831" lon="121.50307235904383">
        <ele>2.5789831280708313</ele>
        <time>2025-07-25T23:44:58Z</time>
      </trkpt>
      <trkpt lat="38.82735615593748" lon="121.50301601619799">
        <ele>2.321045151911676</ele>
        <time>2025-07-25T23:45:08Z</time>
      </trkpt>
      <trkpt lat="38.82731148264684" lon="121.50296133607422">
        <ele>2.448859774507582</ele>
        <time>2025-07-25T23:45:11Z</time>
      </trkpt>
      <trkpt lat="38.82725169791929" lon="121.50297879406091">
        <ele>2.0815588533878326</ele>
        <time>2025-07-25T23:45:14Z</time>
      </trkpt>
      <trkpt lat="38.82720928159412" lon="121.5030342612955">
        <ele>2.4733937392011285</ele>
        <time>2025-07-25T23:45:17Z</time>
      </trkpt>
      <trkpt lat="38.827037292434106" lon="121.50313242485147">
        <ele>2.650203861296177</ele>
        <time>2025-07-25T23:45:26Z</time>
      </trkpt>
      <trkpt lat="38.82678702039087" lon="121.50337816735762">
        <ele>3.0474849799647927</ele>
        <time>2025-07-25T23:45:41Z</time>
      </trkpt>
      <trkpt lat="38.82668191301489" lon="121.50354453387305">
        <ele>2.7948182923719287</ele>
        <time>2025-07-25T23:45:49Z</time>
      </trkpt>
      <trkpt lat="38.82656983469128" lon="121.5038392301769">
        <ele>2.5736381728202105</ele>
        <time>2025-07-25T23:46:01Z</time>
      </trkpt>
      <trkpt lat="38.82656189957091" lon="121.50426390216792">
        <ele>3.008117933757603</ele>
        <time>2025-07-25T23:46:17Z</time>
      </trkpt>
      <trkpt lat="38.82655961807716" lon="121.50436407223866">
        <ele>2.6678435429930687</ele>
        <time>2025-07-25T23:46:21Z</time>
      </trkpt>
      <trkpt lat="38.82650093612239" lon="121.5045728933637">
        <ele>1.85574293974787</ele>
        <time>2025-07-25T23:46:29Z</time>
      </trkpt>
      <trkpt lat="38.826412535008494" lon="121.5047420061729">
        <ele>1.9420491214841604</ele>
        <time>2025-07-25T23:46:37Z</time>
      </trkpt>
      <trkpt lat="38.826294946288165" lon="121.50488991474852">
        <ele>1.9132764814421535</ele>
        <time>2025-07-25T23:46:45Z</time>
      </trkpt>
      <trkpt lat="38.82625038653536" lon="121.50485333582924">
        <ele>2.27347279433161</ele>
        <time>2025-07-25T23:46:49Z</time>
      </trkpt>
      <trkpt lat="38.82632286561483" lon="121.50478979177504">
        <ele>2.0363506209105253</ele>
        <time>2025-07-25T23:46:53Z</time>
      </trkpt>
      <trkpt lat="38.8264491545515" lon="121.5045280829021">
        <ele>2.718622404150665</ele>
        <time>2025-07-25T23:47:05Z</time>
      </trkpt>
      <trkpt lat="38.82654951118539" lon="121.50420757732523">
        <ele>2.412688015960157</ele>
        <time>2025-07-25T23:47:18Z</time>
      </trkpt>
      <trkpt lat="38.826560439890194" lon="121.50389664793326">
        <ele>1.8763144183903933</ele>
        <time>2025-07-25T23:47:29Z</time>
      </trkpt>
      <trkpt lat="38.82665438913559" lon="121.50360332616495">
        <ele>2.6486771972849965</ele>
        <time>2025-07-25T23:47:41Z</time>
      </trkpt>
      <trkpt lat="38.82675380544344" lon="121.50339925582664">
        <ele>2.319143980741501</ele>
        <time>2025-07-25T23:47:49Z</time>
      </trkpt>
      <trkpt lat="38.82703425156458" lon="121.50311843259104">
        <ele>2.716534413397312</ele>
        <time>2025-07-25T23:48:05Z</time>
      </trkpt>
      <trkpt lat="38.82725836437036" lon="121.50294829437878">
        <ele>2.6739956298843026</ele>
        <time>2025-07-25T23:48:17Z</time>
      </trkpt>
      <trkpt lat="38.82751633994704" lon="121.50303377395426">
        <ele>3.3226653123274446</ele>
        <time>2025-07-25T23:48:29Z</time>
      </trkpt>
      <trkpt lat="38.82781345595023" lon="121.50327018132717">
        <ele>1.3032216290012002</ele>
        <time>2025-07-25T23:48:44Z</time>
      </trkpt>
      <trkpt lat="38.82795330449689" lon="121.5036804206669">
        <ele>1.9681144673377275</ele>
        <time>2025-07-25T23:49:00Z</time>
      </trkpt>
      <trkpt lat="38.82807639711819" lon="121.50385804274806">
        <ele>1.7023823140189052</ele>
        <time>2025-07-25T23:49:08Z</time>
      </trkpt>
      <trkpt lat="38.828127461122364" lon="121.50397277983944">
        <ele>1.5430952347815037</ele>
        <time>2025-07-25T23:49:12Z</time>
      </trkpt>
      <trkpt lat="38.82817427098757" lon="121.50403029692144">
        <ele>2.652702967636287</ele>
        <time>2025-07-25T23:49:15Z</time>
      </trkpt>
      <trkpt lat="38.828306038113105" lon="121.50404220782245">
        <ele>2.399751853197813</ele>
        <time>2025-07-25T23:49:21Z</time>
      </trkpt>
      <trkpt lat="38.82836597673789" lon="121.50407583391473">
        <ele>1.9698703233152628</ele>
        <time>2025-07-25T23:49:24Z</time>
      </trkpt>
      <trkpt lat="38.82853171426156" lon="121.50408105188131">
        <ele>1.858831975609064</ele>
        <time>2025-07-25T23:49:32Z</time>
      </trkpt>
      <trkpt lat="38.828790829359214" lon="121.50402220283688">
        <ele>1.8956338064745069</ele>
        <time>2025-07-25T23:49:44Z</time>
      </trkpt>
      <trkpt lat="38.8288467405666" lon="121.50395381035104">
        <ele>2.4536163453012705</ele>
        <time>2025-07-25T23:49:48Z</time>
      </trkpt>
      <trkpt lat="38.82894766612568" lon="121.50395250002099">
        <ele>1.711286136880517</ele>
        <time>2025-07-25T23:49:52Z</time>
      </trkpt>
      <trkpt lat="38.829212649725186" lon="121.50405615805046">
        <ele>2.7514084074646235</ele>
        <time>2025-07-25T23:50:04Z</time>
      </trkpt>
      <trkpt lat="38.829454456561855" lon="121.50416505923853">
        <ele>3.4355335673317313</ele>
        <time>2025-07-25T23:50:16Z</time>
      </trkpt>
      <trkpt lat="38.829692812472544" lon="121.50435186796726">
        <ele>2.347322625108063</ele>
        <time>2025-07-25T23:50:28Z</time>
      </trkpt>
      <trkpt lat="38.8299554174468" lon="121.50465773124728">
        <ele>2.5587320616468787</ele>
        <time>2025-07-25T23:50:44Z</time>
      </trkpt>
      <trkpt lat="38.83010923435042" lon="121.50476569301453">
        <ele>2.5021474082022905</ele>
        <time>2025-07-25T23:50:52Z</time>
      </trkpt>
      <trkpt lat="38.83044430190376" lon="121.50491591386103">
        <ele>2.6556446542963386</ele>
        <time>2025-07-25T23:51:08Z</time>
      </trkpt>
      <trkpt lat="38.83066757324157" lon="121.50513027146542">
        <ele>2.8773906473070383</ele>
        <time>2025-07-25T23:51:20Z</time>
      </trkpt>
      <trkpt lat="38.83074257727999" lon="121.5052094710297">
        <ele>2.459844620898366</ele>
        <time>2025-07-25T23:51:24Z</time>
      </trkpt>
      <trkpt lat="38.830825611226764" lon="121.50526748675152">
        <ele>2.825695884414017</ele>
        <time>2025-07-25T23:51:28Z</time>
      </trkpt>
      <trkpt lat="38.83101877122644" lon="121.50532134512945">
        <ele>2.721799820661545</ele>
        <time>2025-07-25T23:51:36Z</time>
      </trkpt>
      <trkpt lat="38.831276286471955" lon="121.50527878677417">
        <ele>3.52218434214592</ele>
        <time>2025-07-25T23:51:48Z</time>
      </trkpt>
      <trkpt lat="38.831376150255245" lon="121.50529591927013">
        <ele>3.002988388761878</ele>
        <time>2025-07-25T23:51:52Z</time>
      </trkpt>
      <trkpt lat="38.83164190798678" lon="121.50541345782581">
        <ele>3.449730336666107</ele>
        <time>2025-07-25T23:52:04Z</time>
      </trkpt>
      <trkpt lat="38.83171862600261" lon="121.50547232234925">
        <ele>3.8962866608053446</ele>
        <time>2025-07-25T23:52:08Z</time>
      </trkpt>
      <trkpt lat="38.83189256169688" lon="121.50572882460791">
        <ele>2.9007251616567373</ele>
        <time>2025-07-25T23:52:20Z</time>
      </trkpt>
      <trkpt lat="38.83200535613287" lon="121.50604752623462">
        <ele>2.617817494086921</ele>
        <time>2025-07-25T23:52:32Z</time>
      </trkpt>
      <trkpt lat="38.83212949363341" lon="121.50623849467391">
        <ele>1.8752461206167936</ele>
        <time>2025-07-25T23:52:40Z</time>
      </trkpt>
      <trkpt lat="38.83219601060819" lon="121.50631386500372">
        <ele>1.8482338227331638</ele>
        <time>2025-07-25T23:52:44Z</time>
      </trkpt>
      <trkpt lat="38.832268141738744" lon="121.50636516188045">
        <ele>1.740250519476831</ele>
        <time>2025-07-25T23:52:48Z</time>
      </trkpt>
      <trkpt lat="38.83233380119995" lon="121.50644860712194">
        <ele>1.4413170274347067</ele>
        <time>2025-07-25T23:52:52Z</time>
      </trkpt>
      <trkpt lat="38.832512593104745" lon="121.50650999489055">
        <ele>1.6174180787056684</ele>
        <time>2025-07-25T23:53:00Z</time>
      </trkpt>
      <trkpt lat="38.83268810135694" lon="121.50654389297429">
        <ele>1.4356339434161782</ele>
        <time>2025-07-25T23:53:08Z</time>
      </trkpt>
      <trkpt lat="38.83284027212453" lon="121.50662066976685">
        <ele>2.023458529263735</ele>
        <time>2025-07-25T23:53:16Z</time>
      </trkpt>
      <trkpt lat="38.83298121118889" lon="121.50676713045208">
        <ele>2.747875460423529</ele>
        <time>2025-07-25T23:53:24Z</time>
      </trkpt>
      <trkpt lat="38.8330316602903" lon="121.50686626827114">
        <ele>3.3391633657738566</ele>
        <time>2025-07-25T23:53:28Z</time>
      </trkpt>
      <trkpt lat="38.833074458596634" lon="121.5068972275727">
        <ele>2.9859346579760313</ele>
        <time>2025-07-25T23:53:32Z</time>
      </trkpt>
      <trkpt lat="38.833074458596634" lon="121.5068972275727">
        <ele>2.9859346579760313</ele>
        <time>2025-07-25T23:53:34Z</time>
      </trkpt>
    </trkseg>
  </trk>
</gpx>