<?xml version="1.0" encoding="UTF-8"?>
<gpx xmlns="http://www.topografix.com/GPX/1/1" xmlns:gpxtpx="http://www.garmin.com/xmlschemas/TrackPointExtension/v1" xmlns:xsi="http://www.w3.org/2001/XMLSchema-instance" xsi:schemaLocation="http://www.topografix.com/GPX/1/1 http://www.topografix.com/GPX/1/1/gpx.xsd" version="1.1" creator="gpx.py -- https://github.com/tkrajina/gpxpy">
  <trk>
    <name>gpx from keep</name>
    <type>Run</type>
    <trkseg>
      <trkpt lat="38.838110952462664" lon="121.50523118435363">
        <ele>10.198525142855942</ele>
        <time>2024-09-25T14:17:01Z</time>
      </trkpt>
      <trkpt lat="38.83840142454527" lon="121.50542068352652">
        <ele>10.039762238971889</ele>
        <time>2024-09-25T14:17:16Z</time>
      </trkpt>
      <trkpt lat="38.83845219036699" lon="121.50552188351719">
        <ele>9.809708340093493</ele>
        <time>2024-09-25T14:17:20Z</time>
      </trkpt>
      <trkpt lat="38.83864168898286" lon="121.5056929051774">
        <ele>11.16166280489415</ele>
        <time>2024-09-25T14:17:32Z</time>
      </trkpt>
      <trkpt lat="38.838714124533205" lon="121.50573901143564">
        <ele>11.571282017044723</ele>
        <time>2024-09-25T14:17:35Z</time>
      </trkpt>
      <trkpt lat="38.838724054379135" lon="121.50581132243977">
        <ele>11.169487965293229</ele>
        <time>2024-09-25T14:17:38Z</time>
      </trkpt>
      <trkpt lat="38.838760678180236" lon="121.50590630096498">
        <ele>11.99505186919123</ele>
        <time>2024-09-25T14:17:42Z</time>
      </trkpt>
      <trkpt lat="38.838826599215466" lon="121.50594356545615">
        <ele>11.278611377812922</ele>
        <time>2024-09-25T14:17:45Z</time>
      </trkpt>
      <trkpt lat="38.83885872458226" lon="121.50604492498809">
        <ele>12.220290542580187</ele>
        <time>2024-09-25T14:17:49Z</time>
      </trkpt>
      <trkpt lat="38.83885996465615" lon="121.50610743733249">
        <ele>11.715462725609541</ele>
        <time>2024-09-25T14:17:53Z</time>
      </trkpt>
      <trkpt lat="38.838812974357616" lon="121.5061891798953">
        <ele>11.946074510924518</ele>
        <time>2024-09-25T14:17:57Z</time>
      </trkpt>
      <trkpt lat="38.8386249457196" lon="121.5063866092542">
        <ele>12.277719551697373</ele>
        <time>2024-09-25T14:18:09Z</time>
      </trkpt>
      <trkpt lat="38.83851953041851" lon="121.50670681413366">
        <ele>12.035235927440226</ele>
        <time>2024-09-25T14:18:22Z</time>
      </trkpt>
      <trkpt lat="38.83846047973386" lon="121.50687945059948">
        <ele>12.369271900504827</ele>
        <time>2024-09-25T14:18:29Z</time>
      </trkpt>
      <trkpt lat="38.83831681230934" lon="121.50710453610141">
        <ele>12.028336557559669</ele>
        <time>2024-09-25T14:18:40Z</time>
      </trkpt>
      <trkpt lat="38.8382638814825" lon="121.50714034710774">
        <ele>12.128807173110545</ele>
        <time>2024-09-25T14:18:43Z</time>
      </trkpt>
      <trkpt lat="38.838175038508126" lon="121.50735010458837">
        <ele>12.09302470088005</ele>
        <time>2024-09-25T14:18:52Z</time>
      </trkpt>
      <trkpt lat="38.837960609059635" lon="121.50763638183048">
        <ele>11.748999417759478</ele>
        <time>2024-09-25T14:19:07Z</time>
      </trkpt>
      <trkpt lat="38.83791182258856" lon="121.50771503786007">
        <ele>11.40690696798265</ele>
        <time>2024-09-25T14:19:11Z</time>
      </trkpt>
      <trkpt lat="38.83784017879307" lon="121.50789770303133">
        <ele>12.024721855297685</ele>
        <time>2024-09-25T14:19:19Z</time>
      </trkpt>
      <trkpt lat="38.837735846623296" lon="121.50805892562218">
        <ele>12.015531149692833</ele>
        <time>2024-09-25T14:19:27Z</time>
      </trkpt>
      <trkpt lat="38.83767398545632" lon="121.50810549095056">
        <ele>11.95736698526889</ele>
        <time>2024-09-25T14:19:31Z</time>
      </trkpt>
      <trkpt lat="38.837625199089295" lon="121.50811183914047">
        <ele>13.937075356021523</ele>
        <time>2024-09-25T14:19:35Z</time>
      </trkpt>
      <trkpt lat="38.83760349769316" lon="121.50822084557753">
        <ele>11.510560339316726</ele>
        <time>2024-09-25T14:19:39Z</time>
      </trkpt>
      <trkpt lat="38.83768558076608" lon="121.5084109337797">
        <ele>12.201249510981143</ele>
        <time>2024-09-25T14:19:47Z</time>
      </trkpt>
      <trkpt lat="38.83766314710865" lon="121.50852052358246">
        <ele>12.213922334834933</ele>
        <time>2024-09-25T14:19:51Z</time>
      </trkpt>
      <trkpt lat="38.83760852957754" lon="121.50862174286395">
        <ele>12.008185468614101</ele>
        <time>2024-09-25T14:19:55Z</time>
      </trkpt>
      <trkpt lat="38.837539784278604" lon="121.50884395841346">
        <ele>11.744011389091611</ele>
        <time>2024-09-25T14:20:03Z</time>
      </trkpt>
      <trkpt lat="38.83749373719979" lon="121.50894183994414">
        <ele>11.416225119493902</ele>
        <time>2024-09-25T14:20:07Z</time>
      </trkpt>
      <trkpt lat="38.83743195811847" lon="121.50901195297541">
        <ele>10.997615952044725</ele>
        <time>2024-09-25T14:20:11Z</time>
      </trkpt>
      <trkpt lat="38.83736173574313" lon="121.50905849968018">
        <ele>11.120713537558913</ele>
        <time>2024-09-25T14:20:15Z</time>
      </trkpt>
      <trkpt lat="38.837237163692485" lon="121.5092025421531">
        <ele>11.641274007037282</ele>
        <time>2024-09-25T14:20:23Z</time>
      </trkpt>
      <trkpt lat="38.83713957987982" lon="121.5093802421855">
        <ele>12.031837881542742</ele>
        <time>2024-09-25T14:20:31Z</time>
      </trkpt>
      <trkpt lat="38.83698423250282" lon="121.50972735209048">
        <ele>10.769108704291284</ele>
        <time>2024-09-25T14:20:46Z</time>
      </trkpt>
      <trkpt lat="38.836931407272246" lon="121.50981617470833">
        <ele>10.296378792263567</ele>
        <time>2024-09-25T14:20:50Z</time>
      </trkpt>
      <trkpt lat="38.83678468318275" lon="121.50991651516851">
        <ele>11.248294062912464</ele>
        <time>2024-09-25T14:20:58Z</time>
      </trkpt>
      <trkpt lat="38.83643837288498" lon="121.50996407094652">
        <ele>11.173130250535905</ele>
        <time>2024-09-25T14:21:14Z</time>
      </trkpt>
      <trkpt lat="38.836183909781845" lon="121.51004778335385">
        <ele>10.974681364372373</ele>
        <time>2024-09-25T14:21:26Z</time>
      </trkpt>
      <trkpt lat="38.83611326773925" lon="121.51011648694">
        <ele>10.518569921143353</ele>
        <time>2024-09-25T14:21:30Z</time>
      </trkpt>
      <trkpt lat="38.83613691208161" lon="121.5102166108097">
        <ele>10.882041277363896</ele>
        <time>2024-09-25T14:21:34Z</time>
      </trkpt>
      <trkpt lat="38.83622132053874" lon="121.51039133071245">
        <ele>10.124146977439523</ele>
        <time>2024-09-25T14:21:42Z</time>
      </trkpt>
      <trkpt lat="38.836247967910666" lon="121.51049587793472">
        <ele>9.208250159397721</ele>
        <time>2024-09-25T14:21:46Z</time>
      </trkpt>
      <trkpt lat="38.836256909948865" lon="121.51061393807304">
        <ele>9.784071133472025</ele>
        <time>2024-09-25T14:21:50Z</time>
      </trkpt>
      <trkpt lat="38.83617220697512" lon="121.51093521343928">
        <ele>10.886947209946811</ele>
        <time>2024-09-25T14:22:02Z</time>
      </trkpt>
      <trkpt lat="38.83606925579673" lon="121.51108778107796">
        <ele>9.661080888472497</ele>
        <time>2024-09-25T14:22:10Z</time>
      </trkpt>
      <trkpt lat="38.83599719258547" lon="121.51128017861237">
        <ele>9.209777675569057</ele>
        <time>2024-09-25T14:22:18Z</time>
      </trkpt>
      <trkpt lat="38.835988493570134" lon="121.51138259862992">
        <ele>9.257405060343444</ele>
        <time>2024-09-25T14:22:22Z</time>
      </trkpt>
      <trkpt lat="38.836017903773595" lon="121.5115936135865">
        <ele>8.617627612315118</ele>
        <time>2024-09-25T14:22:30Z</time>
      </trkpt>
      <trkpt lat="38.83609701579955" lon="121.51178111132631">
        <ele>9.151621527969837</ele>
        <time>2024-09-25T14:22:38Z</time>
      </trkpt>
      <trkpt lat="38.836163644676375" lon="121.51186051976184">
        <ele>8.605819085612893</ele>
        <time>2024-09-25T14:22:42Z</time>
      </trkpt>
      <trkpt lat="38.8362385706131" lon="121.51190293479652">
        <ele>9.31459688488394</ele>
        <time>2024-09-25T14:22:46Z</time>
      </trkpt>
      <trkpt lat="38.836387621336705" lon="121.51188978268907">
        <ele>8.90742311347276</ele>
        <time>2024-09-25T14:22:53Z</time>
      </trkpt>
      <trkpt lat="38.83656189861436" lon="121.51180503636573">
        <ele>8.191672299057245</ele>
        <time>2024-09-25T14:23:02Z</time>
      </trkpt>
      <trkpt lat="38.83675136464551" lon="121.51161460092605">
        <ele>9.0647574653849</ele>
        <time>2024-09-25T14:23:14Z</time>
      </trkpt>
      <trkpt lat="38.83695323017237" lon="121.5112798314933">
        <ele>9.576771972700953</ele>
        <time>2024-09-25T14:23:30Z</time>
      </trkpt>
      <trkpt lat="38.837035050896354" lon="121.51097463622233">
        <ele>8.945924804545939</ele>
        <time>2024-09-25T14:23:42Z</time>
      </trkpt>
      <trkpt lat="38.83699701087651" lon="121.51087372956614">
        <ele>8.334692128002644</ele>
        <time>2024-09-25T14:23:46Z</time>
      </trkpt>
      <trkpt lat="38.83683238101468" lon="121.51059384671872">
        <ele>10.609397077001631</ele>
        <time>2024-09-25T14:23:58Z</time>
      </trkpt>
      <trkpt lat="38.836560552790964" lon="121.51034149157161">
        <ele>10.64411158207804</ele>
        <time>2024-09-25T14:24:14Z</time>
      </trkpt>
      <trkpt lat="38.83651413882841" lon="121.51024708043384">
        <ele>10.375043478794396</ele>
        <time>2024-09-25T14:24:18Z</time>
      </trkpt>
      <trkpt lat="38.836495821030304" lon="121.51015010297704">
        <ele>10.40378588065505</ele>
        <time>2024-09-25T14:24:22Z</time>
      </trkpt>
      <trkpt lat="38.83650951824021" lon="121.51005624857741">
        <ele>10.37072018533945</ele>
        <time>2024-09-25T14:24:26Z</time>
      </trkpt>
      <trkpt lat="38.836550904135116" lon="121.50995121328366">
        <ele>10.20484796911478</ele>
        <time>2024-09-25T14:24:30Z</time>
      </trkpt>
      <trkpt lat="38.83661076132524" lon="121.50988825752817">
        <ele>9.353952401317656</ele>
        <time>2024-09-25T14:24:34Z</time>
      </trkpt>
      <trkpt lat="38.83678874338376" lon="121.50985858267617">
        <ele>10.152592815458775</ele>
        <time>2024-09-25T14:24:42Z</time>
      </trkpt>
      <trkpt lat="38.83697091315205" lon="121.50975666861345">
        <ele>11.871796865947545</ele>
        <time>2024-09-25T14:24:50Z</time>
      </trkpt>
      <trkpt lat="38.83703203441453" lon="121.509673585973">
        <ele>12.077484362758696</ele>
        <time>2024-09-25T14:24:54Z</time>
      </trkpt>
      <trkpt lat="38.83712341035878" lon="121.5093148535475">
        <ele>10.996878414414823</ele>
        <time>2024-09-25T14:25:08Z</time>
      </trkpt>
      <trkpt lat="38.83716830259819" lon="121.50920770239722">
        <ele>10.584042394533753</ele>
        <time>2024-09-25T14:25:12Z</time>
      </trkpt>
      <trkpt lat="38.83730032588981" lon="121.50903726640036">
        <ele>12.303533726371825</ele>
        <time>2024-09-25T14:25:20Z</time>
      </trkpt>
      <trkpt lat="38.83743469574618" lon="121.50893279673826">
        <ele>11.365010971203446</ele>
        <time>2024-09-25T14:25:28Z</time>
      </trkpt>
      <trkpt lat="38.837554279084074" lon="121.5087933920683">
        <ele>11.463926739059389</ele>
        <time>2024-09-25T14:25:36Z</time>
      </trkpt>
      <trkpt lat="38.83762058695273" lon="121.50861171789404">
        <ele>11.700287896208465</ele>
        <time>2024-09-25T14:25:44Z</time>
      </trkpt>
      <trkpt lat="38.83763937102969" lon="121.50851733291799">
        <ele>11.021231792867184</ele>
        <time>2024-09-25T14:25:48Z</time>
      </trkpt>
      <trkpt lat="38.83773246108591" lon="121.50849721795448">
        <ele>11.833395841531456</ele>
        <time>2024-09-25T14:25:52Z</time>
      </trkpt>
      <trkpt lat="38.83780054034057" lon="121.50855972209641">
        <ele>12.039212437346578</ele>
        <time>2024-09-25T14:25:56Z</time>
      </trkpt>
      <trkpt lat="38.83790430477722" lon="121.50874141127022">
        <ele>11.67941408418119</ele>
        <time>2024-09-25T14:26:04Z</time>
      </trkpt>
      <trkpt lat="38.837977204866135" lon="121.5088284386574">
        <ele>11.75385257229209</ele>
        <time>2024-09-25T14:26:08Z</time>
      </trkpt>
      <trkpt lat="38.83805121078307" lon="121.50887729945516">
        <ele>12.083469638600945</ele>
        <time>2024-09-25T14:26:12Z</time>
      </trkpt>
      <trkpt lat="38.83812441208962" lon="121.50888606660426">
        <ele>10.86694466136396</ele>
        <time>2024-09-25T14:26:16Z</time>
      </trkpt>
      <trkpt lat="38.83824351910153" lon="121.50897877114444">
        <ele>10.375245717354119</ele>
        <time>2024-09-25T14:26:24Z</time>
      </trkpt>
      <trkpt lat="38.83823195999012" lon="121.50907825201983">
        <ele>9.649425157345831</ele>
        <time>2024-09-25T14:26:28Z</time>
      </trkpt>
      <trkpt lat="38.83817890058116" lon="121.50917473151547">
        <ele>10.85706172324717</ele>
        <time>2024-09-25T14:26:32Z</time>
      </trkpt>
      <trkpt lat="38.83814144888208" lon="121.50928479036862">
        <ele>11.177226852625608</ele>
        <time>2024-09-25T14:26:36Z</time>
      </trkpt>
      <trkpt lat="38.83802924065859" lon="121.50944980730569">
        <ele>10.568378921598196</ele>
        <time>2024-09-25T14:26:44Z</time>
      </trkpt>
      <trkpt lat="38.837958103879295" lon="121.5097545879286">
        <ele>10.189238558523357</ele>
        <time>2024-09-25T14:26:56Z</time>
      </trkpt>
      <trkpt lat="38.83789288401926" lon="121.50982673555973">
        <ele>11.144082378596067</ele>
        <time>2024-09-25T14:27:00Z</time>
      </trkpt>
      <trkpt lat="38.83782110456026" lon="121.5097965576984">
        <ele>10.524665896780789</ele>
        <time>2024-09-25T14:27:03Z</time>
      </trkpt>
      <trkpt lat="38.83777158173887" lon="121.50974272777253">
        <ele>9.710617163218558</ele>
        <time>2024-09-25T14:27:06Z</time>
      </trkpt>
      <trkpt lat="38.837625356189044" lon="121.50949524482996">
        <ele>11.766477758996189</ele>
        <time>2024-09-25T14:27:17Z</time>
      </trkpt>
      <trkpt lat="38.837355130595434" lon="121.50936719339587">
        <ele>11.814901370555162</ele>
        <time>2024-09-25T14:27:29Z</time>
      </trkpt>
      <trkpt lat="38.837255548829674" lon="121.50931043589792">
        <ele>11.194176584482193</ele>
        <time>2024-09-25T14:27:33Z</time>
      </trkpt>
      <trkpt lat="38.837160861316946" lon="121.50935766259663">
        <ele>11.23344384599477</ele>
        <time>2024-09-25T14:27:37Z</time>
      </trkpt>
      <trkpt lat="38.837003159604315" lon="121.50966555108064">
        <ele>11.513589520938694</ele>
        <time>2024-09-25T14:27:49Z</time>
      </trkpt>
      <trkpt lat="38.836957576378104" lon="121.5097672097341">
        <ele>11.30692387279123</ele>
        <time>2024-09-25T14:27:53Z</time>
      </trkpt>
      <trkpt lat="38.83689529056052" lon="121.50985023825602">
        <ele>12.008076906204224</ele>
        <time>2024-09-25T14:27:57Z</time>
      </trkpt>
      <trkpt lat="38.83680763463491" lon="121.50990652700082">
        <ele>12.308532026596367</ele>
        <time>2024-09-25T14:28:01Z</time>
      </trkpt>
      <trkpt lat="38.83661230600182" lon="121.5099163757959">
        <ele>10.343610337935388</ele>
        <time>2024-09-25T14:28:09Z</time>
      </trkpt>
      <trkpt lat="38.83653303136242" lon="121.50996460178254">
        <ele>11.099446278996766</ele>
        <time>2024-09-25T14:28:13Z</time>
      </trkpt>
      <trkpt lat="38.83649172020078" lon="121.51009824181897">
        <ele>9.756477903574705</ele>
        <time>2024-09-25T14:28:17Z</time>
      </trkpt>
      <trkpt lat="38.83651524777481" lon="121.51021801346631">
        <ele>9.573045293800533</ele>
        <time>2024-09-25T14:28:21Z</time>
      </trkpt>
      <trkpt lat="38.836556355817365" lon="121.51032837846698">
        <ele>10.331929001957178</ele>
        <time>2024-09-25T14:28:25Z</time>
      </trkpt>
      <trkpt lat="38.83663139367723" lon="121.51041330466617">
        <ele>10.014229697175324</ele>
        <time>2024-09-25T14:28:29Z</time>
      </trkpt>
      <trkpt lat="38.836790197547536" lon="121.51051249543406">
        <ele>10.857072111219168</ele>
        <time>2024-09-25T14:28:37Z</time>
      </trkpt>
      <trkpt lat="38.83692276387934" lon="121.51068960415172">
        <ele>9.678065693937242</ele>
        <time>2024-09-25T14:28:45Z</time>
      </trkpt>
      <trkpt lat="38.83702420184843" lon="121.51087603182174">
        <ele>9.223062339238822</ele>
        <time>2024-09-25T14:28:53Z</time>
      </trkpt>
      <trkpt lat="38.83711724442129" lon="121.51086674335527">
        <ele>8.696343157440424</ele>
        <time>2024-09-25T14:28:57Z</time>
      </trkpt>
      <trkpt lat="38.837204506519875" lon="121.5106586486327">
        <ele>9.320489840582013</ele>
        <time>2024-09-25T14:29:05Z</time>
      </trkpt>
      <trkpt lat="38.83733154322082" lon="121.51043570306622">
        <ele>9.489348908886313</ele>
        <time>2024-09-25T14:29:15Z</time>
      </trkpt>
      <trkpt lat="38.8375813117024" lon="121.51020427608455">
        <ele>9.491770210675895</ele>
        <time>2024-09-25T14:29:30Z</time>
      </trkpt>
      <trkpt lat="38.83765832553918" lon="121.51014825627256">
        <ele>10.092112657614052</ele>
        <time>2024-09-25T14:29:34Z</time>
      </trkpt>
      <trkpt lat="38.837712933276016" lon="121.51005864592267">
        <ele>10.28837367426604</ele>
        <time>2024-09-25T14:29:38Z</time>
      </trkpt>
      <trkpt lat="38.83774463645045" lon="121.5099503704506">
        <ele>9.818828214891255</ele>
        <time>2024-09-25T14:29:42Z</time>
      </trkpt>
      <trkpt lat="38.837719954906035" lon="121.50985009585153">
        <ele>11.243280179798603</ele>
        <time>2024-09-25T14:29:46Z</time>
      </trkpt>
      <trkpt lat="38.837553601058886" lon="121.50960852762718">
        <ele>11.05943739041686</ele>
        <time>2024-09-25T14:29:58Z</time>
      </trkpt>
      <trkpt lat="38.837410973557084" lon="121.50950430799102">
        <ele>9.81725865136832</ele>
        <time>2024-09-25T14:30:06Z</time>
      </trkpt>
      <trkpt lat="38.83733616250736" lon="121.50947242340504">
        <ele>9.40079185180366</ele>
        <time>2024-09-25T14:30:10Z</time>
      </trkpt>
      <trkpt lat="38.837243560838594" lon="121.50938553132376">
        <ele>10.211562565527856</ele>
        <time>2024-09-25T14:30:14Z</time>
      </trkpt>
      <trkpt lat="38.83719835254766" lon="121.50930769402089">
        <ele>9.347426882945001</ele>
        <time>2024-09-25T14:30:18Z</time>
      </trkpt>
      <trkpt lat="38.83722096285797" lon="121.5091867710036">
        <ele>10.468866847455502</ele>
        <time>2024-09-25T14:30:22Z</time>
      </trkpt>
      <trkpt lat="38.83734200281174" lon="121.50901866920952">
        <ele>12.34073898755014</ele>
        <time>2024-09-25T14:30:30Z</time>
      </trkpt>
      <trkpt lat="38.83748122341957" lon="121.50889100096857">
        <ele>11.779420988634229</ele>
        <time>2024-09-25T14:30:38Z</time>
      </trkpt>
      <trkpt lat="38.837619494459126" lon="121.50853114555436">
        <ele>11.653135941363871</ele>
        <time>2024-09-25T14:30:54Z</time>
      </trkpt>
      <trkpt lat="38.83766350202774" lon="121.5084418023887">
        <ele>11.621882126666605</ele>
        <time>2024-09-25T14:30:58Z</time>
      </trkpt>
      <trkpt lat="38.83759079339001" lon="121.50823458089111">
        <ele>11.209483883343637</ele>
        <time>2024-09-25T14:31:06Z</time>
      </trkpt>
      <trkpt lat="38.83762732854056" lon="121.50811762309714">
        <ele>11.407763672992587</ele>
        <time>2024-09-25T14:31:10Z</time>
      </trkpt>
      <trkpt lat="38.837790441275295" lon="121.50793750362654">
        <ele>11.246088706888258</ele>
        <time>2024-09-25T14:31:22Z</time>
      </trkpt>
    </trkseg>
  </trk>
</gpx>