<?xml version="1.0" encoding="UTF-8"?>
<gpx xmlns="http://www.topografix.com/GPX/1/1" xmlns:gpxtpx="http://www.garmin.com/xmlschemas/TrackPointExtension/v1" xmlns:xsi="http://www.w3.org/2001/XMLSchema-instance" xsi:schemaLocation="http://www.topografix.com/GPX/1/1 http://www.topografix.com/GPX/1/1/gpx.xsd" version="1.1" creator="gpx.py -- https://github.com/tkrajina/gpxpy">
  <trk>
    <name>gpx from keep</name>
    <type>Run</type>
    <trkseg>
      <trkpt lat="38.8362643042009" lon="121.51039374510175">
        <ele>8.602567065522184</ele>
        <time>2025-12-05T00:04:39Z</time>
      </trkpt>
      <trkpt lat="38.836199745564564" lon="121.51041066416079">
        <ele>8.370018417614695</ele>
        <time>2025-12-05T00:04:42Z</time>
      </trkpt>
      <trkpt lat="38.8362305837878" lon="121.5105638961566">
        <ele>8.472034089267254</ele>
        <time>2025-12-05T00:04:55Z</time>
      </trkpt>
      <trkpt lat="38.83621412042055" lon="121.51072634101972">
        <ele>7.7231579683721066</ele>
        <time>2025-12-05T00:05:11Z</time>
      </trkpt>
      <trkpt lat="38.83617554426925" lon="121.51086492492453">
        <ele>8.057330690324306</ele>
        <time>2025-12-05T00:05:19Z</time>
      </trkpt>
      <trkpt lat="38.83599252621454" lon="121.51122972589563">
        <ele>6.238067834638059</ele>
        <time>2025-12-05T00:05:39Z</time>
      </trkpt>
      <trkpt lat="38.835954425145616" lon="121.5113857625748">
        <ele>6.288805592805147</ele>
        <time>2025-12-05T00:05:47Z</time>
      </trkpt>
      <trkpt lat="38.835959343934164" lon="121.51153858740795">
        <ele>6.043413382023573</ele>
        <time>2025-12-05T00:05:55Z</time>
      </trkpt>
      <trkpt lat="38.836026893401005" lon="121.51176878714799">
        <ele>6.270060825161636</ele>
        <time>2025-12-05T00:06:07Z</time>
      </trkpt>
      <trkpt lat="38.83611791598284" lon="121.51188526273191">
        <ele>6.112761965021491</ele>
        <time>2025-12-05T00:06:15Z</time>
      </trkpt>
      <trkpt lat="38.836244145121064" lon="121.51194753427568">
        <ele>6.202155565842986</ele>
        <time>2025-12-05T00:06:23Z</time>
      </trkpt>
      <trkpt lat="38.83641151341684" lon="121.51193860477436">
        <ele>5.940839437767863</ele>
        <time>2025-12-05T00:06:33Z</time>
      </trkpt>
      <trkpt lat="38.83653973074383" lon="121.51187157319727">
        <ele>6.960009910166264</ele>
        <time>2025-12-05T00:06:42Z</time>
      </trkpt>
      <trkpt lat="38.83669391620185" lon="121.51172048392229">
        <ele>7.378858511336148</ele>
        <time>2025-12-05T00:06:55Z</time>
      </trkpt>
      <trkpt lat="38.836928624824296" lon="121.51140684223208">
        <ele>7.163643495179713</ele>
        <time>2025-12-05T00:07:16Z</time>
      </trkpt>
      <trkpt lat="38.83698580805132" lon="121.51128373840135">
        <ele>7.645792977884412</ele>
        <time>2025-12-05T00:07:37Z</time>
      </trkpt>
      <trkpt lat="38.83705433091301" lon="121.51092726773264">
        <ele>8.359735974110663</ele>
        <time>2025-12-05T00:07:52Z</time>
      </trkpt>
      <trkpt lat="38.83719199645492" lon="121.51061055427856">
        <ele>9.371441570110619</ele>
        <time>2025-12-05T00:08:07Z</time>
      </trkpt>
      <trkpt lat="38.83729984937066" lon="121.51043478895441">
        <ele>9.417040348984301</ele>
        <time>2025-12-05T00:08:16Z</time>
      </trkpt>
      <trkpt lat="38.83753513362779" lon="121.51024276286027">
        <ele>9.641182431951165</ele>
        <time>2025-12-05T00:08:31Z</time>
      </trkpt>
      <trkpt lat="38.83763458179793" lon="121.5101578861636">
        <ele>9.278764516115189</ele>
        <time>2025-12-05T00:08:37Z</time>
      </trkpt>
      <trkpt lat="38.83770216416533" lon="121.51003471327866">
        <ele>9.053400331176817</ele>
        <time>2025-12-05T00:08:43Z</time>
      </trkpt>
      <trkpt lat="38.837705497905986" lon="121.50995535315286">
        <ele>9.565541788935661</ele>
        <time>2025-12-05T00:08:46Z</time>
      </trkpt>
      <trkpt lat="38.83772709936434" lon="121.5099039744263">
        <ele>9.220773119479418</ele>
        <time>2025-12-05T00:08:49Z</time>
      </trkpt>
      <trkpt lat="38.837775493279324" lon="121.50991942301779">
        <ele>8.952234108932316</ele>
        <time>2025-12-05T00:08:52Z</time>
      </trkpt>
      <trkpt lat="38.83784034423859" lon="121.50988794473993">
        <ele>8.562217743135989</ele>
        <time>2025-12-05T00:08:56Z</time>
      </trkpt>
      <trkpt lat="38.837886937001926" lon="121.50982787676935">
        <ele>8.831654372625053</ele>
        <time>2025-12-05T00:09:00Z</time>
      </trkpt>
      <trkpt lat="38.83791636549511" lon="121.50975081152436">
        <ele>9.549740972928703</ele>
        <time>2025-12-05T00:09:04Z</time>
      </trkpt>
      <trkpt lat="38.8379903758251" lon="121.50941013535255">
        <ele>10.138465884141624</ele>
        <time>2025-12-05T00:09:19Z</time>
      </trkpt>
      <trkpt lat="38.83810076510566" lon="121.50928451091278">
        <ele>10.66751285456121</ele>
        <time>2025-12-05T00:09:28Z</time>
      </trkpt>
      <trkpt lat="38.83823877434962" lon="121.50918132351691">
        <ele>10.316822899505496</ele>
        <time>2025-12-05T00:09:37Z</time>
      </trkpt>
      <trkpt lat="38.83827006261225" lon="121.50913143450765">
        <ele>10.39602870773524</ele>
        <time>2025-12-05T00:09:40Z</time>
      </trkpt>
      <trkpt lat="38.838277390910335" lon="121.50906707448343">
        <ele>10.546387318521738</ele>
        <time>2025-12-05T00:09:43Z</time>
      </trkpt>
      <trkpt lat="38.83807926944436" lon="121.50883313297723">
        <ele>11.361344121396542</ele>
        <time>2025-12-05T00:09:58Z</time>
      </trkpt>
      <trkpt lat="38.83783569918062" lon="121.5086064394137">
        <ele>10.819298829883337</ele>
        <time>2025-12-05T00:10:16Z</time>
      </trkpt>
      <trkpt lat="38.83766926329319" lon="121.50851729855955">
        <ele>11.306291840039194</ele>
        <time>2025-12-05T00:10:25Z</time>
      </trkpt>
      <trkpt lat="38.837617764330204" lon="121.50853386827077">
        <ele>10.498201201669872</ele>
        <time>2025-12-05T00:10:28Z</time>
      </trkpt>
      <trkpt lat="38.83755954677394" lon="121.50873832827654">
        <ele>10.484601887874305</ele>
        <time>2025-12-05T00:10:37Z</time>
      </trkpt>
      <trkpt lat="38.83755048237885" lon="121.50881730273667">
        <ele>10.71106630563736</ele>
        <time>2025-12-05T00:10:40Z</time>
      </trkpt>
      <trkpt lat="38.83747329535991" lon="121.5089421831756">
        <ele>10.339647819288075</ele>
        <time>2025-12-05T00:10:46Z</time>
      </trkpt>
      <trkpt lat="38.83727427317872" lon="121.50913055610921">
        <ele>9.862176986411214</ele>
        <time>2025-12-05T00:10:58Z</time>
      </trkpt>
      <trkpt lat="38.8372233819101" lon="121.5092070567578">
        <ele>10.158836401998997</ele>
        <time>2025-12-05T00:11:02Z</time>
      </trkpt>
      <trkpt lat="38.83719697459811" lon="121.50927903005704">
        <ele>10.072625373490155</ele>
        <time>2025-12-05T00:11:05Z</time>
      </trkpt>
      <trkpt lat="38.83715666854968" lon="121.5093352762328">
        <ele>9.938445723615587</ele>
        <time>2025-12-05T00:11:08Z</time>
      </trkpt>
      <trkpt lat="38.83714351467348" lon="121.50940866449025">
        <ele>9.730317450128496</ele>
        <time>2025-12-05T00:11:11Z</time>
      </trkpt>
      <trkpt lat="38.83710494329962" lon="121.50945258641383">
        <ele>10.016348117031157</ele>
        <time>2025-12-05T00:11:14Z</time>
      </trkpt>
      <trkpt lat="38.83699483855402" lon="121.50970319983449">
        <ele>9.497108485549688</ele>
        <time>2025-12-05T00:11:26Z</time>
      </trkpt>
      <trkpt lat="38.836862519004725" lon="121.50986176892043">
        <ele>8.755356233567</ele>
        <time>2025-12-05T00:11:35Z</time>
      </trkpt>
      <trkpt lat="38.836745947935405" lon="121.50992239920294">
        <ele>8.419597101397812</ele>
        <time>2025-12-05T00:11:41Z</time>
      </trkpt>
      <trkpt lat="38.836456390029774" lon="121.50995876708743">
        <ele>7.967358442954719</ele>
        <time>2025-12-05T00:11:56Z</time>
      </trkpt>
      <trkpt lat="38.83618105261267" lon="121.51007965808634">
        <ele>7.863136261701584</ele>
        <time>2025-12-05T00:12:11Z</time>
      </trkpt>
      <trkpt lat="38.83612853158257" lon="121.51010696846332">
        <ele>7.426908355206251</ele>
        <time>2025-12-05T00:12:14Z</time>
      </trkpt>
      <trkpt lat="38.83609715085134" lon="121.51016483811462">
        <ele>7.7945222817361355</ele>
        <time>2025-12-05T00:12:17Z</time>
      </trkpt>
      <trkpt lat="38.836123929461245" lon="121.51024010459857">
        <ele>7.977425055578351</ele>
        <time>2025-12-05T00:12:20Z</time>
      </trkpt>
      <trkpt lat="38.836166209948324" lon="121.51029948524493">
        <ele>7.700715720653534</ele>
        <time>2025-12-05T00:12:23Z</time>
      </trkpt>
      <trkpt lat="38.83624808148648" lon="121.5106074210217">
        <ele>8.079393687658012</ele>
        <time>2025-12-05T00:12:35Z</time>
      </trkpt>
      <trkpt lat="38.836199788754406" lon="121.51084422120647">
        <ele>8.142799611203372</ele>
        <time>2025-12-05T00:12:44Z</time>
      </trkpt>
      <trkpt lat="38.83604311599463" lon="121.51115249771499">
        <ele>6.585820322856307</ele>
        <time>2025-12-05T00:12:59Z</time>
      </trkpt>
      <trkpt lat="38.835968596124616" lon="121.5113732843739">
        <ele>6.346721479669213</ele>
        <time>2025-12-05T00:13:09Z</time>
      </trkpt>
      <trkpt lat="38.83596194948299" lon="121.51152225854915">
        <ele>6.693852567113936</ele>
        <time>2025-12-05T00:13:15Z</time>
      </trkpt>
      <trkpt lat="38.836014158529515" lon="121.5117207097571">
        <ele>6.488957712426782</ele>
        <time>2025-12-05T00:13:24Z</time>
      </trkpt>
      <trkpt lat="38.83609709439821" lon="121.51185058927594">
        <ele>6.159221957437694</ele>
        <time>2025-12-05T00:13:30Z</time>
      </trkpt>
      <trkpt lat="38.836210275705156" lon="121.5119277509558">
        <ele>6.667104223743081</ele>
        <time>2025-12-05T00:13:36Z</time>
      </trkpt>
      <trkpt lat="38.83632533270167" lon="121.51194457079643">
        <ele>6.121130522340536</ele>
        <time>2025-12-05T00:13:42Z</time>
      </trkpt>
      <trkpt lat="38.83655434460006" lon="121.51185884620574">
        <ele>6.010059472173452</ele>
        <time>2025-12-05T00:13:54Z</time>
      </trkpt>
      <trkpt lat="38.83678926152292" lon="121.51161950454869">
        <ele>7.464992646127939</ele>
        <time>2025-12-05T00:14:09Z</time>
      </trkpt>
      <trkpt lat="38.836944538899544" lon="121.51131143559113">
        <ele>8.296797118149698</ele>
        <time>2025-12-05T00:14:24Z</time>
      </trkpt>
      <trkpt lat="38.83701716950236" lon="121.51097543459115">
        <ele>7.877253669314086</ele>
        <time>2025-12-05T00:14:39Z</time>
      </trkpt>
      <trkpt lat="38.83705693482641" lon="121.51083381872158">
        <ele>8.73510842397809</ele>
        <time>2025-12-05T00:14:45Z</time>
      </trkpt>
      <trkpt lat="38.83723012601624" lon="121.51054172359038">
        <ele>9.75659832265228</ele>
        <time>2025-12-05T00:15:00Z</time>
      </trkpt>
      <trkpt lat="38.837479481778644" lon="121.51029760425713">
        <ele>9.385776708833873</ele>
        <time>2025-12-05T00:15:16Z</time>
      </trkpt>
      <trkpt lat="38.83761408905787" lon="121.51017364705476">
        <ele>9.56053039059043</ele>
        <time>2025-12-05T00:15:25Z</time>
      </trkpt>
      <trkpt lat="38.837740951868234" lon="121.50992063053718">
        <ele>9.812529272399843</ele>
        <time>2025-12-05T00:15:37Z</time>
      </trkpt>
      <trkpt lat="38.83780805585759" lon="121.50989117294499">
        <ele>9.793467250652611</ele>
        <time>2025-12-05T00:15:40Z</time>
      </trkpt>
      <trkpt lat="38.83789689323788" lon="121.50978343221269">
        <ele>9.469611921347678</ele>
        <time>2025-12-05T00:15:46Z</time>
      </trkpt>
      <trkpt lat="38.83798259432181" lon="121.50943491573065">
        <ele>10.610222729854286</ele>
        <time>2025-12-05T00:16:01Z</time>
      </trkpt>
      <trkpt lat="38.83815169017317" lon="121.5092433966223">
        <ele>11.19309244863689</ele>
        <time>2025-12-05T00:16:13Z</time>
      </trkpt>
      <trkpt lat="38.838256692734056" lon="121.5091625162024">
        <ele>11.297590926289558</ele>
        <time>2025-12-05T00:16:19Z</time>
      </trkpt>
      <trkpt lat="38.838288200051544" lon="121.50910332657101">
        <ele>11.803825196810067</ele>
        <time>2025-12-05T00:16:22Z</time>
      </trkpt>
      <trkpt lat="38.83821638045792" lon="121.50900430609292">
        <ele>11.314200098626316</ele>
        <time>2025-12-05T00:16:28Z</time>
      </trkpt>
      <trkpt lat="38.837980047812074" lon="121.50888320650911">
        <ele>12.321838464587927</ele>
        <time>2025-12-05T00:16:41Z</time>
      </trkpt>
      <trkpt lat="38.8377681587218" lon="121.50857168016256">
        <ele>11.172405048273504</ele>
        <time>2025-12-05T00:16:59Z</time>
      </trkpt>
      <trkpt lat="38.837652148596824" lon="121.50850897548736">
        <ele>10.832135868258774</ele>
        <time>2025-12-05T00:17:05Z</time>
      </trkpt>
      <trkpt lat="38.83760418230025" lon="121.50856637255794">
        <ele>10.299921079538763</ele>
        <time>2025-12-05T00:17:08Z</time>
      </trkpt>
      <trkpt lat="38.83751866985485" lon="121.50889033589434">
        <ele>10.972028551623225</ele>
        <time>2025-12-05T00:17:21Z</time>
      </trkpt>
      <trkpt lat="38.83748558273871" lon="121.50895782083413">
        <ele>10.382717685773969</ele>
        <time>2025-12-05T00:17:24Z</time>
      </trkpt>
      <trkpt lat="38.837241953932335" lon="121.50918851862197">
        <ele>9.908024684526026</ele>
        <time>2025-12-05T00:17:39Z</time>
      </trkpt>
      <trkpt lat="38.83707670671161" lon="121.50951218246433">
        <ele>10.760222206823528</ele>
        <time>2025-12-05T00:17:54Z</time>
      </trkpt>
      <trkpt lat="38.8370056799838" lon="121.50971683663926">
        <ele>9.493826122023165</ele>
        <time>2025-12-05T00:18:03Z</time>
      </trkpt>
      <trkpt lat="38.836924762075896" lon="121.50983653955231">
        <ele>9.456162406131625</ele>
        <time>2025-12-05T00:18:09Z</time>
      </trkpt>
      <trkpt lat="38.836823083183724" lon="121.50991503214257">
        <ele>8.887880334630609</ele>
        <time>2025-12-05T00:18:15Z</time>
      </trkpt>
      <trkpt lat="38.836643850505524" lon="121.5099591091055">
        <ele>8.215742499567568</ele>
        <time>2025-12-05T00:18:24Z</time>
      </trkpt>
      <trkpt lat="38.836403549948855" lon="121.50997900983336">
        <ele>8.114357222802937</ele>
        <time>2025-12-05T00:18:36Z</time>
      </trkpt>
      <trkpt lat="38.83616845710508" lon="121.51008012926681">
        <ele>6.93995048571378</ele>
        <time>2025-12-05T00:18:48Z</time>
      </trkpt>
      <trkpt lat="38.8361177772141" lon="121.51011952173707">
        <ele>7.467651621438563</ele>
        <time>2025-12-05T00:18:51Z</time>
      </trkpt>
      <trkpt lat="38.83609625017929" lon="121.51021035377715">
        <ele>7.693192761391401</ele>
        <time>2025-12-05T00:18:54Z</time>
      </trkpt>
      <trkpt lat="38.83624971391247" lon="121.51058262174304">
        <ele>8.439740918576717</ele>
        <time>2025-12-05T00:19:09Z</time>
      </trkpt>
      <trkpt lat="38.83617224881358" lon="121.51086710770072">
        <ele>7.6547429002821445</ele>
        <time>2025-12-05T00:19:21Z</time>
      </trkpt>
      <trkpt lat="38.835998812939756" lon="121.51119659125638">
        <ele>6.5317378072068095</ele>
        <time>2025-12-05T00:19:37Z</time>
      </trkpt>
      <trkpt lat="38.83593959983208" lon="121.511402893324">
        <ele>6.293116502463818</ele>
        <time>2025-12-05T00:19:46Z</time>
      </trkpt>
      <trkpt lat="38.835944036229236" lon="121.51155070877046">
        <ele>6.366914045065641</ele>
        <time>2025-12-05T00:19:52Z</time>
      </trkpt>
      <trkpt lat="38.836041518479604" lon="121.511822630833">
        <ele>5.741969982162118</ele>
        <time>2025-12-05T00:20:04Z</time>
      </trkpt>
      <trkpt lat="38.8361316872198" lon="121.51191923546334">
        <ele>5.6113868514075875</ele>
        <time>2025-12-05T00:20:10Z</time>
      </trkpt>
      <trkpt lat="38.83623387490451" lon="121.51197031146866">
        <ele>6.301305000670254</ele>
        <time>2025-12-05T00:20:16Z</time>
      </trkpt>
      <trkpt lat="38.836424227072435" lon="121.51195122113418">
        <ele>6.359210456721485</ele>
        <time>2025-12-05T00:20:25Z</time>
      </trkpt>
      <trkpt lat="38.83663229399759" lon="121.51181718906273">
        <ele>6.418168235570192</ele>
        <time>2025-12-05T00:20:37Z</time>
      </trkpt>
      <trkpt lat="38.83673284562959" lon="121.51173082345612">
        <ele>7.2959326123818755</ele>
        <time>2025-12-05T00:20:43Z</time>
      </trkpt>
      <trkpt lat="38.836921450426516" lon="121.51142761643851">
        <ele>8.165595700964332</ele>
        <time>2025-12-05T00:20:58Z</time>
      </trkpt>
      <trkpt lat="38.83702568158598" lon="121.51109557987945">
        <ele>7.2598456079140306</ele>
        <time>2025-12-05T00:21:13Z</time>
      </trkpt>
      <trkpt lat="38.837098458249486" lon="121.51081974017387">
        <ele>8.477997324429452</ele>
        <time>2025-12-05T00:21:25Z</time>
      </trkpt>
      <trkpt lat="38.83727213507296" lon="121.5105332899884">
        <ele>9.583188574761152</ele>
        <time>2025-12-05T00:21:40Z</time>
      </trkpt>
      <trkpt lat="38.83743359353845" lon="121.51035298422386">
        <ele>9.19171669986099</ele>
        <time>2025-12-05T00:21:52Z</time>
      </trkpt>
      <trkpt lat="38.83762537975204" lon="121.51020432726071">
        <ele>8.808035003952682</ele>
        <time>2025-12-05T00:22:04Z</time>
      </trkpt>
      <trkpt lat="38.83772360454985" lon="121.5100247740804">
        <ele>9.11820689868182</ele>
        <time>2025-12-05T00:22:13Z</time>
      </trkpt>
      <trkpt lat="38.83773772536034" lon="121.50994895701521">
        <ele>9.83398559782654</ele>
        <time>2025-12-05T00:22:16Z</time>
      </trkpt>
      <trkpt lat="38.837800738733876" lon="121.50992670185931">
        <ele>10.047522718086839</ele>
        <time>2025-12-05T00:22:19Z</time>
      </trkpt>
      <trkpt lat="38.83783810788655" lon="121.50987423211765">
        <ele>10.089575769379735</ele>
        <time>2025-12-05T00:22:22Z</time>
      </trkpt>
      <trkpt lat="38.837787065547715" lon="121.50980092561498">
        <ele>9.734163794666529</ele>
        <time>2025-12-05T00:22:25Z</time>
      </trkpt>
      <trkpt lat="38.83772325111317" lon="121.5095137374676">
        <ele>10.296818901784718</ele>
        <time>2025-12-05T00:22:37Z</time>
      </trkpt>
      <trkpt lat="38.83774599539644" lon="121.50915278705386">
        <ele>10.250627157278359</ele>
        <time>2025-12-05T00:22:52Z</time>
      </trkpt>
      <trkpt lat="38.83772859791211" lon="121.5090685307571">
        <ele>10.878900322131813</ele>
        <time>2025-12-05T00:22:55Z</time>
      </trkpt>
      <trkpt lat="38.83772657131641" lon="121.50868462819189">
        <ele>10.637649512849748</ele>
        <time>2025-12-05T00:23:10Z</time>
      </trkpt>
      <trkpt lat="38.83771983419069" lon="121.5086065164328">
        <ele>11.272365421056747</ele>
        <time>2025-12-05T00:23:13Z</time>
      </trkpt>
      <trkpt lat="38.837608869861725" lon="121.50834267732225">
        <ele>10.276539583690464</ele>
        <time>2025-12-05T00:23:25Z</time>
      </trkpt>
      <trkpt lat="38.83756091860214" lon="121.50830979806321">
        <ele>10.696620102971792</ele>
        <time>2025-12-05T00:23:28Z</time>
      </trkpt>
      <trkpt lat="38.83747472320103" lon="121.50820162227784">
        <ele>10.716972677968442</ele>
        <time>2025-12-05T00:23:34Z</time>
      </trkpt>
      <trkpt lat="38.837229172432515" lon="121.50797612313801">
        <ele>11.110897707752883</ele>
        <time>2025-12-05T00:23:48Z</time>
      </trkpt>
      <trkpt lat="38.836978198692414" lon="121.50776064720624">
        <ele>11.844880510121584</ele>
        <time>2025-12-05T00:24:03Z</time>
      </trkpt>
      <trkpt lat="38.836729520251914" lon="121.50753287146068">
        <ele>11.889044715091586</ele>
        <time>2025-12-05T00:24:21Z</time>
      </trkpt>
      <trkpt lat="38.83669789207786" lon="121.50744822558501">
        <ele>10.941976661793888</ele>
        <time>2025-12-05T00:24:27Z</time>
      </trkpt>
      <trkpt lat="38.83669606325176" lon="121.50735645633311">
        <ele>11.648469428531826</ele>
        <time>2025-12-05T00:24:33Z</time>
      </trkpt>
      <trkpt lat="38.83680130596705" lon="121.50719535918196">
        <ele>10.806692658923566</ele>
        <time>2025-12-05T00:24:48Z</time>
      </trkpt>
    </trkseg>
  </trk>
</gpx>