<?xml version="1.0" encoding="UTF-8"?>
<gpx xmlns="http://www.topografix.com/GPX/1/1" xmlns:gpxtpx="http://www.garmin.com/xmlschemas/TrackPointExtension/v1" xmlns:xsi="http://www.w3.org/2001/XMLSchema-instance" xsi:schemaLocation="http://www.topografix.com/GPX/1/1 http://www.topografix.com/GPX/1/1/gpx.xsd" version="1.1" creator="gpx.py -- https://github.com/tkrajina/gpxpy">
  <trk>
    <name>gpx from keep</name>
    <type>Run</type>
    <trkseg>
      <trkpt lat="38.83312440828223" lon="121.50699582507833">
        <ele>2.908804510720074</ele>
        <time>2025-06-02T02:47:00Z</time>
      </trkpt>
      <trkpt lat="38.83290250739818" lon="121.50669373529442">
        <ele>1.4567930605262518</ele>
        <time>2025-06-02T02:47:20Z</time>
      </trkpt>
      <trkpt lat="38.83280097882017" lon="121.50658969250512">
        <ele>2.085069307126105</ele>
        <time>2025-06-02T02:47:30Z</time>
      </trkpt>
      <trkpt lat="38.832607005371734" lon="121.50652319630647">
        <ele>2.5103541146963835</ele>
        <time>2025-06-02T02:47:45Z</time>
      </trkpt>
      <trkpt lat="38.83237029221611" lon="121.50650212947295">
        <ele>2.9817155450582504</ele>
        <time>2025-06-02T02:48:03Z</time>
      </trkpt>
      <trkpt lat="38.832277075471175" lon="121.50645619549779">
        <ele>3.6807755790650845</ele>
        <time>2025-06-02T02:48:18Z</time>
      </trkpt>
      <trkpt lat="38.83223247059633" lon="121.50641288774924">
        <ele>3.7723732152953744</ele>
        <time>2025-06-02T02:48:27Z</time>
      </trkpt>
      <trkpt lat="38.83226878301311" lon="121.5064523596183">
        <ele>2.8985070986673236</ele>
        <time>2025-06-02T02:48:30Z</time>
      </trkpt>
      <trkpt lat="38.832121820620245" lon="121.50630519673155">
        <ele>2.0128905177116394</ele>
        <time>2025-06-02T02:48:48Z</time>
      </trkpt>
      <trkpt lat="38.83209151724024" lon="121.50624344941748">
        <ele>1.211097039282322</ele>
        <time>2025-06-02T02:48:55Z</time>
      </trkpt>
      <trkpt lat="38.83198269763226" lon="121.50606535262285">
        <ele>1.0467971311882138</ele>
        <time>2025-06-02T02:49:52Z</time>
      </trkpt>
      <trkpt lat="38.831945553749144" lon="121.50586249504413">
        <ele>1.5221791323274374</ele>
        <time>2025-06-02T02:49:58Z</time>
      </trkpt>
      <trkpt lat="38.83187160982513" lon="121.50571476770574">
        <ele>1.319715516641736</ele>
        <time>2025-06-02T02:50:04Z</time>
      </trkpt>
      <trkpt lat="38.83167006631997" lon="121.50546736681781">
        <ele>2.8666799338534474</ele>
        <time>2025-06-02T02:50:19Z</time>
      </trkpt>
      <trkpt lat="38.831511511026626" lon="121.50537005586249">
        <ele>3.420329174026847</ele>
        <time>2025-06-02T02:50:29Z</time>
      </trkpt>
      <trkpt lat="38.83133912970324" lon="121.50531764449116">
        <ele>2.979253316298127</ele>
        <time>2025-06-02T02:50:38Z</time>
      </trkpt>
      <trkpt lat="38.831032865970585" lon="121.50533748331424">
        <ele>1.8083038302138448</ele>
        <time>2025-06-02T02:50:53Z</time>
      </trkpt>
      <trkpt lat="38.830892813434886" lon="121.5053510029477">
        <ele>0.8495781971141696</ele>
        <time>2025-06-02T02:51:00Z</time>
      </trkpt>
      <trkpt lat="38.830809202249995" lon="121.50532251084479">
        <ele>1.1509810909628868</ele>
        <time>2025-06-02T02:51:04Z</time>
      </trkpt>
      <trkpt lat="38.830663572261805" lon="121.50514011519849">
        <ele>1.6523844050243497</ele>
        <time>2025-06-02T02:51:16Z</time>
      </trkpt>
      <trkpt lat="38.83061603277431" lon="121.50510730333993">
        <ele>1.9889669893309474</ele>
        <time>2025-06-02T02:51:19Z</time>
      </trkpt>
      <trkpt lat="38.83058527383727" lon="121.50505972475878">
        <ele>1.5299017196521163</ele>
        <time>2025-06-02T02:51:22Z</time>
      </trkpt>
      <trkpt lat="38.830538966547635" lon="121.50503555995988">
        <ele>3.080850354395807</ele>
        <time>2025-06-02T02:51:25Z</time>
      </trkpt>
      <trkpt lat="38.83050640078379" lon="121.5049927877679">
        <ele>2.570329573005438</ele>
        <time>2025-06-02T02:51:28Z</time>
      </trkpt>
      <trkpt lat="38.83024085376616" lon="121.50484507074921">
        <ele>1.3839476173743606</ele>
        <time>2025-06-02T02:51:43Z</time>
      </trkpt>
      <trkpt lat="38.83007207943045" lon="121.50479187159803">
        <ele>2.6604109294712543</ele>
        <time>2025-06-02T02:51:52Z</time>
      </trkpt>
      <trkpt lat="38.829865551488496" lon="121.50458372483226">
        <ele>2.0395201835781336</ele>
        <time>2025-06-02T02:52:07Z</time>
      </trkpt>
      <trkpt lat="38.82965430720731" lon="121.50431356261298">
        <ele>1.7790871132165194</ele>
        <time>2025-06-02T02:52:28Z</time>
      </trkpt>
      <trkpt lat="38.82937742882581" lon="121.50414162513663">
        <ele>2.2532453406602144</ele>
        <time>2025-06-02T02:52:43Z</time>
      </trkpt>
      <trkpt lat="38.82910162661" lon="121.50404647139419">
        <ele>1.8180686691775918</ele>
        <time>2025-06-02T02:52:58Z</time>
      </trkpt>
      <trkpt lat="38.82904595677093" lon="121.5040393059953">
        <ele>1.7552672354504466</ele>
        <time>2025-06-02T02:53:01Z</time>
      </trkpt>
      <trkpt lat="38.82897491260038" lon="121.50410719286572">
        <ele>3.2288016472011805</ele>
        <time>2025-06-02T02:53:05Z</time>
      </trkpt>
      <trkpt lat="38.828906740456056" lon="121.50411683447264">
        <ele>3.5881625367328525</ele>
        <time>2025-06-02T02:53:08Z</time>
      </trkpt>
      <trkpt lat="38.82884782270874" lon="121.50408358769252">
        <ele>2.964900027960539</ele>
        <time>2025-06-02T02:53:11Z</time>
      </trkpt>
      <trkpt lat="38.82881463929838" lon="121.50403062365613">
        <ele>1.956818657927215</ele>
        <time>2025-06-02T02:53:14Z</time>
      </trkpt>
      <trkpt lat="38.82869886226958" lon="121.50403931603967">
        <ele>2.9881285717710853</ele>
        <time>2025-06-02T02:53:20Z</time>
      </trkpt>
      <trkpt lat="38.82865701706295" lon="121.50406862169652">
        <ele>3.5716992327943444</ele>
        <time>2025-06-02T02:53:23Z</time>
      </trkpt>
      <trkpt lat="38.82844069899816" lon="121.50409793732067">
        <ele>3.046390203759074</ele>
        <time>2025-06-02T02:53:35Z</time>
      </trkpt>
      <trkpt lat="38.828384191819325" lon="121.50406818633488">
        <ele>2.6152673019096255</ele>
        <time>2025-06-02T02:53:38Z</time>
      </trkpt>
      <trkpt lat="38.82825787484361" lon="121.50406080138295">
        <ele>3.1124211037531495</ele>
        <time>2025-06-02T02:53:44Z</time>
      </trkpt>
      <trkpt lat="38.82814517887235" lon="121.5040176834357">
        <ele>2.891479638405144</ele>
        <time>2025-06-02T02:53:50Z</time>
      </trkpt>
      <trkpt lat="38.82805253982626" lon="121.50393273435006">
        <ele>2.9610400898382068</ele>
        <time>2025-06-02T02:53:56Z</time>
      </trkpt>
      <trkpt lat="38.8279491330433" lon="121.50372768631829">
        <ele>-0.08370973076671362</ele>
        <time>2025-06-02T02:54:08Z</time>
      </trkpt>
      <trkpt lat="38.82785444581167" lon="121.50337946389185">
        <ele>1.2962990449741483</ele>
        <time>2025-06-02T02:54:26Z</time>
      </trkpt>
      <trkpt lat="38.82782995738332" lon="121.50330384507289">
        <ele>1.125792745500803</ele>
        <time>2025-06-02T02:54:29Z</time>
      </trkpt>
      <trkpt lat="38.827771624316604" lon="121.50324387207615">
        <ele>2.770677207969129</ele>
        <time>2025-06-02T02:54:32Z</time>
      </trkpt>
      <trkpt lat="38.82770249329581" lon="121.50324112169893">
        <ele>2.1513844709843397</ele>
        <time>2025-06-02T02:54:35Z</time>
      </trkpt>
      <trkpt lat="38.827631131233815" lon="121.50321093554508">
        <ele>2.695073471404612</ele>
        <time>2025-06-02T02:54:38Z</time>
      </trkpt>
      <trkpt lat="38.827576606585886" lon="121.50307789467658">
        <ele>2.6615658458322287</ele>
        <time>2025-06-02T02:54:44Z</time>
      </trkpt>
      <trkpt lat="38.82739604722155" lon="121.50298159005007">
        <ele>1.8186595542356372</ele>
        <time>2025-06-02T02:54:53Z</time>
      </trkpt>
      <trkpt lat="38.82717990707462" lon="121.5030291019019">
        <ele>4.287746626883745</ele>
        <time>2025-06-02T02:55:30Z</time>
      </trkpt>
      <trkpt lat="38.82700840128288" lon="121.50313719995826">
        <ele>3.5103501873090863</ele>
        <time>2025-06-02T02:55:39Z</time>
      </trkpt>
      <trkpt lat="38.82678187232176" lon="121.50337780998797">
        <ele>1.6363832065835595</ele>
        <time>2025-06-02T02:55:51Z</time>
      </trkpt>
      <trkpt lat="38.82672101831043" lon="121.50345737185216">
        <ele>1.5039178291335702</ele>
        <time>2025-06-02T02:55:54Z</time>
      </trkpt>
      <trkpt lat="38.826639490560275" lon="121.50362550525342">
        <ele>2.814267967827618</ele>
        <time>2025-06-02T02:56:00Z</time>
      </trkpt>
      <trkpt lat="38.82658237048328" lon="121.50381103921224">
        <ele>3.2265782468020916</ele>
        <time>2025-06-02T02:56:06Z</time>
      </trkpt>
      <trkpt lat="38.82655552863635" lon="121.50413089272834">
        <ele>4.248304479755461</ele>
        <time>2025-06-02T02:56:15Z</time>
      </trkpt>
      <trkpt lat="38.82657202975878" lon="121.50421669939988">
        <ele>4.128189797513187</ele>
        <time>2025-06-02T02:56:18Z</time>
      </trkpt>
      <trkpt lat="38.82656927054347" lon="121.50432681854883">
        <ele>2.9081514542922378</ele>
        <time>2025-06-02T02:56:21Z</time>
      </trkpt>
      <trkpt lat="38.826504874389315" lon="121.50458331232186">
        <ele>3.6587715353816748</ele>
        <time>2025-06-02T02:56:30Z</time>
      </trkpt>
      <trkpt lat="38.826378303456075" lon="121.50483068835773">
        <ele>2.897245481610298</ele>
        <time>2025-06-02T02:56:39Z</time>
      </trkpt>
      <trkpt lat="38.82632152224299" lon="121.50489352384719">
        <ele>2.7534118397161365</ele>
        <time>2025-06-02T02:56:42Z</time>
      </trkpt>
      <trkpt lat="38.826265297447385" lon="121.50495571209224">
        <ele>3.50379406940192</ele>
        <time>2025-06-02T02:56:45Z</time>
      </trkpt>
      <trkpt lat="38.826212032848034" lon="121.50488081413775">
        <ele>3.877546059899032</ele>
        <time>2025-06-02T02:56:48Z</time>
      </trkpt>
      <trkpt lat="38.82630622820258" lon="121.50479994067577">
        <ele>3.2556368242949247</ele>
        <time>2025-06-02T02:56:51Z</time>
      </trkpt>
      <trkpt lat="38.82637991722149" lon="121.50465534247677">
        <ele>1.7826547613367438</ele>
        <time>2025-06-02T02:56:57Z</time>
      </trkpt>
      <trkpt lat="38.82641019917066" lon="121.50456184881146">
        <ele>2.7573471618816257</ele>
        <time>2025-06-02T02:57:00Z</time>
      </trkpt>
      <trkpt lat="38.82645256734798" lon="121.50449315739209">
        <ele>2.1153659094125032</ele>
        <time>2025-06-02T02:57:03Z</time>
      </trkpt>
      <trkpt lat="38.82646211070317" lon="121.5043976851998">
        <ele>3.0669376282021403</ele>
        <time>2025-06-02T02:57:06Z</time>
      </trkpt>
      <trkpt lat="38.82649996771579" lon="121.50431673231456">
        <ele>2.0772917829453945</ele>
        <time>2025-06-02T02:57:09Z</time>
      </trkpt>
      <trkpt lat="38.82651395559766" lon="121.50414620640223">
        <ele>2.6409561382606626</ele>
        <time>2025-06-02T02:57:15Z</time>
      </trkpt>
      <trkpt lat="38.82657371927508" lon="121.50395339885617">
        <ele>1.7463492089882493</ele>
        <time>2025-06-02T02:57:22Z</time>
      </trkpt>
      <trkpt lat="38.82657723156098" lon="121.50381891114907">
        <ele>2.29202853795141</ele>
        <time>2025-06-02T02:57:26Z</time>
      </trkpt>
      <trkpt lat="38.826642925592665" lon="121.50358026633347">
        <ele>2.4556203708052635</ele>
        <time>2025-06-02T02:57:35Z</time>
      </trkpt>
      <trkpt lat="38.82672323311482" lon="121.5034411333716">
        <ele>3.4969920068979263</ele>
        <time>2025-06-02T02:57:41Z</time>
      </trkpt>
      <trkpt lat="38.826944636302144" lon="121.50321961324299">
        <ele>2.205816578119993</ele>
        <time>2025-06-02T02:57:53Z</time>
      </trkpt>
      <trkpt lat="38.827109549051485" lon="121.50305792598373">
        <ele>2.238746166229248</ele>
        <time>2025-06-02T02:58:02Z</time>
      </trkpt>
      <trkpt lat="38.827184605770704" lon="121.503030678701">
        <ele>2.3773424113169312</ele>
        <time>2025-06-02T02:58:05Z</time>
      </trkpt>
      <trkpt lat="38.827252568774114" lon="121.5029803224403">
        <ele>2.4835807867348194</ele>
        <time>2025-06-02T02:58:08Z</time>
      </trkpt>
      <trkpt lat="38.82741476764342" lon="121.50298127052349">
        <ele>3.3254646603018045</ele>
        <time>2025-06-02T02:58:14Z</time>
      </trkpt>
      <trkpt lat="38.82756645376205" lon="121.50302991141164">
        <ele>3.628364766947925</ele>
        <time>2025-06-02T02:58:20Z</time>
      </trkpt>
      <trkpt lat="38.827631071357914" lon="121.50307281095105">
        <ele>3.8116414919495583</ele>
        <time>2025-06-02T02:58:23Z</time>
      </trkpt>
      <trkpt lat="38.82771430133831" lon="121.50322028901287">
        <ele>3.0531898057088256</ele>
        <time>2025-06-02T02:58:29Z</time>
      </trkpt>
      <trkpt lat="38.82781989345865" lon="121.50325486131968">
        <ele>3.3111114166677</ele>
        <time>2025-06-02T02:58:35Z</time>
      </trkpt>
      <trkpt lat="38.82791430616365" lon="121.50361916718029">
        <ele>2.51850463822484</ele>
        <time>2025-06-02T02:58:47Z</time>
      </trkpt>
      <trkpt lat="38.827952442197365" lon="121.50370140206658">
        <ele>3.156066712923348</ele>
        <time>2025-06-02T02:58:50Z</time>
      </trkpt>
      <trkpt lat="38.828003145304336" lon="121.50375929524603">
        <ele>2.700200322084129</ele>
        <time>2025-06-02T02:58:53Z</time>
      </trkpt>
      <trkpt lat="38.8280374403388" lon="121.50385491029235">
        <ele>2.0272682067006826</ele>
        <time>2025-06-02T02:58:56Z</time>
      </trkpt>
      <trkpt lat="38.82813284018966" lon="121.50398765512163">
        <ele>2.6121003637090325</ele>
        <time>2025-06-02T02:59:02Z</time>
      </trkpt>
      <trkpt lat="38.82834092025428" lon="121.50406682344214">
        <ele>3.587081380188465</ele>
        <time>2025-06-02T02:59:11Z</time>
      </trkpt>
      <trkpt lat="38.82846071981309" lon="121.50405904931895">
        <ele>2.640244884416461</ele>
        <time>2025-06-02T02:59:17Z</time>
      </trkpt>
      <trkpt lat="38.82853601670447" lon="121.5040791316599">
        <ele>2.2550075547769666</ele>
        <time>2025-06-02T02:59:20Z</time>
      </trkpt>
      <trkpt lat="38.828727743135985" lon="121.50400401617956">
        <ele>3.303066274151206</ele>
        <time>2025-06-02T02:59:28Z</time>
      </trkpt>
      <trkpt lat="38.828831452690075" lon="121.50399819210205">
        <ele>3.853006807155907</ele>
        <time>2025-06-02T02:59:32Z</time>
      </trkpt>
      <trkpt lat="38.82900183841451" lon="121.50405259995931">
        <ele>3.8989410661160946</ele>
        <time>2025-06-02T02:59:39Z</time>
      </trkpt>
      <trkpt lat="38.829140363202335" lon="121.50400630741139">
        <ele>2.829751449637115</ele>
        <time>2025-06-02T02:59:45Z</time>
      </trkpt>
      <trkpt lat="38.82921352298153" lon="121.50403305740582">
        <ele>4.364839629270136</ele>
        <time>2025-06-02T02:59:48Z</time>
      </trkpt>
      <trkpt lat="38.82945531831447" lon="121.50414705451568">
        <ele>3.191137369722128</ele>
        <time>2025-06-02T03:00:30Z</time>
      </trkpt>
      <trkpt lat="38.82950619958358" lon="121.5042045606717">
        <ele>3.3936947509646416</ele>
        <time>2025-06-02T03:00:33Z</time>
      </trkpt>
      <trkpt lat="38.82958419458256" lon="121.504248854902">
        <ele>3.5796094881370664</ele>
        <time>2025-06-02T03:00:36Z</time>
      </trkpt>
      <trkpt lat="38.8298252792923" lon="121.5045002064124">
        <ele>1.872865759767592</ele>
        <time>2025-06-02T03:00:48Z</time>
      </trkpt>
      <trkpt lat="38.82991930631018" lon="121.50464125565912">
        <ele>1.7292861882597208</ele>
        <time>2025-06-02T03:00:54Z</time>
      </trkpt>
      <trkpt lat="38.83018921131521" lon="121.50481985848975">
        <ele>1.8947315067052841</ele>
        <time>2025-06-02T03:01:06Z</time>
      </trkpt>
      <trkpt lat="38.830486878262064" lon="121.50495906912397">
        <ele>4.589036636054516</ele>
        <time>2025-06-02T03:01:18Z</time>
      </trkpt>
      <trkpt lat="38.83060104419466" lon="121.50509728739961">
        <ele>3.5599886374548078</ele>
        <time>2025-06-02T03:01:31Z</time>
      </trkpt>
      <trkpt lat="38.830857891978056" lon="121.50531122148737">
        <ele>2.877081846818328</ele>
        <time>2025-06-02T03:01:43Z</time>
      </trkpt>
      <trkpt lat="38.83093174213269" lon="121.50533386660955">
        <ele>2.1545174792408943</ele>
        <time>2025-06-02T03:01:46Z</time>
      </trkpt>
      <trkpt lat="38.831083866881066" lon="121.50532030791587">
        <ele>3.1083282185718417</ele>
        <time>2025-06-02T03:01:52Z</time>
      </trkpt>
      <trkpt lat="38.831150394628104" lon="121.50529535092609">
        <ele>3.773255567997694</ele>
        <time>2025-06-02T03:01:55Z</time>
      </trkpt>
      <trkpt lat="38.831381529513415" lon="121.50529295235552">
        <ele>3.103573446162045</ele>
        <time>2025-06-02T03:02:04Z</time>
      </trkpt>
      <trkpt lat="38.831683126088286" lon="121.50542766209675">
        <ele>3.1406376603990793</ele>
        <time>2025-06-02T03:02:16Z</time>
      </trkpt>
      <trkpt lat="38.831906898781575" lon="121.50574500629345">
        <ele>3.5825399411842227</ele>
        <time>2025-06-02T03:02:28Z</time>
      </trkpt>
      <trkpt lat="38.832031751073835" lon="121.50612388310472">
        <ele>2.791449303738773</ele>
        <time>2025-06-02T03:02:40Z</time>
      </trkpt>
      <trkpt lat="38.83217175922095" lon="121.50635329049369">
        <ele>2.9249657997861505</ele>
        <time>2025-06-02T03:02:49Z</time>
      </trkpt>
      <trkpt lat="38.83229642672498" lon="121.50648709240019">
        <ele>2.2547154435887933</ele>
        <time>2025-06-02T03:02:55Z</time>
      </trkpt>
      <trkpt lat="38.83254615490796" lon="121.50654407796704">
        <ele>2.8376530641689897</ele>
        <time>2025-06-02T03:03:04Z</time>
      </trkpt>
      <trkpt lat="38.83262581142644" lon="121.50653339430376">
        <ele>2.565853089094162</ele>
        <time>2025-06-02T03:03:07Z</time>
      </trkpt>
      <trkpt lat="38.83286067967305" lon="121.5066268500039">
        <ele>3.559702948667109</ele>
        <time>2025-06-02T03:03:16Z</time>
      </trkpt>
      <trkpt lat="38.83293074099501" lon="121.50667441969793">
        <ele>3.1991813145577908</ele>
        <time>2025-06-02T03:03:19Z</time>
      </trkpt>
      <trkpt lat="38.83300976346659" lon="121.5068074716368">
        <ele>4.0339841563254595</ele>
        <time>2025-06-02T03:03:28Z</time>
      </trkpt>
      <trkpt lat="38.83300976346659" lon="121.5068074716368">
        <ele>4.0339841563254595</ele>
        <time>2025-06-02T03:03:30Z</time>
      </trkpt>
    </trkseg>
  </trk>
</gpx>