<?xml version="1.0" encoding="UTF-8"?>
<gpx xmlns="http://www.topografix.com/GPX/1/1" xmlns:gpxtpx="http://www.garmin.com/xmlschemas/TrackPointExtension/v1" xmlns:xsi="http://www.w3.org/2001/XMLSchema-instance" xsi:schemaLocation="http://www.topografix.com/GPX/1/1 http://www.topografix.com/GPX/1/1/gpx.xsd" version="1.1" creator="gpx.py -- https://github.com/tkrajina/gpxpy">
  <trk>
    <name>gpx from keep</name>
    <type>Run</type>
    <trkseg>
      <trkpt lat="38.83692686634402" lon="121.50384346054774">
        <ele>10.274383947597467</ele>
        <time>2026-03-29T00:05:57Z</time>
      </trkpt>
      <trkpt lat="38.83692214287292" lon="121.50390115886367">
        <ele>9.872050569886635</ele>
        <time>2026-03-29T00:06:03Z</time>
      </trkpt>
      <trkpt lat="38.836827010932545" lon="121.50420221495314">
        <ele>9.843307019937477</ele>
        <time>2026-03-29T00:06:14Z</time>
      </trkpt>
      <trkpt lat="38.83676987679529" lon="121.50453487979698">
        <ele>9.84330701828003</ele>
        <time>2026-03-29T00:06:23Z</time>
      </trkpt>
      <trkpt lat="38.83666697835533" lon="121.50487447122505">
        <ele>9.84330701828003</ele>
        <time>2026-03-29T00:06:29Z</time>
      </trkpt>
      <trkpt lat="38.836775914775295" lon="121.50415004080197">
        <ele>10.869323272705078</ele>
        <time>2026-03-29T00:06:38Z</time>
      </trkpt>
      <trkpt lat="38.836782133653195" lon="121.50404178135169">
        <ele>10.913562230718817</ele>
        <time>2026-03-29T00:06:44Z</time>
      </trkpt>
      <trkpt lat="38.83670250626223" lon="121.50462966121663">
        <ele>9.84330701828003</ele>
        <time>2026-03-29T00:06:53Z</time>
      </trkpt>
      <trkpt lat="38.836605597342135" lon="121.50486596007416">
        <ele>9.651354783214629</ele>
        <time>2026-03-29T00:06:57Z</time>
      </trkpt>
      <trkpt lat="38.8363033282132" lon="121.50616005787657">
        <ele>9.6354148555547</ele>
        <time>2026-03-29T00:07:01Z</time>
      </trkpt>
      <trkpt lat="38.836223481671" lon="121.5064050446232">
        <ele>9.337353128939867</ele>
        <time>2026-03-29T00:07:05Z</time>
      </trkpt>
      <trkpt lat="38.83615934063738" lon="121.50676066803949">
        <ele>9.155160636641085</ele>
        <time>2026-03-29T00:07:17Z</time>
      </trkpt>
      <trkpt lat="38.83618770437774" lon="121.50682095901357">
        <ele>9.743416663259268</ele>
        <time>2026-03-29T00:07:21Z</time>
      </trkpt>
      <trkpt lat="38.836444367620594" lon="121.50699114482923">
        <ele>8.629067489877343</ele>
        <time>2026-03-29T00:07:47Z</time>
      </trkpt>
      <trkpt lat="38.83671575523589" lon="121.50717995057917">
        <ele>9.680952639319003</ele>
        <time>2026-03-29T00:08:11Z</time>
      </trkpt>
      <trkpt lat="38.83678105954261" lon="121.50719654428971">
        <ele>9.010200638324022</ele>
        <time>2026-03-29T00:08:20Z</time>
      </trkpt>
      <trkpt lat="38.8368342166889" lon="121.50715094126646">
        <ele>9.778041563928127</ele>
        <time>2026-03-29T00:08:26Z</time>
      </trkpt>
      <trkpt lat="38.83680063399385" lon="121.50721595997427">
        <ele>9.002211542800069</ele>
        <time>2026-03-29T00:08:35Z</time>
      </trkpt>
      <trkpt lat="38.836747505534" lon="121.50723491832747">
        <ele>9.14945669285953</ele>
        <time>2026-03-29T00:08:41Z</time>
      </trkpt>
      <trkpt lat="38.83668407803298" lon="121.50743805911208">
        <ele>9.313270225189626</ele>
        <time>2026-03-29T00:09:02Z</time>
      </trkpt>
      <trkpt lat="38.836725760471964" lon="121.50751530090058">
        <ele>9.970245508477092</ele>
        <time>2026-03-29T00:09:08Z</time>
      </trkpt>
      <trkpt lat="38.83682920606737" lon="121.50758375274944">
        <ele>10.829788540489972</ele>
        <time>2026-03-29T00:09:14Z</time>
      </trkpt>
      <trkpt lat="38.83695004144214" lon="121.5077319726056">
        <ele>9.661510604433715</ele>
        <time>2026-03-29T00:09:20Z</time>
      </trkpt>
      <trkpt lat="38.837235653966616" lon="121.50796930977845">
        <ele>10.058973813429475</ele>
        <time>2026-03-29T00:09:32Z</time>
      </trkpt>
      <trkpt lat="38.83734594189835" lon="121.5080743111624">
        <ele>10.313531740568578</ele>
        <time>2026-03-29T00:09:38Z</time>
      </trkpt>
      <trkpt lat="38.83741593663548" lon="121.50810521015896">
        <ele>10.351771593093872</ele>
        <time>2026-03-29T00:09:41Z</time>
      </trkpt>
      <trkpt lat="38.837543813784805" lon="121.5082219702113">
        <ele>11.047627563588321</ele>
        <time>2026-03-29T00:09:47Z</time>
      </trkpt>
      <trkpt lat="38.837563086258186" lon="121.50831597510671">
        <ele>11.041289987973869</ele>
        <time>2026-03-29T00:09:50Z</time>
      </trkpt>
      <trkpt lat="38.83762208954256" lon="121.50838821570551">
        <ele>11.000564039684832</ele>
        <time>2026-03-29T00:09:53Z</time>
      </trkpt>
      <trkpt lat="38.8375386648309" lon="121.50879203026795">
        <ele>10.572915183380246</ele>
        <time>2026-03-29T00:10:05Z</time>
      </trkpt>
      <trkpt lat="38.83749894114453" lon="121.50887704885932">
        <ele>10.165776655077934</ele>
        <time>2026-03-29T00:10:08Z</time>
      </trkpt>
      <trkpt lat="38.83729037274908" lon="121.50910002436166">
        <ele>9.550647834315896</ele>
        <time>2026-03-29T00:10:18Z</time>
      </trkpt>
      <trkpt lat="38.837220254949095" lon="121.50919445341906">
        <ele>9.586695537902415</ele>
        <time>2026-03-29T00:10:22Z</time>
      </trkpt>
      <trkpt lat="38.83706294346307" lon="121.50952887293154">
        <ele>8.799528781324625</ele>
        <time>2026-03-29T00:10:34Z</time>
      </trkpt>
      <trkpt lat="38.83695475926723" lon="121.50976323453405">
        <ele>9.12686301395297</ele>
        <time>2026-03-29T00:10:42Z</time>
      </trkpt>
      <trkpt lat="38.83677857422558" lon="121.50988702020145">
        <ele>8.521399562247097</ele>
        <time>2026-03-29T00:10:50Z</time>
      </trkpt>
      <trkpt lat="38.83647012022155" lon="121.50995560317219">
        <ele>7.295183748938143</ele>
        <time>2026-03-29T00:11:03Z</time>
      </trkpt>
      <trkpt lat="38.836178052101026" lon="121.51007090362562">
        <ele>7.5736115062609315</ele>
        <time>2026-03-29T00:11:15Z</time>
      </trkpt>
      <trkpt lat="38.836120243348795" lon="121.51011438430167">
        <ele>7.357277666218579</ele>
        <time>2026-03-29T00:11:18Z</time>
      </trkpt>
      <trkpt lat="38.83610491112746" lon="121.5101973460793">
        <ele>7.524415619671345</ele>
        <time>2026-03-29T00:11:21Z</time>
      </trkpt>
      <trkpt lat="38.836203067839634" lon="121.51036210645898">
        <ele>7.565521745942533</ele>
        <time>2026-03-29T00:11:27Z</time>
      </trkpt>
      <trkpt lat="38.836263129811634" lon="121.51063852341731">
        <ele>6.962006454356015</ele>
        <time>2026-03-29T00:11:36Z</time>
      </trkpt>
      <trkpt lat="38.83617172010141" lon="121.51091656940706">
        <ele>7.15013940539211</ele>
        <time>2026-03-29T00:11:45Z</time>
      </trkpt>
      <trkpt lat="38.83600145099416" lon="121.51122936067263">
        <ele>6.527230243198574</ele>
        <time>2026-03-29T00:11:57Z</time>
      </trkpt>
      <trkpt lat="38.83597170894356" lon="121.51150183023566">
        <ele>6.325996602885425</ele>
        <time>2026-03-29T00:12:06Z</time>
      </trkpt>
      <trkpt lat="38.836082601964904" lon="121.51182379530704">
        <ele>5.046478598378599</ele>
        <time>2026-03-29T00:12:18Z</time>
      </trkpt>
      <trkpt lat="38.836140157934935" lon="121.5118789296718">
        <ele>5.698404237627983</ele>
        <time>2026-03-29T00:12:21Z</time>
      </trkpt>
      <trkpt lat="38.83634055195946" lon="121.5119284099889">
        <ele>6.188186555169523</ele>
        <time>2026-03-29T00:12:29Z</time>
      </trkpt>
      <trkpt lat="38.83653443966863" lon="121.51185058612181">
        <ele>5.902914664708078</ele>
        <time>2026-03-29T00:12:37Z</time>
      </trkpt>
      <trkpt lat="38.83662304267644" lon="121.51179603720391">
        <ele>6.243159916251898</ele>
        <time>2026-03-29T00:12:41Z</time>
      </trkpt>
      <trkpt lat="38.83683815642523" lon="121.51151259563706">
        <ele>6.188890574499965</ele>
        <time>2026-03-29T00:12:53Z</time>
      </trkpt>
      <trkpt lat="38.836904197481076" lon="121.51141133036613">
        <ele>6.375806130468845</ele>
        <time>2026-03-29T00:12:57Z</time>
      </trkpt>
      <trkpt lat="38.83700291161383" lon="121.51112452737468">
        <ele>6.774498543702066</ele>
        <time>2026-03-29T00:13:07Z</time>
      </trkpt>
      <trkpt lat="38.837044966811554" lon="121.51093401562115">
        <ele>7.408692822791636</ele>
        <time>2026-03-29T00:13:13Z</time>
      </trkpt>
      <trkpt lat="38.83711511911262" lon="121.51074644064518">
        <ele>8.199974591843784</ele>
        <time>2026-03-29T00:13:19Z</time>
      </trkpt>
      <trkpt lat="38.83731294879015" lon="121.51046038030822">
        <ele>7.098144222050905</ele>
        <time>2026-03-29T00:13:31Z</time>
      </trkpt>
      <trkpt lat="38.837555173733264" lon="121.51022301239252">
        <ele>8.904557596892118</ele>
        <time>2026-03-29T00:13:43Z</time>
      </trkpt>
      <trkpt lat="38.837685562925536" lon="121.51012141572268">
        <ele>8.48368532396853</ele>
        <time>2026-03-29T00:13:49Z</time>
      </trkpt>
      <trkpt lat="38.83774863241616" lon="121.50994721821257">
        <ele>7.747070757672191</ele>
        <time>2026-03-29T00:13:55Z</time>
      </trkpt>
      <trkpt lat="38.83781969891943" lon="121.50994198749335">
        <ele>7.475151835940778</ele>
        <time>2026-03-29T00:13:58Z</time>
      </trkpt>
      <trkpt lat="38.83788064595437" lon="121.50985666012858">
        <ele>8.338932818733156</ele>
        <time>2026-03-29T00:14:01Z</time>
      </trkpt>
      <trkpt lat="38.83793348742925" lon="121.50974652842713">
        <ele>8.942475641146302</ele>
        <time>2026-03-29T00:14:05Z</time>
      </trkpt>
      <trkpt lat="38.83798332572868" lon="121.50945002250194">
        <ele>8.971009377390146</ele>
        <time>2026-03-29T00:14:14Z</time>
      </trkpt>
      <trkpt lat="38.83808907867893" lon="121.50929628386734">
        <ele>10.02871536463499</ele>
        <time>2026-03-29T00:14:20Z</time>
      </trkpt>
      <trkpt lat="38.8382924259409" lon="121.50912043280579">
        <ele>10.725188647396863</ele>
        <time>2026-03-29T00:14:30Z</time>
      </trkpt>
      <trkpt lat="38.83825111437326" lon="121.50900916694461">
        <ele>10.514186442829669</ele>
        <time>2026-03-29T00:14:34Z</time>
      </trkpt>
      <trkpt lat="38.83810637547473" lon="121.50884695826277">
        <ele>10.4156505279243</ele>
        <time>2026-03-29T00:14:42Z</time>
      </trkpt>
      <trkpt lat="38.837848486540985" lon="121.5086108917084">
        <ele>11.001006614416838</ele>
        <time>2026-03-29T00:14:54Z</time>
      </trkpt>
      <trkpt lat="38.83772362505589" lon="121.50848012564046">
        <ele>10.875181306153536</ele>
        <time>2026-03-29T00:15:00Z</time>
      </trkpt>
      <trkpt lat="38.8375783247424" lon="121.50828459727832">
        <ele>10.418300095945597</ele>
        <time>2026-03-29T00:15:09Z</time>
      </trkpt>
      <trkpt lat="38.83737833209452" lon="121.50813211671341">
        <ele>11.105226272717118</ele>
        <time>2026-03-29T00:15:18Z</time>
      </trkpt>
      <trkpt lat="38.83725948513051" lon="121.50798540096191">
        <ele>10.12079769000411</ele>
        <time>2026-03-29T00:15:24Z</time>
      </trkpt>
      <trkpt lat="38.83697196565175" lon="121.50775225408879">
        <ele>11.0664053671062</ele>
        <time>2026-03-29T00:15:36Z</time>
      </trkpt>
      <trkpt lat="38.83676099428628" lon="121.50754748859275">
        <ele>10.307773421518505</ele>
        <time>2026-03-29T00:15:48Z</time>
      </trkpt>
      <trkpt lat="38.83670959629235" lon="121.50746050273531">
        <ele>9.950265183113515</ele>
        <time>2026-03-29T00:15:54Z</time>
      </trkpt>
      <trkpt lat="38.83668983794314" lon="121.50739174359818">
        <ele>9.993365022353828</ele>
        <time>2026-03-29T00:16:00Z</time>
      </trkpt>
      <trkpt lat="38.836783918890085" lon="121.50724450783189">
        <ele>10.247946076095104</ele>
        <time>2026-03-29T00:16:09Z</time>
      </trkpt>
      <trkpt lat="38.83683999658573" lon="121.50713294570295">
        <ele>9.963936344720423</ele>
        <time>2026-03-29T00:16:15Z</time>
      </trkpt>
      <trkpt lat="38.83690413731391" lon="121.50706056871213">
        <ele>9.111157923936844</ele>
        <time>2026-03-29T00:16:24Z</time>
      </trkpt>
      <trkpt lat="38.83692400047821" lon="121.50698467389246">
        <ele>9.246989809907973</ele>
        <time>2026-03-29T00:16:30Z</time>
      </trkpt>
      <trkpt lat="38.836969989392365" lon="121.5069088240472">
        <ele>7.724745568819344</ele>
        <time>2026-03-29T00:16:37Z</time>
      </trkpt>
      <trkpt lat="38.836969989392365" lon="121.5069088240472">
        <ele>7.724745568819344</ele>
        <time>2026-03-29T00:16:40Z</time>
      </trkpt>
    </trkseg>
  </trk>
</gpx>