<?xml version="1.0" encoding="UTF-8"?>
<gpx xmlns="http://www.topografix.com/GPX/1/1" xmlns:gpxtpx="http://www.garmin.com/xmlschemas/TrackPointExtension/v1" xmlns:xsi="http://www.w3.org/2001/XMLSchema-instance" xsi:schemaLocation="http://www.topografix.com/GPX/1/1 http://www.topografix.com/GPX/1/1/gpx.xsd" version="1.1" creator="gpx.py -- https://github.com/tkrajina/gpxpy">
  <trk>
    <name>gpx from keep</name>
    <type>Run</type>
    <trkseg>
      <trkpt lat="38.83317619175835" lon="121.50627718296461">
        <ele>2.296653082491728</ele>
        <time>2026-04-07T00:17:13Z</time>
      </trkpt>
      <trkpt lat="38.83252034218278" lon="121.50653111431843">
        <ele>2.93737281486392</ele>
        <time>2026-04-07T00:17:24Z</time>
      </trkpt>
      <trkpt lat="38.83245915286404" lon="121.50649536890229">
        <ele>2.332914486527443</ele>
        <time>2026-04-07T00:17:33Z</time>
      </trkpt>
      <trkpt lat="38.8323494582375" lon="121.50647895243156">
        <ele>2.4257776625454426</ele>
        <time>2026-04-07T00:17:42Z</time>
      </trkpt>
      <trkpt lat="38.83218740911049" lon="121.5063715335493">
        <ele>-0.5797247169539332</ele>
        <time>2026-04-07T00:17:51Z</time>
      </trkpt>
      <trkpt lat="38.83199595416436" lon="121.50605368268596">
        <ele>1.9424550645053387</ele>
        <time>2026-04-07T00:18:06Z</time>
      </trkpt>
      <trkpt lat="38.83199111516714" lon="121.50597248808637">
        <ele>1.8141803499311209</ele>
        <time>2026-04-07T00:18:09Z</time>
      </trkpt>
      <trkpt lat="38.831827974455564" lon="121.50562798214483">
        <ele>2.405055337585509</ele>
        <time>2026-04-07T00:18:24Z</time>
      </trkpt>
      <trkpt lat="38.831687939692564" lon="121.505468700242">
        <ele>1.5811890857294202</ele>
        <time>2026-04-07T00:18:33Z</time>
      </trkpt>
      <trkpt lat="38.83143857507437" lon="121.50533153969563">
        <ele>1.435735648497939</ele>
        <time>2026-04-07T00:18:45Z</time>
      </trkpt>
      <trkpt lat="38.83137088074035" lon="121.50529426617626">
        <ele>3.3790342546999454</ele>
        <time>2026-04-07T00:18:48Z</time>
      </trkpt>
      <trkpt lat="38.831224354192905" lon="121.50527809464695">
        <ele>2.484250576235354</ele>
        <time>2026-04-07T00:18:54Z</time>
      </trkpt>
      <trkpt lat="38.83115444544516" lon="121.5052921973372">
        <ele>2.2197099681943655</ele>
        <time>2026-04-07T00:18:57Z</time>
      </trkpt>
      <trkpt lat="38.83086914304248" lon="121.50529158856493">
        <ele>2.5839382465928793</ele>
        <time>2026-04-07T00:19:09Z</time>
      </trkpt>
      <trkpt lat="38.830751117376764" lon="121.50527778929045">
        <ele>-0.24453976470977068</ele>
        <time>2026-04-07T00:19:15Z</time>
      </trkpt>
      <trkpt lat="38.83053169050232" lon="121.50501155614695">
        <ele>2.6680466225370765</ele>
        <time>2026-04-07T00:19:29Z</time>
      </trkpt>
      <trkpt lat="38.83027481691132" lon="121.5048402970178">
        <ele>1.155254926532507</ele>
        <time>2026-04-07T00:19:42Z</time>
      </trkpt>
      <trkpt lat="38.83002296515395" lon="121.50472838042191">
        <ele>2.3327243216335773</ele>
        <time>2026-04-07T00:19:54Z</time>
      </trkpt>
      <trkpt lat="38.829915069091605" lon="121.50464561385782">
        <ele>1.578775729984045</ele>
        <time>2026-04-07T00:20:00Z</time>
      </trkpt>
      <trkpt lat="38.82984340479425" lon="121.50452146925822">
        <ele>1.6995510198175907</ele>
        <time>2026-04-07T00:20:06Z</time>
      </trkpt>
      <trkpt lat="38.82979004426934" lon="121.50448629762582">
        <ele>-0.06989934202283621</ele>
        <time>2026-04-07T00:20:09Z</time>
      </trkpt>
      <trkpt lat="38.829643985250925" lon="121.50431392598148">
        <ele>1.02693404071033</ele>
        <time>2026-04-07T00:20:18Z</time>
      </trkpt>
      <trkpt lat="38.8294689544824" lon="121.50417449213747">
        <ele>0.3165541719645262</ele>
        <time>2026-04-07T00:20:27Z</time>
      </trkpt>
      <trkpt lat="38.82917047558748" lon="121.50403148858369">
        <ele>1.9446855010464787</ele>
        <time>2026-04-07T00:20:42Z</time>
      </trkpt>
      <trkpt lat="38.829034656582124" lon="121.5040233290937">
        <ele>1.2418590374290943</ele>
        <time>2026-04-07T00:20:48Z</time>
      </trkpt>
      <trkpt lat="38.82889643501218" lon="121.50406361871221">
        <ele>1.0485939010977745</ele>
        <time>2026-04-07T00:20:54Z</time>
      </trkpt>
      <trkpt lat="38.82877599519887" lon="121.5039950169934">
        <ele>1.015069480985403</ele>
        <time>2026-04-07T00:21:00Z</time>
      </trkpt>
      <trkpt lat="38.82850288475724" lon="121.50407057954284">
        <ele>1.6530051678419113</ele>
        <time>2026-04-07T00:21:12Z</time>
      </trkpt>
      <trkpt lat="38.82837366688712" lon="121.5040802117842">
        <ele>1.4767175363376737</ele>
        <time>2026-04-07T00:21:18Z</time>
      </trkpt>
      <trkpt lat="38.828238700098034" lon="121.50404410895732">
        <ele>1.3193438854068518</ele>
        <time>2026-04-07T00:21:24Z</time>
      </trkpt>
      <trkpt lat="38.828192152744954" lon="121.50405952081405">
        <ele>1.0170756047591567</ele>
        <time>2026-04-07T00:21:37Z</time>
      </trkpt>
      <trkpt lat="38.82799581431142" lon="121.50381276590076">
        <ele>1.1594215100631118</ele>
        <time>2026-04-07T00:21:53Z</time>
      </trkpt>
      <trkpt lat="38.82792145097285" lon="121.50366014387332">
        <ele>1.6935835191980004</ele>
        <time>2026-04-07T00:21:59Z</time>
      </trkpt>
      <trkpt lat="38.82787553200208" lon="121.50340271624212">
        <ele>1.656043122522533</ele>
        <time>2026-04-07T00:22:08Z</time>
      </trkpt>
      <trkpt lat="38.82780321401863" lon="121.5032700130315">
        <ele>0.7322005592286587</ele>
        <time>2026-04-07T00:22:14Z</time>
      </trkpt>
      <trkpt lat="38.827744591451975" lon="121.50321602336">
        <ele>1.268391882069409</ele>
        <time>2026-04-07T00:22:17Z</time>
      </trkpt>
      <trkpt lat="38.82766841702198" lon="121.50320248961037">
        <ele>2.2624046755954623</ele>
        <time>2026-04-07T00:22:20Z</time>
      </trkpt>
      <trkpt lat="38.827627187187105" lon="121.5031189495446">
        <ele>2.1086159348487854</ele>
        <time>2026-04-07T00:22:23Z</time>
      </trkpt>
      <trkpt lat="38.82757653486053" lon="121.50305945039887">
        <ele>1.9025967000052333</ele>
        <time>2026-04-07T00:22:26Z</time>
      </trkpt>
      <trkpt lat="38.82735332070004" lon="121.50299317663396">
        <ele>-0.47705595940351486</ele>
        <time>2026-04-07T00:22:36Z</time>
      </trkpt>
      <trkpt lat="38.82720423314311" lon="121.50301340677552">
        <ele>0.7038048170506954</ele>
        <time>2026-04-07T00:22:42Z</time>
      </trkpt>
      <trkpt lat="38.82695800552651" lon="121.50318620505203">
        <ele>-1.8214183310046792</ele>
        <time>2026-04-07T00:22:54Z</time>
      </trkpt>
      <trkpt lat="38.8267304784728" lon="121.50343756362648">
        <ele>0.7723326180130243</ele>
        <time>2026-04-07T00:23:06Z</time>
      </trkpt>
      <trkpt lat="38.82660621196431" lon="121.50365130163048">
        <ele>0.33101008646190166</ele>
        <time>2026-04-07T00:23:15Z</time>
      </trkpt>
      <trkpt lat="38.826574367247225" lon="121.50373724029559">
        <ele>0.475701573304832</ele>
        <time>2026-04-07T00:23:18Z</time>
      </trkpt>
      <trkpt lat="38.82655718616375" lon="121.50401982481033">
        <ele>1.681242249906063</ele>
        <time>2026-04-07T00:23:27Z</time>
      </trkpt>
      <trkpt lat="38.826566324431525" lon="121.50420112868993">
        <ele>2.5966465193778276</ele>
        <time>2026-04-07T00:23:33Z</time>
      </trkpt>
      <trkpt lat="38.82654000682799" lon="121.50443100650637">
        <ele>2.0516500743106008</ele>
        <time>2026-04-07T00:23:41Z</time>
      </trkpt>
      <trkpt lat="38.826395350237284" lon="121.50479495669327">
        <ele>1.8955608485266566</ele>
        <time>2026-04-07T00:23:55Z</time>
      </trkpt>
      <trkpt lat="38.826292639512666" lon="121.50490949654517">
        <ele>1.057066285982728</ele>
        <time>2026-04-07T00:24:01Z</time>
      </trkpt>
      <trkpt lat="38.82623305211029" lon="121.50494986238871">
        <ele>0.462957875803113</ele>
        <time>2026-04-07T00:24:04Z</time>
      </trkpt>
      <trkpt lat="38.82617915349742" lon="121.50495401202049">
        <ele>0.33890033327043056</ele>
        <time>2026-04-07T00:24:07Z</time>
      </trkpt>
      <trkpt lat="38.82607095467727" lon="121.50486170235885">
        <ele>0.5220930986106396</ele>
        <time>2026-04-07T00:24:13Z</time>
      </trkpt>
      <trkpt lat="38.82577331227158" lon="121.50491339215091">
        <ele>1.8686764994636178</ele>
        <time>2026-04-07T00:24:28Z</time>
      </trkpt>
      <trkpt lat="38.8255837437302" lon="121.50496357719544">
        <ele>1.5922091146931052</ele>
        <time>2026-04-07T00:24:37Z</time>
      </trkpt>
      <trkpt lat="38.82552429219213" lon="121.50494917570913">
        <ele>1.2712376834824681</ele>
        <time>2026-04-07T00:24:40Z</time>
      </trkpt>
      <trkpt lat="38.82546285289896" lon="121.50490841736382">
        <ele>1.9142112042754889</ele>
        <time>2026-04-07T00:24:43Z</time>
      </trkpt>
      <trkpt lat="38.8254512562638" lon="121.50482423014833">
        <ele>1.4331920705735683</ele>
        <time>2026-04-07T00:24:46Z</time>
      </trkpt>
      <trkpt lat="38.82550054910382" lon="121.50476375555701">
        <ele>2.0617828173562884</ele>
        <time>2026-04-07T00:24:49Z</time>
      </trkpt>
      <trkpt lat="38.82555861210107" lon="121.50472582040611">
        <ele>2.849789697676897</ele>
        <time>2026-04-07T00:24:52Z</time>
      </trkpt>
      <trkpt lat="38.82574185822889" lon="121.50470501121902">
        <ele>2.5904123168438673</ele>
        <time>2026-04-07T00:25:01Z</time>
      </trkpt>
      <trkpt lat="38.82580316713494" lon="121.50467851442775">
        <ele>3.0776429884135723</ele>
        <time>2026-04-07T00:25:04Z</time>
      </trkpt>
      <trkpt lat="38.82606271017422" lon="121.50467240515128">
        <ele>3.102474003098905</ele>
        <time>2026-04-07T00:25:16Z</time>
      </trkpt>
      <trkpt lat="38.82628875209665" lon="121.50472222170303">
        <ele>1.25770209915936</ele>
        <time>2026-04-07T00:25:28Z</time>
      </trkpt>
      <trkpt lat="38.82638502466398" lon="121.50452407740873">
        <ele>2.0487562334164977</ele>
        <time>2026-04-07T00:25:37Z</time>
      </trkpt>
      <trkpt lat="38.82643455673328" lon="121.5043429759629">
        <ele>1.4715517768636346</ele>
        <time>2026-04-07T00:25:44Z</time>
      </trkpt>
      <trkpt lat="38.826447946010894" lon="121.50410581707065">
        <ele>1.3454500772058964</ele>
        <time>2026-04-07T00:25:52Z</time>
      </trkpt>
      <trkpt lat="38.826438803719824" lon="121.5039813318203">
        <ele>1.8556592306122184</ele>
        <time>2026-04-07T00:25:56Z</time>
      </trkpt>
      <trkpt lat="38.82645079322966" lon="121.50379862486308">
        <ele>1.8959811078384519</ele>
        <time>2026-04-07T00:26:02Z</time>
      </trkpt>
      <trkpt lat="38.82655436480661" lon="121.50348234832185">
        <ele>2.920133556239307</ele>
        <time>2026-04-07T00:26:14Z</time>
      </trkpt>
      <trkpt lat="38.82663523795125" lon="121.50334523763904">
        <ele>2.864224549382925</ele>
        <time>2026-04-07T00:26:20Z</time>
      </trkpt>
      <trkpt lat="38.82682181402022" lon="121.50312279544181">
        <ele>2.8443865859881043</ele>
        <time>2026-04-07T00:26:32Z</time>
      </trkpt>
      <trkpt lat="38.82705229790092" lon="121.50292899539093">
        <ele>3.3949746480211616</ele>
        <time>2026-04-07T00:26:44Z</time>
      </trkpt>
      <trkpt lat="38.82724070512692" lon="121.50282645717493">
        <ele>3.9580205343663692</ele>
        <time>2026-04-07T00:26:53Z</time>
      </trkpt>
      <trkpt lat="38.82731193092718" lon="121.5028549276025">
        <ele>3.0778742311522365</ele>
        <time>2026-04-07T00:26:56Z</time>
      </trkpt>
      <trkpt lat="38.82744478794846" lon="121.5028544139624">
        <ele>2.743676956743002</ele>
        <time>2026-04-07T00:27:02Z</time>
      </trkpt>
      <trkpt lat="38.82771266997976" lon="121.50294851335326">
        <ele>2.0183194167912006</ele>
        <time>2026-04-07T00:27:14Z</time>
      </trkpt>
      <trkpt lat="38.82776909065105" lon="121.50298969477308">
        <ele>2.458835581317544</ele>
        <time>2026-04-07T00:27:17Z</time>
      </trkpt>
      <trkpt lat="38.82787341687955" lon="121.50312307546909">
        <ele>1.5864833435043693</ele>
        <time>2026-04-07T00:27:23Z</time>
      </trkpt>
      <trkpt lat="38.827955808782015" lon="121.50326724629761">
        <ele>0.8032708410173655</ele>
        <time>2026-04-07T00:27:29Z</time>
      </trkpt>
      <trkpt lat="38.82798501520191" lon="121.50336218218607">
        <ele>1.0114670814946294</ele>
        <time>2026-04-07T00:27:32Z</time>
      </trkpt>
      <trkpt lat="38.82799128785838" lon="121.50347383892793">
        <ele>1.4691795026883483</ele>
        <time>2026-04-07T00:27:35Z</time>
      </trkpt>
      <trkpt lat="38.828050843747356" lon="121.50363354383416">
        <ele>1.09399629291147</ele>
        <time>2026-04-07T00:27:41Z</time>
      </trkpt>
      <trkpt lat="38.828213144950226" lon="121.5038556917221">
        <ele>1.278446831740439</ele>
        <time>2026-04-07T00:27:51Z</time>
      </trkpt>
      <trkpt lat="38.82837659242012" lon="121.50394561225441">
        <ele>2.2627075584605336</ele>
        <time>2026-04-07T00:27:58Z</time>
      </trkpt>
      <trkpt lat="38.8284475269167" lon="121.5039609980707">
        <ele>1.9749188413843513</ele>
        <time>2026-04-07T00:28:01Z</time>
      </trkpt>
      <trkpt lat="38.82871876553145" lon="121.50390063786453">
        <ele>2.436218778602779</ele>
        <time>2026-04-07T00:28:13Z</time>
      </trkpt>
      <trkpt lat="38.82900997697491" lon="121.5038733990615">
        <ele>3.290044124238193</ele>
        <time>2026-04-07T00:28:25Z</time>
      </trkpt>
      <trkpt lat="38.82929248544333" lon="121.50394299688472">
        <ele>4.156404877081513</ele>
        <time>2026-04-07T00:28:37Z</time>
      </trkpt>
      <trkpt lat="38.829497037598045" lon="121.50403072441249">
        <ele>3.696939925663173</ele>
        <time>2026-04-07T00:28:46Z</time>
      </trkpt>
      <trkpt lat="38.829737583868976" lon="121.50420721303543">
        <ele>2.7142245788127184</ele>
        <time>2026-04-07T00:28:58Z</time>
      </trkpt>
      <trkpt lat="38.82994622902849" lon="121.50445346758924">
        <ele>2.2532197050750256</ele>
        <time>2026-04-07T00:29:10Z</time>
      </trkpt>
      <trkpt lat="38.83005343799496" lon="121.5045698552667">
        <ele>2.7826932035386562</ele>
        <time>2026-04-07T00:29:16Z</time>
      </trkpt>
      <trkpt lat="38.83016224989552" lon="121.50465939461147">
        <ele>2.055430048145354</ele>
        <time>2026-04-07T00:29:22Z</time>
      </trkpt>
      <trkpt lat="38.83042155092203" lon="121.50478665152966">
        <ele>1.782337350770831</ele>
        <time>2026-04-07T00:29:34Z</time>
      </trkpt>
      <trkpt lat="38.83066690095862" lon="121.50496470378889">
        <ele>2.8944915449246764</ele>
        <time>2026-04-07T00:29:46Z</time>
      </trkpt>
      <trkpt lat="38.83093037254334" lon="121.50512861255675">
        <ele>3.4380672024562955</ele>
        <time>2026-04-07T00:29:59Z</time>
      </trkpt>
      <trkpt lat="38.831138467621045" lon="121.50518887358116">
        <ele>4.186318835243583</ele>
        <time>2026-04-07T00:30:09Z</time>
      </trkpt>
      <trkpt lat="38.8313166861844" lon="121.50531783921502">
        <ele>3.333725258708</ele>
        <time>2026-04-07T00:30:18Z</time>
      </trkpt>
      <trkpt lat="38.83153358592757" lon="121.50535233903062">
        <ele>3.310508117079735</ele>
        <time>2026-04-07T00:30:27Z</time>
      </trkpt>
      <trkpt lat="38.83180886106515" lon="121.50558485629799">
        <ele>2.781972254626453</ele>
        <time>2026-04-07T00:30:42Z</time>
      </trkpt>
      <trkpt lat="38.83192458965227" lon="121.50580016390944">
        <ele>3.430097979493439</ele>
        <time>2026-04-07T00:30:51Z</time>
      </trkpt>
      <trkpt lat="38.831956422246876" lon="121.50588891862051">
        <ele>3.021214112639427</ele>
        <time>2026-04-07T00:30:54Z</time>
      </trkpt>
      <trkpt lat="38.83196537447218" lon="121.50597007879259">
        <ele>2.3549973340705037</ele>
        <time>2026-04-07T00:30:57Z</time>
      </trkpt>
      <trkpt lat="38.83201538219672" lon="121.50612031809514">
        <ele>2.7288788817822933</ele>
        <time>2026-04-07T00:31:03Z</time>
      </trkpt>
      <trkpt lat="38.83213715473791" lon="121.50630577295333">
        <ele>2.4014011519029737</ele>
        <time>2026-04-07T00:31:12Z</time>
      </trkpt>
      <trkpt lat="38.83230615960641" lon="121.50644976890122">
        <ele>1.7152219824492931</ele>
        <time>2026-04-07T00:31:21Z</time>
      </trkpt>
      <trkpt lat="38.83236927845243" lon="121.50646460621029">
        <ele>1.861977931112051</ele>
        <time>2026-04-07T00:31:24Z</time>
      </trkpt>
      <trkpt lat="38.8323939010499" lon="121.50651243715419">
        <ele>2.3001091117039323</ele>
        <time>2026-04-07T00:31:27Z</time>
      </trkpt>
    </trkseg>
  </trk>
</gpx>