<?xml version="1.0" encoding="UTF-8"?>
<gpx xmlns="http://www.topografix.com/GPX/1/1" xmlns:gpxtpx="http://www.garmin.com/xmlschemas/TrackPointExtension/v1" xmlns:xsi="http://www.w3.org/2001/XMLSchema-instance" xsi:schemaLocation="http://www.topografix.com/GPX/1/1 http://www.topografix.com/GPX/1/1/gpx.xsd" version="1.1" creator="gpx.py -- https://github.com/tkrajina/gpxpy">
  <trk>
    <name>gpx from keep</name>
    <type>Run</type>
    <trkseg>
      <trkpt lat="38.83669840756804" lon="121.50495766114551">
        <ele>9.272604643227858</ele>
        <time>2026-04-13T00:08:46Z</time>
      </trkpt>
      <trkpt lat="38.836704991539634" lon="121.50502335273467">
        <ele>9.958664333821556</ele>
        <time>2026-04-13T00:08:53Z</time>
      </trkpt>
      <trkpt lat="38.83658700731796" lon="121.50541168539479">
        <ele>9.511836326681077</ele>
        <time>2026-04-13T00:09:09Z</time>
      </trkpt>
      <trkpt lat="38.83650174256267" lon="121.50570620835383">
        <ele>9.908687517046928</ele>
        <time>2026-04-13T00:09:21Z</time>
      </trkpt>
      <trkpt lat="38.83646060407972" lon="121.50579278803318">
        <ele>9.765405632555485</ele>
        <time>2026-04-13T00:09:25Z</time>
      </trkpt>
      <trkpt lat="38.83643961251016" lon="121.50589050640004">
        <ele>9.875764862634242</ele>
        <time>2026-04-13T00:09:29Z</time>
      </trkpt>
      <trkpt lat="38.836286279903064" lon="121.50626221510299">
        <ele>10.799333498813212</ele>
        <time>2026-04-13T00:09:45Z</time>
      </trkpt>
      <trkpt lat="38.836179022912056" lon="121.50665065430462">
        <ele>9.940039142034948</ele>
        <time>2026-04-13T00:10:01Z</time>
      </trkpt>
      <trkpt lat="38.836164263688296" lon="121.50673962567848">
        <ele>8.934586550109088</ele>
        <time>2026-04-13T00:10:05Z</time>
      </trkpt>
      <trkpt lat="38.83613517192656" lon="121.50684329190338">
        <ele>9.57348878402263</ele>
        <time>2026-04-13T00:10:26Z</time>
      </trkpt>
      <trkpt lat="38.83600852340494" lon="121.50712782215419">
        <ele>10.798313084989786</ele>
        <time>2026-04-13T00:10:38Z</time>
      </trkpt>
      <trkpt lat="38.83590080738637" lon="121.50749738820278">
        <ele>9.274539065547287</ele>
        <time>2026-04-13T00:10:53Z</time>
      </trkpt>
      <trkpt lat="38.83588020297552" lon="121.50758332868712">
        <ele>9.555055112577975</ele>
        <time>2026-04-13T00:10:56Z</time>
      </trkpt>
      <trkpt lat="38.835836603617594" lon="121.50766842602204">
        <ele>10.312603996135294</ele>
        <time>2026-04-13T00:11:00Z</time>
      </trkpt>
      <trkpt lat="38.83582176813233" lon="121.50775418119478">
        <ele>10.726803220808506</ele>
        <time>2026-04-13T00:11:03Z</time>
      </trkpt>
      <trkpt lat="38.83570369260396" lon="121.50811081183488">
        <ele>10.22884273622185</ele>
        <time>2026-04-13T00:11:18Z</time>
      </trkpt>
      <trkpt lat="38.83564945137152" lon="121.50823543256294">
        <ele>10.48856730479747</ele>
        <time>2026-04-13T00:11:24Z</time>
      </trkpt>
      <trkpt lat="38.83554844990731" lon="121.50860897149826">
        <ele>10.682608510367572</ele>
        <time>2026-04-13T00:11:39Z</time>
      </trkpt>
      <trkpt lat="38.83540451729409" lon="121.50897363382212">
        <ele>9.985482054762542</ele>
        <time>2026-04-13T00:12:03Z</time>
      </trkpt>
      <trkpt lat="38.83523844475272" lon="121.50929574371845">
        <ele>10.990232172422111</ele>
        <time>2026-04-13T00:12:18Z</time>
      </trkpt>
      <trkpt lat="38.8351230128983" lon="121.50968977141267">
        <ele>10.739315748214722</ele>
        <time>2026-04-13T00:12:33Z</time>
      </trkpt>
      <trkpt lat="38.83499227621224" lon="121.51006805623003">
        <ele>9.52534315455705</ele>
        <time>2026-04-13T00:12:48Z</time>
      </trkpt>
      <trkpt lat="38.83494756438637" lon="121.51022685133499">
        <ele>8.823456800542772</ele>
        <time>2026-04-13T00:12:54Z</time>
      </trkpt>
      <trkpt lat="38.83483296842158" lon="121.51055540550784">
        <ele>9.342227804474533</ele>
        <time>2026-04-13T00:13:07Z</time>
      </trkpt>
      <trkpt lat="38.83471101347256" lon="121.51091652509788">
        <ele>9.51736744120717</ele>
        <time>2026-04-13T00:13:22Z</time>
      </trkpt>
      <trkpt lat="38.834631256638986" lon="121.51112210165564">
        <ele>9.555465802550316</ele>
        <time>2026-04-13T00:13:31Z</time>
      </trkpt>
      <trkpt lat="38.834559517784676" lon="121.511340747662">
        <ele>9.665209193713963</ele>
        <time>2026-04-13T00:13:40Z</time>
      </trkpt>
      <trkpt lat="38.83453258783091" lon="121.5114976157213">
        <ele>8.94898369256407</ele>
        <time>2026-04-13T00:13:46Z</time>
      </trkpt>
      <trkpt lat="38.83447192745015" lon="121.51163965221289">
        <ele>8.848021071404219</ele>
        <time>2026-04-13T00:13:52Z</time>
      </trkpt>
      <trkpt lat="38.83435745080291" lon="121.51203688765548">
        <ele>8.734770926646888</ele>
        <time>2026-04-13T00:14:07Z</time>
      </trkpt>
      <trkpt lat="38.8342457013047" lon="121.51240620455889">
        <ele>8.06785676535219</ele>
        <time>2026-04-13T00:14:22Z</time>
      </trkpt>
      <trkpt lat="38.834119920611165" lon="121.51277046124089">
        <ele>8.591551256366074</ele>
        <time>2026-04-13T00:14:37Z</time>
      </trkpt>
      <trkpt lat="38.83400109834858" lon="121.51312738418005">
        <ele>9.252634732052684</ele>
        <time>2026-04-13T00:14:52Z</time>
      </trkpt>
      <trkpt lat="38.83388555389757" lon="121.5134872940237">
        <ele>8.092560100369155</ele>
        <time>2026-04-13T00:15:07Z</time>
      </trkpt>
      <trkpt lat="38.83378007536058" lon="121.51381063773138">
        <ele>8.384692250750959</ele>
        <time>2026-04-13T00:15:20Z</time>
      </trkpt>
      <trkpt lat="38.83364640803375" lon="121.5141797329553">
        <ele>7.526245971210301</ele>
        <time>2026-04-13T00:15:35Z</time>
      </trkpt>
      <trkpt lat="38.83353717526297" lon="121.51455227083274">
        <ele>7.142255031503737</ele>
        <time>2026-04-13T00:15:50Z</time>
      </trkpt>
      <trkpt lat="38.83340441157335" lon="121.51491358262582">
        <ele>6.732471022754908</ele>
        <time>2026-04-13T00:16:05Z</time>
      </trkpt>
      <trkpt lat="38.83329174946896" lon="121.51530673436592">
        <ele>6.824801729992032</ele>
        <time>2026-04-13T00:16:20Z</time>
      </trkpt>
      <trkpt lat="38.833226143793475" lon="121.5155141827895">
        <ele>6.166071771644056</ele>
        <time>2026-04-13T00:16:29Z</time>
      </trkpt>
      <trkpt lat="38.833144381358814" lon="121.51562909821861">
        <ele>5.477482587099075</ele>
        <time>2026-04-13T00:16:35Z</time>
      </trkpt>
      <trkpt lat="38.83305448494918" lon="121.51571002527928">
        <ele>6.367262529209256</ele>
        <time>2026-04-13T00:16:41Z</time>
      </trkpt>
      <trkpt lat="38.83292121770879" lon="121.51592400782235">
        <ele>7.730767613276839</ele>
        <time>2026-04-13T00:16:50Z</time>
      </trkpt>
      <trkpt lat="38.83267092525579" lon="121.51616529860996">
        <ele>9.433493752963841</ele>
        <time>2026-04-13T00:17:05Z</time>
      </trkpt>
      <trkpt lat="38.83254574958893" lon="121.51622281289211">
        <ele>8.638026162981987</ele>
        <time>2026-04-13T00:17:11Z</time>
      </trkpt>
      <trkpt lat="38.83250694794106" lon="121.51628238612774">
        <ele>7.202484694309533</ele>
        <time>2026-04-13T00:17:14Z</time>
      </trkpt>
      <trkpt lat="38.8323671585532" lon="121.51634250449739">
        <ele>8.039307214319706</ele>
        <time>2026-04-13T00:17:21Z</time>
      </trkpt>
      <trkpt lat="38.832248749570624" lon="121.51634448331117">
        <ele>7.217912492342293</ele>
        <time>2026-04-13T00:17:27Z</time>
      </trkpt>
      <trkpt lat="38.83218770470408" lon="121.51638218634805">
        <ele>6.81604235060513</ele>
        <time>2026-04-13T00:17:30Z</time>
      </trkpt>
      <trkpt lat="38.832156879766664" lon="121.51633535203311">
        <ele>5.852837515063584</ele>
        <time>2026-04-13T00:17:33Z</time>
      </trkpt>
      <trkpt lat="38.8321952817242" lon="121.51625683153117">
        <ele>4.684506532736123</ele>
        <time>2026-04-13T00:17:36Z</time>
      </trkpt>
      <trkpt lat="38.832472815360134" lon="121.51606252388541">
        <ele>8.508018873631954</ele>
        <time>2026-04-13T00:17:51Z</time>
      </trkpt>
      <trkpt lat="38.83263624637656" lon="121.51594581261926">
        <ele>8.210440320894122</ele>
        <time>2026-04-13T00:18:00Z</time>
      </trkpt>
      <trkpt lat="38.83274493537663" lon="121.5158493134535">
        <ele>8.813387363217771</ele>
        <time>2026-04-13T00:18:06Z</time>
      </trkpt>
      <trkpt lat="38.83291253666633" lon="121.51562869946326">
        <ele>9.840376448817551</ele>
        <time>2026-04-13T00:18:18Z</time>
      </trkpt>
      <trkpt lat="38.833054537711135" lon="121.51529174943401">
        <ele>7.644322484731674</ele>
        <time>2026-04-13T00:18:33Z</time>
      </trkpt>
      <trkpt lat="38.83317674592386" lon="121.5149427044827">
        <ele>5.9731335043907166</ele>
        <time>2026-04-13T00:18:48Z</time>
      </trkpt>
      <trkpt lat="38.83329555940273" lon="121.51458566983264">
        <ele>6.580868070013821</ele>
        <time>2026-04-13T00:19:03Z</time>
      </trkpt>
      <trkpt lat="38.83337242337273" lon="121.51437276967985">
        <ele>7.21931017935276</ele>
        <time>2026-04-13T00:19:12Z</time>
      </trkpt>
      <trkpt lat="38.83338563056333" lon="121.51429945740337">
        <ele>7.576348694041371</ele>
        <time>2026-04-13T00:19:15Z</time>
      </trkpt>
      <trkpt lat="38.8335157101193" lon="121.51393771273892">
        <ele>5.225400167517364</ele>
        <time>2026-04-13T00:19:31Z</time>
      </trkpt>
      <trkpt lat="38.83361764832992" lon="121.51359220340288">
        <ele>8.111295415088534</ele>
        <time>2026-04-13T00:19:44Z</time>
      </trkpt>
      <trkpt lat="38.833666532909774" lon="121.51344709705747">
        <ele>8.030830071307719</ele>
        <time>2026-04-13T00:19:50Z</time>
      </trkpt>
      <trkpt lat="38.833741462968135" lon="121.5133202606411">
        <ele>7.863691728562117</ele>
        <time>2026-04-13T00:19:56Z</time>
      </trkpt>
      <trkpt lat="38.83374846535659" lon="121.51323095394798">
        <ele>8.001165181398392</ele>
        <time>2026-04-13T00:19:59Z</time>
      </trkpt>
      <trkpt lat="38.833864516606035" lon="121.51288383766955">
        <ele>7.140704490244389</ele>
        <time>2026-04-13T00:20:14Z</time>
      </trkpt>
      <trkpt lat="38.83398781259192" lon="121.51253207578222">
        <ele>8.249171384610236</ele>
        <time>2026-04-13T00:20:29Z</time>
      </trkpt>
      <trkpt lat="38.83404592777293" lon="121.51230513369903">
        <ele>8.431367475539446</ele>
        <time>2026-04-13T00:20:38Z</time>
      </trkpt>
      <trkpt lat="38.83418643830079" lon="121.51193301240605">
        <ele>8.574385535903275</ele>
        <time>2026-04-13T00:20:53Z</time>
      </trkpt>
      <trkpt lat="38.83426843575298" lon="121.51171967946166">
        <ele>8.883381882682443</ele>
        <time>2026-04-13T00:21:02Z</time>
      </trkpt>
      <trkpt lat="38.83427841594772" lon="121.5116361551813">
        <ele>9.324408076703548</ele>
        <time>2026-04-13T00:21:05Z</time>
      </trkpt>
      <trkpt lat="38.834410702013045" lon="121.51127567230391">
        <ele>9.152535891160369</ele>
        <time>2026-04-13T00:21:20Z</time>
      </trkpt>
      <trkpt lat="38.83443348160204" lon="121.51119531862422">
        <ele>8.601605606265366</ele>
        <time>2026-04-13T00:21:23Z</time>
      </trkpt>
      <trkpt lat="38.834505622564734" lon="121.51105795683456">
        <ele>7.676688608713448</ele>
        <time>2026-04-13T00:21:30Z</time>
      </trkpt>
      <trkpt lat="38.8345641322846" lon="121.51081792359867">
        <ele>8.644109888933599</ele>
        <time>2026-04-13T00:21:39Z</time>
      </trkpt>
      <trkpt lat="38.834611927036526" lon="121.51076012406276">
        <ele>8.773353311233222</ele>
        <time>2026-04-13T00:21:42Z</time>
      </trkpt>
      <trkpt lat="38.83472427310533" lon="121.51046767666244">
        <ele>10.267059750854969</ele>
        <time>2026-04-13T00:21:54Z</time>
      </trkpt>
      <trkpt lat="38.834842327547264" lon="121.51008991356063">
        <ele>10.208187059499323</ele>
        <time>2026-04-13T00:22:09Z</time>
      </trkpt>
      <trkpt lat="38.83488407542448" lon="121.51004378275732">
        <ele>10.175677267834544</ele>
        <time>2026-04-13T00:22:12Z</time>
      </trkpt>
      <trkpt lat="38.834879872836275" lon="121.50997175781832">
        <ele>9.382286070846021</ele>
        <time>2026-04-13T00:22:18Z</time>
      </trkpt>
      <trkpt lat="38.83500132693963" lon="121.5095943081528">
        <ele>10.005201144143939</ele>
        <time>2026-04-13T00:22:33Z</time>
      </trkpt>
      <trkpt lat="38.83503352961755" lon="121.50951924590426">
        <ele>9.530367370694876</ele>
        <time>2026-04-13T00:22:36Z</time>
      </trkpt>
      <trkpt lat="38.835200545726124" lon="121.50943144886425">
        <ele>9.633265123702586</ele>
        <time>2026-04-13T00:22:45Z</time>
      </trkpt>
      <trkpt lat="38.83529311539342" lon="121.50931351025693">
        <ele>9.13791885599494</ele>
        <time>2026-04-13T00:22:51Z</time>
      </trkpt>
      <trkpt lat="38.83534231947806" lon="121.50911847011054">
        <ele>8.995373885147274</ele>
        <time>2026-04-13T00:23:00Z</time>
      </trkpt>
      <trkpt lat="38.835500054765376" lon="121.50874331903468">
        <ele>9.35942738968879</ele>
        <time>2026-04-13T00:23:15Z</time>
      </trkpt>
      <trkpt lat="38.83562853672988" lon="121.5083471275129">
        <ele>9.177549728192389</ele>
        <time>2026-04-13T00:23:30Z</time>
      </trkpt>
      <trkpt lat="38.835672012125045" lon="121.50824979298895">
        <ele>9.460052626207471</ele>
        <time>2026-04-13T00:23:34Z</time>
      </trkpt>
      <trkpt lat="38.83572920131116" lon="121.50802012470365">
        <ele>9.308668658137321</ele>
        <time>2026-04-13T00:23:43Z</time>
      </trkpt>
      <trkpt lat="38.83583585196018" lon="121.5077663299824">
        <ele>8.557748724706471</ele>
        <time>2026-04-13T00:23:53Z</time>
      </trkpt>
      <trkpt lat="38.8359316792771" lon="121.50743189084373">
        <ele>9.107726082205772</ele>
        <time>2026-04-13T00:24:05Z</time>
      </trkpt>
      <trkpt lat="38.836038910561406" lon="121.50714392107635">
        <ele>9.090654321946204</ele>
        <time>2026-04-13T00:24:17Z</time>
      </trkpt>
      <trkpt lat="38.83605823137121" lon="121.50705431458401">
        <ele>9.214531660079956</ele>
        <time>2026-04-13T00:24:20Z</time>
      </trkpt>
      <trkpt lat="38.83610514561887" lon="121.50699300771562">
        <ele>9.731037586927414</ele>
        <time>2026-04-13T00:24:26Z</time>
      </trkpt>
      <trkpt lat="38.83610514561887" lon="121.50699300771562">
        <ele>9.731037586927414</ele>
        <time>2026-04-13T00:24:34Z</time>
      </trkpt>
    </trkseg>
  </trk>
</gpx>