<?xml version="1.0" encoding="UTF-8"?>
<gpx xmlns="http://www.topografix.com/GPX/1/1" xmlns:gpxtpx="http://www.garmin.com/xmlschemas/TrackPointExtension/v1" xmlns:xsi="http://www.w3.org/2001/XMLSchema-instance" xsi:schemaLocation="http://www.topografix.com/GPX/1/1 http://www.topografix.com/GPX/1/1/gpx.xsd" version="1.1" creator="gpx.py -- https://github.com/tkrajina/gpxpy">
  <trk>
    <name>gpx from keep</name>
    <type>Run</type>
    <trkseg>
      <trkpt lat="43.17812371109974" lon="124.26027554859026">
        <ele>175.635537837632</ele>
        <time>2026-08-19T23:18:35Z</time>
      </trkpt>
      <trkpt lat="43.17815549017888" lon="124.26015438802206">
        <ele>176.03626497089863</ele>
        <time>2026-08-19T23:18:41Z</time>
      </trkpt>
      <trkpt lat="43.178144806148865" lon="124.2600801479646">
        <ele>176.5431539658457</ele>
        <time>2026-08-19T23:18:44Z</time>
      </trkpt>
      <trkpt lat="43.17817606738329" lon="124.25995196879525">
        <ele>174.25678634550422</ele>
        <time>2026-08-19T23:18:50Z</time>
      </trkpt>
      <trkpt lat="43.178071164827394" lon="124.25983748924878">
        <ele>175.7488744156435</ele>
        <time>2026-08-19T23:18:56Z</time>
      </trkpt>
      <trkpt lat="43.178007615868395" lon="124.25983070872894">
        <ele>176.42542815674096</ele>
        <time>2026-08-19T23:18:59Z</time>
      </trkpt>
      <trkpt lat="43.177901063475794" lon="124.25971491211023">
        <ele>176.14162608888</ele>
        <time>2026-08-19T23:19:05Z</time>
      </trkpt>
      <trkpt lat="43.177755032362455" lon="124.25959313373909">
        <ele>177.26991547085345</ele>
        <time>2026-08-19T23:19:14Z</time>
      </trkpt>
      <trkpt lat="43.17750350360606" lon="124.25936297523626">
        <ele>177.84440969862044</ele>
        <time>2026-08-19T23:19:32Z</time>
      </trkpt>
      <trkpt lat="43.17752224397472" lon="124.25926525984985">
        <ele>177.53168941941112</ele>
        <time>2026-08-19T23:19:35Z</time>
      </trkpt>
      <trkpt lat="43.177679297726264" lon="124.25893746180589">
        <ele>177.38162839598954</ele>
        <time>2026-08-19T23:19:47Z</time>
      </trkpt>
      <trkpt lat="43.17785023857192" lon="124.25858601037119">
        <ele>176.97156546637416</ele>
        <time>2026-08-19T23:20:02Z</time>
      </trkpt>
      <trkpt lat="43.17801379510175" lon="124.25822882636773">
        <ele>177.5606884630397</ele>
        <time>2026-08-19T23:20:17Z</time>
      </trkpt>
      <trkpt lat="43.178148952695146" lon="124.25788622240186">
        <ele>177.3641243353486</ele>
        <time>2026-08-19T23:20:31Z</time>
      </trkpt>
      <trkpt lat="43.17821361550183" lon="124.25780009695208">
        <ele>176.93971527460963</ele>
        <time>2026-08-19T23:20:35Z</time>
      </trkpt>
      <trkpt lat="43.17825545347484" lon="124.25769562345123">
        <ele>177.59871764760464</ele>
        <time>2026-08-19T23:20:39Z</time>
      </trkpt>
      <trkpt lat="43.17824377630764" lon="124.25756193182202">
        <ele>177.72955494187772</ele>
        <time>2026-08-19T23:20:43Z</time>
      </trkpt>
      <trkpt lat="43.17819206551141" lon="124.25747448048566">
        <ele>177.76978124957532</ele>
        <time>2026-08-19T23:20:47Z</time>
      </trkpt>
      <trkpt lat="43.1778999124475" lon="124.25723367801719">
        <ele>179.00133100617677</ele>
        <time>2026-08-19T23:21:03Z</time>
      </trkpt>
      <trkpt lat="43.1776550282083" lon="124.25699725880618">
        <ele>177.0907617835328</ele>
        <time>2026-08-19T23:21:17Z</time>
      </trkpt>
      <trkpt lat="43.177404537288496" lon="124.2567346130356">
        <ele>177.83150306344032</ele>
        <time>2026-08-19T23:21:32Z</time>
      </trkpt>
      <trkpt lat="43.17715037699746" lon="124.25645601873127">
        <ele>176.1436970345676</ele>
        <time>2026-08-19T23:21:47Z</time>
      </trkpt>
      <trkpt lat="43.1769053690066" lon="124.25618514816303">
        <ele>177.3990148799494</ele>
        <time>2026-08-19T23:22:02Z</time>
      </trkpt>
      <trkpt lat="43.1766718778161" lon="124.25592583044838">
        <ele>177.53918765764683</ele>
        <time>2026-08-19T23:22:17Z</time>
      </trkpt>
      <trkpt lat="43.1764201315199" lon="124.2556264655316">
        <ele>176.9236543374136</ele>
        <time>2026-08-19T23:22:33Z</time>
      </trkpt>
      <trkpt lat="43.17613666411806" lon="124.25535612320645">
        <ele>178.2484162868932</ele>
        <time>2026-08-19T23:22:49Z</time>
      </trkpt>
      <trkpt lat="43.17602529812955" lon="124.25520718957009">
        <ele>178.1683634473011</ele>
        <time>2026-08-19T23:22:57Z</time>
      </trkpt>
      <trkpt lat="43.175803711673446" lon="124.25497781972417">
        <ele>177.44873328413814</ele>
        <time>2026-08-19T23:23:10Z</time>
      </trkpt>
      <trkpt lat="43.175535680654015" lon="124.25468514638408">
        <ele>177.08471207879484</ele>
        <time>2026-08-19T23:23:25Z</time>
      </trkpt>
      <trkpt lat="43.175290284996514" lon="124.25440915167087">
        <ele>178.0477038314566</ele>
        <time>2026-08-19T23:23:40Z</time>
      </trkpt>
      <trkpt lat="43.175260575587316" lon="124.2543426101133">
        <ele>178.21552319917828</ele>
        <time>2026-08-19T23:23:43Z</time>
      </trkpt>
      <trkpt lat="43.17519272171921" lon="124.25431248108828">
        <ele>178.24722326546907</ele>
        <time>2026-08-19T23:23:46Z</time>
      </trkpt>
      <trkpt lat="43.17494799103886" lon="124.25403033880707">
        <ele>176.89684289786965</ele>
        <time>2026-08-19T23:24:01Z</time>
      </trkpt>
      <trkpt lat="43.17469385002321" lon="124.25373376654345">
        <ele>177.24599647149444</ele>
        <time>2026-08-19T23:24:16Z</time>
      </trkpt>
      <trkpt lat="43.174454770826436" lon="124.2534352645364">
        <ele>177.5863239262253</ele>
        <time>2026-08-19T23:24:31Z</time>
      </trkpt>
      <trkpt lat="43.174349095921" lon="124.25329133641557">
        <ele>177.5803348151967</ele>
        <time>2026-08-19T23:24:42Z</time>
      </trkpt>
      <trkpt lat="43.1743201646855" lon="124.25316957926636">
        <ele>178.00458684563637</ele>
        <time>2026-08-19T23:24:50Z</time>
      </trkpt>
      <trkpt lat="43.174240564433504" lon="124.25309404910949">
        <ele>177.57249094266444</ele>
        <time>2026-08-19T23:24:54Z</time>
      </trkpt>
      <trkpt lat="43.174178475829585" lon="124.25299587850051">
        <ele>177.68781316652894</ele>
        <time>2026-08-19T23:24:58Z</time>
      </trkpt>
      <trkpt lat="43.17411387507068" lon="124.25293622339728">
        <ele>177.067839496769</ele>
        <time>2026-08-19T23:25:01Z</time>
      </trkpt>
      <trkpt lat="43.17391954371456" lon="124.25267021400231">
        <ele>177.0460896063596</ele>
        <time>2026-08-19T23:25:13Z</time>
      </trkpt>
      <trkpt lat="43.173871150333" lon="124.25260916527252">
        <ele>176.5672022756189</ele>
        <time>2026-08-19T23:25:16Z</time>
      </trkpt>
      <trkpt lat="43.173854607426804" lon="124.25254711834106">
        <ele>178.02067436371</ele>
        <time>2026-08-19T23:25:19Z</time>
      </trkpt>
      <trkpt lat="43.17372249809002" lon="124.25242937966448">
        <ele>178.0484613943845</ele>
        <time>2026-08-19T23:25:25Z</time>
      </trkpt>
      <trkpt lat="43.17362935749277" lon="124.2522861117128">
        <ele>179.56327345781028</ele>
        <time>2026-08-19T23:25:31Z</time>
      </trkpt>
      <trkpt lat="43.17343491551486" lon="124.252076494216">
        <ele>178.14988490380347</ele>
        <time>2026-08-19T23:25:40Z</time>
      </trkpt>
      <trkpt lat="43.173215063525426" lon="124.25179199831932">
        <ele>178.76169142778963</ele>
        <time>2026-08-19T23:25:52Z</time>
      </trkpt>
      <trkpt lat="43.17300153913495" lon="124.25152132368922">
        <ele>177.91745109762996</ele>
        <time>2026-08-19T23:26:04Z</time>
      </trkpt>
      <trkpt lat="43.1727820417387" lon="124.25126798091465">
        <ele>177.5831671319902</ele>
        <time>2026-08-19T23:26:16Z</time>
      </trkpt>
      <trkpt lat="43.17257961407132" lon="124.25102350720148">
        <ele>176.10606838110834</ele>
        <time>2026-08-19T23:26:28Z</time>
      </trkpt>
      <trkpt lat="43.17242281620127" lon="124.25083243967251">
        <ele>178.7127282321453</ele>
        <time>2026-08-19T23:26:37Z</time>
      </trkpt>
      <trkpt lat="43.1723970591688" lon="124.25077396416594">
        <ele>176.82987666502595</ele>
        <time>2026-08-19T23:26:40Z</time>
      </trkpt>
      <trkpt lat="43.17229298085386" lon="124.25078804962563">
        <ele>177.81421926803887</ele>
        <time>2026-08-19T23:26:48Z</time>
      </trkpt>
      <trkpt lat="43.17213116053828" lon="124.25106924295123">
        <ele>177.12334950175136</ele>
        <time>2026-08-19T23:27:12Z</time>
      </trkpt>
      <trkpt lat="43.17205389601223" lon="124.25122585892662">
        <ele>178.0275785094127</ele>
        <time>2026-08-19T23:27:18Z</time>
      </trkpt>
      <trkpt lat="43.17199429405329" lon="124.25130686305498">
        <ele>177.92460273299366</ele>
        <time>2026-08-19T23:27:21Z</time>
      </trkpt>
      <trkpt lat="43.17191799251271" lon="124.25148504555555">
        <ele>177.63097196631134</ele>
        <time>2026-08-19T23:27:27Z</time>
      </trkpt>
      <trkpt lat="43.17186536818539" lon="124.25154926884784">
        <ele>178.43525997549295</ele>
        <time>2026-08-19T23:27:30Z</time>
      </trkpt>
      <trkpt lat="43.17169581943976" lon="124.25188445266416">
        <ele>177.53494398389012</ele>
        <time>2026-08-19T23:27:42Z</time>
      </trkpt>
      <trkpt lat="43.17151971193092" lon="124.25220241866515">
        <ele>178.15332650300115</ele>
        <time>2026-08-19T23:27:54Z</time>
      </trkpt>
      <trkpt lat="43.171334206168325" lon="124.25254621027157">
        <ele>176.9561237618327</ele>
        <time>2026-08-19T23:28:09Z</time>
      </trkpt>
      <trkpt lat="43.17115914790057" lon="124.25286467456039">
        <ele>178.02036699093878</ele>
        <time>2026-08-19T23:28:21Z</time>
      </trkpt>
      <trkpt lat="43.17095419198338" lon="124.25323472956379">
        <ele>178.15144522953779</ele>
        <time>2026-08-19T23:28:36Z</time>
      </trkpt>
      <trkpt lat="43.17079270686556" lon="124.25354517041679">
        <ele>179.42670173663646</ele>
        <time>2026-08-19T23:28:49Z</time>
      </trkpt>
      <trkpt lat="43.170597506741096" lon="124.25386696589011">
        <ele>177.79311775881797</ele>
        <time>2026-08-19T23:29:02Z</time>
      </trkpt>
      <trkpt lat="43.17040709417472" lon="124.25423323422">
        <ele>179.59379964321852</ele>
        <time>2026-08-19T23:29:18Z</time>
      </trkpt>
      <trkpt lat="43.1702927143295" lon="124.2544684317196">
        <ele>177.33580742403865</ele>
        <time>2026-08-19T23:29:27Z</time>
      </trkpt>
      <trkpt lat="43.170112024325086" lon="124.25477400713277">
        <ele>177.47142204269767</ele>
        <time>2026-08-19T23:29:42Z</time>
      </trkpt>
      <trkpt lat="43.16992369470338" lon="124.25511121236117">
        <ele>176.5674642380327</ele>
        <time>2026-08-19T23:29:57Z</time>
      </trkpt>
      <trkpt lat="43.16973167135433" lon="124.25545760221797">
        <ele>177.9835952743888</ele>
        <time>2026-08-19T23:30:18Z</time>
      </trkpt>
      <trkpt lat="43.169660630304705" lon="124.25558650503937">
        <ele>178.4664822500199</ele>
        <time>2026-08-19T23:30:33Z</time>
      </trkpt>
      <trkpt lat="43.16973722109553" lon="124.25553617248725">
        <ele>179.43276992999017</ele>
        <time>2026-08-19T23:30:51Z</time>
      </trkpt>
      <trkpt lat="43.16976662982219" lon="124.25543886271605">
        <ele>179.6126928301528</ele>
        <time>2026-08-19T23:30:55Z</time>
      </trkpt>
      <trkpt lat="43.16980953757908" lon="124.255376549723">
        <ele>179.90504122525454</ele>
        <time>2026-08-19T23:30:58Z</time>
      </trkpt>
      <trkpt lat="43.1698940819724" lon="124.25519868284485">
        <ele>178.1593356207013</ele>
        <time>2026-08-19T23:31:04Z</time>
      </trkpt>
      <trkpt lat="43.17007744961783" lon="124.25488344004219">
        <ele>178.8797241896391</ele>
        <time>2026-08-19T23:31:16Z</time>
      </trkpt>
      <trkpt lat="43.170248984066355" lon="124.254590038637">
        <ele>177.68994716648012</ele>
        <time>2026-08-19T23:31:28Z</time>
      </trkpt>
      <trkpt lat="43.17042162014275" lon="124.25429829735992">
        <ele>178.61903098691255</ele>
        <time>2026-08-19T23:31:40Z</time>
      </trkpt>
      <trkpt lat="43.170615409645066" lon="124.25393292924171">
        <ele>178.07002608291805</ele>
        <time>2026-08-19T23:31:55Z</time>
      </trkpt>
      <trkpt lat="43.170791813617015" lon="124.25361151948485">
        <ele>178.04000423196703</ele>
        <time>2026-08-19T23:32:07Z</time>
      </trkpt>
      <trkpt lat="43.170955215339674" lon="124.25330733267464">
        <ele>177.07763438206166</ele>
        <time>2026-08-19T23:32:19Z</time>
      </trkpt>
      <trkpt lat="43.17113571307586" lon="124.25299620844997">
        <ele>178.3234888771549</ele>
        <time>2026-08-19T23:32:31Z</time>
      </trkpt>
      <trkpt lat="43.17125712934374" lon="124.25277360994941">
        <ele>178.89731843862683</ele>
        <time>2026-08-19T23:32:40Z</time>
      </trkpt>
      <trkpt lat="43.17131370135495" lon="124.25273157662546">
        <ele>178.91367616970092</ele>
        <time>2026-08-19T23:32:43Z</time>
      </trkpt>
      <trkpt lat="43.17148052718651" lon="124.25235635733398">
        <ele>180.02068270090967</ele>
        <time>2026-08-19T23:32:58Z</time>
      </trkpt>
      <trkpt lat="43.171557773800316" lon="124.25216924880147">
        <ele>179.04156025405973</ele>
        <time>2026-08-19T23:33:05Z</time>
      </trkpt>
      <trkpt lat="43.171755521422035" lon="124.25186599675374">
        <ele>178.93669825885445</ele>
        <time>2026-08-19T23:33:17Z</time>
      </trkpt>
      <trkpt lat="43.17194605211165" lon="124.2515046693604">
        <ele>178.41428580135107</ele>
        <time>2026-08-19T23:33:32Z</time>
      </trkpt>
      <trkpt lat="43.1721327394933" lon="124.25113216707997">
        <ele>177.07166313380003</ele>
        <time>2026-08-19T23:33:47Z</time>
      </trkpt>
      <trkpt lat="43.172274525890685" lon="124.25090188735611">
        <ele>177.18128450307995</ele>
        <time>2026-08-19T23:34:05Z</time>
      </trkpt>
      <trkpt lat="43.17232759632895" lon="124.25084947753447">
        <ele>178.15234557259828</ele>
        <time>2026-08-19T23:34:11Z</time>
      </trkpt>
      <trkpt lat="43.17239424443139" lon="124.25086988984948">
        <ele>178.01161448378116</ele>
        <time>2026-08-19T23:34:17Z</time>
      </trkpt>
      <trkpt lat="43.172641361127496" lon="124.25116850650406">
        <ele>176.71130666602403</ele>
        <time>2026-08-19T23:34:32Z</time>
      </trkpt>
      <trkpt lat="43.1728574222544" lon="124.25143670795313">
        <ele>177.24512737989426</ele>
        <time>2026-08-19T23:34:44Z</time>
      </trkpt>
      <trkpt lat="43.173057827008" lon="124.25169287562088">
        <ele>178.15413169562817</ele>
        <time>2026-08-19T23:34:56Z</time>
      </trkpt>
      <trkpt lat="43.173271343910045" lon="124.25194227236378">
        <ele>177.83927012328058</ele>
        <time>2026-08-19T23:35:09Z</time>
      </trkpt>
      <trkpt lat="43.17345770496305" lon="124.25217322700833">
        <ele>178.45629404485226</ele>
        <time>2026-08-19T23:35:21Z</time>
      </trkpt>
      <trkpt lat="43.17351708462241" lon="124.25222341248207">
        <ele>178.01033753808588</ele>
        <time>2026-08-19T23:35:24Z</time>
      </trkpt>
      <trkpt lat="43.17365140440201" lon="124.2524285774913">
        <ele>177.39317744597793</ele>
        <time>2026-08-19T23:35:33Z</time>
      </trkpt>
      <trkpt lat="43.173705204041276" lon="124.25248467920288">
        <ele>177.61770342942327</ele>
        <time>2026-08-19T23:35:36Z</time>
      </trkpt>
      <trkpt lat="43.17373552585499" lon="124.25254364432456">
        <ele>178.37973309215158</ele>
        <time>2026-08-19T23:35:39Z</time>
      </trkpt>
      <trkpt lat="43.17385769362454" lon="124.25268347436521">
        <ele>178.17081592045724</ele>
        <time>2026-08-19T23:35:45Z</time>
      </trkpt>
      <trkpt lat="43.17389778400738" lon="124.25275530632756">
        <ele>178.15045223850757</ele>
        <time>2026-08-19T23:35:48Z</time>
      </trkpt>
      <trkpt lat="43.17410643938493" lon="124.25299517269207">
        <ele>177.0470603434369</ele>
        <time>2026-08-19T23:36:00Z</time>
      </trkpt>
      <trkpt lat="43.174309412930235" lon="124.25325144632585">
        <ele>178.15545478463173</ele>
        <time>2026-08-19T23:36:12Z</time>
      </trkpt>
      <trkpt lat="43.17446949238807" lon="124.25345091122227">
        <ele>178.23301878664643</ele>
        <time>2026-08-19T23:36:21Z</time>
      </trkpt>
      <trkpt lat="43.17450074072131" lon="124.25352154721149">
        <ele>178.10531430412084</ele>
        <time>2026-08-19T23:36:24Z</time>
      </trkpt>
      <trkpt lat="43.17467739469983" lon="124.25369439897406">
        <ele>177.14249494019896</ele>
        <time>2026-08-19T23:36:33Z</time>
      </trkpt>
      <trkpt lat="43.174894647591785" lon="124.25397696161856">
        <ele>178.0393049577251</ele>
        <time>2026-08-19T23:36:45Z</time>
      </trkpt>
      <trkpt lat="43.175005501046094" lon="124.25410845395028">
        <ele>178.32210404146463</ele>
        <time>2026-08-19T23:36:51Z</time>
      </trkpt>
      <trkpt lat="43.175238682032706" lon="124.25435185721068">
        <ele>178.59491517674178</ele>
        <time>2026-08-19T23:38:13Z</time>
      </trkpt>
      <trkpt lat="43.17542963840439" lon="124.2545650847096">
        <ele>178.37708063051105</ele>
        <time>2026-08-19T23:38:31Z</time>
      </trkpt>
      <trkpt lat="43.175481029411515" lon="124.25459335382206">
        <ele>179.0004489114508</ele>
        <time>2026-08-19T23:38:34Z</time>
      </trkpt>
      <trkpt lat="43.175732146199095" lon="124.25488463938598">
        <ele>179.11938071250916</ele>
        <time>2026-08-19T23:38:46Z</time>
      </trkpt>
      <trkpt lat="43.175946484295636" lon="124.25514204623084">
        <ele>177.98949282523245</ele>
        <time>2026-08-19T23:38:58Z</time>
      </trkpt>
      <trkpt lat="43.176172155233694" lon="124.25538683025428">
        <ele>178.26695797685534</ele>
        <time>2026-08-19T23:39:10Z</time>
      </trkpt>
      <trkpt lat="43.17638518954621" lon="124.25557372442296">
        <ele>177.67752863653004</ele>
        <time>2026-08-19T23:39:20Z</time>
      </trkpt>
      <trkpt lat="43.17653951188895" lon="124.25573063197741">
        <ele>178.04895858839154</ele>
        <time>2026-08-19T23:39:28Z</time>
      </trkpt>
      <trkpt lat="43.176585144870856" lon="124.25585053761628">
        <ele>177.50794390030205</ele>
        <time>2026-08-19T23:39:32Z</time>
      </trkpt>
      <trkpt lat="43.17681848162074" lon="124.25610714880986">
        <ele>178.4131527459249</ele>
        <time>2026-08-19T23:39:44Z</time>
      </trkpt>
      <trkpt lat="43.177003646247506" lon="124.2562792678395">
        <ele>177.77748767659068</ele>
        <time>2026-08-19T23:39:53Z</time>
      </trkpt>
      <trkpt lat="43.17722787623828" lon="124.2565570646085">
        <ele>177.5375941954553</ele>
        <time>2026-08-19T23:40:05Z</time>
      </trkpt>
      <trkpt lat="43.17746974628233" lon="124.25680540184996">
        <ele>178.1307200100273</ele>
        <time>2026-08-19T23:40:17Z</time>
      </trkpt>
      <trkpt lat="43.17758158210106" lon="124.25694179623784">
        <ele>178.3454933911562</ele>
        <time>2026-08-19T23:40:23Z</time>
      </trkpt>
      <trkpt lat="43.177714690479824" lon="124.2570364259791">
        <ele>176.9629265870899</ele>
        <time>2026-08-19T23:40:29Z</time>
      </trkpt>
      <trkpt lat="43.17775977063155" lon="124.25710941020373">
        <ele>177.54068991262466</ele>
        <time>2026-08-19T23:40:32Z</time>
      </trkpt>
      <trkpt lat="43.17801320543222" lon="124.25731644510209">
        <ele>178.0987399024889</ele>
        <time>2026-08-19T23:40:44Z</time>
      </trkpt>
      <trkpt lat="43.1782821379992" lon="124.25754762409362">
        <ele>177.47947443276644</ele>
        <time>2026-08-19T23:40:56Z</time>
      </trkpt>
      <trkpt lat="43.17844665109358" lon="124.25766924982481">
        <ele>178.11971072573215</ele>
        <time>2026-08-19T23:41:02Z</time>
      </trkpt>
      <trkpt lat="43.17872610938953" lon="124.25791963736441">
        <ele>178.1313258530572</ele>
        <time>2026-08-19T23:41:14Z</time>
      </trkpt>
      <trkpt lat="43.17903811257058" lon="124.25816880758777">
        <ele>178.44911375176162</ele>
        <time>2026-08-19T23:41:28Z</time>
      </trkpt>
      <trkpt lat="43.179274399699196" lon="124.2583793433545">
        <ele>178.820275651291</ele>
        <time>2026-08-19T23:41:39Z</time>
      </trkpt>
      <trkpt lat="43.179313776631844" lon="124.25847354115079">
        <ele>177.2298822235316</ele>
        <time>2026-08-19T23:41:42Z</time>
      </trkpt>
      <trkpt lat="43.1791855596987" lon="124.25876470708292">
        <ele>177.5030279289931</ele>
        <time>2026-08-19T23:41:51Z</time>
      </trkpt>
      <trkpt lat="43.17908204373002" lon="124.25893476721978">
        <ele>177.75327628850937</ele>
        <time>2026-08-19T23:41:57Z</time>
      </trkpt>
      <trkpt lat="43.178952586249906" lon="124.2593272421863">
        <ele>177.88041171897203</ele>
        <time>2026-08-19T23:42:09Z</time>
      </trkpt>
      <trkpt lat="43.17886584373101" lon="124.25972751847898">
        <ele>177.0428924644366</ele>
        <time>2026-08-19T23:42:21Z</time>
      </trkpt>
      <trkpt lat="43.17873612211912" lon="124.26008650592965">
        <ele>176.74774678517133</ele>
        <time>2026-08-19T23:42:33Z</time>
      </trkpt>
      <trkpt lat="43.17867014639809" lon="124.26026833839342">
        <ele>177.98796227294952</ele>
        <time>2026-08-19T23:42:39Z</time>
      </trkpt>
      <trkpt lat="43.17861964066159" lon="124.26034202644665">
        <ele>177.2933121677488</ele>
        <time>2026-08-19T23:42:42Z</time>
      </trkpt>
      <trkpt lat="43.1785699906158" lon="124.26052605568404">
        <ele>177.2533555002883</ele>
        <time>2026-08-19T23:42:48Z</time>
      </trkpt>
      <trkpt lat="43.17850015011387" lon="124.26067653442752">
        <ele>177.69135988131166</ele>
        <time>2026-08-19T23:42:54Z</time>
      </trkpt>
      <trkpt lat="43.17850015011387" lon="124.26067653442752">
        <ele>177.69135988131166</ele>
        <time>2026-08-19T23:42:57Z</time>
      </trkpt>
    </trkseg>
  </trk>
</gpx>