<?xml version="1.0" encoding="UTF-8"?>
<gpx xmlns="http://www.topografix.com/GPX/1/1" xmlns:gpxtpx="http://www.garmin.com/xmlschemas/TrackPointExtension/v1" xmlns:xsi="http://www.w3.org/2001/XMLSchema-instance" xsi:schemaLocation="http://www.topografix.com/GPX/1/1 http://www.topografix.com/GPX/1/1/gpx.xsd" version="1.1" creator="gpx.py -- https://github.com/tkrajina/gpxpy">
  <trk>
    <name>gpx from keep</name>
    <type>Run</type>
    <trkseg>
      <trkpt lat="38.83752911250595" lon="121.50887769935191">
        <ele>12.307214583270252</ele>
        <time>2024-10-04T15:51:11Z</time>
      </trkpt>
      <trkpt lat="38.83749762368797" lon="121.50894652291217">
        <ele>12.376829613000154</ele>
        <time>2024-10-04T15:51:14Z</time>
      </trkpt>
      <trkpt lat="38.837302066731056" lon="121.50910163518589">
        <ele>13.157259356230497</ele>
        <time>2024-10-04T15:51:25Z</time>
      </trkpt>
      <trkpt lat="38.83720256054126" lon="121.50938930467125">
        <ele>13.540230958722532</ele>
        <time>2024-10-04T15:51:37Z</time>
        <extensions>
          <gpxtpx:TrackPointExtension>
            <gpxtpx:hr>121</gpxtpx:hr>
          </gpxtpx:TrackPointExtension>
        </extensions>
      </trkpt>
      <trkpt lat="38.837160357891584" lon="121.50946261981511">
        <ele>13.84193669538945</ele>
        <time>2024-10-04T15:51:41Z</time>
        <extensions>
          <gpxtpx:TrackPointExtension>
            <gpxtpx:hr>121</gpxtpx:hr>
          </gpxtpx:TrackPointExtension>
        </extensions>
      </trkpt>
      <trkpt lat="38.83709636471013" lon="121.50964910431229">
        <ele>15.308280249126256</ele>
        <time>2024-10-04T15:51:49Z</time>
        <extensions>
          <gpxtpx:TrackPointExtension>
            <gpxtpx:hr>105</gpxtpx:hr>
          </gpxtpx:TrackPointExtension>
        </extensions>
      </trkpt>
      <trkpt lat="38.83699235688784" lon="121.50982583891214">
        <ele>14.618391973897815</ele>
        <time>2024-10-04T15:51:57Z</time>
        <extensions>
          <gpxtpx:TrackPointExtension>
            <gpxtpx:hr>106</gpxtpx:hr>
          </gpxtpx:TrackPointExtension>
        </extensions>
      </trkpt>
      <trkpt lat="38.83692697773982" lon="121.50988258534194">
        <ele>15.421403461135924</ele>
        <time>2024-10-04T15:52:01Z</time>
        <extensions>
          <gpxtpx:TrackPointExtension>
            <gpxtpx:hr>107</gpxtpx:hr>
          </gpxtpx:TrackPointExtension>
        </extensions>
      </trkpt>
      <trkpt lat="38.83685918305778" lon="121.50990704712015">
        <ele>13.847678483463824</ele>
        <time>2024-10-04T15:52:05Z</time>
        <extensions>
          <gpxtpx:TrackPointExtension>
            <gpxtpx:hr>109</gpxtpx:hr>
          </gpxtpx:TrackPointExtension>
        </extensions>
      </trkpt>
      <trkpt lat="38.83678956922179" lon="121.50989548173172">
        <ele>12.186897031962872</ele>
        <time>2024-10-04T15:52:09Z</time>
        <extensions>
          <gpxtpx:TrackPointExtension>
            <gpxtpx:hr>109</gpxtpx:hr>
          </gpxtpx:TrackPointExtension>
        </extensions>
      </trkpt>
      <trkpt lat="38.83670053604167" lon="121.5099190069847">
        <ele>12.027289472520351</ele>
        <time>2024-10-04T15:52:13Z</time>
        <extensions>
          <gpxtpx:TrackPointExtension>
            <gpxtpx:hr>109</gpxtpx:hr>
          </gpxtpx:TrackPointExtension>
        </extensions>
      </trkpt>
      <trkpt lat="38.83662308073178" lon="121.50997174441287">
        <ele>12.658397380262613</ele>
        <time>2024-10-04T15:52:17Z</time>
        <extensions>
          <gpxtpx:TrackPointExtension>
            <gpxtpx:hr>110</gpxtpx:hr>
          </gpxtpx:TrackPointExtension>
        </extensions>
      </trkpt>
      <trkpt lat="38.83655847049444" lon="121.51007701464142">
        <ele>12.661805398762226</ele>
        <time>2024-10-04T15:52:21Z</time>
        <extensions>
          <gpxtpx:TrackPointExtension>
            <gpxtpx:hr>112</gpxtpx:hr>
          </gpxtpx:TrackPointExtension>
        </extensions>
      </trkpt>
      <trkpt lat="38.83653431332069" lon="121.51026375099777">
        <ele>9.591346396133304</ele>
        <time>2024-10-04T15:52:29Z</time>
        <extensions>
          <gpxtpx:TrackPointExtension>
            <gpxtpx:hr>117</gpxtpx:hr>
          </gpxtpx:TrackPointExtension>
        </extensions>
      </trkpt>
      <trkpt lat="38.836546554866146" lon="121.51034455124427">
        <ele>9.62906190380454</ele>
        <time>2024-10-04T15:52:33Z</time>
        <extensions>
          <gpxtpx:TrackPointExtension>
            <gpxtpx:hr>117</gpxtpx:hr>
          </gpxtpx:TrackPointExtension>
        </extensions>
      </trkpt>
      <trkpt lat="38.83666694069335" lon="121.51044896855004">
        <ele>8.477016998454928</ele>
        <time>2024-10-04T15:52:41Z</time>
        <extensions>
          <gpxtpx:TrackPointExtension>
            <gpxtpx:hr>116</gpxtpx:hr>
          </gpxtpx:TrackPointExtension>
        </extensions>
      </trkpt>
      <trkpt lat="38.83674199945955" lon="121.51047940247904">
        <ele>8.57726032473147</ele>
        <time>2024-10-04T15:52:45Z</time>
        <extensions>
          <gpxtpx:TrackPointExtension>
            <gpxtpx:hr>115</gpxtpx:hr>
          </gpxtpx:TrackPointExtension>
        </extensions>
      </trkpt>
      <trkpt lat="38.83686468600815" lon="121.51065124236239">
        <ele>9.442696793936193</ele>
        <time>2024-10-04T15:53:01Z</time>
        <extensions>
          <gpxtpx:TrackPointExtension>
            <gpxtpx:hr>118</gpxtpx:hr>
          </gpxtpx:TrackPointExtension>
        </extensions>
      </trkpt>
      <trkpt lat="38.83695347984504" lon="121.51083661938156">
        <ele>9.18901557661593</ele>
        <time>2024-10-04T15:53:38Z</time>
        <extensions>
          <gpxtpx:TrackPointExtension>
            <gpxtpx:hr>88</gpxtpx:hr>
          </gpxtpx:TrackPointExtension>
        </extensions>
      </trkpt>
      <trkpt lat="38.836996069073386" lon="121.51086685016409">
        <ele>7.591464995406568</ele>
        <time>2024-10-04T15:53:45Z</time>
        <extensions>
          <gpxtpx:TrackPointExtension>
            <gpxtpx:hr>84</gpxtpx:hr>
          </gpxtpx:TrackPointExtension>
        </extensions>
      </trkpt>
      <trkpt lat="38.8370664668666" lon="121.51079695163136">
        <ele>7.9786810670048</ele>
        <time>2024-10-04T15:53:49Z</time>
        <extensions>
          <gpxtpx:TrackPointExtension>
            <gpxtpx:hr>84</gpxtpx:hr>
          </gpxtpx:TrackPointExtension>
        </extensions>
      </trkpt>
      <trkpt lat="38.837244662327635" lon="121.51052911190695">
        <ele>7.665395455434918</ele>
        <time>2024-10-04T15:54:01Z</time>
        <extensions>
          <gpxtpx:TrackPointExtension>
            <gpxtpx:hr>98</gpxtpx:hr>
          </gpxtpx:TrackPointExtension>
        </extensions>
      </trkpt>
      <trkpt lat="38.83744167692529" lon="121.51031944214427">
        <ele>8.387887939810753</ele>
        <time>2024-10-04T15:54:13Z</time>
        <extensions>
          <gpxtpx:TrackPointExtension>
            <gpxtpx:hr>102</gpxtpx:hr>
          </gpxtpx:TrackPointExtension>
        </extensions>
      </trkpt>
      <trkpt lat="38.83765988701078" lon="121.51014246793908">
        <ele>8.299478773958981</ele>
        <time>2024-10-04T15:54:25Z</time>
        <extensions>
          <gpxtpx:TrackPointExtension>
            <gpxtpx:hr>108</gpxtpx:hr>
          </gpxtpx:TrackPointExtension>
        </extensions>
      </trkpt>
      <trkpt lat="38.837709834470196" lon="121.51005154505359">
        <ele>9.395465990528464</ele>
        <time>2024-10-04T15:54:29Z</time>
        <extensions>
          <gpxtpx:TrackPointExtension>
            <gpxtpx:hr>113</gpxtpx:hr>
          </gpxtpx:TrackPointExtension>
        </extensions>
      </trkpt>
      <trkpt lat="38.837708107735644" lon="121.50994910479129">
        <ele>8.994867937639356</ele>
        <time>2024-10-04T15:54:33Z</time>
        <extensions>
          <gpxtpx:TrackPointExtension>
            <gpxtpx:hr>113</gpxtpx:hr>
          </gpxtpx:TrackPointExtension>
        </extensions>
      </trkpt>
      <trkpt lat="38.837667285638645" lon="121.50984120396042">
        <ele>8.564469551667571</ele>
        <time>2024-10-04T15:54:37Z</time>
        <extensions>
          <gpxtpx:TrackPointExtension>
            <gpxtpx:hr>112</gpxtpx:hr>
          </gpxtpx:TrackPointExtension>
        </extensions>
      </trkpt>
      <trkpt lat="38.83759136251191" lon="121.50979380564178">
        <ele>9.341860573738813</ele>
        <time>2024-10-04T15:54:41Z</time>
        <extensions>
          <gpxtpx:TrackPointExtension>
            <gpxtpx:hr>112</gpxtpx:hr>
          </gpxtpx:TrackPointExtension>
        </extensions>
      </trkpt>
      <trkpt lat="38.837498689933696" lon="121.50978505264173">
        <ele>9.764580943621695</ele>
        <time>2024-10-04T15:54:45Z</time>
        <extensions>
          <gpxtpx:TrackPointExtension>
            <gpxtpx:hr>114</gpxtpx:hr>
          </gpxtpx:TrackPointExtension>
        </extensions>
      </trkpt>
      <trkpt lat="38.83742713885294" lon="121.5097407533074">
        <ele>9.936686135828495</ele>
        <time>2024-10-04T15:54:49Z</time>
        <extensions>
          <gpxtpx:TrackPointExtension>
            <gpxtpx:hr>117</gpxtpx:hr>
          </gpxtpx:TrackPointExtension>
        </extensions>
      </trkpt>
      <trkpt lat="38.837265651292334" lon="121.50946405312153">
        <ele>10.15082772448659</ele>
        <time>2024-10-04T15:55:01Z</time>
        <extensions>
          <gpxtpx:TrackPointExtension>
            <gpxtpx:hr>116</gpxtpx:hr>
          </gpxtpx:TrackPointExtension>
        </extensions>
      </trkpt>
      <trkpt lat="38.83720097670097" lon="121.50939500865206">
        <ele>10.032559926621616</ele>
        <time>2024-10-04T15:55:05Z</time>
        <extensions>
          <gpxtpx:TrackPointExtension>
            <gpxtpx:hr>120</gpxtpx:hr>
          </gpxtpx:TrackPointExtension>
        </extensions>
      </trkpt>
      <trkpt lat="38.83713701278814" lon="121.50937911311176">
        <ele>9.454516557045281</ele>
        <time>2024-10-04T15:55:09Z</time>
        <extensions>
          <gpxtpx:TrackPointExtension>
            <gpxtpx:hr>119</gpxtpx:hr>
          </gpxtpx:TrackPointExtension>
        </extensions>
      </trkpt>
      <trkpt lat="38.83708632737778" lon="121.50946817284665">
        <ele>10.46959757246077</ele>
        <time>2024-10-04T15:55:13Z</time>
        <extensions>
          <gpxtpx:TrackPointExtension>
            <gpxtpx:hr>119</gpxtpx:hr>
          </gpxtpx:TrackPointExtension>
        </extensions>
      </trkpt>
      <trkpt lat="38.83696193763364" lon="121.50975643865969">
        <ele>11.273507284931839</ele>
        <time>2024-10-04T15:55:25Z</time>
        <extensions>
          <gpxtpx:TrackPointExtension>
            <gpxtpx:hr>121</gpxtpx:hr>
          </gpxtpx:TrackPointExtension>
        </extensions>
      </trkpt>
      <trkpt lat="38.83681760445355" lon="121.50990154697165">
        <ele>10.245512438938022</ele>
        <time>2024-10-04T15:55:33Z</time>
        <extensions>
          <gpxtpx:TrackPointExtension>
            <gpxtpx:hr>119</gpxtpx:hr>
          </gpxtpx:TrackPointExtension>
        </extensions>
      </trkpt>
      <trkpt lat="38.83675101386413" lon="121.50993062300178">
        <ele>10.329326692037284</ele>
        <time>2024-10-04T15:55:36Z</time>
        <extensions>
          <gpxtpx:TrackPointExtension>
            <gpxtpx:hr>117</gpxtpx:hr>
          </gpxtpx:TrackPointExtension>
        </extensions>
      </trkpt>
      <trkpt lat="38.83657662101995" lon="121.50995576964299">
        <ele>8.50634182523936</ele>
        <time>2024-10-04T15:55:44Z</time>
        <extensions>
          <gpxtpx:TrackPointExtension>
            <gpxtpx:hr>114</gpxtpx:hr>
          </gpxtpx:TrackPointExtension>
        </extensions>
      </trkpt>
      <trkpt lat="38.83649522790666" lon="121.50999870496702">
        <ele>8.066862653940916</ele>
        <time>2024-10-04T15:55:48Z</time>
        <extensions>
          <gpxtpx:TrackPointExtension>
            <gpxtpx:hr>114</gpxtpx:hr>
          </gpxtpx:TrackPointExtension>
        </extensions>
      </trkpt>
      <trkpt lat="38.83646468813957" lon="121.51011499039386">
        <ele>8.472673117183149</ele>
        <time>2024-10-04T15:55:52Z</time>
        <extensions>
          <gpxtpx:TrackPointExtension>
            <gpxtpx:hr>114</gpxtpx:hr>
          </gpxtpx:TrackPointExtension>
        </extensions>
      </trkpt>
      <trkpt lat="38.836538951497545" lon="121.51034128941967">
        <ele>8.661935220472515</ele>
        <time>2024-10-04T15:56:00Z</time>
        <extensions>
          <gpxtpx:TrackPointExtension>
            <gpxtpx:hr>113</gpxtpx:hr>
          </gpxtpx:TrackPointExtension>
        </extensions>
      </trkpt>
      <trkpt lat="38.83660182135813" lon="121.51040894731968">
        <ele>8.317747693508863</ele>
        <time>2024-10-04T15:56:04Z</time>
        <extensions>
          <gpxtpx:TrackPointExtension>
            <gpxtpx:hr>113</gpxtpx:hr>
          </gpxtpx:TrackPointExtension>
        </extensions>
      </trkpt>
      <trkpt lat="38.83676585454605" lon="121.51051800353476">
        <ele>9.02760685607791</ele>
        <time>2024-10-04T15:56:12Z</time>
        <extensions>
          <gpxtpx:TrackPointExtension>
            <gpxtpx:hr>112</gpxtpx:hr>
          </gpxtpx:TrackPointExtension>
        </extensions>
      </trkpt>
      <trkpt lat="38.836901106307025" lon="121.51069758812159">
        <ele>8.990579639561474</ele>
        <time>2024-10-04T15:56:20Z</time>
        <extensions>
          <gpxtpx:TrackPointExtension>
            <gpxtpx:hr>114</gpxtpx:hr>
          </gpxtpx:TrackPointExtension>
        </extensions>
      </trkpt>
      <trkpt lat="38.83694784310779" lon="121.51080637980273">
        <ele>8.310101886279881</ele>
        <time>2024-10-04T15:56:24Z</time>
        <extensions>
          <gpxtpx:TrackPointExtension>
            <gpxtpx:hr>114</gpxtpx:hr>
          </gpxtpx:TrackPointExtension>
        </extensions>
      </trkpt>
      <trkpt lat="38.83701937721317" lon="121.51089183504642">
        <ele>8.133608750998974</ele>
        <time>2024-10-04T15:56:28Z</time>
        <extensions>
          <gpxtpx:TrackPointExtension>
            <gpxtpx:hr>114</gpxtpx:hr>
          </gpxtpx:TrackPointExtension>
        </extensions>
      </trkpt>
      <trkpt lat="38.837087709323576" lon="121.51082040881501">
        <ele>7.998346883803606</ele>
        <time>2024-10-04T15:56:32Z</time>
        <extensions>
          <gpxtpx:TrackPointExtension>
            <gpxtpx:hr>118</gpxtpx:hr>
          </gpxtpx:TrackPointExtension>
        </extensions>
      </trkpt>
      <trkpt lat="38.83723985443968" lon="121.51054245455059">
        <ele>8.318437427282333</ele>
        <time>2024-10-04T15:56:44Z</time>
        <extensions>
          <gpxtpx:TrackPointExtension>
            <gpxtpx:hr>122</gpxtpx:hr>
          </gpxtpx:TrackPointExtension>
        </extensions>
      </trkpt>
      <trkpt lat="38.837457426396675" lon="121.51031586366672">
        <ele>8.983602868393064</ele>
        <time>2024-10-04T15:56:56Z</time>
        <extensions>
          <gpxtpx:TrackPointExtension>
            <gpxtpx:hr>126</gpxtpx:hr>
          </gpxtpx:TrackPointExtension>
        </extensions>
      </trkpt>
      <trkpt lat="38.83752968971149" lon="121.51024200600814">
        <ele>8.683567497879267</ele>
        <time>2024-10-04T15:57:00Z</time>
        <extensions>
          <gpxtpx:TrackPointExtension>
            <gpxtpx:hr>128</gpxtpx:hr>
          </gpxtpx:TrackPointExtension>
        </extensions>
      </trkpt>
      <trkpt lat="38.83761380093583" lon="121.51019983259641">
        <ele>9.037121987901628</ele>
        <time>2024-10-04T15:57:04Z</time>
        <extensions>
          <gpxtpx:TrackPointExtension>
            <gpxtpx:hr>129</gpxtpx:hr>
          </gpxtpx:TrackPointExtension>
        </extensions>
      </trkpt>
      <trkpt lat="38.837709609585424" lon="121.51001667979607">
        <ele>9.052051713690162</ele>
        <time>2024-10-04T15:57:12Z</time>
        <extensions>
          <gpxtpx:TrackPointExtension>
            <gpxtpx:hr>131</gpxtpx:hr>
          </gpxtpx:TrackPointExtension>
        </extensions>
      </trkpt>
      <trkpt lat="38.83768954455975" lon="121.50990469266532">
        <ele>9.671946192160249</ele>
        <time>2024-10-04T15:57:16Z</time>
        <extensions>
          <gpxtpx:TrackPointExtension>
            <gpxtpx:hr>135</gpxtpx:hr>
          </gpxtpx:TrackPointExtension>
        </extensions>
      </trkpt>
      <trkpt lat="38.83763560623187" lon="121.50981848230029">
        <ele>10.494861562736332</ele>
        <time>2024-10-04T15:57:20Z</time>
        <extensions>
          <gpxtpx:TrackPointExtension>
            <gpxtpx:hr>137</gpxtpx:hr>
          </gpxtpx:TrackPointExtension>
        </extensions>
      </trkpt>
      <trkpt lat="38.83754578616708" lon="121.50980949096038">
        <ele>8.456597873009741</ele>
        <time>2024-10-04T15:57:24Z</time>
        <extensions>
          <gpxtpx:TrackPointExtension>
            <gpxtpx:hr>138</gpxtpx:hr>
          </gpxtpx:TrackPointExtension>
        </extensions>
      </trkpt>
      <trkpt lat="38.83744859599328" lon="121.50977306828277">
        <ele>9.25488019362092</ele>
        <time>2024-10-04T15:57:28Z</time>
        <extensions>
          <gpxtpx:TrackPointExtension>
            <gpxtpx:hr>138</gpxtpx:hr>
          </gpxtpx:TrackPointExtension>
        </extensions>
      </trkpt>
      <trkpt lat="38.837271506595634" lon="121.50948928713778">
        <ele>9.357914573512971</ele>
        <time>2024-10-04T15:57:40Z</time>
        <extensions>
          <gpxtpx:TrackPointExtension>
            <gpxtpx:hr>135</gpxtpx:hr>
          </gpxtpx:TrackPointExtension>
        </extensions>
      </trkpt>
      <trkpt lat="38.83722431599054" lon="121.5094288781183">
        <ele>10.107518391683698</ele>
        <time>2024-10-04T15:57:43Z</time>
        <extensions>
          <gpxtpx:TrackPointExtension>
            <gpxtpx:hr>137</gpxtpx:hr>
          </gpxtpx:TrackPointExtension>
        </extensions>
      </trkpt>
      <trkpt lat="38.837133912721946" lon="121.50941800092308">
        <ele>9.717164523899555</ele>
        <time>2024-10-04T15:57:47Z</time>
        <extensions>
          <gpxtpx:TrackPointExtension>
            <gpxtpx:hr>137</gpxtpx:hr>
          </gpxtpx:TrackPointExtension>
        </extensions>
      </trkpt>
      <trkpt lat="38.837074506531216" lon="121.5095007270705">
        <ele>9.667483113706112</ele>
        <time>2024-10-04T15:57:51Z</time>
        <extensions>
          <gpxtpx:TrackPointExtension>
            <gpxtpx:hr>135</gpxtpx:hr>
          </gpxtpx:TrackPointExtension>
        </extensions>
      </trkpt>
      <trkpt lat="38.83699110996956" lon="121.5097096588849">
        <ele>9.804751109331846</ele>
        <time>2024-10-04T15:57:59Z</time>
        <extensions>
          <gpxtpx:TrackPointExtension>
            <gpxtpx:hr>137</gpxtpx:hr>
          </gpxtpx:TrackPointExtension>
        </extensions>
      </trkpt>
      <trkpt lat="38.83685264429735" lon="121.50988965489333">
        <ele>9.857649315148592</ele>
        <time>2024-10-04T15:58:07Z</time>
        <extensions>
          <gpxtpx:TrackPointExtension>
            <gpxtpx:hr>139</gpxtpx:hr>
          </gpxtpx:TrackPointExtension>
        </extensions>
      </trkpt>
      <trkpt lat="38.83666881776664" lon="121.50994456697015">
        <ele>7.3500388963148</ele>
        <time>2024-10-04T15:58:15Z</time>
        <extensions>
          <gpxtpx:TrackPointExtension>
            <gpxtpx:hr>137</gpxtpx:hr>
          </gpxtpx:TrackPointExtension>
        </extensions>
      </trkpt>
      <trkpt lat="38.83657525474431" lon="121.5099520920068">
        <ele>7.080435634590685</ele>
        <time>2024-10-04T15:58:19Z</time>
        <extensions>
          <gpxtpx:TrackPointExtension>
            <gpxtpx:hr>138</gpxtpx:hr>
          </gpxtpx:TrackPointExtension>
        </extensions>
      </trkpt>
      <trkpt lat="38.83649833932211" lon="121.50999310036731">
        <ele>6.993422953411937</ele>
        <time>2024-10-04T15:58:23Z</time>
        <extensions>
          <gpxtpx:TrackPointExtension>
            <gpxtpx:hr>138</gpxtpx:hr>
          </gpxtpx:TrackPointExtension>
        </extensions>
      </trkpt>
      <trkpt lat="38.83646466807005" lon="121.51011819291827">
        <ele>7.1123804515227675</ele>
        <time>2024-10-04T15:58:27Z</time>
        <extensions>
          <gpxtpx:TrackPointExtension>
            <gpxtpx:hr>138</gpxtpx:hr>
          </gpxtpx:TrackPointExtension>
        </extensions>
      </trkpt>
      <trkpt lat="38.83653288003233" lon="121.51034961323076">
        <ele>8.417593957856297</ele>
        <time>2024-10-04T15:58:35Z</time>
        <extensions>
          <gpxtpx:TrackPointExtension>
            <gpxtpx:hr>137</gpxtpx:hr>
          </gpxtpx:TrackPointExtension>
        </extensions>
      </trkpt>
      <trkpt lat="38.83661243917538" lon="121.51042184889238">
        <ele>8.593405097723007</ele>
        <time>2024-10-04T15:58:39Z</time>
        <extensions>
          <gpxtpx:TrackPointExtension>
            <gpxtpx:hr>138</gpxtpx:hr>
          </gpxtpx:TrackPointExtension>
        </extensions>
      </trkpt>
      <trkpt lat="38.836705154801024" lon="121.5104742671346">
        <ele>7.901629017665982</ele>
        <time>2024-10-04T15:58:43Z</time>
        <extensions>
          <gpxtpx:TrackPointExtension>
            <gpxtpx:hr>138</gpxtpx:hr>
          </gpxtpx:TrackPointExtension>
        </extensions>
      </trkpt>
      <trkpt lat="38.83684975321458" lon="121.51063595669287">
        <ele>9.069040137343109</ele>
        <time>2024-10-04T15:58:51Z</time>
        <extensions>
          <gpxtpx:TrackPointExtension>
            <gpxtpx:hr>138</gpxtpx:hr>
          </gpxtpx:TrackPointExtension>
        </extensions>
      </trkpt>
      <trkpt lat="38.83691058390393" lon="121.51073341392522">
        <ele>9.125121331773698</ele>
        <time>2024-10-04T15:58:55Z</time>
        <extensions>
          <gpxtpx:TrackPointExtension>
            <gpxtpx:hr>137</gpxtpx:hr>
          </gpxtpx:TrackPointExtension>
        </extensions>
      </trkpt>
      <trkpt lat="38.836952537380185" lon="121.5108392850662">
        <ele>7.724276429973543</ele>
        <time>2024-10-04T15:58:59Z</time>
        <extensions>
          <gpxtpx:TrackPointExtension>
            <gpxtpx:hr>140</gpxtpx:hr>
          </gpxtpx:TrackPointExtension>
        </extensions>
      </trkpt>
      <trkpt lat="38.83704958542668" lon="121.51087539344495">
        <ele>8.640310648828745</ele>
        <time>2024-10-04T15:59:03Z</time>
        <extensions>
          <gpxtpx:TrackPointExtension>
            <gpxtpx:hr>140</gpxtpx:hr>
          </gpxtpx:TrackPointExtension>
        </extensions>
      </trkpt>
      <trkpt lat="38.837099291356274" lon="121.5107722222404">
        <ele>7.737130889669061</ele>
        <time>2024-10-04T15:59:07Z</time>
        <extensions>
          <gpxtpx:TrackPointExtension>
            <gpxtpx:hr>139</gpxtpx:hr>
          </gpxtpx:TrackPointExtension>
        </extensions>
      </trkpt>
      <trkpt lat="38.83726486453336" lon="121.51052487130286">
        <ele>8.124501714482903</ele>
        <time>2024-10-04T15:59:19Z</time>
        <extensions>
          <gpxtpx:TrackPointExtension>
            <gpxtpx:hr>141</gpxtpx:hr>
          </gpxtpx:TrackPointExtension>
        </extensions>
      </trkpt>
      <trkpt lat="38.83747889229717" lon="121.51030240538265">
        <ele>9.09280507080257</ele>
        <time>2024-10-04T15:59:31Z</time>
        <extensions>
          <gpxtpx:TrackPointExtension>
            <gpxtpx:hr>139</gpxtpx:hr>
          </gpxtpx:TrackPointExtension>
        </extensions>
      </trkpt>
      <trkpt lat="38.83763140933225" lon="121.51019105480384">
        <ele>9.122068791650236</ele>
        <time>2024-10-04T15:59:39Z</time>
        <extensions>
          <gpxtpx:TrackPointExtension>
            <gpxtpx:hr>140</gpxtpx:hr>
          </gpxtpx:TrackPointExtension>
        </extensions>
      </trkpt>
      <trkpt lat="38.837695056890105" lon="121.51010318858667">
        <ele>8.904179810546339</ele>
        <time>2024-10-04T15:59:43Z</time>
        <extensions>
          <gpxtpx:TrackPointExtension>
            <gpxtpx:hr>141</gpxtpx:hr>
          </gpxtpx:TrackPointExtension>
        </extensions>
      </trkpt>
      <trkpt lat="38.83772775690905" lon="121.50999876474471">
        <ele>9.581853547133505</ele>
        <time>2024-10-04T15:59:47Z</time>
        <extensions>
          <gpxtpx:TrackPointExtension>
            <gpxtpx:hr>141</gpxtpx:hr>
          </gpxtpx:TrackPointExtension>
        </extensions>
      </trkpt>
      <trkpt lat="38.83770000739284" lon="121.50988726721573">
        <ele>7.62953363917768</ele>
        <time>2024-10-04T15:59:51Z</time>
        <extensions>
          <gpxtpx:TrackPointExtension>
            <gpxtpx:hr>141</gpxtpx:hr>
          </gpxtpx:TrackPointExtension>
        </extensions>
      </trkpt>
      <trkpt lat="38.837407878309186" lon="121.50970090420729">
        <ele>9.320706638507545</ele>
        <time>2024-10-04T16:00:03Z</time>
        <extensions>
          <gpxtpx:TrackPointExtension>
            <gpxtpx:hr>140</gpxtpx:hr>
          </gpxtpx:TrackPointExtension>
        </extensions>
      </trkpt>
      <trkpt lat="38.83734878918946" lon="121.5096135133643">
        <ele>9.956166850402951</ele>
        <time>2024-10-04T16:00:07Z</time>
        <extensions>
          <gpxtpx:TrackPointExtension>
            <gpxtpx:hr>142</gpxtpx:hr>
          </gpxtpx:TrackPointExtension>
        </extensions>
      </trkpt>
      <trkpt lat="38.837299793611784" lon="121.50949157133417">
        <ele>9.850612387992442</ele>
        <time>2024-10-04T16:00:11Z</time>
        <extensions>
          <gpxtpx:TrackPointExtension>
            <gpxtpx:hr>143</gpxtpx:hr>
          </gpxtpx:TrackPointExtension>
        </extensions>
      </trkpt>
      <trkpt lat="38.837219048131786" lon="121.50940437754534">
        <ele>10.056238925084472</ele>
        <time>2024-10-04T16:00:15Z</time>
        <extensions>
          <gpxtpx:TrackPointExtension>
            <gpxtpx:hr>142</gpxtpx:hr>
          </gpxtpx:TrackPointExtension>
        </extensions>
      </trkpt>
      <trkpt lat="38.83716145078715" lon="121.5093110553736">
        <ele>9.838445861823857</ele>
        <time>2024-10-04T16:00:19Z</time>
        <extensions>
          <gpxtpx:TrackPointExtension>
            <gpxtpx:hr>142</gpxtpx:hr>
          </gpxtpx:TrackPointExtension>
        </extensions>
      </trkpt>
      <trkpt lat="38.83725792018087" lon="121.50907019454772">
        <ele>10.061215855181217</ele>
        <time>2024-10-04T16:00:27Z</time>
        <extensions>
          <gpxtpx:TrackPointExtension>
            <gpxtpx:hr>142</gpxtpx:hr>
          </gpxtpx:TrackPointExtension>
        </extensions>
      </trkpt>
      <trkpt lat="38.83732681587664" lon="121.50899762967695">
        <ele>10.82411999348551</ele>
        <time>2024-10-04T16:00:31Z</time>
        <extensions>
          <gpxtpx:TrackPointExtension>
            <gpxtpx:hr>143</gpxtpx:hr>
          </gpxtpx:TrackPointExtension>
        </extensions>
      </trkpt>
      <trkpt lat="38.83741395764216" lon="121.50894411419063">
        <ele>10.764005407691002</ele>
        <time>2024-10-04T16:00:35Z</time>
        <extensions>
          <gpxtpx:TrackPointExtension>
            <gpxtpx:hr>143</gpxtpx:hr>
          </gpxtpx:TrackPointExtension>
        </extensions>
      </trkpt>
      <trkpt lat="38.83749867670574" lon="121.50874860945854">
        <ele>11.255173349753022</ele>
        <time>2024-10-04T16:00:43Z</time>
        <extensions>
          <gpxtpx:TrackPointExtension>
            <gpxtpx:hr>144</gpxtpx:hr>
          </gpxtpx:TrackPointExtension>
        </extensions>
      </trkpt>
      <trkpt lat="38.83754957832205" lon="121.50867287702042">
        <ele>10.475183257833123</ele>
        <time>2024-10-04T16:00:47Z</time>
        <extensions>
          <gpxtpx:TrackPointExtension>
            <gpxtpx:hr>145</gpxtpx:hr>
          </gpxtpx:TrackPointExtension>
        </extensions>
      </trkpt>
      <trkpt lat="38.83762198031685" lon="121.50842958646072">
        <ele>12.532470753416419</ele>
        <time>2024-10-04T16:01:03Z</time>
        <extensions>
          <gpxtpx:TrackPointExtension>
            <gpxtpx:hr>142</gpxtpx:hr>
          </gpxtpx:TrackPointExtension>
        </extensions>
      </trkpt>
    </trkseg>
  </trk>
</gpx>