<?xml version="1.0" encoding="UTF-8"?>
<gpx xmlns="http://www.topografix.com/GPX/1/1" xmlns:gpxtpx="http://www.garmin.com/xmlschemas/TrackPointExtension/v1" xmlns:xsi="http://www.w3.org/2001/XMLSchema-instance" xsi:schemaLocation="http://www.topografix.com/GPX/1/1 http://www.topografix.com/GPX/1/1/gpx.xsd" version="1.1" creator="gpx.py -- https://github.com/tkrajina/gpxpy">
  <trk>
    <name>gpx from keep</name>
    <type>Run</type>
    <trkseg>
      <trkpt lat="38.8356534676489" lon="121.50959532940004">
        <ele>8.710993463842044</ele>
        <time>2026-02-05T23:51:10Z</time>
      </trkpt>
      <trkpt lat="38.83563450084975" lon="121.50965198595318">
        <ele>9.145981668121145</ele>
        <time>2026-02-05T23:51:19Z</time>
      </trkpt>
      <trkpt lat="38.83577024208472" lon="121.50988311407104">
        <ele>8.734178737737238</ele>
        <time>2026-02-05T23:51:39Z</time>
      </trkpt>
      <trkpt lat="38.835812486405956" lon="121.50991391081993">
        <ele>10.89056998770684</ele>
        <time>2026-02-05T23:51:47Z</time>
      </trkpt>
      <trkpt lat="38.83584558756706" lon="121.50998588004428">
        <ele>11.24107937887311</ele>
        <time>2026-02-05T23:51:55Z</time>
      </trkpt>
      <trkpt lat="38.83590145433439" lon="121.50996968254515">
        <ele>10.352185532450676</ele>
        <time>2026-02-05T23:51:59Z</time>
      </trkpt>
      <trkpt lat="38.83595304338111" lon="121.51004691901831">
        <ele>9.572101453319192</ele>
        <time>2026-02-05T23:52:03Z</time>
      </trkpt>
      <trkpt lat="38.835987748692204" lon="121.51014645186994">
        <ele>8.738979564979672</ele>
        <time>2026-02-05T23:52:11Z</time>
      </trkpt>
      <trkpt lat="38.83610605750592" lon="121.510211234664">
        <ele>9.955432587303221</ele>
        <time>2026-02-05T23:52:20Z</time>
      </trkpt>
      <trkpt lat="38.83618349938771" lon="121.51034447468962">
        <ele>9.332040835171938</ele>
        <time>2026-02-05T23:52:29Z</time>
      </trkpt>
      <trkpt lat="38.83621738236957" lon="121.51043993509231">
        <ele>7.667127996683121</ele>
        <time>2026-02-05T23:52:35Z</time>
      </trkpt>
      <trkpt lat="38.836229395540315" lon="121.51068269057345">
        <ele>9.482789661735296</ele>
        <time>2026-02-05T23:52:47Z</time>
      </trkpt>
      <trkpt lat="38.83616150124553" lon="121.51089057722042">
        <ele>8.745280393399298</ele>
        <time>2026-02-05T23:52:59Z</time>
      </trkpt>
      <trkpt lat="38.8360236413127" lon="121.51114894569885">
        <ele>8.321988110430539</ele>
        <time>2026-02-05T23:53:14Z</time>
      </trkpt>
      <trkpt lat="38.83596559024828" lon="121.51131290177669">
        <ele>7.678447618149221</ele>
        <time>2026-02-05T23:53:24Z</time>
      </trkpt>
      <trkpt lat="38.83594246396478" lon="121.5114369118191">
        <ele>7.631257509812713</ele>
        <time>2026-02-05T23:53:31Z</time>
      </trkpt>
      <trkpt lat="38.83594450383098" lon="121.51151055838395">
        <ele>8.01234161388129</ele>
        <time>2026-02-05T23:53:35Z</time>
      </trkpt>
      <trkpt lat="38.83600641282729" lon="121.51171679842057">
        <ele>7.725174809806049</ele>
        <time>2026-02-05T23:53:47Z</time>
      </trkpt>
      <trkpt lat="38.83604183297828" lon="121.51178892599316">
        <ele>8.695095133967698</ele>
        <time>2026-02-05T23:53:53Z</time>
      </trkpt>
      <trkpt lat="38.83594458677449" lon="121.511531955424">
        <ele>6.826552197337151</ele>
        <time>2026-02-05T23:54:08Z</time>
      </trkpt>
      <trkpt lat="38.83593453019062" lon="121.51147030300666">
        <ele>7.063978737220168</ele>
        <time>2026-02-05T23:54:11Z</time>
      </trkpt>
      <trkpt lat="38.83596381161783" lon="121.51131188916838">
        <ele>7.118025121279061</ele>
        <time>2026-02-05T23:54:20Z</time>
      </trkpt>
      <trkpt lat="38.836032407765586" lon="121.51115016749958">
        <ele>7.965898644179106</ele>
        <time>2026-02-05T23:54:35Z</time>
      </trkpt>
      <trkpt lat="38.83618794238847" lon="121.5108806140357">
        <ele>8.727185850031674</ele>
        <time>2026-02-05T23:54:53Z</time>
      </trkpt>
      <trkpt lat="38.8362732470103" lon="121.51058773289711">
        <ele>9.36163228098303</ele>
        <time>2026-02-05T23:55:11Z</time>
      </trkpt>
      <trkpt lat="38.83649908356714" lon="121.5104951428778">
        <ele>10.473671067506075</ele>
        <time>2026-02-05T23:55:30Z</time>
      </trkpt>
      <trkpt lat="38.83654760042933" lon="121.5104376893402">
        <ele>9.759734076447785</ele>
        <time>2026-02-05T23:55:36Z</time>
      </trkpt>
      <trkpt lat="38.836635008695794" lon="121.5104413854968">
        <ele>9.777455950155854</ele>
        <time>2026-02-05T23:55:42Z</time>
      </trkpt>
      <trkpt lat="38.83679672184826" lon="121.5105935187583">
        <ele>10.04232282936573</ele>
        <time>2026-02-05T23:55:57Z</time>
      </trkpt>
      <trkpt lat="38.83693562364206" lon="121.51084277976568">
        <ele>9.820647682994604</ele>
        <time>2026-02-05T23:56:12Z</time>
      </trkpt>
      <trkpt lat="38.836972319539285" lon="121.51088254541652">
        <ele>9.353224542923272</ele>
        <time>2026-02-05T23:56:15Z</time>
      </trkpt>
      <trkpt lat="38.83703294054243" lon="121.51087608163047">
        <ele>9.706346369348466</ele>
        <time>2026-02-05T23:56:18Z</time>
      </trkpt>
      <trkpt lat="38.83720813179382" lon="121.51061472860944">
        <ele>9.981874477118254</ele>
        <time>2026-02-05T23:56:36Z</time>
      </trkpt>
      <trkpt lat="38.83721354312822" lon="121.51055386004982">
        <ele>10.641672758385539</ele>
        <time>2026-02-05T23:56:39Z</time>
      </trkpt>
      <trkpt lat="38.837270600843894" lon="121.5105487140291">
        <ele>10.330047154799104</ele>
        <time>2026-02-05T23:56:42Z</time>
      </trkpt>
      <trkpt lat="38.83727423918108" lon="121.51048041465215">
        <ele>10.252128350548446</ele>
        <time>2026-02-05T23:56:45Z</time>
      </trkpt>
      <trkpt lat="38.83732865395322" lon="121.5104577732512">
        <ele>10.192363501526415</ele>
        <time>2026-02-05T23:56:48Z</time>
      </trkpt>
      <trkpt lat="38.83735545764107" lon="121.51038702103318">
        <ele>10.329772937111557</ele>
        <time>2026-02-05T23:56:51Z</time>
      </trkpt>
      <trkpt lat="38.83759856830866" lon="121.51019883064558">
        <ele>11.06628227327019</ele>
        <time>2026-02-05T23:57:09Z</time>
      </trkpt>
      <trkpt lat="38.83763300703723" lon="121.51015052927116">
        <ele>11.530880460515618</ele>
        <time>2026-02-05T23:57:12Z</time>
      </trkpt>
      <trkpt lat="38.837686223120144" lon="121.5101249847807">
        <ele>11.659279608167708</ele>
        <time>2026-02-05T23:57:15Z</time>
      </trkpt>
      <trkpt lat="38.83769884155221" lon="121.51005863354692">
        <ele>11.595169411040843</ele>
        <time>2026-02-05T23:57:18Z</time>
      </trkpt>
      <trkpt lat="38.83774082668428" lon="121.51000142016123">
        <ele>11.28779566846788</ele>
        <time>2026-02-05T23:57:21Z</time>
      </trkpt>
      <trkpt lat="38.83776113669672" lon="121.50970587035997">
        <ele>10.126612281426787</ele>
        <time>2026-02-05T23:57:34Z</time>
      </trkpt>
      <trkpt lat="38.837753757222146" lon="121.50941196193327">
        <ele>10.948115202598274</ele>
        <time>2026-02-05T23:57:49Z</time>
      </trkpt>
      <trkpt lat="38.83778232806723" lon="121.50927066480403">
        <ele>11.416401796974242</ele>
        <time>2026-02-05T23:57:55Z</time>
      </trkpt>
      <trkpt lat="38.837719705528144" lon="121.5092178334558">
        <ele>11.036096499301493</ele>
        <time>2026-02-05T23:58:01Z</time>
      </trkpt>
      <trkpt lat="38.83774088781211" lon="121.50900206810134">
        <ele>10.372989164665341</ele>
        <time>2026-02-05T23:58:10Z</time>
      </trkpt>
      <trkpt lat="38.83779552701705" lon="121.50898710446685">
        <ele>10.250004414469004</ele>
        <time>2026-02-05T23:58:13Z</time>
      </trkpt>
      <trkpt lat="38.837833050574595" lon="121.5090398410998">
        <ele>10.90426186658442</ele>
        <time>2026-02-05T23:58:16Z</time>
      </trkpt>
      <trkpt lat="38.8377913997193" lon="121.50918041136441">
        <ele>10.508961657993495</ele>
        <time>2026-02-05T23:58:22Z</time>
      </trkpt>
      <trkpt lat="38.8377262969258" lon="121.50920600436615">
        <ele>11.420254438184202</ele>
        <time>2026-02-05T23:58:25Z</time>
      </trkpt>
      <trkpt lat="38.83768896996738" lon="121.50916601055458">
        <ele>10.506482527591288</ele>
        <time>2026-02-05T23:58:28Z</time>
      </trkpt>
      <trkpt lat="38.837707926844985" lon="121.50908452268276">
        <ele>10.000202658586204</ele>
        <time>2026-02-05T23:58:31Z</time>
      </trkpt>
      <trkpt lat="38.83774351705937" lon="121.50902116360483">
        <ele>10.005708984099329</ele>
        <time>2026-02-05T23:58:34Z</time>
      </trkpt>
      <trkpt lat="38.83780235253225" lon="121.50903231221292">
        <ele>10.906744082458317</ele>
        <time>2026-02-05T23:58:37Z</time>
      </trkpt>
      <trkpt lat="38.837812064395564" lon="121.50910716585759">
        <ele>9.40932969097048</ele>
        <time>2026-02-05T23:58:40Z</time>
      </trkpt>
      <trkpt lat="38.837768824351016" lon="121.50917544604303">
        <ele>10.59790454339236</ele>
        <time>2026-02-05T23:58:43Z</time>
      </trkpt>
      <trkpt lat="38.83771756383959" lon="121.50913285331215">
        <ele>10.656463488936424</ele>
        <time>2026-02-05T23:58:46Z</time>
      </trkpt>
      <trkpt lat="38.83774438130483" lon="121.5089079742399">
        <ele>10.540313828736544</ele>
        <time>2026-02-05T23:58:55Z</time>
      </trkpt>
      <trkpt lat="38.837792299236185" lon="121.50886843393164">
        <ele>11.138413593173027</ele>
        <time>2026-02-05T23:58:58Z</time>
      </trkpt>
      <trkpt lat="38.837812066581435" lon="121.50895087243373">
        <ele>10.494954720139503</ele>
        <time>2026-02-05T23:59:01Z</time>
      </trkpt>
      <trkpt lat="38.837800244772936" lon="121.50901993645606">
        <ele>11.760851048864424</ele>
        <time>2026-02-05T23:59:04Z</time>
      </trkpt>
      <trkpt lat="38.83780657719028" lon="121.5091054743552">
        <ele>11.755391323938966</ele>
        <time>2026-02-05T23:59:07Z</time>
      </trkpt>
      <trkpt lat="38.837788440198544" lon="121.50917680639837">
        <ele>12.006922414526343</ele>
        <time>2026-02-05T23:59:10Z</time>
      </trkpt>
      <trkpt lat="38.83773788973886" lon="121.50921137707996">
        <ele>11.609343438409269</ele>
        <time>2026-02-05T23:59:13Z</time>
      </trkpt>
      <trkpt lat="38.83769314001883" lon="121.50916637413785">
        <ele>11.08314442448318</ele>
        <time>2026-02-05T23:59:16Z</time>
      </trkpt>
      <trkpt lat="38.83771061789026" lon="121.50908639796025">
        <ele>11.329399075359106</ele>
        <time>2026-02-05T23:59:19Z</time>
      </trkpt>
      <trkpt lat="38.83775690250384" lon="121.50902925245201">
        <ele>12.113124399445951</ele>
        <time>2026-02-05T23:59:22Z</time>
      </trkpt>
      <trkpt lat="38.83781059108908" lon="121.50900995805796">
        <ele>11.705065987072885</ele>
        <time>2026-02-05T23:59:25Z</time>
      </trkpt>
      <trkpt lat="38.83783817609879" lon="121.50907975747138">
        <ele>11.643139345571399</ele>
        <time>2026-02-05T23:59:28Z</time>
      </trkpt>
      <trkpt lat="38.837813944744376" lon="121.50915153155815">
        <ele>11.671273369342089</ele>
        <time>2026-02-05T23:59:31Z</time>
      </trkpt>
      <trkpt lat="38.83775809955225" lon="121.50919120578162">
        <ele>11.093438792042434</ele>
        <time>2026-02-05T23:59:34Z</time>
      </trkpt>
      <trkpt lat="38.83773175781702" lon="121.50905962836579">
        <ele>10.139089757576585</ele>
        <time>2026-02-05T23:59:41Z</time>
      </trkpt>
      <trkpt lat="38.83780659699579" lon="121.50893081608415">
        <ele>11.523166901431978</ele>
        <time>2026-02-05T23:59:47Z</time>
      </trkpt>
      <trkpt lat="38.837724777671696" lon="121.5089414549415">
        <ele>11.863352442160249</ele>
        <time>2026-02-05T23:59:50Z</time>
      </trkpt>
      <trkpt lat="38.83778969932214" lon="121.5089628395957">
        <ele>12.512859720736742</ele>
        <time>2026-02-05T23:59:53Z</time>
      </trkpt>
      <trkpt lat="38.837727023852004" lon="121.50881258077955">
        <ele>11.03986357524991</ele>
        <time>2026-02-05T23:59:59Z</time>
      </trkpt>
      <trkpt lat="38.8377466391212" lon="121.50850723505728">
        <ele>12.243902353569865</ele>
        <time>2026-02-06T00:00:11Z</time>
      </trkpt>
      <trkpt lat="38.83770172545576" lon="121.5084077518268">
        <ele>11.750957699492574</ele>
        <time>2026-02-06T00:00:15Z</time>
      </trkpt>
      <trkpt lat="38.83764280411999" lon="121.5084462294965">
        <ele>13.510894853621721</ele>
        <time>2026-02-06T00:00:18Z</time>
      </trkpt>
      <trkpt lat="38.83762198925361" lon="121.50840004842205">
        <ele>11.970528233796358</ele>
        <time>2026-02-06T00:00:33Z</time>
      </trkpt>
      <trkpt lat="38.83761489381392" lon="121.50832389862236">
        <ele>12.965077730827034</ele>
        <time>2026-02-06T00:00:36Z</time>
      </trkpt>
      <trkpt lat="38.83739315564542" lon="121.50811374245184">
        <ele>13.028018903918564</ele>
        <time>2026-02-06T00:00:48Z</time>
      </trkpt>
      <trkpt lat="38.837274063556734" lon="121.5079808097823">
        <ele>11.970496324822307</ele>
        <time>2026-02-06T00:00:54Z</time>
      </trkpt>
      <trkpt lat="38.83714294935588" lon="121.5078691861731">
        <ele>12.65576611738652</ele>
        <time>2026-02-06T00:01:00Z</time>
      </trkpt>
      <trkpt lat="38.837096123017034" lon="121.50779908534355">
        <ele>11.832645260728896</ele>
        <time>2026-02-06T00:01:03Z</time>
      </trkpt>
      <trkpt lat="38.83687277936185" lon="121.50756599683572">
        <ele>11.420773713849485</ele>
        <time>2026-02-06T00:01:15Z</time>
      </trkpt>
      <trkpt lat="38.836880840568874" lon="121.50762803695025">
        <ele>11.409074251540005</ele>
        <time>2026-02-06T00:01:18Z</time>
      </trkpt>
      <trkpt lat="38.83693652586117" lon="121.50765656078862">
        <ele>12.343113698065281</ele>
        <time>2026-02-06T00:01:21Z</time>
      </trkpt>
      <trkpt lat="38.83706753298229" lon="121.50785463137328">
        <ele>12.211002346128225</ele>
        <time>2026-02-06T00:01:30Z</time>
      </trkpt>
      <trkpt lat="38.837256446667844" lon="121.5080427543841">
        <ele>11.699661715887487</ele>
        <time>2026-02-06T00:01:39Z</time>
      </trkpt>
      <trkpt lat="38.83731223143702" lon="121.5080637228751">
        <ele>12.708348678424954</ele>
        <time>2026-02-06T00:01:42Z</time>
      </trkpt>
      <trkpt lat="38.83706567478071" lon="121.50776987409247">
        <ele>11.962812203913927</ele>
        <time>2026-02-06T00:01:55Z</time>
      </trkpt>
      <trkpt lat="38.83684053642033" lon="121.50756844220274">
        <ele>10.735310104675591</ele>
        <time>2026-02-06T00:02:07Z</time>
      </trkpt>
      <trkpt lat="38.83677987845468" lon="121.5075279968437">
        <ele>9.943367588333786</ele>
        <time>2026-02-06T00:02:10Z</time>
      </trkpt>
      <trkpt lat="38.836753594863715" lon="121.50748048479349">
        <ele>10.304684820584953</ele>
        <time>2026-02-06T00:02:16Z</time>
      </trkpt>
      <trkpt lat="38.83674562455404" lon="121.50742305961195">
        <ele>11.5303769512102</ele>
        <time>2026-02-06T00:02:19Z</time>
      </trkpt>
      <trkpt lat="38.8366884753203" lon="121.50740644793304">
        <ele>11.362503623589873</ele>
        <time>2026-02-06T00:02:25Z</time>
      </trkpt>
      <trkpt lat="38.83674405763713" lon="121.50720167553574">
        <ele>12.270257195457816</ele>
        <time>2026-02-06T00:02:46Z</time>
      </trkpt>
      <trkpt lat="38.83678915357425" lon="121.50720269361278">
        <ele>12.077666620723903</ele>
        <time>2026-02-06T00:02:49Z</time>
      </trkpt>
      <trkpt lat="38.83696964809282" lon="121.50688742356924">
        <ele>11.55963538121432</ele>
        <time>2026-02-06T00:03:04Z</time>
      </trkpt>
      <trkpt lat="38.83711981659213" lon="121.5066822623464">
        <ele>11.60276707727462</ele>
        <time>2026-02-06T00:03:13Z</time>
      </trkpt>
      <trkpt lat="38.83714022497514" lon="121.50660276192939">
        <ele>11.109296933747828</ele>
        <time>2026-02-06T00:03:16Z</time>
      </trkpt>
      <trkpt lat="38.83726263535158" lon="121.50639340149792">
        <ele>10.906210558488965</ele>
        <time>2026-02-06T00:03:25Z</time>
      </trkpt>
      <trkpt lat="38.837279439432855" lon="121.50629953782452">
        <ele>11.845638867467642</ele>
        <time>2026-02-06T00:03:28Z</time>
      </trkpt>
      <trkpt lat="38.83725533447657" lon="121.50623571142843">
        <ele>11.873987984843552</ele>
        <time>2026-02-06T00:03:31Z</time>
      </trkpt>
      <trkpt lat="38.837314722753845" lon="121.50618473239882">
        <ele>10.502239271067083</ele>
        <time>2026-02-06T00:03:34Z</time>
      </trkpt>
      <trkpt lat="38.83747583140008" lon="121.50589937021635">
        <ele>11.990323808044195</ele>
        <time>2026-02-06T00:03:46Z</time>
      </trkpt>
      <trkpt lat="38.83764846665041" lon="121.50559547009765">
        <ele>11.324258483015</ele>
        <time>2026-02-06T00:03:59Z</time>
      </trkpt>
      <trkpt lat="38.83776576767297" lon="121.50537727448516">
        <ele>10.62727721221745</ele>
        <time>2026-02-06T00:04:08Z</time>
      </trkpt>
      <trkpt lat="38.83781063259917" lon="121.50532912356282">
        <ele>9.923008270561695</ele>
        <time>2026-02-06T00:04:11Z</time>
      </trkpt>
      <trkpt lat="38.837877510601" lon="121.50535196955555">
        <ele>8.652984247542918</ele>
        <time>2026-02-06T00:04:17Z</time>
      </trkpt>
      <trkpt lat="38.837804978979506" lon="121.50542453106624">
        <ele>8.845085891894996</ele>
        <time>2026-02-06T00:04:20Z</time>
      </trkpt>
      <trkpt lat="38.83764149405536" lon="121.50571642467733">
        <ele>10.064791858196259</ele>
        <time>2026-02-06T00:04:32Z</time>
      </trkpt>
      <trkpt lat="38.83750747063654" lon="121.50596245993306">
        <ele>11.304561786353588</ele>
        <time>2026-02-06T00:04:41Z</time>
      </trkpt>
      <trkpt lat="38.837306533886824" lon="121.50628206938032">
        <ele>11.748715898953378</ele>
        <time>2026-02-06T00:04:53Z</time>
      </trkpt>
      <trkpt lat="38.837243719080966" lon="121.50631438002722">
        <ele>11.937812264077365</ele>
        <time>2026-02-06T00:04:56Z</time>
      </trkpt>
      <trkpt lat="38.83726078655075" lon="121.50622552958919">
        <ele>10.964531484991312</ele>
        <time>2026-02-06T00:04:59Z</time>
      </trkpt>
      <trkpt lat="38.837365428116" lon="121.50610232959714">
        <ele>10.354432575404644</ele>
        <time>2026-02-06T00:05:05Z</time>
      </trkpt>
      <trkpt lat="38.8374933612169" lon="121.50586134137065">
        <ele>11.781693746335804</ele>
        <time>2026-02-06T00:05:14Z</time>
      </trkpt>
      <trkpt lat="38.837591541004706" lon="121.5057139519587">
        <ele>11.557851294986904</ele>
        <time>2026-02-06T00:05:20Z</time>
      </trkpt>
      <trkpt lat="38.837624215199114" lon="121.5056277632141">
        <ele>11.399188962765038</ele>
        <time>2026-02-06T00:05:23Z</time>
      </trkpt>
      <trkpt lat="38.83780872889103" lon="121.50532534284187">
        <ele>10.722265248186886</ele>
        <time>2026-02-06T00:05:35Z</time>
      </trkpt>
      <trkpt lat="38.837865353365096" lon="121.50530624041538">
        <ele>10.431363748386502</ele>
        <time>2026-02-06T00:05:38Z</time>
      </trkpt>
      <trkpt lat="38.83788381668346" lon="121.5053662482898">
        <ele>11.297645107842982</ele>
        <time>2026-02-06T00:05:41Z</time>
      </trkpt>
      <trkpt lat="38.83788966416067" lon="121.5052992724225">
        <ele>10.72610933240503</ele>
        <time>2026-02-06T00:05:53Z</time>
      </trkpt>
      <trkpt lat="38.83799449696631" lon="121.50506687242058">
        <ele>7.668338321149349</ele>
        <time>2026-02-06T00:06:03Z</time>
      </trkpt>
      <trkpt lat="38.83805918116275" lon="121.50499482860216">
        <ele>9.112605320289731</ele>
        <time>2026-02-06T00:06:06Z</time>
      </trkpt>
      <trkpt lat="38.83810311396034" lon="121.504917349234">
        <ele>10.552480493672192</ele>
        <time>2026-02-06T00:06:09Z</time>
      </trkpt>
      <trkpt lat="38.83814455702905" lon="121.50486945032468">
        <ele>12.010680427774787</ele>
        <time>2026-02-06T00:06:27Z</time>
      </trkpt>
    </trkseg>
  </trk>
</gpx>