<?xml version="1.0" encoding="UTF-8"?>
<gpx xmlns="http://www.topografix.com/GPX/1/1" xmlns:gpxtpx="http://www.garmin.com/xmlschemas/TrackPointExtension/v1" xmlns:xsi="http://www.w3.org/2001/XMLSchema-instance" xsi:schemaLocation="http://www.topografix.com/GPX/1/1 http://www.topografix.com/GPX/1/1/gpx.xsd" version="1.1" creator="gpx.py -- https://github.com/tkrajina/gpxpy">
  <trk>
    <name>gpx from keep</name>
    <type>Run</type>
    <trkseg>
      <trkpt lat="38.837912222829615" lon="121.50507527850621">
        <ele>11.655393891334533</ele>
        <time>2025-09-13T15:44:31Z</time>
        <extensions>
          <gpxtpx:TrackPointExtension>
            <gpxtpx:hr>83</gpxtpx:hr>
          </gpxtpx:TrackPointExtension>
        </extensions>
      </trkpt>
      <trkpt lat="38.83793894055628" lon="121.50512307052948">
        <ele>11.655393891334533</ele>
        <time>2025-09-13T15:44:37Z</time>
        <extensions>
          <gpxtpx:TrackPointExtension>
            <gpxtpx:hr>83</gpxtpx:hr>
          </gpxtpx:TrackPointExtension>
        </extensions>
      </trkpt>
      <trkpt lat="38.83793941064447" lon="121.50521416197113">
        <ele>11.655393891334533</ele>
        <time>2025-09-13T15:44:43Z</time>
        <extensions>
          <gpxtpx:TrackPointExtension>
            <gpxtpx:hr>83</gpxtpx:hr>
          </gpxtpx:TrackPointExtension>
        </extensions>
      </trkpt>
      <trkpt lat="38.8378824313514" lon="121.50533544931454">
        <ele>11.655393891334533</ele>
        <time>2025-09-13T15:44:49Z</time>
        <extensions>
          <gpxtpx:TrackPointExtension>
            <gpxtpx:hr>83</gpxtpx:hr>
          </gpxtpx:TrackPointExtension>
        </extensions>
      </trkpt>
      <trkpt lat="38.83780973601516" lon="121.50533566792085">
        <ele>11.655393891334533</ele>
        <time>2025-09-13T15:44:55Z</time>
      </trkpt>
      <trkpt lat="38.837632711851974" lon="121.50559816622712">
        <ele>11.655393891334533</ele>
        <time>2025-09-13T15:45:13Z</time>
        <extensions>
          <gpxtpx:TrackPointExtension>
            <gpxtpx:hr>120</gpxtpx:hr>
          </gpxtpx:TrackPointExtension>
        </extensions>
      </trkpt>
      <trkpt lat="38.837445522362" lon="121.5059015462483">
        <ele>11.655393891334533</ele>
        <time>2025-09-13T15:45:34Z</time>
        <extensions>
          <gpxtpx:TrackPointExtension>
            <gpxtpx:hr>122</gpxtpx:hr>
          </gpxtpx:TrackPointExtension>
        </extensions>
      </trkpt>
      <trkpt lat="38.83726101819159" lon="121.50622176145004">
        <ele>11.655393891334533</ele>
        <time>2025-09-13T15:45:53Z</time>
        <extensions>
          <gpxtpx:TrackPointExtension>
            <gpxtpx:hr>122</gpxtpx:hr>
          </gpxtpx:TrackPointExtension>
        </extensions>
      </trkpt>
      <trkpt lat="38.83724685186278" lon="121.50629210921971">
        <ele>11.655393891334533</ele>
        <time>2025-09-13T15:45:56Z</time>
        <extensions>
          <gpxtpx:TrackPointExtension>
            <gpxtpx:hr>122</gpxtpx:hr>
          </gpxtpx:TrackPointExtension>
        </extensions>
      </trkpt>
      <trkpt lat="38.83728353250095" lon="121.50637471065563">
        <ele>11.655393891334533</ele>
        <time>2025-09-13T15:45:59Z</time>
      </trkpt>
      <trkpt lat="38.837263575243476" lon="121.50643390090323">
        <ele>11.655393891334533</ele>
        <time>2025-09-13T15:46:03Z</time>
      </trkpt>
      <trkpt lat="38.83711381224493" lon="121.50663884928069">
        <ele>11.655393891334533</ele>
        <time>2025-09-13T15:46:15Z</time>
        <extensions>
          <gpxtpx:TrackPointExtension>
            <gpxtpx:hr>108</gpxtpx:hr>
          </gpxtpx:TrackPointExtension>
        </extensions>
      </trkpt>
      <trkpt lat="38.836943826580395" lon="121.50697183028791">
        <ele>11.655393891334533</ele>
        <time>2025-09-13T15:46:33Z</time>
        <extensions>
          <gpxtpx:TrackPointExtension>
            <gpxtpx:hr>108</gpxtpx:hr>
          </gpxtpx:TrackPointExtension>
        </extensions>
      </trkpt>
      <trkpt lat="38.836834240036595" lon="121.50715632368258">
        <ele>11.655393891334533</ele>
        <time>2025-09-13T15:46:42Z</time>
        <extensions>
          <gpxtpx:TrackPointExtension>
            <gpxtpx:hr>108</gpxtpx:hr>
          </gpxtpx:TrackPointExtension>
        </extensions>
      </trkpt>
      <trkpt lat="38.83679437813093" lon="121.50718624154835">
        <ele>11.655393891334533</ele>
        <time>2025-09-13T15:46:45Z</time>
        <extensions>
          <gpxtpx:TrackPointExtension>
            <gpxtpx:hr>108</gpxtpx:hr>
          </gpxtpx:TrackPointExtension>
        </extensions>
      </trkpt>
      <trkpt lat="38.836771407050584" lon="121.50723694294345">
        <ele>11.655393891334533</ele>
        <time>2025-09-13T15:46:51Z</time>
        <extensions>
          <gpxtpx:TrackPointExtension>
            <gpxtpx:hr>108</gpxtpx:hr>
          </gpxtpx:TrackPointExtension>
        </extensions>
      </trkpt>
      <trkpt lat="38.83672196000878" lon="121.50728092427944">
        <ele>11.655393891334533</ele>
        <time>2025-09-13T15:47:03Z</time>
        <extensions>
          <gpxtpx:TrackPointExtension>
            <gpxtpx:hr>107</gpxtpx:hr>
          </gpxtpx:TrackPointExtension>
        </extensions>
      </trkpt>
      <trkpt lat="38.83668696446513" lon="121.5074400274114">
        <ele>11.655393891334533</ele>
        <time>2025-09-13T15:47:09Z</time>
        <extensions>
          <gpxtpx:TrackPointExtension>
            <gpxtpx:hr>104</gpxtpx:hr>
          </gpxtpx:TrackPointExtension>
        </extensions>
      </trkpt>
      <trkpt lat="38.836794092686105" lon="121.50757002052909">
        <ele>11.655393891334533</ele>
        <time>2025-09-13T15:47:18Z</time>
        <extensions>
          <gpxtpx:TrackPointExtension>
            <gpxtpx:hr>103</gpxtpx:hr>
          </gpxtpx:TrackPointExtension>
        </extensions>
      </trkpt>
      <trkpt lat="38.83704265915533" lon="121.5077914860624">
        <ele>11.655393891334533</ele>
        <time>2025-09-13T15:47:33Z</time>
        <extensions>
          <gpxtpx:TrackPointExtension>
            <gpxtpx:hr>108</gpxtpx:hr>
          </gpxtpx:TrackPointExtension>
        </extensions>
      </trkpt>
      <trkpt lat="38.837292304306494" lon="121.5080301291273">
        <ele>11.655393891334533</ele>
        <time>2025-09-13T15:47:48Z</time>
        <extensions>
          <gpxtpx:TrackPointExtension>
            <gpxtpx:hr>110</gpxtpx:hr>
          </gpxtpx:TrackPointExtension>
        </extensions>
      </trkpt>
      <trkpt lat="38.83742393066095" lon="121.50812722166667">
        <ele>11.655393891334533</ele>
        <time>2025-09-13T15:47:57Z</time>
        <extensions>
          <gpxtpx:TrackPointExtension>
            <gpxtpx:hr>112</gpxtpx:hr>
          </gpxtpx:TrackPointExtension>
        </extensions>
      </trkpt>
      <trkpt lat="38.837621741231644" lon="121.50832006767845">
        <ele>11.655393891334533</ele>
        <time>2025-09-13T15:48:10Z</time>
        <extensions>
          <gpxtpx:TrackPointExtension>
            <gpxtpx:hr>114</gpxtpx:hr>
          </gpxtpx:TrackPointExtension>
        </extensions>
      </trkpt>
      <trkpt lat="38.837567320357344" lon="121.50855881379347">
        <ele>11.655393891334533</ele>
        <time>2025-09-13T15:48:20Z</time>
        <extensions>
          <gpxtpx:TrackPointExtension>
            <gpxtpx:hr>114</gpxtpx:hr>
          </gpxtpx:TrackPointExtension>
        </extensions>
      </trkpt>
      <trkpt lat="38.837510039227574" lon="121.50867365138014">
        <ele>11.655393891334533</ele>
        <time>2025-09-13T15:48:26Z</time>
        <extensions>
          <gpxtpx:TrackPointExtension>
            <gpxtpx:hr>115</gpxtpx:hr>
          </gpxtpx:TrackPointExtension>
        </extensions>
      </trkpt>
      <trkpt lat="38.83745631108957" lon="121.50890854875526">
        <ele>11.655393891334533</ele>
        <time>2025-09-13T15:48:35Z</time>
        <extensions>
          <gpxtpx:TrackPointExtension>
            <gpxtpx:hr>117</gpxtpx:hr>
          </gpxtpx:TrackPointExtension>
        </extensions>
      </trkpt>
      <trkpt lat="38.83725151039385" lon="121.50915066138452">
        <ele>11.655393891334533</ele>
        <time>2025-09-13T15:48:53Z</time>
        <extensions>
          <gpxtpx:TrackPointExtension>
            <gpxtpx:hr>115</gpxtpx:hr>
          </gpxtpx:TrackPointExtension>
        </extensions>
      </trkpt>
      <trkpt lat="38.837179034275984" lon="121.50924648640662">
        <ele>11.655393891334533</ele>
        <time>2025-09-13T15:48:59Z</time>
        <extensions>
          <gpxtpx:TrackPointExtension>
            <gpxtpx:hr>115</gpxtpx:hr>
          </gpxtpx:TrackPointExtension>
        </extensions>
      </trkpt>
      <trkpt lat="38.83713696419201" lon="121.50937934268066">
        <ele>11.655393891334533</ele>
        <time>2025-09-13T15:49:08Z</time>
        <extensions>
          <gpxtpx:TrackPointExtension>
            <gpxtpx:hr>115</gpxtpx:hr>
          </gpxtpx:TrackPointExtension>
        </extensions>
      </trkpt>
      <trkpt lat="38.83705550798788" lon="121.50953376269256">
        <ele>11.655393891334533</ele>
        <time>2025-09-13T15:49:17Z</time>
        <extensions>
          <gpxtpx:TrackPointExtension>
            <gpxtpx:hr>111</gpxtpx:hr>
          </gpxtpx:TrackPointExtension>
        </extensions>
      </trkpt>
      <trkpt lat="38.83696119472541" lon="121.5097705932568">
        <ele>11.655393891334533</ele>
        <time>2025-09-13T15:49:29Z</time>
        <extensions>
          <gpxtpx:TrackPointExtension>
            <gpxtpx:hr>110</gpxtpx:hr>
          </gpxtpx:TrackPointExtension>
        </extensions>
      </trkpt>
      <trkpt lat="38.83676631814727" lon="121.5099470054138">
        <ele>11.655393891334533</ele>
        <time>2025-09-13T15:49:44Z</time>
        <extensions>
          <gpxtpx:TrackPointExtension>
            <gpxtpx:hr>112</gpxtpx:hr>
          </gpxtpx:TrackPointExtension>
        </extensions>
      </trkpt>
      <trkpt lat="38.836446128932245" lon="121.50996867190503">
        <ele>11.655393891334533</ele>
        <time>2025-09-13T15:50:02Z</time>
        <extensions>
          <gpxtpx:TrackPointExtension>
            <gpxtpx:hr>108</gpxtpx:hr>
          </gpxtpx:TrackPointExtension>
        </extensions>
      </trkpt>
      <trkpt lat="38.83618764342278" lon="121.51005379500891">
        <ele>11.655393891334533</ele>
        <time>2025-09-13T15:50:15Z</time>
        <extensions>
          <gpxtpx:TrackPointExtension>
            <gpxtpx:hr>110</gpxtpx:hr>
          </gpxtpx:TrackPointExtension>
        </extensions>
      </trkpt>
      <trkpt lat="38.83612131602828" lon="121.51012933344505">
        <ele>11.655393891334533</ele>
        <time>2025-09-13T15:50:19Z</time>
        <extensions>
          <gpxtpx:TrackPointExtension>
            <gpxtpx:hr>114</gpxtpx:hr>
          </gpxtpx:TrackPointExtension>
        </extensions>
      </trkpt>
      <trkpt lat="38.836102746518556" lon="121.51023088234076">
        <ele>11.655393891334533</ele>
        <time>2025-09-13T15:50:23Z</time>
        <extensions>
          <gpxtpx:TrackPointExtension>
            <gpxtpx:hr>114</gpxtpx:hr>
          </gpxtpx:TrackPointExtension>
        </extensions>
      </trkpt>
      <trkpt lat="38.83615709604515" lon="121.51028582824758">
        <ele>11.655393891334533</ele>
        <time>2025-09-13T15:50:27Z</time>
        <extensions>
          <gpxtpx:TrackPointExtension>
            <gpxtpx:hr>113</gpxtpx:hr>
          </gpxtpx:TrackPointExtension>
        </extensions>
      </trkpt>
      <trkpt lat="38.836248207865125" lon="121.5105737959924">
        <ele>11.655393891334533</ele>
        <time>2025-09-13T15:50:39Z</time>
        <extensions>
          <gpxtpx:TrackPointExtension>
            <gpxtpx:hr>114</gpxtpx:hr>
          </gpxtpx:TrackPointExtension>
        </extensions>
      </trkpt>
      <trkpt lat="38.836227398847186" lon="121.51082036129213">
        <ele>11.655393891334533</ele>
        <time>2025-09-13T15:50:48Z</time>
        <extensions>
          <gpxtpx:TrackPointExtension>
            <gpxtpx:hr>116</gpxtpx:hr>
          </gpxtpx:TrackPointExtension>
        </extensions>
      </trkpt>
      <trkpt lat="38.83616782892519" lon="121.51095151264225">
        <ele>11.655393891334533</ele>
        <time>2025-09-13T15:50:54Z</time>
        <extensions>
          <gpxtpx:TrackPointExtension>
            <gpxtpx:hr>117</gpxtpx:hr>
          </gpxtpx:TrackPointExtension>
        </extensions>
      </trkpt>
      <trkpt lat="38.836028801290595" lon="121.51116931166753">
        <ele>9.595393891334535</ele>
        <time>2025-09-13T15:51:03Z</time>
        <extensions>
          <gpxtpx:TrackPointExtension>
            <gpxtpx:hr>118</gpxtpx:hr>
          </gpxtpx:TrackPointExtension>
        </extensions>
      </trkpt>
      <trkpt lat="38.83595743936576" lon="121.51139217514941">
        <ele>9.595393891334535</ele>
        <time>2025-09-13T15:51:12Z</time>
        <extensions>
          <gpxtpx:TrackPointExtension>
            <gpxtpx:hr>122</gpxtpx:hr>
          </gpxtpx:TrackPointExtension>
        </extensions>
      </trkpt>
      <trkpt lat="38.83596530434411" lon="121.51153460363683">
        <ele>9.595393891334535</ele>
        <time>2025-09-13T15:51:18Z</time>
        <extensions>
          <gpxtpx:TrackPointExtension>
            <gpxtpx:hr>122</gpxtpx:hr>
          </gpxtpx:TrackPointExtension>
        </extensions>
      </trkpt>
      <trkpt lat="38.83604864089001" lon="121.51176345602542">
        <ele>9.595393891334535</ele>
        <time>2025-09-13T15:51:27Z</time>
        <extensions>
          <gpxtpx:TrackPointExtension>
            <gpxtpx:hr>122</gpxtpx:hr>
          </gpxtpx:TrackPointExtension>
        </extensions>
      </trkpt>
      <trkpt lat="38.836143511735614" lon="121.51189484132603">
        <ele>9.595393891334535</ele>
        <time>2025-09-13T15:51:33Z</time>
        <extensions>
          <gpxtpx:TrackPointExtension>
            <gpxtpx:hr>122</gpxtpx:hr>
          </gpxtpx:TrackPointExtension>
        </extensions>
      </trkpt>
      <trkpt lat="38.83627383092461" lon="121.51195452138978">
        <ele>9.595393891334535</ele>
        <time>2025-09-13T15:51:39Z</time>
        <extensions>
          <gpxtpx:TrackPointExtension>
            <gpxtpx:hr>125</gpxtpx:hr>
          </gpxtpx:TrackPointExtension>
        </extensions>
      </trkpt>
      <trkpt lat="38.83646202480324" lon="121.51189592224273">
        <ele>9.595393891334535</ele>
        <time>2025-09-13T15:51:48Z</time>
        <extensions>
          <gpxtpx:TrackPointExtension>
            <gpxtpx:hr>126</gpxtpx:hr>
          </gpxtpx:TrackPointExtension>
        </extensions>
      </trkpt>
      <trkpt lat="38.83668729336481" lon="121.51172501967356">
        <ele>9.595393891334535</ele>
        <time>2025-09-13T15:52:00Z</time>
        <extensions>
          <gpxtpx:TrackPointExtension>
            <gpxtpx:hr>127</gpxtpx:hr>
          </gpxtpx:TrackPointExtension>
        </extensions>
      </trkpt>
      <trkpt lat="38.83685751465533" lon="121.51148709640324">
        <ele>9.595393891334535</ele>
        <time>2025-09-13T15:52:12Z</time>
        <extensions>
          <gpxtpx:TrackPointExtension>
            <gpxtpx:hr>118</gpxtpx:hr>
          </gpxtpx:TrackPointExtension>
        </extensions>
      </trkpt>
      <trkpt lat="38.83693799046744" lon="121.51134608370161">
        <ele>9.595393891334535</ele>
        <time>2025-09-13T15:52:19Z</time>
        <extensions>
          <gpxtpx:TrackPointExtension>
            <gpxtpx:hr>120</gpxtpx:hr>
          </gpxtpx:TrackPointExtension>
        </extensions>
      </trkpt>
      <trkpt lat="38.83704483978506" lon="121.51095751661771">
        <ele>9.595393891334535</ele>
        <time>2025-09-13T15:52:34Z</time>
        <extensions>
          <gpxtpx:TrackPointExtension>
            <gpxtpx:hr>126</gpxtpx:hr>
          </gpxtpx:TrackPointExtension>
        </extensions>
      </trkpt>
      <trkpt lat="38.83711636229152" lon="121.51075965494769">
        <ele>9.595393891334535</ele>
        <time>2025-09-13T15:52:43Z</time>
        <extensions>
          <gpxtpx:TrackPointExtension>
            <gpxtpx:hr>126</gpxtpx:hr>
          </gpxtpx:TrackPointExtension>
        </extensions>
      </trkpt>
      <trkpt lat="38.83730940335531" lon="121.51045416611011">
        <ele>9.595393891334535</ele>
        <time>2025-09-13T15:52:58Z</time>
        <extensions>
          <gpxtpx:TrackPointExtension>
            <gpxtpx:hr>126</gpxtpx:hr>
          </gpxtpx:TrackPointExtension>
        </extensions>
      </trkpt>
      <trkpt lat="38.83756405877109" lon="121.5102278929742">
        <ele>9.595393891334535</ele>
        <time>2025-09-13T15:53:13Z</time>
        <extensions>
          <gpxtpx:TrackPointExtension>
            <gpxtpx:hr>130</gpxtpx:hr>
          </gpxtpx:TrackPointExtension>
        </extensions>
      </trkpt>
      <trkpt lat="38.837689771906255" lon="121.51012264928113">
        <ele>11.615393891334534</ele>
        <time>2025-09-13T15:53:19Z</time>
        <extensions>
          <gpxtpx:TrackPointExtension>
            <gpxtpx:hr>130</gpxtpx:hr>
          </gpxtpx:TrackPointExtension>
        </extensions>
      </trkpt>
      <trkpt lat="38.83778805366778" lon="121.50991503120713">
        <ele>11.615393891334534</ele>
        <time>2025-09-13T15:53:28Z</time>
        <extensions>
          <gpxtpx:TrackPointExtension>
            <gpxtpx:hr>128</gpxtpx:hr>
          </gpxtpx:TrackPointExtension>
        </extensions>
      </trkpt>
      <trkpt lat="38.8378671583094" lon="121.50990625092936">
        <ele>11.615393891334534</ele>
        <time>2025-09-13T15:53:31Z</time>
        <extensions>
          <gpxtpx:TrackPointExtension>
            <gpxtpx:hr>128</gpxtpx:hr>
          </gpxtpx:TrackPointExtension>
        </extensions>
      </trkpt>
      <trkpt lat="38.83790048648509" lon="121.50981559722227">
        <ele>11.615393891334534</ele>
        <time>2025-09-13T15:53:34Z</time>
        <extensions>
          <gpxtpx:TrackPointExtension>
            <gpxtpx:hr>129</gpxtpx:hr>
          </gpxtpx:TrackPointExtension>
        </extensions>
      </trkpt>
      <trkpt lat="38.83794553261667" lon="121.50974507679415">
        <ele>11.615393891334534</ele>
        <time>2025-09-13T15:53:37Z</time>
        <extensions>
          <gpxtpx:TrackPointExtension>
            <gpxtpx:hr>129</gpxtpx:hr>
          </gpxtpx:TrackPointExtension>
        </extensions>
      </trkpt>
      <trkpt lat="38.83799260132361" lon="121.50949158637555">
        <ele>11.875393891334536</ele>
        <time>2025-09-13T15:53:46Z</time>
        <extensions>
          <gpxtpx:TrackPointExtension>
            <gpxtpx:hr>130</gpxtpx:hr>
          </gpxtpx:TrackPointExtension>
        </extensions>
      </trkpt>
      <trkpt lat="38.83805787131113" lon="121.5093460278881">
        <ele>11.875393891334536</ele>
        <time>2025-09-13T15:53:52Z</time>
        <extensions>
          <gpxtpx:TrackPointExtension>
            <gpxtpx:hr>130</gpxtpx:hr>
          </gpxtpx:TrackPointExtension>
        </extensions>
      </trkpt>
      <trkpt lat="38.83811273805252" lon="121.50928904034537">
        <ele>11.875393891334536</ele>
        <time>2025-09-13T15:53:55Z</time>
        <extensions>
          <gpxtpx:TrackPointExtension>
            <gpxtpx:hr>130</gpxtpx:hr>
          </gpxtpx:TrackPointExtension>
        </extensions>
      </trkpt>
      <trkpt lat="38.83818353713354" lon="121.50925685361045">
        <ele>11.875393891334536</ele>
        <time>2025-09-13T15:53:58Z</time>
        <extensions>
          <gpxtpx:TrackPointExtension>
            <gpxtpx:hr>131</gpxtpx:hr>
          </gpxtpx:TrackPointExtension>
        </extensions>
      </trkpt>
      <trkpt lat="38.8383342287813" lon="121.50908395797967">
        <ele>11.875393891334536</ele>
        <time>2025-09-13T15:54:07Z</time>
        <extensions>
          <gpxtpx:TrackPointExtension>
            <gpxtpx:hr>132</gpxtpx:hr>
          </gpxtpx:TrackPointExtension>
        </extensions>
      </trkpt>
      <trkpt lat="38.8382077228471" lon="121.5089487840594">
        <ele>11.875393891334536</ele>
        <time>2025-09-13T15:54:13Z</time>
        <extensions>
          <gpxtpx:TrackPointExtension>
            <gpxtpx:hr>132</gpxtpx:hr>
          </gpxtpx:TrackPointExtension>
        </extensions>
      </trkpt>
      <trkpt lat="38.838003375329215" lon="121.50886948931297">
        <ele>11.875393891334536</ele>
        <time>2025-09-13T15:54:22Z</time>
        <extensions>
          <gpxtpx:TrackPointExtension>
            <gpxtpx:hr>135</gpxtpx:hr>
          </gpxtpx:TrackPointExtension>
        </extensions>
      </trkpt>
      <trkpt lat="38.83785965760574" lon="121.5087121402596">
        <ele>11.875393891334536</ele>
        <time>2025-09-13T15:54:30Z</time>
        <extensions>
          <gpxtpx:TrackPointExtension>
            <gpxtpx:hr>135</gpxtpx:hr>
          </gpxtpx:TrackPointExtension>
        </extensions>
      </trkpt>
      <trkpt lat="38.83776197632025" lon="121.50852683429369">
        <ele>11.875393891334536</ele>
        <time>2025-09-13T15:54:38Z</time>
        <extensions>
          <gpxtpx:TrackPointExtension>
            <gpxtpx:hr>134</gpxtpx:hr>
          </gpxtpx:TrackPointExtension>
        </extensions>
      </trkpt>
      <trkpt lat="38.83757141734262" lon="121.50827485348663">
        <ele>11.875393891334536</ele>
        <time>2025-09-13T15:54:50Z</time>
        <extensions>
          <gpxtpx:TrackPointExtension>
            <gpxtpx:hr>133</gpxtpx:hr>
          </gpxtpx:TrackPointExtension>
        </extensions>
      </trkpt>
      <trkpt lat="38.837385880682426" lon="121.50811283523004">
        <ele>11.875393891334536</ele>
        <time>2025-09-13T15:54:59Z</time>
        <extensions>
          <gpxtpx:TrackPointExtension>
            <gpxtpx:hr>133</gpxtpx:hr>
          </gpxtpx:TrackPointExtension>
        </extensions>
      </trkpt>
      <trkpt lat="38.837125321749774" lon="121.50785854697106">
        <ele>11.875393891334536</ele>
        <time>2025-09-13T15:55:14Z</time>
        <extensions>
          <gpxtpx:TrackPointExtension>
            <gpxtpx:hr>134</gpxtpx:hr>
          </gpxtpx:TrackPointExtension>
        </extensions>
      </trkpt>
      <trkpt lat="38.83701827483751" lon="121.50774794047092">
        <ele>11.875393891334536</ele>
        <time>2025-09-13T15:55:20Z</time>
        <extensions>
          <gpxtpx:TrackPointExtension>
            <gpxtpx:hr>134</gpxtpx:hr>
          </gpxtpx:TrackPointExtension>
        </extensions>
      </trkpt>
      <trkpt lat="38.8369408468229" lon="121.50769725226318">
        <ele>11.875393891334536</ele>
        <time>2025-09-13T15:55:23Z</time>
        <extensions>
          <gpxtpx:TrackPointExtension>
            <gpxtpx:hr>133</gpxtpx:hr>
          </gpxtpx:TrackPointExtension>
        </extensions>
      </trkpt>
      <trkpt lat="38.83686551726245" lon="121.50758600752347">
        <ele>11.875393891334536</ele>
        <time>2025-09-13T15:55:38Z</time>
        <extensions>
          <gpxtpx:TrackPointExtension>
            <gpxtpx:hr>129</gpxtpx:hr>
          </gpxtpx:TrackPointExtension>
        </extensions>
      </trkpt>
      <trkpt lat="38.8368041286893" lon="121.5075478950406">
        <ele>11.875393891334536</ele>
        <time>2025-09-13T15:55:44Z</time>
        <extensions>
          <gpxtpx:TrackPointExtension>
            <gpxtpx:hr>127</gpxtpx:hr>
          </gpxtpx:TrackPointExtension>
        </extensions>
      </trkpt>
    </trkseg>
  </trk>
</gpx>