<?xml version="1.0" encoding="UTF-8"?>
<gpx xmlns="http://www.topografix.com/GPX/1/1" xmlns:gpxtpx="http://www.garmin.com/xmlschemas/TrackPointExtension/v1" xmlns:xsi="http://www.w3.org/2001/XMLSchema-instance" xsi:schemaLocation="http://www.topografix.com/GPX/1/1 http://www.topografix.com/GPX/1/1/gpx.xsd" version="1.1" creator="gpx.py -- https://github.com/tkrajina/gpxpy">
  <trk>
    <name>gpx from keep</name>
    <type>Run</type>
    <trkseg>
      <trkpt lat="38.8331893480011" lon="121.50729920382784">
        <ele>3.579964811608207</ele>
        <time>2025-11-08T04:44:16Z</time>
      </trkpt>
      <trkpt lat="38.83320646758641" lon="121.50738604250016">
        <ele>3.9632966624143044</ele>
        <time>2025-11-08T04:44:19Z</time>
      </trkpt>
      <trkpt lat="38.83321693220196" lon="121.50727172977118">
        <ele>3.622490916401148</ele>
        <time>2025-11-08T04:44:27Z</time>
      </trkpt>
      <trkpt lat="38.83320786175533" lon="121.50717712004051">
        <ele>3.306949452497065</ele>
        <time>2025-11-08T04:44:31Z</time>
      </trkpt>
      <trkpt lat="38.833173955286675" lon="121.5070852316513">
        <ele>3.6827581338584423</ele>
        <time>2025-11-08T04:44:35Z</time>
      </trkpt>
      <trkpt lat="38.83304741804489" lon="121.50685690197143">
        <ele>1.3830967042595148</ele>
        <time>2025-11-08T04:44:53Z</time>
      </trkpt>
      <trkpt lat="38.83285151136285" lon="121.50664212976997">
        <ele>0.9175109770148993</ele>
        <time>2025-11-08T04:45:08Z</time>
      </trkpt>
      <trkpt lat="38.83268832588512" lon="121.50654522863013">
        <ele>1.2583561828359962</ele>
        <time>2025-11-08T04:45:17Z</time>
      </trkpt>
      <trkpt lat="38.83240060927849" lon="121.5064982491763">
        <ele>1.4832087513059378</ele>
        <time>2025-11-08T04:45:32Z</time>
      </trkpt>
      <trkpt lat="38.83232677613884" lon="121.5064518443484">
        <ele>2.0559356650337577</ele>
        <time>2025-11-08T04:45:47Z</time>
      </trkpt>
      <trkpt lat="38.83218933040166" lon="121.50634463983397">
        <ele>2.1510284431278706</ele>
        <time>2025-11-08T04:45:56Z</time>
      </trkpt>
      <trkpt lat="38.832077499803006" lon="121.50618073307272">
        <ele>2.8204016210511327</ele>
        <time>2025-11-08T04:46:05Z</time>
      </trkpt>
      <trkpt lat="38.83200631873369" lon="121.5060079384342">
        <ele>2.0909713273867965</ele>
        <time>2025-11-08T04:46:14Z</time>
      </trkpt>
      <trkpt lat="38.83197239662839" lon="121.50586239592138">
        <ele>2.6306722909212112</ele>
        <time>2025-11-08T04:46:20Z</time>
      </trkpt>
      <trkpt lat="38.83175941691192" lon="121.50553265738067">
        <ele>1.6945897294208407</ele>
        <time>2025-11-08T04:46:38Z</time>
      </trkpt>
      <trkpt lat="38.83163101739725" lon="121.50541258130211">
        <ele>2.3709237026050687</ele>
        <time>2025-11-08T04:46:46Z</time>
      </trkpt>
      <trkpt lat="38.83150214825943" lon="121.50533237709979">
        <ele>2.2994438968598843</ele>
        <time>2025-11-08T04:46:53Z</time>
      </trkpt>
      <trkpt lat="38.83121080316949" lon="121.5052872707463">
        <ele>2.43825794942677</ele>
        <time>2025-11-08T04:47:08Z</time>
      </trkpt>
      <trkpt lat="38.830903240550306" lon="121.50531667255314">
        <ele>2.6782720601186156</ele>
        <time>2025-11-08T04:47:23Z</time>
      </trkpt>
      <trkpt lat="38.83084623763524" lon="121.50530212971793">
        <ele>2.564961670897901</ele>
        <time>2025-11-08T04:47:26Z</time>
      </trkpt>
      <trkpt lat="38.83079939712526" lon="121.50524585309347">
        <ele>2.564396250061691</ele>
        <time>2025-11-08T04:47:29Z</time>
      </trkpt>
      <trkpt lat="38.830555345697356" lon="121.50502063210111">
        <ele>1.5487127462401986</ele>
        <time>2025-11-08T04:47:44Z</time>
      </trkpt>
      <trkpt lat="38.83034122073898" lon="121.50481533867158">
        <ele>2.883224692195654</ele>
        <time>2025-11-08T04:47:56Z</time>
      </trkpt>
      <trkpt lat="38.830095056404154" lon="121.50472479104675">
        <ele>2.4147284803912044</ele>
        <time>2025-11-08T04:48:08Z</time>
      </trkpt>
      <trkpt lat="38.829988517055085" lon="121.50463687036934">
        <ele>3.5280761336907744</ele>
        <time>2025-11-08T04:48:14Z</time>
      </trkpt>
      <trkpt lat="38.82976501952542" lon="121.50438047099578">
        <ele>1.908540140837431</ele>
        <time>2025-11-08T04:48:29Z</time>
      </trkpt>
      <trkpt lat="38.82958391076918" lon="121.50421115101274">
        <ele>2.694242182187736</ele>
        <time>2025-11-08T04:48:40Z</time>
      </trkpt>
      <trkpt lat="38.82934588890157" lon="121.50407006658381">
        <ele>2.310220510698855</ele>
        <time>2025-11-08T04:48:52Z</time>
      </trkpt>
      <trkpt lat="38.829075854357924" lon="121.50400731415472">
        <ele>2.786178263835609</ele>
        <time>2025-11-08T04:49:04Z</time>
      </trkpt>
      <trkpt lat="38.828949530294956" lon="121.50405508574956">
        <ele>3.0107118394225836</ele>
        <time>2025-11-08T04:49:10Z</time>
      </trkpt>
      <trkpt lat="38.828834768516295" lon="121.50399425155842">
        <ele>2.146897740662098</ele>
        <time>2025-11-08T04:49:16Z</time>
      </trkpt>
      <trkpt lat="38.82850662092314" lon="121.50406085603748">
        <ele>1.7612965013831854</ele>
        <time>2025-11-08T04:49:31Z</time>
      </trkpt>
      <trkpt lat="38.8283670291383" lon="121.50406110669505">
        <ele>1.9434658726677299</ele>
        <time>2025-11-08T04:49:37Z</time>
      </trkpt>
      <trkpt lat="38.828101365621094" lon="121.5039581374909">
        <ele>1.8526311805471778</ele>
        <time>2025-11-08T04:49:49Z</time>
      </trkpt>
      <trkpt lat="38.82794412149045" lon="121.50370848229615">
        <ele>1.1929326467216015</ele>
        <time>2025-11-08T04:50:01Z</time>
      </trkpt>
      <trkpt lat="38.82782900195601" lon="121.50327029765631">
        <ele>0.35497020557522774</ele>
        <time>2025-11-08T04:50:17Z</time>
      </trkpt>
      <trkpt lat="38.82760077927349" lon="121.50306439582029">
        <ele>1.4372990597039461</ele>
        <time>2025-11-08T04:50:29Z</time>
      </trkpt>
      <trkpt lat="38.82749298478826" lon="121.50301265818511">
        <ele>1.9994551623240113</ele>
        <time>2025-11-08T04:50:35Z</time>
      </trkpt>
      <trkpt lat="38.82738915353281" lon="121.5030008644304">
        <ele>3.145370311103761</ele>
        <time>2025-11-08T04:50:39Z</time>
      </trkpt>
      <trkpt lat="38.82730924240504" lon="121.50295762228433">
        <ele>1.9053408270701766</ele>
        <time>2025-11-08T04:50:43Z</time>
      </trkpt>
      <trkpt lat="38.82706760447167" lon="121.50309000114244">
        <ele>1.8561963252723217</ele>
        <time>2025-11-08T04:50:55Z</time>
      </trkpt>
      <trkpt lat="38.826940558503956" lon="121.50324388351646">
        <ele>1.668110789731145</ele>
        <time>2025-11-08T04:51:03Z</time>
      </trkpt>
      <trkpt lat="38.82677873805912" lon="121.50339395506819">
        <ele>1.3576235370710492</ele>
        <time>2025-11-08T04:51:12Z</time>
      </trkpt>
      <trkpt lat="38.826628848517366" lon="121.50368377939233">
        <ele>2.779328220523894</ele>
        <time>2025-11-08T04:51:24Z</time>
      </trkpt>
      <trkpt lat="38.82660197674582" lon="121.50374874804662">
        <ele>2.113952711224556</ele>
        <time>2025-11-08T04:51:27Z</time>
      </trkpt>
      <trkpt lat="38.82657619130857" lon="121.50410383816516">
        <ele>2.6157890539616346</ele>
        <time>2025-11-08T04:51:39Z</time>
      </trkpt>
      <trkpt lat="38.82655571341288" lon="121.50445589653279">
        <ele>3.3291256837546825</ele>
        <time>2025-11-08T04:51:51Z</time>
      </trkpt>
      <trkpt lat="38.82643380360063" lon="121.5047556088788">
        <ele>2.0426279716193676</ele>
        <time>2025-11-08T04:52:03Z</time>
      </trkpt>
      <trkpt lat="38.826338191978486" lon="121.50483197467632">
        <ele>1.124411154538393</ele>
        <time>2025-11-08T04:52:09Z</time>
      </trkpt>
      <trkpt lat="38.82631339902302" lon="121.50477083188706">
        <ele>2.1953450702130795</ele>
        <time>2025-11-08T04:52:12Z</time>
      </trkpt>
      <trkpt lat="38.826378997081704" lon="121.50474488617347">
        <ele>1.796742593869567</ele>
        <time>2025-11-08T04:52:15Z</time>
      </trkpt>
      <trkpt lat="38.82650160766558" lon="121.50450077745325">
        <ele>1.7464298214763403</ele>
        <time>2025-11-08T04:52:27Z</time>
      </trkpt>
      <trkpt lat="38.826558331372375" lon="121.50445962296949">
        <ele>1.9762179544195533</ele>
        <time>2025-11-08T04:52:30Z</time>
      </trkpt>
      <trkpt lat="38.82657352329312" lon="121.50412008858777">
        <ele>1.4658470023423433</ele>
        <time>2025-11-08T04:52:42Z</time>
      </trkpt>
      <trkpt lat="38.8265632908904" lon="121.50400269181439">
        <ele>1.5153421023860574</ele>
        <time>2025-11-08T04:52:46Z</time>
      </trkpt>
      <trkpt lat="38.8265758528341" lon="121.50388336144046">
        <ele>1.1782576274126768</ele>
        <time>2025-11-08T04:52:50Z</time>
      </trkpt>
      <trkpt lat="38.82663428553332" lon="121.50367344233084">
        <ele>2.490492564626038</ele>
        <time>2025-11-08T04:52:58Z</time>
      </trkpt>
      <trkpt lat="38.82676443870779" lon="121.50342674075952">
        <ele>2.6107599195092916</ele>
        <time>2025-11-08T04:53:08Z</time>
      </trkpt>
      <trkpt lat="38.8269878873556" lon="121.50322177352034">
        <ele>1.4532348774373531</ele>
        <time>2025-11-08T04:53:20Z</time>
      </trkpt>
      <trkpt lat="38.82703099568556" lon="121.50315403479674">
        <ele>1.4387134741991758</ele>
        <time>2025-11-08T04:53:23Z</time>
      </trkpt>
      <trkpt lat="38.82725898165099" lon="121.50299605709965">
        <ele>1.5209851181134582</ele>
        <time>2025-11-08T04:53:35Z</time>
      </trkpt>
      <trkpt lat="38.8273890258033" lon="121.50299175371195">
        <ele>3.101770156994462</ele>
        <time>2025-11-08T04:53:41Z</time>
      </trkpt>
      <trkpt lat="38.82757800590372" lon="121.50304804141653">
        <ele>2.1344486558809876</ele>
        <time>2025-11-08T04:53:50Z</time>
      </trkpt>
      <trkpt lat="38.8276362027307" lon="121.50308258725674">
        <ele>1.4411759041249752</ele>
        <time>2025-11-08T04:53:53Z</time>
      </trkpt>
      <trkpt lat="38.82767596177443" lon="121.50316760480024">
        <ele>2.4911446254700422</ele>
        <time>2025-11-08T04:53:56Z</time>
      </trkpt>
      <trkpt lat="38.827796166792844" lon="121.5032413055608">
        <ele>2.0028185276314616</ele>
        <time>2025-11-08T04:54:02Z</time>
      </trkpt>
      <trkpt lat="38.827874517061026" lon="121.50337101117715">
        <ele>0.36673185136169195</ele>
        <time>2025-11-08T04:54:08Z</time>
      </trkpt>
      <trkpt lat="38.82796007390672" lon="121.50372045072217">
        <ele>1.9655740624293685</ele>
        <time>2025-11-08T04:54:20Z</time>
      </trkpt>
      <trkpt lat="38.82815021289107" lon="121.50399063040041">
        <ele>2.816186860203743</ele>
        <time>2025-11-08T04:54:32Z</time>
      </trkpt>
      <trkpt lat="38.82819286008371" lon="121.5040648443182">
        <ele>3.1633046129718423</ele>
        <time>2025-11-08T04:54:35Z</time>
      </trkpt>
      <trkpt lat="38.8282532703476" lon="121.50408247730266">
        <ele>2.1345737166702747</ele>
        <time>2025-11-08T04:54:38Z</time>
      </trkpt>
      <trkpt lat="38.82833581014258" lon="121.50405226086113">
        <ele>2.504359509795904</ele>
        <time>2025-11-08T04:54:41Z</time>
      </trkpt>
      <trkpt lat="38.82840055439265" lon="121.50409255356224">
        <ele>2.2926197266206145</ele>
        <time>2025-11-08T04:54:44Z</time>
      </trkpt>
      <trkpt lat="38.828558807984095" lon="121.50406222320713">
        <ele>1.664603360928595</ele>
        <time>2025-11-08T04:54:51Z</time>
      </trkpt>
      <trkpt lat="38.82863689912895" lon="121.50406813866469">
        <ele>1.8369962787255645</ele>
        <time>2025-11-08T04:54:54Z</time>
      </trkpt>
      <trkpt lat="38.8288232005302" lon="121.50402690676107">
        <ele>1.2424436202272773</ele>
        <time>2025-11-08T04:55:02Z</time>
      </trkpt>
      <trkpt lat="38.82891598468873" lon="121.50406053793498">
        <ele>2.4734106548130512</ele>
        <time>2025-11-08T04:55:06Z</time>
      </trkpt>
      <trkpt lat="38.82911491113328" lon="121.50402738133407">
        <ele>1.684618191793561</ele>
        <time>2025-11-08T04:55:14Z</time>
      </trkpt>
      <trkpt lat="38.82938915000068" lon="121.50412368003836">
        <ele>2.4989309310913086</ele>
        <time>2025-11-08T04:55:26Z</time>
      </trkpt>
      <trkpt lat="38.829455734200245" lon="121.50414246885758">
        <ele>2.6425827173516154</ele>
        <time>2025-11-08T04:55:29Z</time>
      </trkpt>
      <trkpt lat="38.82964869041455" lon="121.5042863172909">
        <ele>2.916186354123056</ele>
        <time>2025-11-08T04:55:38Z</time>
      </trkpt>
      <trkpt lat="38.82987114917808" lon="121.50450136968504">
        <ele>2.804800904355943</ele>
        <time>2025-11-08T04:55:50Z</time>
      </trkpt>
      <trkpt lat="38.83003613694607" lon="121.50467680707713">
        <ele>2.9612400187179446</ele>
        <time>2025-11-08T04:55:59Z</time>
      </trkpt>
      <trkpt lat="38.83031538957425" lon="121.50483319049974">
        <ele>2.753027494996786</ele>
        <time>2025-11-08T04:56:11Z</time>
      </trkpt>
      <trkpt lat="38.83054805883463" lon="121.50501687452889">
        <ele>2.7284514354541898</ele>
        <time>2025-11-08T04:56:23Z</time>
      </trkpt>
      <trkpt lat="38.8307890267969" lon="121.5052259135689">
        <ele>2.661259427666664</ele>
        <time>2025-11-08T04:56:35Z</time>
      </trkpt>
      <trkpt lat="38.830906914009866" lon="121.50532436029415">
        <ele>2.7435660287737846</ele>
        <time>2025-11-08T04:56:41Z</time>
      </trkpt>
      <trkpt lat="38.83105305699126" lon="121.50535234461388">
        <ele>2.6905255038291216</ele>
        <time>2025-11-08T04:56:47Z</time>
      </trkpt>
      <trkpt lat="38.83135643490289" lon="121.50532114690884">
        <ele>2.3139691036194563</ele>
        <time>2025-11-08T04:57:00Z</time>
      </trkpt>
      <trkpt lat="38.83143209545522" lon="121.5053152369429">
        <ele>1.7057567359879613</ele>
        <time>2025-11-08T04:57:03Z</time>
      </trkpt>
      <trkpt lat="38.8316625477768" lon="121.50542817970957">
        <ele>3.4922776632010937</ele>
        <time>2025-11-08T04:57:13Z</time>
      </trkpt>
      <trkpt lat="38.83188288240492" lon="121.5056930248603">
        <ele>3.424650164321065</ele>
        <time>2025-11-08T04:57:25Z</time>
      </trkpt>
      <trkpt lat="38.83198137769056" lon="121.50584062828129">
        <ele>3.829535974189639</ele>
        <time>2025-11-08T04:57:31Z</time>
      </trkpt>
      <trkpt lat="38.83199202443488" lon="121.5059326943282">
        <ele>4.0810187747702</ele>
        <time>2025-11-08T04:57:34Z</time>
      </trkpt>
      <trkpt lat="38.832080980166815" lon="121.50618485161297">
        <ele>3.336508521810174</ele>
        <time>2025-11-08T04:57:43Z</time>
      </trkpt>
      <trkpt lat="38.83222976749887" lon="121.50636922661197">
        <ele>2.5602668169885874</ele>
        <time>2025-11-08T04:57:52Z</time>
      </trkpt>
      <trkpt lat="38.832347460373775" lon="121.5064600659463">
        <ele>2.566160622984171</ele>
        <time>2025-11-08T04:57:58Z</time>
      </trkpt>
      <trkpt lat="38.83263569323868" lon="121.50654001026626">
        <ele>2.4799198424443603</ele>
        <time>2025-11-08T04:58:10Z</time>
      </trkpt>
      <trkpt lat="38.832825800388946" lon="121.50663143207728">
        <ele>2.5795562407001853</ele>
        <time>2025-11-08T04:58:19Z</time>
      </trkpt>
      <trkpt lat="38.832947012027496" lon="121.50672855509424">
        <ele>2.4241448706015944</ele>
        <time>2025-11-08T04:58:25Z</time>
      </trkpt>
      <trkpt lat="38.832947012027496" lon="121.50672855509424">
        <ele>2.4241448706015944</ele>
        <time>2025-11-08T04:58:34Z</time>
      </trkpt>
    </trkseg>
  </trk>
</gpx>