<?xml version="1.0" encoding="UTF-8"?>
<gpx xmlns="http://www.topografix.com/GPX/1/1" xmlns:gpxtpx="http://www.garmin.com/xmlschemas/TrackPointExtension/v1" xmlns:xsi="http://www.w3.org/2001/XMLSchema-instance" xsi:schemaLocation="http://www.topografix.com/GPX/1/1 http://www.topografix.com/GPX/1/1/gpx.xsd" version="1.1" creator="gpx.py -- https://github.com/tkrajina/gpxpy">
  <trk>
    <name>gpx from keep</name>
    <type>Run</type>
    <trkseg>
      <trkpt lat="38.837163793374785" lon="121.50436505687216">
        <ele>9.094822076782105</ele>
        <time>2025-09-03T14:53:56Z</time>
        <extensions>
          <gpxtpx:TrackPointExtension>
            <gpxtpx:hr>114</gpxtpx:hr>
          </gpxtpx:TrackPointExtension>
        </extensions>
      </trkpt>
      <trkpt lat="38.83719358951457" lon="121.50428483064438">
        <ele>8.233973480161406</ele>
        <time>2025-09-03T14:53:59Z</time>
        <extensions>
          <gpxtpx:TrackPointExtension>
            <gpxtpx:hr>114</gpxtpx:hr>
          </gpxtpx:TrackPointExtension>
        </extensions>
      </trkpt>
      <trkpt lat="38.837140591429375" lon="121.50425769064792">
        <ele>8.429189975010424</ele>
        <time>2025-09-03T14:54:05Z</time>
        <extensions>
          <gpxtpx:TrackPointExtension>
            <gpxtpx:hr>114</gpxtpx:hr>
          </gpxtpx:TrackPointExtension>
        </extensions>
      </trkpt>
      <trkpt lat="38.83703229863713" lon="121.50428436698628">
        <ele>8.844737371429801</ele>
        <time>2025-09-03T14:54:11Z</time>
        <extensions>
          <gpxtpx:TrackPointExtension>
            <gpxtpx:hr>114</gpxtpx:hr>
          </gpxtpx:TrackPointExtension>
        </extensions>
      </trkpt>
      <trkpt lat="38.83695178081656" lon="121.504361880077">
        <ele>7.982081997208297</ele>
        <time>2025-09-03T14:54:19Z</time>
        <extensions>
          <gpxtpx:TrackPointExtension>
            <gpxtpx:hr>114</gpxtpx:hr>
          </gpxtpx:TrackPointExtension>
        </extensions>
      </trkpt>
      <trkpt lat="38.83691729082631" lon="121.50443186513554">
        <ele>8.452224754728377</ele>
        <time>2025-09-03T14:54:23Z</time>
        <extensions>
          <gpxtpx:TrackPointExtension>
            <gpxtpx:hr>114</gpxtpx:hr>
          </gpxtpx:TrackPointExtension>
        </extensions>
      </trkpt>
      <trkpt lat="38.836934131355264" lon="121.50450231936708">
        <ele>9.342347982339561</ele>
        <time>2025-09-03T14:54:27Z</time>
        <extensions>
          <gpxtpx:TrackPointExtension>
            <gpxtpx:hr>114</gpxtpx:hr>
          </gpxtpx:TrackPointExtension>
        </extensions>
      </trkpt>
      <trkpt lat="38.83686340075105" lon="121.50471820657582">
        <ele>8.875021954998374</ele>
        <time>2025-09-03T14:54:40Z</time>
      </trkpt>
      <trkpt lat="38.836736280397325" lon="121.50506807031962">
        <ele>8.337020225822926</ele>
        <time>2025-09-03T14:54:59Z</time>
      </trkpt>
      <trkpt lat="38.836712183454885" lon="121.50517998109257">
        <ele>8.858937541022897</ele>
        <time>2025-09-03T14:55:05Z</time>
      </trkpt>
      <trkpt lat="38.83658938039483" lon="121.50552292244198">
        <ele>8.109913675114512</ele>
        <time>2025-09-03T14:55:23Z</time>
      </trkpt>
      <trkpt lat="38.83645860975395" lon="121.50588112048963">
        <ele>8.886788473464549</ele>
        <time>2025-09-03T14:55:41Z</time>
      </trkpt>
      <trkpt lat="38.83635038933377" lon="121.50624880146762">
        <ele>9.997311808168888</ele>
        <time>2025-09-03T14:55:59Z</time>
        <extensions>
          <gpxtpx:TrackPointExtension>
            <gpxtpx:hr>108</gpxtpx:hr>
          </gpxtpx:TrackPointExtension>
        </extensions>
      </trkpt>
      <trkpt lat="38.83624199239495" lon="121.5065385127217">
        <ele>8.091231839731336</ele>
        <time>2025-09-03T14:56:14Z</time>
        <extensions>
          <gpxtpx:TrackPointExtension>
            <gpxtpx:hr>111</gpxtpx:hr>
          </gpxtpx:TrackPointExtension>
        </extensions>
      </trkpt>
      <trkpt lat="38.836230306663545" lon="121.50662500471516">
        <ele>6.9487970201298594</ele>
        <time>2025-09-03T14:56:18Z</time>
        <extensions>
          <gpxtpx:TrackPointExtension>
            <gpxtpx:hr>110</gpxtpx:hr>
          </gpxtpx:TrackPointExtension>
        </extensions>
      </trkpt>
      <trkpt lat="38.83619476102189" lon="121.50670813711285">
        <ele>6.6516088750213385</ele>
        <time>2025-09-03T14:56:22Z</time>
        <extensions>
          <gpxtpx:TrackPointExtension>
            <gpxtpx:hr>101</gpxtpx:hr>
          </gpxtpx:TrackPointExtension>
        </extensions>
      </trkpt>
      <trkpt lat="38.83621194557229" lon="121.50682336427948">
        <ele>6.856853105127811</ele>
        <time>2025-09-03T14:56:26Z</time>
        <extensions>
          <gpxtpx:TrackPointExtension>
            <gpxtpx:hr>104</gpxtpx:hr>
          </gpxtpx:TrackPointExtension>
        </extensions>
      </trkpt>
      <trkpt lat="38.83629862896692" lon="121.50683219793868">
        <ele>8.244608131237328</ele>
        <time>2025-09-03T14:56:30Z</time>
        <extensions>
          <gpxtpx:TrackPointExtension>
            <gpxtpx:hr>106</gpxtpx:hr>
          </gpxtpx:TrackPointExtension>
        </extensions>
      </trkpt>
      <trkpt lat="38.836380410113385" lon="121.50694325907669">
        <ele>8.105639238841832</ele>
        <time>2025-09-03T14:56:38Z</time>
        <extensions>
          <gpxtpx:TrackPointExtension>
            <gpxtpx:hr>108</gpxtpx:hr>
          </gpxtpx:TrackPointExtension>
        </extensions>
      </trkpt>
      <trkpt lat="38.8364560008437" lon="121.50700927494472">
        <ele>8.92983912397176</ele>
        <time>2025-09-03T14:56:42Z</time>
        <extensions>
          <gpxtpx:TrackPointExtension>
            <gpxtpx:hr>108</gpxtpx:hr>
          </gpxtpx:TrackPointExtension>
        </extensions>
      </trkpt>
      <trkpt lat="38.8365207064337" lon="121.50703558762531">
        <ele>7.040962289087474</ele>
        <time>2025-09-03T14:56:46Z</time>
        <extensions>
          <gpxtpx:TrackPointExtension>
            <gpxtpx:hr>102</gpxtpx:hr>
          </gpxtpx:TrackPointExtension>
        </extensions>
      </trkpt>
      <trkpt lat="38.83659366554078" lon="121.50710945050932">
        <ele>8.105446281842887</ele>
        <time>2025-09-03T14:56:52Z</time>
        <extensions>
          <gpxtpx:TrackPointExtension>
            <gpxtpx:hr>104</gpxtpx:hr>
          </gpxtpx:TrackPointExtension>
        </extensions>
      </trkpt>
      <trkpt lat="38.83674034273765" lon="121.50720384030247">
        <ele>9.0058888560161</ele>
        <time>2025-09-03T14:57:01Z</time>
        <extensions>
          <gpxtpx:TrackPointExtension>
            <gpxtpx:hr>104</gpxtpx:hr>
          </gpxtpx:TrackPointExtension>
        </extensions>
      </trkpt>
      <trkpt lat="38.83674975630426" lon="121.50727938465604">
        <ele>8.508643079549074</ele>
        <time>2025-09-03T14:57:04Z</time>
        <extensions>
          <gpxtpx:TrackPointExtension>
            <gpxtpx:hr>104</gpxtpx:hr>
          </gpxtpx:TrackPointExtension>
        </extensions>
      </trkpt>
      <trkpt lat="38.83672143491119" lon="121.50738978931142">
        <ele>9.021129318512976</ele>
        <time>2025-09-03T14:57:10Z</time>
        <extensions>
          <gpxtpx:TrackPointExtension>
            <gpxtpx:hr>104</gpxtpx:hr>
          </gpxtpx:TrackPointExtension>
        </extensions>
      </trkpt>
      <trkpt lat="38.83674944900678" lon="121.50746140920945">
        <ele>9.801753588952124</ele>
        <time>2025-09-03T14:57:13Z</time>
        <extensions>
          <gpxtpx:TrackPointExtension>
            <gpxtpx:hr>104</gpxtpx:hr>
          </gpxtpx:TrackPointExtension>
        </extensions>
      </trkpt>
      <trkpt lat="38.83697138328611" lon="121.50771935707162">
        <ele>9.52920437976718</ele>
        <time>2025-09-03T14:57:31Z</time>
        <extensions>
          <gpxtpx:TrackPointExtension>
            <gpxtpx:hr>108</gpxtpx:hr>
          </gpxtpx:TrackPointExtension>
        </extensions>
      </trkpt>
      <trkpt lat="38.83724632761799" lon="121.50791183512382">
        <ele>10.872982778586447</ele>
        <time>2025-09-03T14:57:46Z</time>
        <extensions>
          <gpxtpx:TrackPointExtension>
            <gpxtpx:hr>115</gpxtpx:hr>
          </gpxtpx:TrackPointExtension>
        </extensions>
      </trkpt>
      <trkpt lat="38.837463517545935" lon="121.50819160089216">
        <ele>10.359488066285849</ele>
        <time>2025-09-03T14:58:04Z</time>
        <extensions>
          <gpxtpx:TrackPointExtension>
            <gpxtpx:hr>124</gpxtpx:hr>
          </gpxtpx:TrackPointExtension>
        </extensions>
      </trkpt>
      <trkpt lat="38.83758369078757" lon="121.5082439958897">
        <ele>10.196144703775644</ele>
        <time>2025-09-03T14:58:10Z</time>
        <extensions>
          <gpxtpx:TrackPointExtension>
            <gpxtpx:hr>120</gpxtpx:hr>
          </gpxtpx:TrackPointExtension>
        </extensions>
      </trkpt>
      <trkpt lat="38.83767359712" lon="121.50837219797945">
        <ele>10.412342733703554</ele>
        <time>2025-09-03T14:58:18Z</time>
        <extensions>
          <gpxtpx:TrackPointExtension>
            <gpxtpx:hr>122</gpxtpx:hr>
          </gpxtpx:TrackPointExtension>
        </extensions>
      </trkpt>
      <trkpt lat="38.83758576294088" lon="121.50870293120077">
        <ele>9.974081669002771</ele>
        <time>2025-09-03T14:58:32Z</time>
        <extensions>
          <gpxtpx:TrackPointExtension>
            <gpxtpx:hr>119</gpxtpx:hr>
          </gpxtpx:TrackPointExtension>
        </extensions>
      </trkpt>
      <trkpt lat="38.83752163049675" lon="121.50890705180734">
        <ele>10.159366452135146</ele>
        <time>2025-09-03T14:58:41Z</time>
        <extensions>
          <gpxtpx:TrackPointExtension>
            <gpxtpx:hr>111</gpxtpx:hr>
          </gpxtpx:TrackPointExtension>
        </extensions>
      </trkpt>
      <trkpt lat="38.837445308260854" lon="121.50902483670738">
        <ele>10.36210476513952</ele>
        <time>2025-09-03T14:58:47Z</time>
        <extensions>
          <gpxtpx:TrackPointExtension>
            <gpxtpx:hr>111</gpxtpx:hr>
          </gpxtpx:TrackPointExtension>
        </extensions>
      </trkpt>
      <trkpt lat="38.83726183712659" lon="121.5091877069785">
        <ele>9.645384013652802</ele>
        <time>2025-09-03T14:58:59Z</time>
        <extensions>
          <gpxtpx:TrackPointExtension>
            <gpxtpx:hr>118</gpxtpx:hr>
          </gpxtpx:TrackPointExtension>
        </extensions>
      </trkpt>
      <trkpt lat="38.83710473219974" lon="121.50949854611605">
        <ele>9.149567681364715</ele>
        <time>2025-09-03T14:59:14Z</time>
        <extensions>
          <gpxtpx:TrackPointExtension>
            <gpxtpx:hr>120</gpxtpx:hr>
          </gpxtpx:TrackPointExtension>
        </extensions>
      </trkpt>
      <trkpt lat="38.83698994063718" lon="121.50976986278862">
        <ele>8.18415246438235</ele>
        <time>2025-09-03T14:59:26Z</time>
        <extensions>
          <gpxtpx:TrackPointExtension>
            <gpxtpx:hr>118</gpxtpx:hr>
          </gpxtpx:TrackPointExtension>
        </extensions>
      </trkpt>
      <trkpt lat="38.83684156824473" lon="121.50989992867281">
        <ele>7.195670022629201</ele>
        <time>2025-09-03T14:59:35Z</time>
        <extensions>
          <gpxtpx:TrackPointExtension>
            <gpxtpx:hr>120</gpxtpx:hr>
          </gpxtpx:TrackPointExtension>
        </extensions>
      </trkpt>
      <trkpt lat="38.83671524900688" lon="121.50994457395913">
        <ele>7.0866567036136985</ele>
        <time>2025-09-03T14:59:41Z</time>
        <extensions>
          <gpxtpx:TrackPointExtension>
            <gpxtpx:hr>119</gpxtpx:hr>
          </gpxtpx:TrackPointExtension>
        </extensions>
      </trkpt>
      <trkpt lat="38.83647184494221" lon="121.50995056385574">
        <ele>7.293112586252391</ele>
        <time>2025-09-03T14:59:53Z</time>
        <extensions>
          <gpxtpx:TrackPointExtension>
            <gpxtpx:hr>118</gpxtpx:hr>
          </gpxtpx:TrackPointExtension>
        </extensions>
      </trkpt>
      <trkpt lat="38.83622715107892" lon="121.51002427406677">
        <ele>5.8709919126704335</ele>
        <time>2025-09-03T15:00:05Z</time>
        <extensions>
          <gpxtpx:TrackPointExtension>
            <gpxtpx:hr>124</gpxtpx:hr>
          </gpxtpx:TrackPointExtension>
        </extensions>
      </trkpt>
      <trkpt lat="38.83616002410019" lon="121.51007072955647">
        <ele>6.549418483860791</ele>
        <time>2025-09-03T15:00:08Z</time>
        <extensions>
          <gpxtpx:TrackPointExtension>
            <gpxtpx:hr>124</gpxtpx:hr>
          </gpxtpx:TrackPointExtension>
        </extensions>
      </trkpt>
      <trkpt lat="38.83612029893615" lon="121.51014096066959">
        <ele>6.604961653240025</ele>
        <time>2025-09-03T15:00:11Z</time>
        <extensions>
          <gpxtpx:TrackPointExtension>
            <gpxtpx:hr>122</gpxtpx:hr>
          </gpxtpx:TrackPointExtension>
        </extensions>
      </trkpt>
      <trkpt lat="38.83612361840329" lon="121.51021920558064">
        <ele>6.562154557555914</ele>
        <time>2025-09-03T15:00:14Z</time>
        <extensions>
          <gpxtpx:TrackPointExtension>
            <gpxtpx:hr>122</gpxtpx:hr>
          </gpxtpx:TrackPointExtension>
        </extensions>
      </trkpt>
      <trkpt lat="38.83617647311777" lon="121.51029081116639">
        <ele>5.63121700566262</ele>
        <time>2025-09-03T15:00:18Z</time>
        <extensions>
          <gpxtpx:TrackPointExtension>
            <gpxtpx:hr>122</gpxtpx:hr>
          </gpxtpx:TrackPointExtension>
        </extensions>
      </trkpt>
      <trkpt lat="38.83626883536559" lon="121.51056939681668">
        <ele>5.687783216126263</ele>
        <time>2025-09-03T15:00:30Z</time>
        <extensions>
          <gpxtpx:TrackPointExtension>
            <gpxtpx:hr>122</gpxtpx:hr>
          </gpxtpx:TrackPointExtension>
        </extensions>
      </trkpt>
      <trkpt lat="38.83621926221317" lon="121.51084467672081">
        <ele>5.379546478390694</ele>
        <time>2025-09-03T15:00:40Z</time>
        <extensions>
          <gpxtpx:TrackPointExtension>
            <gpxtpx:hr>122</gpxtpx:hr>
          </gpxtpx:TrackPointExtension>
        </extensions>
      </trkpt>
      <trkpt lat="38.836052835471676" lon="121.51117856543318">
        <ele>4.31928735319525</ele>
        <time>2025-09-03T15:00:55Z</time>
        <extensions>
          <gpxtpx:TrackPointExtension>
            <gpxtpx:hr>122</gpxtpx:hr>
          </gpxtpx:TrackPointExtension>
        </extensions>
      </trkpt>
      <trkpt lat="38.835986139830304" lon="121.51141406270754">
        <ele>4.519308157265186</ele>
        <time>2025-09-03T15:01:04Z</time>
        <extensions>
          <gpxtpx:TrackPointExtension>
            <gpxtpx:hr>125</gpxtpx:hr>
          </gpxtpx:TrackPointExtension>
        </extensions>
      </trkpt>
      <trkpt lat="38.836011042318596" lon="121.51163312110332">
        <ele>4.622458474710584</ele>
        <time>2025-09-03T15:01:13Z</time>
        <extensions>
          <gpxtpx:TrackPointExtension>
            <gpxtpx:hr>120</gpxtpx:hr>
          </gpxtpx:TrackPointExtension>
        </extensions>
      </trkpt>
      <trkpt lat="38.83609644364023" lon="121.51183409380965">
        <ele>4.370264207012951</ele>
        <time>2025-09-03T15:01:22Z</time>
        <extensions>
          <gpxtpx:TrackPointExtension>
            <gpxtpx:hr>117</gpxtpx:hr>
          </gpxtpx:TrackPointExtension>
        </extensions>
      </trkpt>
      <trkpt lat="38.83621020234708" lon="121.51193388269883">
        <ele>5.264235175214708</ele>
        <time>2025-09-03T15:01:28Z</time>
        <extensions>
          <gpxtpx:TrackPointExtension>
            <gpxtpx:hr>115</gpxtpx:hr>
          </gpxtpx:TrackPointExtension>
        </extensions>
      </trkpt>
      <trkpt lat="38.83633582750242" lon="121.51195525452007">
        <ele>4.821222722530365</ele>
        <time>2025-09-03T15:01:34Z</time>
        <extensions>
          <gpxtpx:TrackPointExtension>
            <gpxtpx:hr>117</gpxtpx:hr>
          </gpxtpx:TrackPointExtension>
        </extensions>
      </trkpt>
      <trkpt lat="38.83661564920031" lon="121.5118401720552">
        <ele>5.75162735953927</ele>
        <time>2025-09-03T15:01:49Z</time>
        <extensions>
          <gpxtpx:TrackPointExtension>
            <gpxtpx:hr>116</gpxtpx:hr>
          </gpxtpx:TrackPointExtension>
        </extensions>
      </trkpt>
      <trkpt lat="38.836698701406824" lon="121.51176005010453">
        <ele>5.518113387748599</ele>
        <time>2025-09-03T15:01:55Z</time>
        <extensions>
          <gpxtpx:TrackPointExtension>
            <gpxtpx:hr>116</gpxtpx:hr>
          </gpxtpx:TrackPointExtension>
        </extensions>
      </trkpt>
      <trkpt lat="38.836892646760866" lon="121.51148281822718">
        <ele>6.820801866240799</ele>
        <time>2025-09-03T15:02:10Z</time>
        <extensions>
          <gpxtpx:TrackPointExtension>
            <gpxtpx:hr>122</gpxtpx:hr>
          </gpxtpx:TrackPointExtension>
        </extensions>
      </trkpt>
      <trkpt lat="38.83696335506198" lon="121.51137117466526">
        <ele>6.509998140856624</ele>
        <time>2025-09-03T15:02:16Z</time>
        <extensions>
          <gpxtpx:TrackPointExtension>
            <gpxtpx:hr>126</gpxtpx:hr>
          </gpxtpx:TrackPointExtension>
        </extensions>
      </trkpt>
      <trkpt lat="38.83706618049825" lon="121.5109564304788">
        <ele>7.0324823865666986</ele>
        <time>2025-09-03T15:02:34Z</time>
        <extensions>
          <gpxtpx:TrackPointExtension>
            <gpxtpx:hr>126</gpxtpx:hr>
          </gpxtpx:TrackPointExtension>
        </extensions>
      </trkpt>
      <trkpt lat="38.83720893178381" lon="121.510645886664">
        <ele>6.810968209989369</ele>
        <time>2025-09-03T15:02:49Z</time>
        <extensions>
          <gpxtpx:TrackPointExtension>
            <gpxtpx:hr>128</gpxtpx:hr>
          </gpxtpx:TrackPointExtension>
        </extensions>
      </trkpt>
      <trkpt lat="38.83741925464596" lon="121.51039203380091">
        <ele>7.401906915940344</ele>
        <time>2025-09-03T15:03:04Z</time>
        <extensions>
          <gpxtpx:TrackPointExtension>
            <gpxtpx:hr>127</gpxtpx:hr>
          </gpxtpx:TrackPointExtension>
        </extensions>
      </trkpt>
      <trkpt lat="38.83764143353821" lon="121.51018863246799">
        <ele>6.992146217264235</ele>
        <time>2025-09-03T15:03:19Z</time>
        <extensions>
          <gpxtpx:TrackPointExtension>
            <gpxtpx:hr>129</gpxtpx:hr>
          </gpxtpx:TrackPointExtension>
        </extensions>
      </trkpt>
      <trkpt lat="38.83772189481259" lon="121.5100736183082">
        <ele>7.4670452596619725</ele>
        <time>2025-09-03T15:03:25Z</time>
        <extensions>
          <gpxtpx:TrackPointExtension>
            <gpxtpx:hr>129</gpxtpx:hr>
          </gpxtpx:TrackPointExtension>
        </extensions>
      </trkpt>
      <trkpt lat="38.83775970515884" lon="121.50993799306622">
        <ele>7.570828430354595</ele>
        <time>2025-09-03T15:03:31Z</time>
        <extensions>
          <gpxtpx:TrackPointExtension>
            <gpxtpx:hr>129</gpxtpx:hr>
          </gpxtpx:TrackPointExtension>
        </extensions>
      </trkpt>
      <trkpt lat="38.83784421012653" lon="121.50993600695308">
        <ele>7.983935980126262</ele>
        <time>2025-09-03T15:03:34Z</time>
        <extensions>
          <gpxtpx:TrackPointExtension>
            <gpxtpx:hr>129</gpxtpx:hr>
          </gpxtpx:TrackPointExtension>
        </extensions>
      </trkpt>
      <trkpt lat="38.83789428948234" lon="121.50989604621323">
        <ele>8.650844397954643</ele>
        <time>2025-09-03T15:03:37Z</time>
        <extensions>
          <gpxtpx:TrackPointExtension>
            <gpxtpx:hr>129</gpxtpx:hr>
          </gpxtpx:TrackPointExtension>
        </extensions>
      </trkpt>
      <trkpt lat="38.837936324350274" lon="121.50982346153418">
        <ele>9.131695521064103</ele>
        <time>2025-09-03T15:03:40Z</time>
        <extensions>
          <gpxtpx:TrackPointExtension>
            <gpxtpx:hr>129</gpxtpx:hr>
          </gpxtpx:TrackPointExtension>
        </extensions>
      </trkpt>
      <trkpt lat="38.83802191917415" lon="121.50946728258407">
        <ele>9.188250259496272</ele>
        <time>2025-09-03T15:03:55Z</time>
        <extensions>
          <gpxtpx:TrackPointExtension>
            <gpxtpx:hr>133</gpxtpx:hr>
          </gpxtpx:TrackPointExtension>
        </extensions>
      </trkpt>
      <trkpt lat="38.83804919201109" lon="121.50940297867403">
        <ele>8.4129398195073</ele>
        <time>2025-09-03T15:03:58Z</time>
        <extensions>
          <gpxtpx:TrackPointExtension>
            <gpxtpx:hr>133</gpxtpx:hr>
          </gpxtpx:TrackPointExtension>
        </extensions>
      </trkpt>
      <trkpt lat="38.8381268451039" lon="121.50930675215517">
        <ele>9.617913979105651</ele>
        <time>2025-09-03T15:04:04Z</time>
        <extensions>
          <gpxtpx:TrackPointExtension>
            <gpxtpx:hr>133</gpxtpx:hr>
          </gpxtpx:TrackPointExtension>
        </extensions>
      </trkpt>
      <trkpt lat="38.83831221598805" lon="121.50913818616334">
        <ele>10.366331269964576</ele>
        <time>2025-09-03T15:04:16Z</time>
        <extensions>
          <gpxtpx:TrackPointExtension>
            <gpxtpx:hr>132</gpxtpx:hr>
          </gpxtpx:TrackPointExtension>
        </extensions>
      </trkpt>
      <trkpt lat="38.838336440810195" lon="121.50905400996209">
        <ele>10.83269352465868</ele>
        <time>2025-09-03T15:04:19Z</time>
        <extensions>
          <gpxtpx:TrackPointExtension>
            <gpxtpx:hr>132</gpxtpx:hr>
          </gpxtpx:TrackPointExtension>
        </extensions>
      </trkpt>
      <trkpt lat="38.83823406342314" lon="121.50894798854213">
        <ele>10.53698029089719</ele>
        <time>2025-09-03T15:04:25Z</time>
        <extensions>
          <gpxtpx:TrackPointExtension>
            <gpxtpx:hr>131</gpxtpx:hr>
          </gpxtpx:TrackPointExtension>
        </extensions>
      </trkpt>
      <trkpt lat="38.838095954570235" lon="121.50890609065165">
        <ele>10.207766277715564</ele>
        <time>2025-09-03T15:04:32Z</time>
        <extensions>
          <gpxtpx:TrackPointExtension>
            <gpxtpx:hr>131</gpxtpx:hr>
          </gpxtpx:TrackPointExtension>
        </extensions>
      </trkpt>
      <trkpt lat="38.83795559303991" lon="121.50880703287325">
        <ele>9.996287440881133</ele>
        <time>2025-09-03T15:04:40Z</time>
        <extensions>
          <gpxtpx:TrackPointExtension>
            <gpxtpx:hr>132</gpxtpx:hr>
          </gpxtpx:TrackPointExtension>
        </extensions>
      </trkpt>
      <trkpt lat="38.83781040782787" lon="121.50856616066248">
        <ele>9.906613844446838</ele>
        <time>2025-09-03T15:04:52Z</time>
        <extensions>
          <gpxtpx:TrackPointExtension>
            <gpxtpx:hr>132</gpxtpx:hr>
          </gpxtpx:TrackPointExtension>
        </extensions>
      </trkpt>
      <trkpt lat="38.837738476334756" lon="121.50850120268389">
        <ele>9.434620977379382</ele>
        <time>2025-09-03T15:04:56Z</time>
        <extensions>
          <gpxtpx:TrackPointExtension>
            <gpxtpx:hr>132</gpxtpx:hr>
          </gpxtpx:TrackPointExtension>
        </extensions>
      </trkpt>
      <trkpt lat="38.8376633031826" lon="121.50849382687989">
        <ele>9.44923599716276</ele>
        <time>2025-09-03T15:04:59Z</time>
        <extensions>
          <gpxtpx:TrackPointExtension>
            <gpxtpx:hr>132</gpxtpx:hr>
          </gpxtpx:TrackPointExtension>
        </extensions>
      </trkpt>
      <trkpt lat="38.837614382992925" lon="121.50855882659725">
        <ele>9.48925790283829</ele>
        <time>2025-09-03T15:05:02Z</time>
        <extensions>
          <gpxtpx:TrackPointExtension>
            <gpxtpx:hr>132</gpxtpx:hr>
          </gpxtpx:TrackPointExtension>
        </extensions>
      </trkpt>
      <trkpt lat="38.8375065798349" lon="121.5089352017359">
        <ele>9.79730791784823</ele>
        <time>2025-09-03T15:05:17Z</time>
        <extensions>
          <gpxtpx:TrackPointExtension>
            <gpxtpx:hr>128</gpxtpx:hr>
          </gpxtpx:TrackPointExtension>
        </extensions>
      </trkpt>
      <trkpt lat="38.8374360410969" lon="121.5090434807042">
        <ele>9.284070531837642</ele>
        <time>2025-09-03T15:05:23Z</time>
        <extensions>
          <gpxtpx:TrackPointExtension>
            <gpxtpx:hr>128</gpxtpx:hr>
          </gpxtpx:TrackPointExtension>
        </extensions>
      </trkpt>
      <trkpt lat="38.83728047307068" lon="121.50917282479817">
        <ele>8.986519980244339</ele>
        <time>2025-09-03T15:05:32Z</time>
        <extensions>
          <gpxtpx:TrackPointExtension>
            <gpxtpx:hr>125</gpxtpx:hr>
          </gpxtpx:TrackPointExtension>
        </extensions>
      </trkpt>
      <trkpt lat="38.83718548638403" lon="121.50930767088241">
        <ele>8.863682217895985</ele>
        <time>2025-09-03T15:05:38Z</time>
        <extensions>
          <gpxtpx:TrackPointExtension>
            <gpxtpx:hr>126</gpxtpx:hr>
          </gpxtpx:TrackPointExtension>
        </extensions>
      </trkpt>
      <trkpt lat="38.83716361809867" lon="121.50939201766722">
        <ele>10.160048085264862</ele>
        <time>2025-09-03T15:05:41Z</time>
        <extensions>
          <gpxtpx:TrackPointExtension>
            <gpxtpx:hr>128</gpxtpx:hr>
          </gpxtpx:TrackPointExtension>
        </extensions>
      </trkpt>
      <trkpt lat="38.83705158192615" lon="121.50963289858628">
        <ele>8.400634923018515</ele>
        <time>2025-09-03T15:05:53Z</time>
        <extensions>
          <gpxtpx:TrackPointExtension>
            <gpxtpx:hr>129</gpxtpx:hr>
          </gpxtpx:TrackPointExtension>
        </extensions>
      </trkpt>
      <trkpt lat="38.83702781359888" lon="121.50971519395729">
        <ele>7.829318980686367</ele>
        <time>2025-09-03T15:05:56Z</time>
        <extensions>
          <gpxtpx:TrackPointExtension>
            <gpxtpx:hr>128</gpxtpx:hr>
          </gpxtpx:TrackPointExtension>
        </extensions>
      </trkpt>
      <trkpt lat="38.83694156659754" lon="121.5098471112606">
        <ele>7.44249933026731</ele>
        <time>2025-09-03T15:06:02Z</time>
        <extensions>
          <gpxtpx:TrackPointExtension>
            <gpxtpx:hr>127</gpxtpx:hr>
          </gpxtpx:TrackPointExtension>
        </extensions>
      </trkpt>
      <trkpt lat="38.83672704915648" lon="121.5099602072351">
        <ele>5.422211061231792</ele>
        <time>2025-09-03T15:06:14Z</time>
        <extensions>
          <gpxtpx:TrackPointExtension>
            <gpxtpx:hr>129</gpxtpx:hr>
          </gpxtpx:TrackPointExtension>
        </extensions>
      </trkpt>
      <trkpt lat="38.83654993539776" lon="121.50995839219752">
        <ele>5.320908474735916</ele>
        <time>2025-09-03T15:06:23Z</time>
        <extensions>
          <gpxtpx:TrackPointExtension>
            <gpxtpx:hr>129</gpxtpx:hr>
          </gpxtpx:TrackPointExtension>
        </extensions>
      </trkpt>
      <trkpt lat="38.83627704088279" lon="121.51002642395802">
        <ele>5.1406111884862185</ele>
        <time>2025-09-03T15:06:36Z</time>
        <extensions>
          <gpxtpx:TrackPointExtension>
            <gpxtpx:hr>127</gpxtpx:hr>
          </gpxtpx:TrackPointExtension>
        </extensions>
      </trkpt>
      <trkpt lat="38.83612513723709" lon="121.51013626992871">
        <ele>6.274993089027703</ele>
        <time>2025-09-03T15:06:44Z</time>
        <extensions>
          <gpxtpx:TrackPointExtension>
            <gpxtpx:hr>126</gpxtpx:hr>
          </gpxtpx:TrackPointExtension>
        </extensions>
      </trkpt>
      <trkpt lat="38.83614196038122" lon="121.51024696914781">
        <ele>5.938030065968633</ele>
        <time>2025-09-03T15:06:48Z</time>
        <extensions>
          <gpxtpx:TrackPointExtension>
            <gpxtpx:hr>126</gpxtpx:hr>
          </gpxtpx:TrackPointExtension>
        </extensions>
      </trkpt>
      <trkpt lat="38.83626851543543" lon="121.51051999421374">
        <ele>6.42002310231328</ele>
        <time>2025-09-03T15:07:00Z</time>
        <extensions>
          <gpxtpx:TrackPointExtension>
            <gpxtpx:hr>128</gpxtpx:hr>
          </gpxtpx:TrackPointExtension>
        </extensions>
      </trkpt>
      <trkpt lat="38.836263440371155" lon="121.51068404625885">
        <ele>6.748884612694383</ele>
        <time>2025-09-03T15:07:06Z</time>
        <extensions>
          <gpxtpx:TrackPointExtension>
            <gpxtpx:hr>131</gpxtpx:hr>
          </gpxtpx:TrackPointExtension>
        </extensions>
      </trkpt>
      <trkpt lat="38.836152513513895" lon="121.51099053631496">
        <ele>6.657628418877721</ele>
        <time>2025-09-03T15:07:18Z</time>
        <extensions>
          <gpxtpx:TrackPointExtension>
            <gpxtpx:hr>130</gpxtpx:hr>
          </gpxtpx:TrackPointExtension>
        </extensions>
      </trkpt>
      <trkpt lat="38.8360685500605" lon="121.51112613226809">
        <ele>6.042741054669023</ele>
        <time>2025-09-03T15:07:24Z</time>
        <extensions>
          <gpxtpx:TrackPointExtension>
            <gpxtpx:hr>130</gpxtpx:hr>
          </gpxtpx:TrackPointExtension>
        </extensions>
      </trkpt>
      <trkpt lat="38.83599419500179" lon="121.51143283326512">
        <ele>5.190996472723782</ele>
        <time>2025-09-03T15:07:36Z</time>
        <extensions>
          <gpxtpx:TrackPointExtension>
            <gpxtpx:hr>131</gpxtpx:hr>
          </gpxtpx:TrackPointExtension>
        </extensions>
      </trkpt>
      <trkpt lat="38.83600606064186" lon="121.51159618315033">
        <ele>5.045661971904337</ele>
        <time>2025-09-03T15:07:42Z</time>
        <extensions>
          <gpxtpx:TrackPointExtension>
            <gpxtpx:hr>132</gpxtpx:hr>
          </gpxtpx:TrackPointExtension>
        </extensions>
      </trkpt>
      <trkpt lat="38.836127646263044" lon="121.51187600858087">
        <ele>4.492778272368014</ele>
        <time>2025-09-03T15:07:54Z</time>
        <extensions>
          <gpxtpx:TrackPointExtension>
            <gpxtpx:hr>133</gpxtpx:hr>
          </gpxtpx:TrackPointExtension>
        </extensions>
      </trkpt>
      <trkpt lat="38.83624643832709" lon="121.51194169441935">
        <ele>4.800343273207545</ele>
        <time>2025-09-03T15:08:00Z</time>
        <extensions>
          <gpxtpx:TrackPointExtension>
            <gpxtpx:hr>134</gpxtpx:hr>
          </gpxtpx:TrackPointExtension>
        </extensions>
      </trkpt>
      <trkpt lat="38.83631615873588" lon="121.5119576658536">
        <ele>4.818956391885877</ele>
        <time>2025-09-03T15:08:03Z</time>
        <extensions>
          <gpxtpx:TrackPointExtension>
            <gpxtpx:hr>134</gpxtpx:hr>
          </gpxtpx:TrackPointExtension>
        </extensions>
      </trkpt>
      <trkpt lat="38.83638361142149" lon="121.51194806567162">
        <ele>5.326440166682005</ele>
        <time>2025-09-03T15:08:06Z</time>
        <extensions>
          <gpxtpx:TrackPointExtension>
            <gpxtpx:hr>134</gpxtpx:hr>
          </gpxtpx:TrackPointExtension>
        </extensions>
      </trkpt>
      <trkpt lat="38.83667887957517" lon="121.51177186896355">
        <ele>4.912918125279248</ele>
        <time>2025-09-03T15:08:22Z</time>
        <extensions>
          <gpxtpx:TrackPointExtension>
            <gpxtpx:hr>135</gpxtpx:hr>
          </gpxtpx:TrackPointExtension>
        </extensions>
      </trkpt>
      <trkpt lat="38.836891624142325" lon="121.51148748011761">
        <ele>5.184141343459487</ele>
        <time>2025-09-03T15:08:37Z</time>
        <extensions>
          <gpxtpx:TrackPointExtension>
            <gpxtpx:hr>134</gpxtpx:hr>
          </gpxtpx:TrackPointExtension>
        </extensions>
      </trkpt>
      <trkpt lat="38.836984335643855" lon="121.51131386731628">
        <ele>5.727244799956679</ele>
        <time>2025-09-03T15:08:45Z</time>
        <extensions>
          <gpxtpx:TrackPointExtension>
            <gpxtpx:hr>133</gpxtpx:hr>
          </gpxtpx:TrackPointExtension>
        </extensions>
      </trkpt>
      <trkpt lat="38.83703306793551" lon="121.51112561345855">
        <ele>5.519879939034581</ele>
        <time>2025-09-03T15:08:53Z</time>
        <extensions>
          <gpxtpx:TrackPointExtension>
            <gpxtpx:hr>134</gpxtpx:hr>
          </gpxtpx:TrackPointExtension>
        </extensions>
      </trkpt>
      <trkpt lat="38.83706957421184" lon="121.51092384154339">
        <ele>7.429398447275162</ele>
        <time>2025-09-03T15:09:01Z</time>
        <extensions>
          <gpxtpx:TrackPointExtension>
            <gpxtpx:hr>134</gpxtpx:hr>
          </gpxtpx:TrackPointExtension>
        </extensions>
      </trkpt>
      <trkpt lat="38.83723726721269" lon="121.51060337100812">
        <ele>7.384419007226825</ele>
        <time>2025-09-03T15:09:16Z</time>
        <extensions>
          <gpxtpx:TrackPointExtension>
            <gpxtpx:hr>136</gpxtpx:hr>
          </gpxtpx:TrackPointExtension>
        </extensions>
      </trkpt>
      <trkpt lat="38.83744277028902" lon="121.51036063563113">
        <ele>7.290094844996929</ele>
        <time>2025-09-03T15:09:31Z</time>
        <extensions>
          <gpxtpx:TrackPointExtension>
            <gpxtpx:hr>137</gpxtpx:hr>
          </gpxtpx:TrackPointExtension>
        </extensions>
      </trkpt>
      <trkpt lat="38.837679829660175" lon="121.51013696124929">
        <ele>9.07059258595109</ele>
        <time>2025-09-03T15:09:46Z</time>
        <extensions>
          <gpxtpx:TrackPointExtension>
            <gpxtpx:hr>137</gpxtpx:hr>
          </gpxtpx:TrackPointExtension>
        </extensions>
      </trkpt>
      <trkpt lat="38.8377119479611" lon="121.51008994608156">
        <ele>9.690893135033548</ele>
        <time>2025-09-03T15:09:49Z</time>
        <extensions>
          <gpxtpx:TrackPointExtension>
            <gpxtpx:hr>137</gpxtpx:hr>
          </gpxtpx:TrackPointExtension>
        </extensions>
      </trkpt>
      <trkpt lat="38.83773335734102" lon="121.51000342409486">
        <ele>8.964254619553685</ele>
        <time>2025-09-03T15:09:52Z</time>
        <extensions>
          <gpxtpx:TrackPointExtension>
            <gpxtpx:hr>137</gpxtpx:hr>
          </gpxtpx:TrackPointExtension>
        </extensions>
      </trkpt>
      <trkpt lat="38.83787462532924" lon="121.5098801767213">
        <ele>8.213473291136324</ele>
        <time>2025-09-03T15:10:01Z</time>
        <extensions>
          <gpxtpx:TrackPointExtension>
            <gpxtpx:hr>136</gpxtpx:hr>
          </gpxtpx:TrackPointExtension>
        </extensions>
      </trkpt>
      <trkpt lat="38.837811308689936" lon="121.50980637071946">
        <ele>6.798587281256914</ele>
        <time>2025-09-03T15:10:04Z</time>
        <extensions>
          <gpxtpx:TrackPointExtension>
            <gpxtpx:hr>136</gpxtpx:hr>
          </gpxtpx:TrackPointExtension>
        </extensions>
      </trkpt>
      <trkpt lat="38.83778984219747" lon="121.5096507671346">
        <ele>7.867521760053933</ele>
        <time>2025-09-03T15:10:10Z</time>
        <extensions>
          <gpxtpx:TrackPointExtension>
            <gpxtpx:hr>136</gpxtpx:hr>
          </gpxtpx:TrackPointExtension>
        </extensions>
      </trkpt>
      <trkpt lat="38.837797299837625" lon="121.50958051266934">
        <ele>7.792257302440703</ele>
        <time>2025-09-03T15:10:13Z</time>
        <extensions>
          <gpxtpx:TrackPointExtension>
            <gpxtpx:hr>136</gpxtpx:hr>
          </gpxtpx:TrackPointExtension>
        </extensions>
      </trkpt>
      <trkpt lat="38.837778077377976" lon="121.50933556331543">
        <ele>10.097193769179285</ele>
        <time>2025-09-03T15:10:22Z</time>
        <extensions>
          <gpxtpx:TrackPointExtension>
            <gpxtpx:hr>138</gpxtpx:hr>
          </gpxtpx:TrackPointExtension>
        </extensions>
      </trkpt>
      <trkpt lat="38.83777988130085" lon="121.50893092639438">
        <ele>9.24839592911303</ele>
        <time>2025-09-03T15:10:37Z</time>
        <extensions>
          <gpxtpx:TrackPointExtension>
            <gpxtpx:hr>138</gpxtpx:hr>
          </gpxtpx:TrackPointExtension>
        </extensions>
      </trkpt>
      <trkpt lat="38.83778983249701" lon="121.50876669990679">
        <ele>9.154495966620743</ele>
        <time>2025-09-03T15:10:43Z</time>
        <extensions>
          <gpxtpx:TrackPointExtension>
            <gpxtpx:hr>140</gpxtpx:hr>
          </gpxtpx:TrackPointExtension>
        </extensions>
      </trkpt>
      <trkpt lat="38.83774733067477" lon="121.50858853075268">
        <ele>7.031131474301219</ele>
        <time>2025-09-03T15:10:51Z</time>
        <extensions>
          <gpxtpx:TrackPointExtension>
            <gpxtpx:hr>139</gpxtpx:hr>
          </gpxtpx:TrackPointExtension>
        </extensions>
      </trkpt>
      <trkpt lat="38.83761713299209" lon="121.50829674733953">
        <ele>9.19701077695936</ele>
        <time>2025-09-03T15:11:03Z</time>
        <extensions>
          <gpxtpx:TrackPointExtension>
            <gpxtpx:hr>139</gpxtpx:hr>
          </gpxtpx:TrackPointExtension>
        </extensions>
      </trkpt>
      <trkpt lat="38.83747923165606" lon="121.5081576827003">
        <ele>9.265290092676878</ele>
        <time>2025-09-03T15:11:12Z</time>
        <extensions>
          <gpxtpx:TrackPointExtension>
            <gpxtpx:hr>136</gpxtpx:hr>
          </gpxtpx:TrackPointExtension>
        </extensions>
      </trkpt>
      <trkpt lat="38.837369011598355" lon="121.50807978345433">
        <ele>9.223415020853281</ele>
        <time>2025-09-03T15:11:18Z</time>
        <extensions>
          <gpxtpx:TrackPointExtension>
            <gpxtpx:hr>134</gpxtpx:hr>
          </gpxtpx:TrackPointExtension>
        </extensions>
      </trkpt>
      <trkpt lat="38.83727573488517" lon="121.50797302910215">
        <ele>8.611600481905043</ele>
        <time>2025-09-03T15:11:24Z</time>
        <extensions>
          <gpxtpx:TrackPointExtension>
            <gpxtpx:hr>137</gpxtpx:hr>
          </gpxtpx:TrackPointExtension>
        </extensions>
      </trkpt>
      <trkpt lat="38.83711818854049" lon="121.50783077366998">
        <ele>8.327199770137668</ele>
        <time>2025-09-03T15:11:33Z</time>
        <extensions>
          <gpxtpx:TrackPointExtension>
            <gpxtpx:hr>137</gpxtpx:hr>
          </gpxtpx:TrackPointExtension>
        </extensions>
      </trkpt>
      <trkpt lat="38.837028509395196" lon="121.50771875432363">
        <ele>8.225225825794041</ele>
        <time>2025-09-03T15:11:39Z</time>
        <extensions>
          <gpxtpx:TrackPointExtension>
            <gpxtpx:hr>136</gpxtpx:hr>
          </gpxtpx:TrackPointExtension>
        </extensions>
      </trkpt>
      <trkpt lat="38.836824513964295" lon="121.50755647896185">
        <ele>9.589033131487668</ele>
        <time>2025-09-03T15:11:51Z</time>
        <extensions>
          <gpxtpx:TrackPointExtension>
            <gpxtpx:hr>135</gpxtpx:hr>
          </gpxtpx:TrackPointExtension>
        </extensions>
      </trkpt>
      <trkpt lat="38.83676028966222" lon="121.5074254029553">
        <ele>9.167796907946467</ele>
        <time>2025-09-03T15:11:57Z</time>
        <extensions>
          <gpxtpx:TrackPointExtension>
            <gpxtpx:hr>132</gpxtpx:hr>
          </gpxtpx:TrackPointExtension>
        </extensions>
      </trkpt>
      <trkpt lat="38.836819339699275" lon="121.50724798828921">
        <ele>8.470626884140074</ele>
        <time>2025-09-03T15:12:06Z</time>
        <extensions>
          <gpxtpx:TrackPointExtension>
            <gpxtpx:hr>131</gpxtpx:hr>
          </gpxtpx:TrackPointExtension>
        </extensions>
      </trkpt>
      <trkpt lat="38.83688049174014" lon="121.50716569309598">
        <ele>9.011427004821599</ele>
        <time>2025-09-03T15:12:12Z</time>
        <extensions>
          <gpxtpx:TrackPointExtension>
            <gpxtpx:hr>131</gpxtpx:hr>
          </gpxtpx:TrackPointExtension>
        </extensions>
      </trkpt>
      <trkpt lat="38.83694768818303" lon="121.50697971880612">
        <ele>8.490015890449286</ele>
        <time>2025-09-03T15:12:21Z</time>
        <extensions>
          <gpxtpx:TrackPointExtension>
            <gpxtpx:hr>131</gpxtpx:hr>
          </gpxtpx:TrackPointExtension>
        </extensions>
      </trkpt>
      <trkpt lat="38.837037600695126" lon="121.5068678704054">
        <ele>8.261679789051414</ele>
        <time>2025-09-03T15:12:27Z</time>
        <extensions>
          <gpxtpx:TrackPointExtension>
            <gpxtpx:hr>132</gpxtpx:hr>
          </gpxtpx:TrackPointExtension>
        </extensions>
      </trkpt>
      <trkpt lat="38.837104070470374" lon="121.50671077251835">
        <ele>8.321458057500422</ele>
        <time>2025-09-03T15:12:33Z</time>
        <extensions>
          <gpxtpx:TrackPointExtension>
            <gpxtpx:hr>136</gpxtpx:hr>
          </gpxtpx:TrackPointExtension>
        </extensions>
      </trkpt>
      <trkpt lat="38.83725970733691" lon="121.50649116049833">
        <ele>8.726555110886693</ele>
        <time>2025-09-03T15:12:45Z</time>
        <extensions>
          <gpxtpx:TrackPointExtension>
            <gpxtpx:hr>135</gpxtpx:hr>
          </gpxtpx:TrackPointExtension>
        </extensions>
      </trkpt>
      <trkpt lat="38.837308983716895" lon="121.50633644716524">
        <ele>8.488393153995275</ele>
        <time>2025-09-03T15:12:52Z</time>
        <extensions>
          <gpxtpx:TrackPointExtension>
            <gpxtpx:hr>134</gpxtpx:hr>
          </gpxtpx:TrackPointExtension>
        </extensions>
      </trkpt>
      <trkpt lat="38.837284691531565" lon="121.5062536634873">
        <ele>8.73073305375874</ele>
        <time>2025-09-03T15:12:55Z</time>
        <extensions>
          <gpxtpx:TrackPointExtension>
            <gpxtpx:hr>134</gpxtpx:hr>
          </gpxtpx:TrackPointExtension>
        </extensions>
      </trkpt>
      <trkpt lat="38.83739903908834" lon="121.50610355257662">
        <ele>9.41952567268163</ele>
        <time>2025-09-03T15:13:03Z</time>
        <extensions>
          <gpxtpx:TrackPointExtension>
            <gpxtpx:hr>134</gpxtpx:hr>
          </gpxtpx:TrackPointExtension>
        </extensions>
      </trkpt>
      <trkpt lat="38.83742900603123" lon="121.50602465203272">
        <ele>8.893091756850481</ele>
        <time>2025-09-03T15:13:06Z</time>
        <extensions>
          <gpxtpx:TrackPointExtension>
            <gpxtpx:hr>135</gpxtpx:hr>
          </gpxtpx:TrackPointExtension>
        </extensions>
      </trkpt>
      <trkpt lat="38.83746839179175" lon="121.5059705768749">
        <ele>9.214149831794202</ele>
        <time>2025-09-03T15:13:09Z</time>
        <extensions>
          <gpxtpx:TrackPointExtension>
            <gpxtpx:hr>135</gpxtpx:hr>
          </gpxtpx:TrackPointExtension>
        </extensions>
      </trkpt>
      <trkpt lat="38.83749645757406" lon="121.50589583399274">
        <ele>9.11411599535495</ele>
        <time>2025-09-03T15:13:12Z</time>
        <extensions>
          <gpxtpx:TrackPointExtension>
            <gpxtpx:hr>133</gpxtpx:hr>
          </gpxtpx:TrackPointExtension>
        </extensions>
      </trkpt>
      <trkpt lat="38.837609017419375" lon="121.50571542721617">
        <ele>9.721328563056886</ele>
        <time>2025-09-03T15:13:21Z</time>
        <extensions>
          <gpxtpx:TrackPointExtension>
            <gpxtpx:hr>133</gpxtpx:hr>
          </gpxtpx:TrackPointExtension>
        </extensions>
      </trkpt>
      <trkpt lat="38.83764862456329" lon="121.50567911707199">
        <ele>9.7844378631562</ele>
        <time>2025-09-03T15:13:24Z</time>
        <extensions>
          <gpxtpx:TrackPointExtension>
            <gpxtpx:hr>133</gpxtpx:hr>
          </gpxtpx:TrackPointExtension>
        </extensions>
      </trkpt>
      <trkpt lat="38.83770738832647" lon="121.50553875818122">
        <ele>9.013225318863988</ele>
        <time>2025-09-03T15:13:30Z</time>
        <extensions>
          <gpxtpx:TrackPointExtension>
            <gpxtpx:hr>135</gpxtpx:hr>
          </gpxtpx:TrackPointExtension>
        </extensions>
      </trkpt>
      <trkpt lat="38.837838170365785" lon="121.50533989732732">
        <ele>9.121607200242579</ele>
        <time>2025-09-03T15:13:42Z</time>
        <extensions>
          <gpxtpx:TrackPointExtension>
            <gpxtpx:hr>134</gpxtpx:hr>
          </gpxtpx:TrackPointExtension>
        </extensions>
      </trkpt>
      <trkpt lat="38.837838170365785" lon="121.50533989732732">
        <ele>9.121607200242579</ele>
        <time>2025-09-03T15:13:48Z</time>
        <extensions>
          <gpxtpx:TrackPointExtension>
            <gpxtpx:hr>134</gpxtpx:hr>
          </gpxtpx:TrackPointExtension>
        </extensions>
      </trkpt>
    </trkseg>
  </trk>
</gpx>