<?xml version="1.0" encoding="UTF-8"?>
<gpx xmlns="http://www.topografix.com/GPX/1/1" xmlns:gpxtpx="http://www.garmin.com/xmlschemas/TrackPointExtension/v1" xmlns:xsi="http://www.w3.org/2001/XMLSchema-instance" xsi:schemaLocation="http://www.topografix.com/GPX/1/1 http://www.topografix.com/GPX/1/1/gpx.xsd" version="1.1" creator="gpx.py -- https://github.com/tkrajina/gpxpy">
  <trk>
    <name>gpx from keep</name>
    <type>Run</type>
    <trkseg>
      <trkpt lat="38.83802145356342" lon="121.5043272816696">
        <ele>9.458216518961176</ele>
        <time>2026-07-13T01:27:10Z</time>
      </trkpt>
      <trkpt lat="38.83799685460634" lon="121.50427805136569">
        <ele>9.613322089523873</ele>
        <time>2026-07-13T01:27:13Z</time>
      </trkpt>
      <trkpt lat="38.837981314618915" lon="121.50417010140654">
        <ele>9.504103226597152</ele>
        <time>2026-07-13T01:27:17Z</time>
      </trkpt>
      <trkpt lat="38.83788761422031" lon="121.50414408315424">
        <ele>9.131802085787058</ele>
        <time>2026-07-13T01:27:21Z</time>
      </trkpt>
      <trkpt lat="38.83778899254359" lon="121.50428696388609">
        <ele>9.411310216411948</ele>
        <time>2026-07-13T01:27:25Z</time>
      </trkpt>
      <trkpt lat="38.83761009414009" lon="121.50446601923437">
        <ele>8.948016114532948</ele>
        <time>2026-07-13T01:27:32Z</time>
      </trkpt>
      <trkpt lat="38.83749713193444" lon="121.50453735220216">
        <ele>8.836026997305453</ele>
        <time>2026-07-13T01:27:38Z</time>
      </trkpt>
      <trkpt lat="38.83754761760923" lon="121.50456633139481">
        <ele>10.784846059046686</ele>
        <time>2026-07-13T01:27:41Z</time>
      </trkpt>
      <trkpt lat="38.837463581768326" lon="121.50457644590193">
        <ele>10.228988831862807</ele>
        <time>2026-07-13T01:27:56Z</time>
      </trkpt>
      <trkpt lat="38.83724067504334" lon="121.50452895499895">
        <ele>10.520467834547162</ele>
        <time>2026-07-13T01:28:05Z</time>
      </trkpt>
      <trkpt lat="38.83708955967293" lon="121.50433683942055">
        <ele>9.174813866615295</ele>
        <time>2026-07-13T01:28:14Z</time>
      </trkpt>
      <trkpt lat="38.83701616057347" lon="121.50429631210304">
        <ele>9.722982909530401</ele>
        <time>2026-07-13T01:28:17Z</time>
      </trkpt>
      <trkpt lat="38.836964315994294" lon="121.50429992798583">
        <ele>10.470992054790258</ele>
        <time>2026-07-13T01:28:20Z</time>
      </trkpt>
      <trkpt lat="38.83693485545209" lon="121.5043627465343">
        <ele>10.165390958078206</ele>
        <time>2026-07-13T01:28:23Z</time>
      </trkpt>
      <trkpt lat="38.83693022132137" lon="121.50445171291601">
        <ele>10.959292773157358</ele>
        <time>2026-07-13T01:28:26Z</time>
      </trkpt>
      <trkpt lat="38.836882418183365" lon="121.50459778374596">
        <ele>10.664605089463294</ele>
        <time>2026-07-13T01:28:32Z</time>
      </trkpt>
      <trkpt lat="38.8368429770752" lon="121.50468279019044">
        <ele>10.147779423743486</ele>
        <time>2026-07-13T01:28:50Z</time>
      </trkpt>
      <trkpt lat="38.836748269723024" lon="121.50504414833797">
        <ele>10.280599775724113</ele>
        <time>2026-07-13T01:29:05Z</time>
      </trkpt>
      <trkpt lat="38.83661940346678" lon="121.50545527448128">
        <ele>11.546742970123887</ele>
        <time>2026-07-13T01:29:21Z</time>
      </trkpt>
      <trkpt lat="38.83647481062718" lon="121.50586142277656">
        <ele>10.21769190300256</ele>
        <time>2026-07-13T01:29:37Z</time>
      </trkpt>
      <trkpt lat="38.83640143875872" lon="121.50606245339554">
        <ele>9.183737992309034</ele>
        <time>2026-07-13T01:29:45Z</time>
      </trkpt>
      <trkpt lat="38.83637965108754" lon="121.50618262593187">
        <ele>9.513364359736443</ele>
        <time>2026-07-13T01:29:49Z</time>
      </trkpt>
      <trkpt lat="38.83631600846201" lon="121.5063747891217">
        <ele>9.594274415634573</ele>
        <time>2026-07-13T01:29:56Z</time>
      </trkpt>
      <trkpt lat="38.83618747037465" lon="121.50671105371087">
        <ele>9.496523912064731</ele>
        <time>2026-07-13T01:30:08Z</time>
      </trkpt>
      <trkpt lat="38.836185355866206" lon="121.50677684261434">
        <ele>9.525813421234488</ele>
        <time>2026-07-13T01:30:11Z</time>
      </trkpt>
      <trkpt lat="38.836033051350405" lon="121.50708188033092">
        <ele>9.357447982765734</ele>
        <time>2026-07-13T01:30:45Z</time>
      </trkpt>
      <trkpt lat="38.835928288359916" lon="121.50745064060524">
        <ele>9.484091683290899</ele>
        <time>2026-07-13T01:31:06Z</time>
      </trkpt>
      <trkpt lat="38.835822782065875" lon="121.50779855500393">
        <ele>9.795245779678226</ele>
        <time>2026-07-13T01:31:18Z</time>
      </trkpt>
      <trkpt lat="38.835699298495314" lon="121.5081770712796">
        <ele>9.10804701782763</ele>
        <time>2026-07-13T01:31:32Z</time>
      </trkpt>
      <trkpt lat="38.83565921963178" lon="121.50828962215415">
        <ele>9.472737689502537</ele>
        <time>2026-07-13T01:31:36Z</time>
      </trkpt>
      <trkpt lat="38.83564619081842" lon="121.50838902223646">
        <ele>9.226071298122406</ele>
        <time>2026-07-13T01:31:40Z</time>
      </trkpt>
      <trkpt lat="38.8355429480613" lon="121.50863084293223">
        <ele>10.310699061490595</ele>
        <time>2026-07-13T01:31:48Z</time>
      </trkpt>
      <trkpt lat="38.83548198886365" lon="121.50871987892191">
        <ele>10.365036154165864</ele>
        <time>2026-07-13T01:31:52Z</time>
      </trkpt>
      <trkpt lat="38.83533630404009" lon="121.50908394657552">
        <ele>10.397198054939508</ele>
        <time>2026-07-13T01:32:04Z</time>
      </trkpt>
      <trkpt lat="38.83524581685874" lon="121.50935312316776">
        <ele>9.263790231198072</ele>
        <time>2026-07-13T01:32:14Z</time>
      </trkpt>
      <trkpt lat="38.83523813542544" lon="121.50944087005958">
        <ele>8.067184277810156</ele>
        <time>2026-07-13T01:32:17Z</time>
      </trkpt>
      <trkpt lat="38.8351591940634" lon="121.50959797064176">
        <ele>8.601618635468185</ele>
        <time>2026-07-13T01:32:23Z</time>
      </trkpt>
      <trkpt lat="38.83511620885417" lon="121.5097618656404">
        <ele>7.877871546894312</ele>
        <time>2026-07-13T01:32:29Z</time>
      </trkpt>
      <trkpt lat="38.83504464119977" lon="121.50992392521103">
        <ele>9.650423610582948</ele>
        <time>2026-07-13T01:32:35Z</time>
      </trkpt>
      <trkpt lat="38.8350315358597" lon="121.51002540379224">
        <ele>9.315872304141521</ele>
        <time>2026-07-13T01:32:38Z</time>
      </trkpt>
      <trkpt lat="38.83499753131666" lon="121.51010150515181">
        <ele>9.509205029346049</ele>
        <time>2026-07-13T01:32:41Z</time>
      </trkpt>
      <trkpt lat="38.834998930875" lon="121.51020788029997">
        <ele>8.716878570616245</ele>
        <time>2026-07-13T01:32:44Z</time>
      </trkpt>
      <trkpt lat="38.83486493691459" lon="121.51052217856989">
        <ele>9.363502899184823</ele>
        <time>2026-07-13T01:32:56Z</time>
      </trkpt>
      <trkpt lat="38.83481934795123" lon="121.51060726629713">
        <ele>9.870009605772793</ele>
        <time>2026-07-13T01:32:59Z</time>
      </trkpt>
      <trkpt lat="38.8347485723256" lon="121.5108925397012">
        <ele>9.887709764763713</ele>
        <time>2026-07-13T01:33:08Z</time>
      </trkpt>
      <trkpt lat="38.83462226426196" lon="121.51121961992597">
        <ele>9.189149523153901</ele>
        <time>2026-07-13T01:33:20Z</time>
      </trkpt>
      <trkpt lat="38.83460483547142" lon="121.51130513469725">
        <ele>9.745647883974016</ele>
        <time>2026-07-13T01:33:23Z</time>
      </trkpt>
      <trkpt lat="38.83456181601255" lon="121.51138538686516">
        <ele>8.339317361824214</ele>
        <time>2026-07-13T01:33:26Z</time>
      </trkpt>
      <trkpt lat="38.83455353119222" lon="121.51146555066009">
        <ele>7.581404776312411</ele>
        <time>2026-07-13T01:33:29Z</time>
      </trkpt>
      <trkpt lat="38.83444091378206" lon="121.51181091383125">
        <ele>8.735860005021095</ele>
        <time>2026-07-13T01:33:41Z</time>
      </trkpt>
      <trkpt lat="38.834350310975125" lon="121.51213709626623">
        <ele>8.523666402325034</ele>
        <time>2026-07-13T01:33:53Z</time>
      </trkpt>
      <trkpt lat="38.834297019373395" lon="121.51227293084622">
        <ele>8.807547259144485</ele>
        <time>2026-07-13T01:34:13Z</time>
      </trkpt>
      <trkpt lat="38.83417548682377" lon="121.51265775683173">
        <ele>7.94184656906873</ele>
        <time>2026-07-13T01:34:28Z</time>
      </trkpt>
      <trkpt lat="38.834146055239756" lon="121.51273028145366">
        <ele>8.644392414018512</ele>
        <time>2026-07-13T01:34:31Z</time>
      </trkpt>
      <trkpt lat="38.83413617760572" lon="121.51280740220284">
        <ele>7.859585201367736</ele>
        <time>2026-07-13T01:34:34Z</time>
      </trkpt>
      <trkpt lat="38.83409870028036" lon="121.51288097488809">
        <ele>7.000270687974989</ele>
        <time>2026-07-13T01:34:37Z</time>
      </trkpt>
      <trkpt lat="38.83402979738984" lon="121.51314813730046">
        <ele>7.8559444062411785</ele>
        <time>2026-07-13T01:34:46Z</time>
      </trkpt>
      <trkpt lat="38.83391745109102" lon="121.51346572821566">
        <ele>7.141824370250106</ele>
        <time>2026-07-13T01:34:58Z</time>
      </trkpt>
      <trkpt lat="38.83380634495558" lon="121.51379835313273">
        <ele>6.795670746825635</ele>
        <time>2026-07-13T01:35:10Z</time>
      </trkpt>
      <trkpt lat="38.83373866329817" lon="121.51396315330942">
        <ele>8.360608893446624</ele>
        <time>2026-07-13T01:35:16Z</time>
      </trkpt>
      <trkpt lat="38.83369746940387" lon="121.51413160234016">
        <ele>7.986399531364441</ele>
        <time>2026-07-13T01:35:22Z</time>
      </trkpt>
      <trkpt lat="38.83363171819605" lon="121.51429063886205">
        <ele>7.1929532485082746</ele>
        <time>2026-07-13T01:35:28Z</time>
      </trkpt>
      <trkpt lat="38.83362464566035" lon="121.51437792544688">
        <ele>6.389020465314388</ele>
        <time>2026-07-13T01:35:31Z</time>
      </trkpt>
      <trkpt lat="38.83358050536717" lon="121.51445996750556">
        <ele>6.434360303916037</ele>
        <time>2026-07-13T01:35:34Z</time>
      </trkpt>
      <trkpt lat="38.83356646488388" lon="121.51455175113585">
        <ele>7.220832051709294</ele>
        <time>2026-07-13T01:35:37Z</time>
      </trkpt>
      <trkpt lat="38.83343420374496" lon="121.51489667205503">
        <ele>5.654740686528385</ele>
        <time>2026-07-13T01:35:49Z</time>
      </trkpt>
      <trkpt lat="38.833320360445825" lon="121.51526748283648">
        <ele>6.539078338071704</ele>
        <time>2026-07-13T01:36:01Z</time>
      </trkpt>
      <trkpt lat="38.83325646409911" lon="121.51549783008458">
        <ele>6.343043958768249</ele>
        <time>2026-07-13T01:36:09Z</time>
      </trkpt>
      <trkpt lat="38.833104796695046" lon="121.51584615198138">
        <ele>4.879474576562643</ele>
        <time>2026-07-13T01:36:22Z</time>
      </trkpt>
      <trkpt lat="38.832967581302626" lon="121.51621454073388">
        <ele>5.6825476652011275</ele>
        <time>2026-07-13T01:36:34Z</time>
      </trkpt>
      <trkpt lat="38.83283238145038" lon="121.51655480156496">
        <ele>6.377035754732788</ele>
        <time>2026-07-13T01:36:46Z</time>
      </trkpt>
      <trkpt lat="38.83278845660478" lon="121.51663133092613">
        <ele>7.045348909683526</ele>
        <time>2026-07-13T01:36:49Z</time>
      </trkpt>
      <trkpt lat="38.83263773241915" lon="121.5167037938763">
        <ele>6.186468102037907</ele>
        <time>2026-07-13T01:36:55Z</time>
      </trkpt>
      <trkpt lat="38.83236201293588" lon="121.51673989576184">
        <ele>5.197386551648378</ele>
        <time>2026-07-13T01:37:07Z</time>
      </trkpt>
      <trkpt lat="38.83214976843014" lon="121.51675874044508">
        <ele>5.891195768490434</ele>
        <time>2026-07-13T01:37:16Z</time>
      </trkpt>
      <trkpt lat="38.83182736282371" lon="121.51667956948563">
        <ele>5.729525277391076</ele>
        <time>2026-07-13T01:37:31Z</time>
      </trkpt>
      <trkpt lat="38.831546961732734" lon="121.51651625116037">
        <ele>6.298587027005851</ele>
        <time>2026-07-13T01:37:44Z</time>
      </trkpt>
      <trkpt lat="38.83144567041094" lon="121.51634378735177">
        <ele>4.120712242089212</ele>
        <time>2026-07-13T01:38:30Z</time>
      </trkpt>
      <trkpt lat="38.83138192499651" lon="121.51630157082754">
        <ele>4.884452876634896</ele>
        <time>2026-07-13T01:38:33Z</time>
      </trkpt>
      <trkpt lat="38.83133164327499" lon="121.5162427620794">
        <ele>3.8478425601497293</ele>
        <time>2026-07-13T01:38:36Z</time>
      </trkpt>
      <trkpt lat="38.83107809078207" lon="121.51609138775751">
        <ele>6.333154428750277</ele>
        <time>2026-07-13T01:38:48Z</time>
      </trkpt>
      <trkpt lat="38.83091608492265" lon="121.51594058297349">
        <ele>7.31039226334542</ele>
        <time>2026-07-13T01:38:57Z</time>
      </trkpt>
      <trkpt lat="38.830725774881806" lon="121.51581667569666">
        <ele>6.180178697220981</ele>
        <time>2026-07-13T01:39:06Z</time>
      </trkpt>
      <trkpt lat="38.83044849821466" lon="121.51571272034202">
        <ele>6.1213956866413355</ele>
        <time>2026-07-13T01:39:18Z</time>
      </trkpt>
      <trkpt lat="38.83031989477459" lon="121.51563296214235">
        <ele>4.445824787952006</ele>
        <time>2026-07-13T01:39:24Z</time>
      </trkpt>
      <trkpt lat="38.830065096302256" lon="121.5155391402429">
        <ele>6.719374941661954</ele>
        <time>2026-07-13T01:39:36Z</time>
      </trkpt>
      <trkpt lat="38.83001792006121" lon="121.51548446835186">
        <ele>4.702092603780329</ele>
        <time>2026-07-13T01:39:39Z</time>
      </trkpt>
      <trkpt lat="38.829988215742354" lon="121.51538219395492">
        <ele>6.490507702343166</ele>
        <time>2026-07-13T01:39:42Z</time>
      </trkpt>
      <trkpt lat="38.83002059823254" lon="121.51528648859097">
        <ele>5.830829093232751</ele>
        <time>2026-07-13T01:39:45Z</time>
      </trkpt>
      <trkpt lat="38.83010567571842" lon="121.51516813539978">
        <ele>5.859351817518473</ele>
        <time>2026-07-13T01:39:55Z</time>
      </trkpt>
      <trkpt lat="38.83016212573236" lon="121.5151350033276">
        <ele>5.163360586389899</ele>
        <time>2026-07-13T01:40:01Z</time>
      </trkpt>
      <trkpt lat="38.83041094455452" lon="121.51530251267415">
        <ele>6.220272866077721</ele>
        <time>2026-07-13T01:40:13Z</time>
      </trkpt>
      <trkpt lat="38.83056706946219" lon="121.51541838081359">
        <ele>5.7945565693080425</ele>
        <time>2026-07-13T01:40:25Z</time>
      </trkpt>
      <trkpt lat="38.830631603742894" lon="121.51551822449301">
        <ele>4.919471518136561</ele>
        <time>2026-07-13T01:40:46Z</time>
      </trkpt>
      <trkpt lat="38.83072538454679" lon="121.51555302369104">
        <ele>4.177517273463309</ele>
        <time>2026-07-13T01:40:52Z</time>
      </trkpt>
      <trkpt lat="38.830952251314834" lon="121.51573722371676">
        <ele>5.7233567126095295</ele>
        <time>2026-07-13T01:41:04Z</time>
      </trkpt>
      <trkpt lat="38.83103993934912" lon="121.51575772478961">
        <ele>6.476878692395985</ele>
        <time>2026-07-13T01:41:07Z</time>
      </trkpt>
      <trkpt lat="38.83120200466136" lon="121.51588422540685">
        <ele>5.835206275805831</ele>
        <time>2026-07-13T01:41:16Z</time>
      </trkpt>
      <trkpt lat="38.83126735483606" lon="121.51590735378852">
        <ele>5.056752059608698</ele>
        <time>2026-07-13T01:41:19Z</time>
      </trkpt>
      <trkpt lat="38.83150023026782" lon="121.51609008919328">
        <ele>5.797579207457602</ele>
        <time>2026-07-13T01:41:31Z</time>
      </trkpt>
      <trkpt lat="38.831798897836386" lon="121.51630994453024">
        <ele>5.041778723709285</ele>
        <time>2026-07-13T01:41:46Z</time>
      </trkpt>
      <trkpt lat="38.83201472570901" lon="121.51638775212045">
        <ele>4.92566560767591</ele>
        <time>2026-07-13T01:41:56Z</time>
      </trkpt>
      <trkpt lat="38.83209122742749" lon="121.51638737474352">
        <ele>6.090998576022685</ele>
        <time>2026-07-13T01:41:59Z</time>
      </trkpt>
      <trkpt lat="38.832156312354655" lon="121.51641809372431">
        <ele>4.8793307216838</ele>
        <time>2026-07-13T01:42:02Z</time>
      </trkpt>
      <trkpt lat="38.83238131035474" lon="121.51632916777494">
        <ele>4.798551429994404</ele>
        <time>2026-07-13T01:42:12Z</time>
      </trkpt>
      <trkpt lat="38.832679364524175" lon="121.51612742860199">
        <ele>5.595214079134166</ele>
        <time>2026-07-13T01:42:25Z</time>
      </trkpt>
      <trkpt lat="38.83285210790971" lon="121.51596620225963">
        <ele>6.486497108824551</ele>
        <time>2026-07-13T01:42:34Z</time>
      </trkpt>
      <trkpt lat="38.83304387297248" lon="121.51571383689722">
        <ele>7.477707832120359</ele>
        <time>2026-07-13T01:42:46Z</time>
      </trkpt>
      <trkpt lat="38.83308279738619" lon="121.51563783299063">
        <ele>7.185717512853444</ele>
        <time>2026-07-13T01:42:49Z</time>
      </trkpt>
      <trkpt lat="38.833077658721876" lon="121.51554289669109">
        <ele>6.208264172077179</ele>
        <time>2026-07-13T01:42:52Z</time>
      </trkpt>
      <trkpt lat="38.83309848292974" lon="121.5153533168901">
        <ele>6.477347920648754</ele>
        <time>2026-07-13T01:42:58Z</time>
      </trkpt>
      <trkpt lat="38.83308106520485" lon="121.51526145269109">
        <ele>5.741011220961809</ele>
        <time>2026-07-13T01:43:01Z</time>
      </trkpt>
      <trkpt lat="38.83314161541153" lon="121.51508197124248">
        <ele>6.410142590291798</ele>
        <time>2026-07-13T01:43:07Z</time>
      </trkpt>
      <trkpt lat="38.83315307943972" lon="121.51498644790699">
        <ele>7.3651761142537</ele>
        <time>2026-07-13T01:43:10Z</time>
      </trkpt>
      <trkpt lat="38.83324017681791" lon="121.51475746017866">
        <ele>5.0247360076755285</ele>
        <time>2026-07-13T01:43:19Z</time>
      </trkpt>
      <trkpt lat="38.83325141861639" lon="121.51466583130393">
        <ele>5.136913717724383</ele>
        <time>2026-07-13T01:43:22Z</time>
      </trkpt>
      <trkpt lat="38.83338494497296" lon="121.51426084493936">
        <ele>6.646898368373513</ele>
        <time>2026-07-13T01:43:37Z</time>
      </trkpt>
      <trkpt lat="38.83345490730041" lon="121.51402629565803">
        <ele>7.126103873364627</ele>
        <time>2026-07-13T01:43:46Z</time>
      </trkpt>
      <trkpt lat="38.83357906061017" lon="121.51370125884625">
        <ele>7.879441196098924</ele>
        <time>2026-07-13T01:43:58Z</time>
      </trkpt>
      <trkpt lat="38.83360640404013" lon="121.51358809277932">
        <ele>8.324986291117966</ele>
        <time>2026-07-13T01:44:02Z</time>
      </trkpt>
      <trkpt lat="38.83375690082068" lon="121.51333068888935">
        <ele>7.583390008658171</ele>
        <time>2026-07-13T01:44:13Z</time>
      </trkpt>
      <trkpt lat="38.83377723802615" lon="121.51324304871738">
        <ele>7.59714769013226</ele>
        <time>2026-07-13T01:44:16Z</time>
      </trkpt>
      <trkpt lat="38.83377656315246" lon="121.51315575328812">
        <ele>7.44282053783536</ele>
        <time>2026-07-13T01:44:19Z</time>
      </trkpt>
      <trkpt lat="38.833836476002226" lon="121.512922048479">
        <ele>7.931168843060732</ele>
        <time>2026-07-13T01:44:28Z</time>
      </trkpt>
      <trkpt lat="38.83390457405497" lon="121.5127688736873">
        <ele>7.326743815094233</ele>
        <time>2026-07-13T01:44:34Z</time>
      </trkpt>
    </trkseg>
  </trk>
</gpx>