<?xml version="1.0" encoding="UTF-8"?>
<gpx xmlns="http://www.topografix.com/GPX/1/1" xmlns:gpxtpx="http://www.garmin.com/xmlschemas/TrackPointExtension/v1" xmlns:xsi="http://www.w3.org/2001/XMLSchema-instance" xsi:schemaLocation="http://www.topografix.com/GPX/1/1 http://www.topografix.com/GPX/1/1/gpx.xsd" version="1.1" creator="gpx.py -- https://github.com/tkrajina/gpxpy">
  <trk>
    <name>gpx from keep</name>
    <type>Run</type>
    <trkseg>
      <trkpt lat="38.83809377179342" lon="121.50508325891087">
        <ele>9.407873754389584</ele>
        <time>2025-07-19T15:13:57Z</time>
      </trkpt>
      <trkpt lat="38.83825831633843" lon="121.50537517473221">
        <ele>12.057708205655217</ele>
        <time>2025-07-19T15:14:21Z</time>
      </trkpt>
      <trkpt lat="38.838350471590125" lon="121.50542065087762">
        <ele>11.426999655552208</ele>
        <time>2025-07-19T15:14:27Z</time>
      </trkpt>
      <trkpt lat="38.838406006006274" lon="121.50553524874539">
        <ele>12.13618677482009</ele>
        <time>2025-07-19T15:14:33Z</time>
      </trkpt>
      <trkpt lat="38.83854246958902" lon="121.50565065601823">
        <ele>11.41634373087436</ele>
        <time>2025-07-19T15:14:51Z</time>
      </trkpt>
      <trkpt lat="38.838683687847904" lon="121.50572746889547">
        <ele>11.316290533170104</ele>
        <time>2025-07-19T15:15:00Z</time>
      </trkpt>
      <trkpt lat="38.83882886367549" lon="121.50594172024748">
        <ele>12.76019643060863</ele>
        <time>2025-07-19T15:15:18Z</time>
      </trkpt>
      <trkpt lat="38.83889689517955" lon="121.50595929355242">
        <ele>12.101197484880686</ele>
        <time>2025-07-19T15:15:21Z</time>
      </trkpt>
      <trkpt lat="38.83897598146936" lon="121.50601236285607">
        <ele>11.88755611050874</ele>
        <time>2025-07-19T15:15:27Z</time>
      </trkpt>
      <trkpt lat="38.839075680494474" lon="121.50614965277114">
        <ele>12.980563161894679</ele>
        <time>2025-07-19T15:15:37Z</time>
      </trkpt>
      <trkpt lat="38.83933656300574" lon="121.50635707251902">
        <ele>13.892112235538661</ele>
        <time>2025-07-19T15:15:55Z</time>
      </trkpt>
      <trkpt lat="38.83956412220375" lon="121.50654698958814">
        <ele>13.928659862838686</ele>
        <time>2025-07-19T15:16:10Z</time>
      </trkpt>
      <trkpt lat="38.83967438343945" lon="121.5067010575817">
        <ele>15.192534544505179</ele>
        <time>2025-07-19T15:16:19Z</time>
      </trkpt>
      <trkpt lat="38.839698712963624" lon="121.50682881054277">
        <ele>14.414932833053172</ele>
        <time>2025-07-19T15:16:25Z</time>
      </trkpt>
      <trkpt lat="38.83984621998523" lon="121.50694154058162">
        <ele>14.676641603931785</ele>
        <time>2025-07-19T15:16:34Z</time>
      </trkpt>
      <trkpt lat="38.83989413076276" lon="121.50695642504508">
        <ele>13.69651740603149</ele>
        <time>2025-07-19T15:16:37Z</time>
      </trkpt>
      <trkpt lat="38.84010305953429" lon="121.50713403263471">
        <ele>11.929775952361524</ele>
        <time>2025-07-19T15:17:01Z</time>
      </trkpt>
      <trkpt lat="38.840144945512016" lon="121.50718670571962">
        <ele>13.057180412113667</ele>
        <time>2025-07-19T15:17:04Z</time>
      </trkpt>
      <trkpt lat="38.84024486531007" lon="121.50724788007753">
        <ele>13.408905494958162</ele>
        <time>2025-07-19T15:17:10Z</time>
      </trkpt>
      <trkpt lat="38.84027620403083" lon="121.50731212849556">
        <ele>13.833141128532588</ele>
        <time>2025-07-19T15:17:13Z</time>
      </trkpt>
      <trkpt lat="38.8405203871693" lon="121.50754339790726">
        <ele>14.916642570868134</ele>
        <time>2025-07-19T15:17:28Z</time>
      </trkpt>
      <trkpt lat="38.84074679585435" lon="121.50776571300248">
        <ele>12.216653657145798</ele>
        <time>2025-07-19T15:17:44Z</time>
      </trkpt>
      <trkpt lat="38.84101953772578" lon="121.50799364196334">
        <ele>11.983917311765254</ele>
        <time>2025-07-19T15:18:02Z</time>
      </trkpt>
      <trkpt lat="38.841271955298396" lon="121.50816047719778">
        <ele>13.011685094796121</ele>
        <time>2025-07-19T15:18:17Z</time>
      </trkpt>
      <trkpt lat="38.84131497911794" lon="121.50821014385625">
        <ele>13.245242532342672</ele>
        <time>2025-07-19T15:18:20Z</time>
      </trkpt>
      <trkpt lat="38.84147955295233" lon="121.50832269381202">
        <ele>14.136658670380712</ele>
        <time>2025-07-19T15:18:29Z</time>
      </trkpt>
      <trkpt lat="38.84156546347452" lon="121.50835883577187">
        <ele>11.909958021715283</ele>
        <time>2025-07-19T15:18:35Z</time>
      </trkpt>
      <trkpt lat="38.84164933745742" lon="121.50830371349505">
        <ele>11.226902479305863</ele>
        <time>2025-07-19T15:18:41Z</time>
      </trkpt>
      <trkpt lat="38.841650880668304" lon="121.50820650941584">
        <ele>12.75793828163296</ele>
        <time>2025-07-19T15:18:50Z</time>
      </trkpt>
      <trkpt lat="38.84169221917412" lon="121.50816204282853">
        <ele>12.719446330331266</ele>
        <time>2025-07-19T15:18:53Z</time>
      </trkpt>
      <trkpt lat="38.84170015842008" lon="121.50809330363124">
        <ele>13.360136196017265</ele>
        <time>2025-07-19T15:18:56Z</time>
      </trkpt>
      <trkpt lat="38.84165777554533" lon="121.50792570382174">
        <ele>12.319536581635475</ele>
        <time>2025-07-19T15:19:02Z</time>
      </trkpt>
      <trkpt lat="38.84158486055109" lon="121.50777000230713">
        <ele>13.139357133768499</ele>
        <time>2025-07-19T15:19:08Z</time>
      </trkpt>
      <trkpt lat="38.841512206294155" lon="121.50751541967126">
        <ele>14.061253229156137</ele>
        <time>2025-07-19T15:19:17Z</time>
      </trkpt>
      <trkpt lat="38.84146100750453" lon="121.50718884535239">
        <ele>14.775347013957798</ele>
        <time>2025-07-19T15:19:29Z</time>
      </trkpt>
      <trkpt lat="38.84142393885927" lon="121.50689040132156">
        <ele>12.373738899827003</ele>
        <time>2025-07-19T15:19:45Z</time>
      </trkpt>
      <trkpt lat="38.84142525481463" lon="121.50663177987725">
        <ele>10.855983448214829</ele>
        <time>2025-07-19T15:19:56Z</time>
      </trkpt>
      <trkpt lat="38.84138923497457" lon="121.50653254429294">
        <ele>10.62621531356126</ele>
        <time>2025-07-19T15:20:00Z</time>
      </trkpt>
      <trkpt lat="38.84115416344685" lon="121.5063878357926">
        <ele>10.674683383665979</ele>
        <time>2025-07-19T15:20:15Z</time>
      </trkpt>
      <trkpt lat="38.84090953411909" lon="121.5061726581274">
        <ele>10.127766442485154</ele>
        <time>2025-07-19T15:20:30Z</time>
      </trkpt>
      <trkpt lat="38.8408721138479" lon="121.50611618622217">
        <ele>10.741858375258744</ele>
        <time>2025-07-19T15:20:33Z</time>
      </trkpt>
      <trkpt lat="38.840633456727026" lon="121.50590465371572">
        <ele>13.132414871826768</ele>
        <time>2025-07-19T15:20:48Z</time>
      </trkpt>
      <trkpt lat="38.840502330345274" lon="121.50574481796174">
        <ele>12.316515169106424</ele>
        <time>2025-07-19T15:20:57Z</time>
      </trkpt>
      <trkpt lat="38.84046835800114" lon="121.50567502678956">
        <ele>11.803274061530828</ele>
        <time>2025-07-19T15:21:00Z</time>
      </trkpt>
      <trkpt lat="38.84031176462544" lon="121.50556736760771">
        <ele>12.213801299221814</ele>
        <time>2025-07-19T15:21:09Z</time>
      </trkpt>
      <trkpt lat="38.84023917938642" lon="121.50545427984758">
        <ele>10.084679410792887</ele>
        <time>2025-07-19T15:21:16Z</time>
      </trkpt>
      <trkpt lat="38.84003338081285" lon="121.50529480452127">
        <ele>10.31981402542442</ele>
        <time>2025-07-19T15:21:25Z</time>
      </trkpt>
      <trkpt lat="38.83996123612875" lon="121.50517642601244">
        <ele>10.36546999681741</ele>
        <time>2025-07-19T15:21:31Z</time>
      </trkpt>
      <trkpt lat="38.83982035701021" lon="121.50506710608558">
        <ele>9.863568829372525</ele>
        <time>2025-07-19T15:21:46Z</time>
      </trkpt>
      <trkpt lat="38.839778592480336" lon="121.50500606942063">
        <ele>9.475640555843711</ele>
        <time>2025-07-19T15:21:49Z</time>
      </trkpt>
      <trkpt lat="38.83957141390335" lon="121.50482557723393">
        <ele>8.381018686108291</ele>
        <time>2025-07-19T15:22:01Z</time>
      </trkpt>
      <trkpt lat="38.8393845168821" lon="121.5045449461544">
        <ele>8.681291965767741</ele>
        <time>2025-07-19T15:22:15Z</time>
      </trkpt>
      <trkpt lat="38.83915796007666" lon="121.50433445914842">
        <ele>8.695810206234455</ele>
        <time>2025-07-19T15:22:27Z</time>
      </trkpt>
      <trkpt lat="38.838946272362435" lon="121.50411738230744">
        <ele>7.517318431288004</ele>
        <time>2025-07-19T15:22:42Z</time>
      </trkpt>
      <trkpt lat="38.83883092619116" lon="121.50405463459657">
        <ele>6.360066168941557</ele>
        <time>2025-07-19T15:22:48Z</time>
      </trkpt>
      <trkpt lat="38.83871087825972" lon="121.5040953126935">
        <ele>8.850835531018674</ele>
        <time>2025-07-19T15:22:57Z</time>
      </trkpt>
      <trkpt lat="38.838496297058064" lon="121.50439890239802">
        <ele>8.48922258336097</ele>
        <time>2025-07-19T15:23:12Z</time>
      </trkpt>
      <trkpt lat="38.838462724701685" lon="121.50444327238172">
        <ele>8.883007890544832</ele>
        <time>2025-07-19T15:23:18Z</time>
      </trkpt>
      <trkpt lat="38.83844320165767" lon="121.50453782073734">
        <ele>8.27065375354141</ele>
        <time>2025-07-19T15:23:21Z</time>
      </trkpt>
      <trkpt lat="38.83839457466099" lon="121.50460342122207">
        <ele>9.464697570540011</ele>
        <time>2025-07-19T15:23:24Z</time>
      </trkpt>
      <trkpt lat="38.83822620137415" lon="121.50494185175484">
        <ele>10.523149700835347</ele>
        <time>2025-07-19T15:23:39Z</time>
      </trkpt>
      <trkpt lat="38.8381908564424" lon="121.5049973645225">
        <ele>10.535624950192869</ele>
        <time>2025-07-19T15:23:42Z</time>
      </trkpt>
      <trkpt lat="38.83816755995676" lon="121.50508860922741">
        <ele>9.012080369517207</ele>
        <time>2025-07-19T15:23:45Z</time>
      </trkpt>
      <trkpt lat="38.8381854106847" lon="121.5051849642255">
        <ele>10.150363684631884</ele>
        <time>2025-07-19T15:23:48Z</time>
      </trkpt>
      <trkpt lat="38.83823016892871" lon="121.50521455587277">
        <ele>9.579101948067546</ele>
        <time>2025-07-19T15:23:51Z</time>
      </trkpt>
      <trkpt lat="38.83835296980499" lon="121.50545359798657">
        <ele>9.227945165708661</ele>
        <time>2025-07-19T15:24:02Z</time>
      </trkpt>
      <trkpt lat="38.838436186960216" lon="121.50547058632802">
        <ele>10.540159133262932</ele>
        <time>2025-07-19T15:24:06Z</time>
      </trkpt>
      <trkpt lat="38.83862002009131" lon="121.50569504781224">
        <ele>12.558757152408361</ele>
        <time>2025-07-19T15:24:18Z</time>
      </trkpt>
      <trkpt lat="38.838705836563996" lon="121.50576522249328">
        <ele>11.349850722588599</ele>
        <time>2025-07-19T15:24:22Z</time>
      </trkpt>
      <trkpt lat="38.838758989032804" lon="121.50577689951542">
        <ele>10.197153186425567</ele>
        <time>2025-07-19T15:24:25Z</time>
      </trkpt>
      <trkpt lat="38.83889540219487" lon="121.50593481645043">
        <ele>10.250331057235599</ele>
        <time>2025-07-19T15:24:34Z</time>
      </trkpt>
      <trkpt lat="38.838954539218335" lon="121.50597946875196">
        <ele>11.159300575964153</ele>
        <time>2025-07-19T15:24:37Z</time>
      </trkpt>
      <trkpt lat="38.839169987467365" lon="121.50623377124418">
        <ele>12.31016284506768</ele>
        <time>2025-07-19T15:24:52Z</time>
      </trkpt>
      <trkpt lat="38.839415863572704" lon="121.50640267501204">
        <ele>14.706355785951018</ele>
        <time>2025-07-19T15:25:04Z</time>
      </trkpt>
      <trkpt lat="38.83959557095017" lon="121.50656325544252">
        <ele>13.678496634587646</ele>
        <time>2025-07-19T15:25:13Z</time>
      </trkpt>
      <trkpt lat="38.83963288094434" lon="121.50661929941232">
        <ele>13.448961551301181</ele>
        <time>2025-07-19T15:25:16Z</time>
      </trkpt>
      <trkpt lat="38.83968967604088" lon="121.50666629196544">
        <ele>14.975730494596064</ele>
        <time>2025-07-19T15:25:19Z</time>
      </trkpt>
      <trkpt lat="38.839722264127" lon="121.50682608896575">
        <ele>13.737897623330355</ele>
        <time>2025-07-19T15:25:25Z</time>
      </trkpt>
      <trkpt lat="38.839843585667694" lon="121.50693639296782">
        <ele>13.446870387531817</ele>
        <time>2025-07-19T15:25:31Z</time>
      </trkpt>
      <trkpt lat="38.84009449909327" lon="121.50712975972841">
        <ele>11.767902599647641</ele>
        <time>2025-07-19T15:25:46Z</time>
      </trkpt>
      <trkpt lat="38.840320576792685" lon="121.50733341019462">
        <ele>11.911138447001576</ele>
        <time>2025-07-19T15:25:58Z</time>
      </trkpt>
      <trkpt lat="38.840570422460466" lon="121.50758145271413">
        <ele>14.313833652995527</ele>
        <time>2025-07-19T15:26:13Z</time>
      </trkpt>
      <trkpt lat="38.840713366916155" lon="121.50771659538935">
        <ele>13.308221346698701</ele>
        <time>2025-07-19T15:26:21Z</time>
      </trkpt>
      <trkpt lat="38.84085296512617" lon="121.50783155910825">
        <ele>13.025961567647755</ele>
        <time>2025-07-19T15:26:29Z</time>
      </trkpt>
      <trkpt lat="38.84089353131938" lon="121.50789867636009">
        <ele>13.26824594847858</ele>
        <time>2025-07-19T15:26:32Z</time>
      </trkpt>
      <trkpt lat="38.84114206751156" lon="121.5080618314824">
        <ele>13.224058301188052</ele>
        <time>2025-07-19T15:26:44Z</time>
      </trkpt>
      <trkpt lat="38.84141946364665" lon="121.50830638912373">
        <ele>12.076473568566144</ele>
        <time>2025-07-19T15:26:59Z</time>
      </trkpt>
      <trkpt lat="38.841548623298785" lon="121.50835143479755">
        <ele>12.503292384557426</ele>
        <time>2025-07-19T15:27:05Z</time>
      </trkpt>
      <trkpt lat="38.84161230301285" lon="121.50834454116087">
        <ele>11.941821735352278</ele>
        <time>2025-07-19T15:27:08Z</time>
      </trkpt>
      <trkpt lat="38.841659105768144" lon="121.50828921490076">
        <ele>11.990773499943316</ele>
        <time>2025-07-19T15:27:11Z</time>
      </trkpt>
      <trkpt lat="38.841694363270946" lon="121.50805813491372">
        <ele>13.441151970997453</ele>
        <time>2025-07-19T15:27:20Z</time>
      </trkpt>
      <trkpt lat="38.84158332774754" lon="121.50774942078056">
        <ele>14.039842902682722</ele>
        <time>2025-07-19T15:27:32Z</time>
      </trkpt>
      <trkpt lat="38.841498321275765" lon="121.50741465296866">
        <ele>12.844505057670176</ele>
        <time>2025-07-19T15:27:44Z</time>
      </trkpt>
      <trkpt lat="38.8414706756615" lon="121.50732998296904">
        <ele>13.041806461289525</ele>
        <time>2025-07-19T15:27:47Z</time>
      </trkpt>
      <trkpt lat="38.84145583892757" lon="121.50705604750746">
        <ele>12.516149416565895</ele>
        <time>2025-07-19T15:27:56Z</time>
      </trkpt>
      <trkpt lat="38.84140661583148" lon="121.50700923988276">
        <ele>11.20037232618779</ele>
        <time>2025-07-19T15:27:59Z</time>
      </trkpt>
      <trkpt lat="38.84142042360538" lon="121.50666664462109">
        <ele>12.251769504509866</ele>
        <time>2025-07-19T15:28:09Z</time>
      </trkpt>
      <trkpt lat="38.84140237384227" lon="121.50657112098476">
        <ele>12.216602930799127</ele>
        <time>2025-07-19T15:28:12Z</time>
      </trkpt>
      <trkpt lat="38.84133041561661" lon="121.50648363764297">
        <ele>11.036473833024502</ele>
        <time>2025-07-19T15:28:16Z</time>
      </trkpt>
      <trkpt lat="38.84107341196397" lon="121.50625211012827">
        <ele>10.2131466884166</ele>
        <time>2025-07-19T15:28:30Z</time>
      </trkpt>
      <trkpt lat="38.84080826676239" lon="121.50600813020478">
        <ele>9.508214758709073</ele>
        <time>2025-07-19T15:28:45Z</time>
      </trkpt>
      <trkpt lat="38.840563686930224" lon="121.5057763257223">
        <ele>11.11495273374021</ele>
        <time>2025-07-19T15:28:57Z</time>
      </trkpt>
      <trkpt lat="38.84049116538894" lon="121.50572832192927">
        <ele>12.199646989814937</ele>
        <time>2025-07-19T15:29:00Z</time>
      </trkpt>
      <trkpt lat="38.84043790028867" lon="121.50565651805249">
        <ele>12.886728552170098</ele>
        <time>2025-07-19T15:29:03Z</time>
      </trkpt>
      <trkpt lat="38.84038010312937" lon="121.50561910829386">
        <ele>11.340698222629726</ele>
        <time>2025-07-19T15:29:06Z</time>
      </trkpt>
      <trkpt lat="38.84032350584257" lon="121.50543431275405">
        <ele>10.779392960481346</ele>
        <time>2025-07-19T15:29:12Z</time>
      </trkpt>
      <trkpt lat="38.84026611431529" lon="121.50535754532117">
        <ele>10.800394148565829</ele>
        <time>2025-07-19T15:29:15Z</time>
      </trkpt>
      <trkpt lat="38.83998936522869" lon="121.50519235483519">
        <ele>9.545711553655565</ele>
        <time>2025-07-19T15:29:27Z</time>
      </trkpt>
      <trkpt lat="38.83976130709288" lon="121.50499281105785">
        <ele>8.926606209017336</ele>
        <time>2025-07-19T15:29:39Z</time>
      </trkpt>
      <trkpt lat="38.83957145335608" lon="121.50482989821121">
        <ele>11.455664295703173</ele>
        <time>2025-07-19T15:29:48Z</time>
      </trkpt>
      <trkpt lat="38.839359472303535" lon="121.50451973474509">
        <ele>8.430188305675983</ele>
        <time>2025-07-19T15:30:00Z</time>
      </trkpt>
      <trkpt lat="38.83931275698085" lon="121.50446099500108">
        <ele>8.491737114265561</ele>
        <time>2025-07-19T15:30:03Z</time>
      </trkpt>
      <trkpt lat="38.83909287754943" lon="121.5042986251892">
        <ele>7.227264895103872</ele>
        <time>2025-07-19T15:30:12Z</time>
      </trkpt>
      <trkpt lat="38.83904819393689" lon="121.50420713852813">
        <ele>7.63086730055511</ele>
        <time>2025-07-19T15:30:16Z</time>
      </trkpt>
      <trkpt lat="38.83898734782026" lon="121.50413828983719">
        <ele>7.2374802473932505</ele>
        <time>2025-07-19T15:30:20Z</time>
      </trkpt>
      <trkpt lat="38.838806919737394" lon="121.50407766314123">
        <ele>8.67211502417922</ele>
        <time>2025-07-19T15:30:28Z</time>
      </trkpt>
      <trkpt lat="38.838806919737394" lon="121.50407766314123">
        <ele>8.67211502417922</ele>
        <time>2025-07-19T15:30:30Z</time>
      </trkpt>
    </trkseg>
  </trk>
</gpx>