<?xml version="1.0" encoding="UTF-8"?>
<gpx xmlns="http://www.topografix.com/GPX/1/1" xmlns:gpxtpx="http://www.garmin.com/xmlschemas/TrackPointExtension/v1" xmlns:xsi="http://www.w3.org/2001/XMLSchema-instance" xsi:schemaLocation="http://www.topografix.com/GPX/1/1 http://www.topografix.com/GPX/1/1/gpx.xsd" version="1.1" creator="gpx.py -- https://github.com/tkrajina/gpxpy">
  <trk>
    <name>gpx from keep</name>
    <type>Run</type>
    <trkseg>
      <trkpt lat="38.837385357421084" lon="121.50901652191666">
        <ele>11.851736731827259</ele>
        <time>2025-07-19T01:38:00Z</time>
      </trkpt>
      <trkpt lat="38.83726491602748" lon="121.50911894162552">
        <ele>10.60920793749392</ele>
        <time>2025-07-19T01:38:08Z</time>
      </trkpt>
      <trkpt lat="38.83721188102201" lon="121.50920335653929">
        <ele>10.416152946650982</ele>
        <time>2025-07-19T01:38:12Z</time>
      </trkpt>
      <trkpt lat="38.83718530118761" lon="121.5092949248103">
        <ele>11.21805607713759</ele>
        <time>2025-07-19T01:38:16Z</time>
      </trkpt>
      <trkpt lat="38.83712803403913" lon="121.50935801318327">
        <ele>11.309124918654561</ele>
        <time>2025-07-19T01:38:20Z</time>
      </trkpt>
      <trkpt lat="38.837018191803644" lon="121.50965100445877">
        <ele>10.061105341650546</ele>
        <time>2025-07-19T01:38:32Z</time>
      </trkpt>
      <trkpt lat="38.83690840072019" lon="121.50981509315768">
        <ele>10.79828967154026</ele>
        <time>2025-07-19T01:38:40Z</time>
      </trkpt>
      <trkpt lat="38.836774072114984" lon="121.50992431679269">
        <ele>10.514124034903944</ele>
        <time>2025-07-19T01:38:48Z</time>
        <extensions>
          <gpxtpx:TrackPointExtension>
            <gpxtpx:hr>112</gpxtpx:hr>
          </gpxtpx:TrackPointExtension>
        </extensions>
      </trkpt>
      <trkpt lat="38.83645431901401" lon="121.50998299523064">
        <ele>9.430729898624122</ele>
        <time>2025-07-19T01:39:06Z</time>
        <extensions>
          <gpxtpx:TrackPointExtension>
            <gpxtpx:hr>113</gpxtpx:hr>
          </gpxtpx:TrackPointExtension>
        </extensions>
      </trkpt>
      <trkpt lat="38.836403162684306" lon="121.50997696913842">
        <ele>8.903157132677734</ele>
        <time>2025-07-19T01:39:18Z</time>
        <extensions>
          <gpxtpx:TrackPointExtension>
            <gpxtpx:hr>116</gpxtpx:hr>
          </gpxtpx:TrackPointExtension>
        </extensions>
      </trkpt>
      <trkpt lat="38.83615689664944" lon="121.51007355192101">
        <ele>8.170840787701309</ele>
        <time>2025-07-19T01:39:31Z</time>
        <extensions>
          <gpxtpx:TrackPointExtension>
            <gpxtpx:hr>115</gpxtpx:hr>
          </gpxtpx:TrackPointExtension>
        </extensions>
      </trkpt>
      <trkpt lat="38.836113869000336" lon="121.51013318233022">
        <ele>8.822487794794142</ele>
        <time>2025-07-19T01:39:34Z</time>
        <extensions>
          <gpxtpx:TrackPointExtension>
            <gpxtpx:hr>114</gpxtpx:hr>
          </gpxtpx:TrackPointExtension>
        </extensions>
      </trkpt>
      <trkpt lat="38.836128173844195" lon="121.51022196851912">
        <ele>8.987168315798044</ele>
        <time>2025-07-19T01:39:37Z</time>
        <extensions>
          <gpxtpx:TrackPointExtension>
            <gpxtpx:hr>114</gpxtpx:hr>
          </gpxtpx:TrackPointExtension>
        </extensions>
      </trkpt>
      <trkpt lat="38.83619389386223" lon="121.51034786300167">
        <ele>8.872709415853024</ele>
        <time>2025-07-19T01:39:43Z</time>
        <extensions>
          <gpxtpx:TrackPointExtension>
            <gpxtpx:hr>116</gpxtpx:hr>
          </gpxtpx:TrackPointExtension>
        </extensions>
      </trkpt>
      <trkpt lat="38.836239316129074" lon="121.51051003977635">
        <ele>8.505022773519158</ele>
        <time>2025-07-19T01:39:49Z</time>
        <extensions>
          <gpxtpx:TrackPointExtension>
            <gpxtpx:hr>114</gpxtpx:hr>
          </gpxtpx:TrackPointExtension>
        </extensions>
      </trkpt>
      <trkpt lat="38.8362779250137" lon="121.51058449875296">
        <ele>9.218501104973257</ele>
        <time>2025-07-19T01:39:52Z</time>
        <extensions>
          <gpxtpx:TrackPointExtension>
            <gpxtpx:hr>114</gpxtpx:hr>
          </gpxtpx:TrackPointExtension>
        </extensions>
      </trkpt>
      <trkpt lat="38.836357511897674" lon="121.5105969662065">
        <ele>10.343756902962923</ele>
        <time>2025-07-19T01:39:55Z</time>
        <extensions>
          <gpxtpx:TrackPointExtension>
            <gpxtpx:hr>115</gpxtpx:hr>
          </gpxtpx:TrackPointExtension>
        </extensions>
      </trkpt>
      <trkpt lat="38.83655873622808" lon="121.51046361856524">
        <ele>10.093776043504477</ele>
        <time>2025-07-19T01:40:07Z</time>
        <extensions>
          <gpxtpx:TrackPointExtension>
            <gpxtpx:hr>119</gpxtpx:hr>
          </gpxtpx:TrackPointExtension>
        </extensions>
      </trkpt>
      <trkpt lat="38.836616396412495" lon="121.510452489126">
        <ele>10.035371710546315</ele>
        <time>2025-07-19T01:40:10Z</time>
        <extensions>
          <gpxtpx:TrackPointExtension>
            <gpxtpx:hr>121</gpxtpx:hr>
          </gpxtpx:TrackPointExtension>
        </extensions>
      </trkpt>
      <trkpt lat="38.836781487632194" lon="121.51056788695136">
        <ele>8.854968597181141</ele>
        <time>2025-07-19T01:40:19Z</time>
        <extensions>
          <gpxtpx:TrackPointExtension>
            <gpxtpx:hr>122</gpxtpx:hr>
          </gpxtpx:TrackPointExtension>
        </extensions>
      </trkpt>
      <trkpt lat="38.83682748529596" lon="121.51062155863664">
        <ele>9.40020477026701</ele>
        <time>2025-07-19T01:40:22Z</time>
        <extensions>
          <gpxtpx:TrackPointExtension>
            <gpxtpx:hr>122</gpxtpx:hr>
          </gpxtpx:TrackPointExtension>
        </extensions>
      </trkpt>
      <trkpt lat="38.83689200136969" lon="121.51077109234927">
        <ele>9.0221559824422</ele>
        <time>2025-07-19T01:40:28Z</time>
        <extensions>
          <gpxtpx:TrackPointExtension>
            <gpxtpx:hr>125</gpxtpx:hr>
          </gpxtpx:TrackPointExtension>
        </extensions>
      </trkpt>
      <trkpt lat="38.83697195055305" lon="121.51088864097386">
        <ele>8.293592809699476</ele>
        <time>2025-07-19T01:40:34Z</time>
        <extensions>
          <gpxtpx:TrackPointExtension>
            <gpxtpx:hr>126</gpxtpx:hr>
          </gpxtpx:TrackPointExtension>
        </extensions>
      </trkpt>
      <trkpt lat="38.83703796521815" lon="121.51090368212915">
        <ele>8.52018638793379</ele>
        <time>2025-07-19T01:40:37Z</time>
        <extensions>
          <gpxtpx:TrackPointExtension>
            <gpxtpx:hr>126</gpxtpx:hr>
          </gpxtpx:TrackPointExtension>
        </extensions>
      </trkpt>
      <trkpt lat="38.837228270509065" lon="121.51057460288345">
        <ele>10.16257671173662</ele>
        <time>2025-07-19T01:40:52Z</time>
        <extensions>
          <gpxtpx:TrackPointExtension>
            <gpxtpx:hr>125</gpxtpx:hr>
          </gpxtpx:TrackPointExtension>
        </extensions>
      </trkpt>
      <trkpt lat="38.837462301613336" lon="121.51033137345712">
        <ele>10.00290395412594</ele>
        <time>2025-07-19T01:41:07Z</time>
        <extensions>
          <gpxtpx:TrackPointExtension>
            <gpxtpx:hr>126</gpxtpx:hr>
          </gpxtpx:TrackPointExtension>
        </extensions>
      </trkpt>
      <trkpt lat="38.83762699363743" lon="121.51020742116656">
        <ele>10.295367007143795</ele>
        <time>2025-07-19T01:41:16Z</time>
        <extensions>
          <gpxtpx:TrackPointExtension>
            <gpxtpx:hr>126</gpxtpx:hr>
          </gpxtpx:TrackPointExtension>
        </extensions>
      </trkpt>
      <trkpt lat="38.83772696384858" lon="121.51008172043561">
        <ele>10.665993565693498</ele>
        <time>2025-07-19T01:41:22Z</time>
        <extensions>
          <gpxtpx:TrackPointExtension>
            <gpxtpx:hr>129</gpxtpx:hr>
          </gpxtpx:TrackPointExtension>
        </extensions>
      </trkpt>
      <trkpt lat="38.83774891980696" lon="121.50993095506419">
        <ele>10.484707430936396</ele>
        <time>2025-07-19T01:41:28Z</time>
        <extensions>
          <gpxtpx:TrackPointExtension>
            <gpxtpx:hr>130</gpxtpx:hr>
          </gpxtpx:TrackPointExtension>
        </extensions>
      </trkpt>
      <trkpt lat="38.83782104174541" lon="121.50992649783966">
        <ele>10.199140365235507</ele>
        <time>2025-07-19T01:41:31Z</time>
        <extensions>
          <gpxtpx:TrackPointExtension>
            <gpxtpx:hr>130</gpxtpx:hr>
          </gpxtpx:TrackPointExtension>
        </extensions>
      </trkpt>
      <trkpt lat="38.83791374319441" lon="121.50976649777276">
        <ele>10.81777289044112</ele>
        <time>2025-07-19T01:41:38Z</time>
        <extensions>
          <gpxtpx:TrackPointExtension>
            <gpxtpx:hr>131</gpxtpx:hr>
          </gpxtpx:TrackPointExtension>
        </extensions>
      </trkpt>
      <trkpt lat="38.83801575451764" lon="121.50942148779818">
        <ele>11.358738006092608</ele>
        <time>2025-07-19T01:41:51Z</time>
        <extensions>
          <gpxtpx:TrackPointExtension>
            <gpxtpx:hr>132</gpxtpx:hr>
          </gpxtpx:TrackPointExtension>
        </extensions>
      </trkpt>
      <trkpt lat="38.8382503570235" lon="121.50919263772496">
        <ele>10.951711369678378</ele>
        <time>2025-07-19T01:42:06Z</time>
        <extensions>
          <gpxtpx:TrackPointExtension>
            <gpxtpx:hr>134</gpxtpx:hr>
          </gpxtpx:TrackPointExtension>
        </extensions>
      </trkpt>
      <trkpt lat="38.83830519349241" lon="121.50913160667747">
        <ele>11.488708356395364</ele>
        <time>2025-07-19T01:42:09Z</time>
        <extensions>
          <gpxtpx:TrackPointExtension>
            <gpxtpx:hr>135</gpxtpx:hr>
          </gpxtpx:TrackPointExtension>
        </extensions>
      </trkpt>
      <trkpt lat="38.83830108903287" lon="121.50905041031025">
        <ele>12.33008594904095</ele>
        <time>2025-07-19T01:42:12Z</time>
        <extensions>
          <gpxtpx:TrackPointExtension>
            <gpxtpx:hr>135</gpxtpx:hr>
          </gpxtpx:TrackPointExtension>
        </extensions>
      </trkpt>
      <trkpt lat="38.838176907045295" lon="121.50893780768322">
        <ele>12.762133179232478</ele>
        <time>2025-07-19T01:42:18Z</time>
        <extensions>
          <gpxtpx:TrackPointExtension>
            <gpxtpx:hr>134</gpxtpx:hr>
          </gpxtpx:TrackPointExtension>
        </extensions>
      </trkpt>
      <trkpt lat="38.838049462183015" lon="121.50890170257544">
        <ele>12.09439823590219</ele>
        <time>2025-07-19T01:42:24Z</time>
        <extensions>
          <gpxtpx:TrackPointExtension>
            <gpxtpx:hr>135</gpxtpx:hr>
          </gpxtpx:TrackPointExtension>
        </extensions>
      </trkpt>
      <trkpt lat="38.83794233310742" lon="121.50882316569533">
        <ele>11.583147351630032</ele>
        <time>2025-07-19T01:42:30Z</time>
        <extensions>
          <gpxtpx:TrackPointExtension>
            <gpxtpx:hr>136</gpxtpx:hr>
          </gpxtpx:TrackPointExtension>
        </extensions>
      </trkpt>
      <trkpt lat="38.83773293697406" lon="121.50851677390301">
        <ele>12.814711161889136</ele>
        <time>2025-07-19T01:42:54Z</time>
        <extensions>
          <gpxtpx:TrackPointExtension>
            <gpxtpx:hr>133</gpxtpx:hr>
          </gpxtpx:TrackPointExtension>
        </extensions>
      </trkpt>
      <trkpt lat="38.83766030346238" lon="121.50849553768623">
        <ele>11.570871691219509</ele>
        <time>2025-07-19T01:43:00Z</time>
        <extensions>
          <gpxtpx:TrackPointExtension>
            <gpxtpx:hr>132</gpxtpx:hr>
          </gpxtpx:TrackPointExtension>
        </extensions>
      </trkpt>
      <trkpt lat="38.83760943476353" lon="121.50851415561128">
        <ele>12.079861273989081</ele>
        <time>2025-07-19T01:43:03Z</time>
        <extensions>
          <gpxtpx:TrackPointExtension>
            <gpxtpx:hr>132</gpxtpx:hr>
          </gpxtpx:TrackPointExtension>
        </extensions>
      </trkpt>
      <trkpt lat="38.83750497610008" lon="121.5088496328849">
        <ele>11.43174660205841</ele>
        <time>2025-07-19T01:43:15Z</time>
        <extensions>
          <gpxtpx:TrackPointExtension>
            <gpxtpx:hr>125</gpxtpx:hr>
          </gpxtpx:TrackPointExtension>
        </extensions>
      </trkpt>
      <trkpt lat="38.83736850638799" lon="121.5090501684149">
        <ele>12.964346274733543</ele>
        <time>2025-07-19T01:43:24Z</time>
        <extensions>
          <gpxtpx:TrackPointExtension>
            <gpxtpx:hr>128</gpxtpx:hr>
          </gpxtpx:TrackPointExtension>
        </extensions>
      </trkpt>
      <trkpt lat="38.83725741920107" lon="121.5091413945925">
        <ele>11.105843588709831</ele>
        <time>2025-07-19T01:43:30Z</time>
        <extensions>
          <gpxtpx:TrackPointExtension>
            <gpxtpx:hr>128</gpxtpx:hr>
          </gpxtpx:TrackPointExtension>
        </extensions>
      </trkpt>
      <trkpt lat="38.83707689250838" lon="121.5094555682349">
        <ele>10.259415306150913</ele>
        <time>2025-07-19T01:43:44Z</time>
        <extensions>
          <gpxtpx:TrackPointExtension>
            <gpxtpx:hr>131</gpxtpx:hr>
          </gpxtpx:TrackPointExtension>
        </extensions>
      </trkpt>
      <trkpt lat="38.8369954265315" lon="121.50971730295018">
        <ele>8.255764483474195</ele>
        <time>2025-07-19T01:43:53Z</time>
        <extensions>
          <gpxtpx:TrackPointExtension>
            <gpxtpx:hr>133</gpxtpx:hr>
          </gpxtpx:TrackPointExtension>
        </extensions>
      </trkpt>
      <trkpt lat="38.83690533978037" lon="121.50986295634561">
        <ele>9.656549662351608</ele>
        <time>2025-07-19T01:43:59Z</time>
        <extensions>
          <gpxtpx:TrackPointExtension>
            <gpxtpx:hr>136</gpxtpx:hr>
          </gpxtpx:TrackPointExtension>
        </extensions>
      </trkpt>
      <trkpt lat="38.836865794303385" lon="121.5099018879761">
        <ele>11.359472374431789</ele>
        <time>2025-07-19T01:44:02Z</time>
        <extensions>
          <gpxtpx:TrackPointExtension>
            <gpxtpx:hr>136</gpxtpx:hr>
          </gpxtpx:TrackPointExtension>
        </extensions>
      </trkpt>
      <trkpt lat="38.83665603389549" lon="121.50994480490266">
        <ele>9.809429226443172</ele>
        <time>2025-07-19T01:44:11Z</time>
        <extensions>
          <gpxtpx:TrackPointExtension>
            <gpxtpx:hr>139</gpxtpx:hr>
          </gpxtpx:TrackPointExtension>
        </extensions>
      </trkpt>
      <trkpt lat="38.836394690240404" lon="121.50997449739096">
        <ele>9.376626747660339</ele>
        <time>2025-07-19T01:44:23Z</time>
        <extensions>
          <gpxtpx:TrackPointExtension>
            <gpxtpx:hr>137</gpxtpx:hr>
          </gpxtpx:TrackPointExtension>
        </extensions>
      </trkpt>
      <trkpt lat="38.83624717647972" lon="121.51002426113169">
        <ele>8.44527911953628</ele>
        <time>2025-07-19T01:44:29Z</time>
        <extensions>
          <gpxtpx:TrackPointExtension>
            <gpxtpx:hr>136</gpxtpx:hr>
          </gpxtpx:TrackPointExtension>
        </extensions>
      </trkpt>
      <trkpt lat="38.83619445933281" lon="121.51007324809682">
        <ele>8.635036440566182</ele>
        <time>2025-07-19T01:44:32Z</time>
        <extensions>
          <gpxtpx:TrackPointExtension>
            <gpxtpx:hr>136</gpxtpx:hr>
          </gpxtpx:TrackPointExtension>
        </extensions>
      </trkpt>
      <trkpt lat="38.83612667622312" lon="121.51010293216508">
        <ele>8.80188463628292</ele>
        <time>2025-07-19T01:44:35Z</time>
        <extensions>
          <gpxtpx:TrackPointExtension>
            <gpxtpx:hr>137</gpxtpx:hr>
          </gpxtpx:TrackPointExtension>
        </extensions>
      </trkpt>
      <trkpt lat="38.83609132527767" lon="121.51018645922703">
        <ele>8.76263645105064</ele>
        <time>2025-07-19T01:44:38Z</time>
        <extensions>
          <gpxtpx:TrackPointExtension>
            <gpxtpx:hr>137</gpxtpx:hr>
          </gpxtpx:TrackPointExtension>
        </extensions>
      </trkpt>
      <trkpt lat="38.836264337715015" lon="121.51056999113817">
        <ele>8.746712975203991</ele>
        <time>2025-07-19T01:44:53Z</time>
        <extensions>
          <gpxtpx:TrackPointExtension>
            <gpxtpx:hr>138</gpxtpx:hr>
          </gpxtpx:TrackPointExtension>
        </extensions>
      </trkpt>
      <trkpt lat="38.83634278256475" lon="121.510577326739">
        <ele>8.803998038172722</ele>
        <time>2025-07-19T01:44:56Z</time>
        <extensions>
          <gpxtpx:TrackPointExtension>
            <gpxtpx:hr>139</gpxtpx:hr>
          </gpxtpx:TrackPointExtension>
        </extensions>
      </trkpt>
      <trkpt lat="38.83646294835503" lon="121.51053295920686">
        <ele>9.301788521930575</ele>
        <time>2025-07-19T01:45:02Z</time>
        <extensions>
          <gpxtpx:TrackPointExtension>
            <gpxtpx:hr>139</gpxtpx:hr>
          </gpxtpx:TrackPointExtension>
        </extensions>
      </trkpt>
      <trkpt lat="38.83663133656146" lon="121.51043273834404">
        <ele>8.264114297926426</ele>
        <time>2025-07-19T01:45:11Z</time>
        <extensions>
          <gpxtpx:TrackPointExtension>
            <gpxtpx:hr>140</gpxtpx:hr>
          </gpxtpx:TrackPointExtension>
        </extensions>
      </trkpt>
      <trkpt lat="38.83669361513959" lon="121.51046776376481">
        <ele>8.039743406698108</ele>
        <time>2025-07-19T01:45:14Z</time>
        <extensions>
          <gpxtpx:TrackPointExtension>
            <gpxtpx:hr>140</gpxtpx:hr>
          </gpxtpx:TrackPointExtension>
        </extensions>
      </trkpt>
      <trkpt lat="38.83674525294874" lon="121.51053929864258">
        <ele>7.9060680996626616</ele>
        <time>2025-07-19T01:45:17Z</time>
        <extensions>
          <gpxtpx:TrackPointExtension>
            <gpxtpx:hr>140</gpxtpx:hr>
          </gpxtpx:TrackPointExtension>
        </extensions>
      </trkpt>
      <trkpt lat="38.836806605211216" lon="121.51057669718102">
        <ele>8.151222865097225</ele>
        <time>2025-07-19T01:45:20Z</time>
        <extensions>
          <gpxtpx:TrackPointExtension>
            <gpxtpx:hr>140</gpxtpx:hr>
          </gpxtpx:TrackPointExtension>
        </extensions>
      </trkpt>
      <trkpt lat="38.836904339385846" lon="121.51079631332468">
        <ele>8.332656254991889</ele>
        <time>2025-07-19T01:45:29Z</time>
        <extensions>
          <gpxtpx:TrackPointExtension>
            <gpxtpx:hr>140</gpxtpx:hr>
          </gpxtpx:TrackPointExtension>
        </extensions>
      </trkpt>
      <trkpt lat="38.83695280252723" lon="121.51086536410453">
        <ele>7.931025253608823</ele>
        <time>2025-07-19T01:45:32Z</time>
        <extensions>
          <gpxtpx:TrackPointExtension>
            <gpxtpx:hr>140</gpxtpx:hr>
          </gpxtpx:TrackPointExtension>
        </extensions>
      </trkpt>
      <trkpt lat="38.8370359411494" lon="121.5108778018463">
        <ele>9.045915296301246</ele>
        <time>2025-07-19T01:45:35Z</time>
        <extensions>
          <gpxtpx:TrackPointExtension>
            <gpxtpx:hr>138</gpxtpx:hr>
          </gpxtpx:TrackPointExtension>
        </extensions>
      </trkpt>
      <trkpt lat="38.83707973476335" lon="121.5108102129214">
        <ele>8.691907171159983</ele>
        <time>2025-07-19T01:45:38Z</time>
        <extensions>
          <gpxtpx:TrackPointExtension>
            <gpxtpx:hr>138</gpxtpx:hr>
          </gpxtpx:TrackPointExtension>
        </extensions>
      </trkpt>
      <trkpt lat="38.83709998402634" lon="121.5107336245678">
        <ele>10.001670442521572</ele>
        <time>2025-07-19T01:45:41Z</time>
        <extensions>
          <gpxtpx:TrackPointExtension>
            <gpxtpx:hr>138</gpxtpx:hr>
          </gpxtpx:TrackPointExtension>
        </extensions>
      </trkpt>
      <trkpt lat="38.837338675678545" lon="121.51045388623356">
        <ele>10.15417887084186</ele>
        <time>2025-07-19T01:45:55Z</time>
        <extensions>
          <gpxtpx:TrackPointExtension>
            <gpxtpx:hr>144</gpxtpx:hr>
          </gpxtpx:TrackPointExtension>
        </extensions>
      </trkpt>
      <trkpt lat="38.83759853389107" lon="121.51020670267953">
        <ele>9.871462060138583</ele>
        <time>2025-07-19T01:46:10Z</time>
        <extensions>
          <gpxtpx:TrackPointExtension>
            <gpxtpx:hr>145</gpxtpx:hr>
          </gpxtpx:TrackPointExtension>
        </extensions>
      </trkpt>
      <trkpt lat="38.83771061245349" lon="121.51009991282001">
        <ele>9.63663790654391</ele>
        <time>2025-07-19T01:46:16Z</time>
        <extensions>
          <gpxtpx:TrackPointExtension>
            <gpxtpx:hr>145</gpxtpx:hr>
          </gpxtpx:TrackPointExtension>
        </extensions>
      </trkpt>
      <trkpt lat="38.83774273411998" lon="121.50994369380605">
        <ele>11.064655183814466</ele>
        <time>2025-07-19T01:46:22Z</time>
        <extensions>
          <gpxtpx:TrackPointExtension>
            <gpxtpx:hr>146</gpxtpx:hr>
          </gpxtpx:TrackPointExtension>
        </extensions>
      </trkpt>
      <trkpt lat="38.837833762876095" lon="121.509929873444">
        <ele>9.944968200288713</ele>
        <time>2025-07-19T01:46:25Z</time>
        <extensions>
          <gpxtpx:TrackPointExtension>
            <gpxtpx:hr>146</gpxtpx:hr>
          </gpxtpx:TrackPointExtension>
        </extensions>
      </trkpt>
      <trkpt lat="38.83788552869371" lon="121.5098488389484">
        <ele>10.377664686180651</ele>
        <time>2025-07-19T01:46:28Z</time>
        <extensions>
          <gpxtpx:TrackPointExtension>
            <gpxtpx:hr>146</gpxtpx:hr>
          </gpxtpx:TrackPointExtension>
        </extensions>
      </trkpt>
      <trkpt lat="38.83790565741347" lon="121.50977483986807">
        <ele>10.661333985626698</ele>
        <time>2025-07-19T01:46:31Z</time>
        <extensions>
          <gpxtpx:TrackPointExtension>
            <gpxtpx:hr>145</gpxtpx:hr>
          </gpxtpx:TrackPointExtension>
        </extensions>
      </trkpt>
      <trkpt lat="38.837940233070825" lon="121.50971636227592">
        <ele>11.508976154960692</ele>
        <time>2025-07-19T01:46:34Z</time>
        <extensions>
          <gpxtpx:TrackPointExtension>
            <gpxtpx:hr>145</gpxtpx:hr>
          </gpxtpx:TrackPointExtension>
        </extensions>
      </trkpt>
      <trkpt lat="38.838042967971944" lon="121.50936945454579">
        <ele>11.261743931099772</ele>
        <time>2025-07-19T01:46:46Z</time>
        <extensions>
          <gpxtpx:TrackPointExtension>
            <gpxtpx:hr>146</gpxtpx:hr>
          </gpxtpx:TrackPointExtension>
        </extensions>
      </trkpt>
      <trkpt lat="38.83825584361003" lon="121.50918488035549">
        <ele>11.277087518014014</ele>
        <time>2025-07-19T01:46:58Z</time>
        <extensions>
          <gpxtpx:TrackPointExtension>
            <gpxtpx:hr>144</gpxtpx:hr>
          </gpxtpx:TrackPointExtension>
        </extensions>
      </trkpt>
      <trkpt lat="38.8383119851714" lon="121.50910910254838">
        <ele>10.822601695545018</ele>
        <time>2025-07-19T01:47:01Z</time>
        <extensions>
          <gpxtpx:TrackPointExtension>
            <gpxtpx:hr>145</gpxtpx:hr>
          </gpxtpx:TrackPointExtension>
        </extensions>
      </trkpt>
      <trkpt lat="38.8382691445659" lon="121.50903100766459">
        <ele>11.607021083123982</ele>
        <time>2025-07-19T01:47:04Z</time>
        <extensions>
          <gpxtpx:TrackPointExtension>
            <gpxtpx:hr>146</gpxtpx:hr>
          </gpxtpx:TrackPointExtension>
        </extensions>
      </trkpt>
      <trkpt lat="38.83814752595989" lon="121.50891972985686">
        <ele>12.790930327959359</ele>
        <time>2025-07-19T01:47:10Z</time>
        <extensions>
          <gpxtpx:TrackPointExtension>
            <gpxtpx:hr>146</gpxtpx:hr>
          </gpxtpx:TrackPointExtension>
        </extensions>
      </trkpt>
      <trkpt lat="38.83807625527864" lon="121.50891201295288">
        <ele>14.086421967484057</ele>
        <time>2025-07-19T01:47:13Z</time>
        <extensions>
          <gpxtpx:TrackPointExtension>
            <gpxtpx:hr>146</gpxtpx:hr>
          </gpxtpx:TrackPointExtension>
        </extensions>
      </trkpt>
      <trkpt lat="38.83795609466277" lon="121.50883344146249">
        <ele>13.343449704349041</ele>
        <time>2025-07-19T01:47:19Z</time>
        <extensions>
          <gpxtpx:TrackPointExtension>
            <gpxtpx:hr>147</gpxtpx:hr>
          </gpxtpx:TrackPointExtension>
        </extensions>
      </trkpt>
      <trkpt lat="38.83778080496328" lon="121.50855490100757">
        <ele>12.20022911671549</ele>
        <time>2025-07-19T01:47:31Z</time>
        <extensions>
          <gpxtpx:TrackPointExtension>
            <gpxtpx:hr>149</gpxtpx:hr>
          </gpxtpx:TrackPointExtension>
        </extensions>
      </trkpt>
      <trkpt lat="38.83770871711795" lon="121.50850176804096">
        <ele>10.360765567049384</ele>
        <time>2025-07-19T01:47:34Z</time>
        <extensions>
          <gpxtpx:TrackPointExtension>
            <gpxtpx:hr>149</gpxtpx:hr>
          </gpxtpx:TrackPointExtension>
        </extensions>
      </trkpt>
      <trkpt lat="38.8376340668668" lon="121.50849188095894">
        <ele>11.640538653358817</ele>
        <time>2025-07-19T01:47:37Z</time>
        <extensions>
          <gpxtpx:TrackPointExtension>
            <gpxtpx:hr>149</gpxtpx:hr>
          </gpxtpx:TrackPointExtension>
        </extensions>
      </trkpt>
      <trkpt lat="38.837583978993266" lon="121.50854898805552">
        <ele>11.966483849100769</ele>
        <time>2025-07-19T01:47:40Z</time>
        <extensions>
          <gpxtpx:TrackPointExtension>
            <gpxtpx:hr>150</gpxtpx:hr>
          </gpxtpx:TrackPointExtension>
        </extensions>
      </trkpt>
      <trkpt lat="38.83745630318345" lon="121.50892381832669">
        <ele>12.108807805925608</ele>
        <time>2025-07-19T01:47:53Z</time>
        <extensions>
          <gpxtpx:TrackPointExtension>
            <gpxtpx:hr>148</gpxtpx:hr>
          </gpxtpx:TrackPointExtension>
        </extensions>
      </trkpt>
      <trkpt lat="38.83734010560542" lon="121.50903096998367">
        <ele>10.826738845556974</ele>
        <time>2025-07-19T01:47:59Z</time>
        <extensions>
          <gpxtpx:TrackPointExtension>
            <gpxtpx:hr>148</gpxtpx:hr>
          </gpxtpx:TrackPointExtension>
        </extensions>
      </trkpt>
      <trkpt lat="38.83719072114622" lon="121.50923154471698">
        <ele>10.814303098246455</ele>
        <time>2025-07-19T01:48:08Z</time>
        <extensions>
          <gpxtpx:TrackPointExtension>
            <gpxtpx:hr>148</gpxtpx:hr>
          </gpxtpx:TrackPointExtension>
        </extensions>
      </trkpt>
      <trkpt lat="38.83705323097716" lon="121.50953386482237">
        <ele>10.64974629227072</ele>
        <time>2025-07-19T01:48:20Z</time>
        <extensions>
          <gpxtpx:TrackPointExtension>
            <gpxtpx:hr>146</gpxtpx:hr>
          </gpxtpx:TrackPointExtension>
        </extensions>
      </trkpt>
      <trkpt lat="38.836958344813695" lon="121.50978557906234">
        <ele>8.681307666003704</ele>
        <time>2025-07-19T01:48:29Z</time>
        <extensions>
          <gpxtpx:TrackPointExtension>
            <gpxtpx:hr>147</gpxtpx:hr>
          </gpxtpx:TrackPointExtension>
        </extensions>
      </trkpt>
      <trkpt lat="38.83685925213387" lon="121.50988862742444">
        <ele>9.240930209867656</ele>
        <time>2025-07-19T01:48:35Z</time>
        <extensions>
          <gpxtpx:TrackPointExtension>
            <gpxtpx:hr>147</gpxtpx:hr>
          </gpxtpx:TrackPointExtension>
        </extensions>
      </trkpt>
      <trkpt lat="38.83677733971222" lon="121.50993495051743">
        <ele>8.765919622033834</ele>
        <time>2025-07-19T01:48:38Z</time>
        <extensions>
          <gpxtpx:TrackPointExtension>
            <gpxtpx:hr>147</gpxtpx:hr>
          </gpxtpx:TrackPointExtension>
        </extensions>
      </trkpt>
      <trkpt lat="38.836653082028825" lon="121.50995881375302">
        <ele>8.682128831744194</ele>
        <time>2025-07-19T01:48:44Z</time>
        <extensions>
          <gpxtpx:TrackPointExtension>
            <gpxtpx:hr>149</gpxtpx:hr>
          </gpxtpx:TrackPointExtension>
        </extensions>
      </trkpt>
      <trkpt lat="38.83635907163863" lon="121.5099831288972">
        <ele>7.733690514229238</ele>
        <time>2025-07-19T01:48:56Z</time>
        <extensions>
          <gpxtpx:TrackPointExtension>
            <gpxtpx:hr>148</gpxtpx:hr>
          </gpxtpx:TrackPointExtension>
        </extensions>
      </trkpt>
      <trkpt lat="38.83622604748956" lon="121.51001480422005">
        <ele>9.749745034612715</ele>
        <time>2025-07-19T01:49:02Z</time>
        <extensions>
          <gpxtpx:TrackPointExtension>
            <gpxtpx:hr>148</gpxtpx:hr>
          </gpxtpx:TrackPointExtension>
        </extensions>
      </trkpt>
      <trkpt lat="38.83609611479384" lon="121.51011764518657">
        <ele>8.780937070958316</ele>
        <time>2025-07-19T01:49:08Z</time>
        <extensions>
          <gpxtpx:TrackPointExtension>
            <gpxtpx:hr>148</gpxtpx:hr>
          </gpxtpx:TrackPointExtension>
        </extensions>
      </trkpt>
      <trkpt lat="38.836106568514865" lon="121.51023381256212">
        <ele>9.560798859223723</ele>
        <time>2025-07-19T01:49:11Z</time>
        <extensions>
          <gpxtpx:TrackPointExtension>
            <gpxtpx:hr>149</gpxtpx:hr>
          </gpxtpx:TrackPointExtension>
        </extensions>
      </trkpt>
      <trkpt lat="38.8361644178704" lon="121.51030831810736">
        <ele>8.91551817394793</ele>
        <time>2025-07-19T01:49:14Z</time>
        <extensions>
          <gpxtpx:TrackPointExtension>
            <gpxtpx:hr>149</gpxtpx:hr>
          </gpxtpx:TrackPointExtension>
        </extensions>
      </trkpt>
      <trkpt lat="38.83625153518648" lon="121.51054542077551">
        <ele>8.020899028517306</ele>
        <time>2025-07-19T01:49:23Z</time>
        <extensions>
          <gpxtpx:TrackPointExtension>
            <gpxtpx:hr>150</gpxtpx:hr>
          </gpxtpx:TrackPointExtension>
        </extensions>
      </trkpt>
      <trkpt lat="38.83631372466898" lon="121.51059221953389">
        <ele>9.00796132069081</ele>
        <time>2025-07-19T01:49:26Z</time>
        <extensions>
          <gpxtpx:TrackPointExtension>
            <gpxtpx:hr>150</gpxtpx:hr>
          </gpxtpx:TrackPointExtension>
        </extensions>
      </trkpt>
      <trkpt lat="38.83639168362499" lon="121.51057920752885">
        <ele>9.267621602863073</ele>
        <time>2025-07-19T01:49:29Z</time>
        <extensions>
          <gpxtpx:TrackPointExtension>
            <gpxtpx:hr>150</gpxtpx:hr>
          </gpxtpx:TrackPointExtension>
        </extensions>
      </trkpt>
      <trkpt lat="38.83644206369378" lon="121.51050849288679">
        <ele>9.309063665568829</ele>
        <time>2025-07-19T01:49:32Z</time>
        <extensions>
          <gpxtpx:TrackPointExtension>
            <gpxtpx:hr>151</gpxtpx:hr>
          </gpxtpx:TrackPointExtension>
        </extensions>
      </trkpt>
      <trkpt lat="38.836625210120744" lon="121.51045308707099">
        <ele>8.698572813533247</ele>
        <time>2025-07-19T01:49:41Z</time>
        <extensions>
          <gpxtpx:TrackPointExtension>
            <gpxtpx:hr>151</gpxtpx:hr>
          </gpxtpx:TrackPointExtension>
        </extensions>
      </trkpt>
      <trkpt lat="38.836765334882756" lon="121.51052029955649">
        <ele>7.46442652028054</ele>
        <time>2025-07-19T01:49:47Z</time>
        <extensions>
          <gpxtpx:TrackPointExtension>
            <gpxtpx:hr>151</gpxtpx:hr>
          </gpxtpx:TrackPointExtension>
        </extensions>
      </trkpt>
      <trkpt lat="38.83681849207653" lon="121.51057612580419">
        <ele>7.920135349035263</ele>
        <time>2025-07-19T01:49:50Z</time>
        <extensions>
          <gpxtpx:TrackPointExtension>
            <gpxtpx:hr>153</gpxtpx:hr>
          </gpxtpx:TrackPointExtension>
        </extensions>
      </trkpt>
      <trkpt lat="38.836932581024065" lon="121.51083575676745">
        <ele>8.312566515989602</ele>
        <time>2025-07-19T01:50:00Z</time>
        <extensions>
          <gpxtpx:TrackPointExtension>
            <gpxtpx:hr>152</gpxtpx:hr>
          </gpxtpx:TrackPointExtension>
        </extensions>
      </trkpt>
      <trkpt lat="38.837004519991865" lon="121.51088462705297">
        <ele>9.438348141498864</ele>
        <time>2025-07-19T01:50:03Z</time>
        <extensions>
          <gpxtpx:TrackPointExtension>
            <gpxtpx:hr>152</gpxtpx:hr>
          </gpxtpx:TrackPointExtension>
        </extensions>
      </trkpt>
      <trkpt lat="38.83705802186607" lon="121.51084251809735">
        <ele>8.89696632977575</ele>
        <time>2025-07-19T01:50:06Z</time>
        <extensions>
          <gpxtpx:TrackPointExtension>
            <gpxtpx:hr>152</gpxtpx:hr>
          </gpxtpx:TrackPointExtension>
        </extensions>
      </trkpt>
      <trkpt lat="38.83709889717515" lon="121.51074073087746">
        <ele>9.463832417503</ele>
        <time>2025-07-19T01:50:09Z</time>
        <extensions>
          <gpxtpx:TrackPointExtension>
            <gpxtpx:hr>152</gpxtpx:hr>
          </gpxtpx:TrackPointExtension>
        </extensions>
      </trkpt>
      <trkpt lat="38.837251091686284" lon="121.51057769245203">
        <ele>9.58396858908236</ele>
        <time>2025-07-19T01:50:18Z</time>
        <extensions>
          <gpxtpx:TrackPointExtension>
            <gpxtpx:hr>151</gpxtpx:hr>
          </gpxtpx:TrackPointExtension>
        </extensions>
      </trkpt>
      <trkpt lat="38.83746265522332" lon="121.5103473098542">
        <ele>9.87591804843396</ele>
        <time>2025-07-19T01:50:30Z</time>
        <extensions>
          <gpxtpx:TrackPointExtension>
            <gpxtpx:hr>153</gpxtpx:hr>
          </gpxtpx:TrackPointExtension>
        </extensions>
      </trkpt>
      <trkpt lat="38.8376917418699" lon="121.51013978439428">
        <ele>9.219913416542113</ele>
        <time>2025-07-19T01:50:42Z</time>
        <extensions>
          <gpxtpx:TrackPointExtension>
            <gpxtpx:hr>156</gpxtpx:hr>
          </gpxtpx:TrackPointExtension>
        </extensions>
      </trkpt>
      <trkpt lat="38.83772835021036" lon="121.51005987381556">
        <ele>10.415885906666517</ele>
        <time>2025-07-19T01:50:45Z</time>
        <extensions>
          <gpxtpx:TrackPointExtension>
            <gpxtpx:hr>155</gpxtpx:hr>
          </gpxtpx:TrackPointExtension>
        </extensions>
      </trkpt>
      <trkpt lat="38.83773400991657" lon="121.51000104600202">
        <ele>10.882513141259551</ele>
        <time>2025-07-19T01:50:48Z</time>
        <extensions>
          <gpxtpx:TrackPointExtension>
            <gpxtpx:hr>155</gpxtpx:hr>
          </gpxtpx:TrackPointExtension>
        </extensions>
      </trkpt>
      <trkpt lat="38.83776999913612" lon="121.50991966777022">
        <ele>9.884761488065124</ele>
        <time>2025-07-19T01:50:51Z</time>
        <extensions>
          <gpxtpx:TrackPointExtension>
            <gpxtpx:hr>154</gpxtpx:hr>
          </gpxtpx:TrackPointExtension>
        </extensions>
      </trkpt>
      <trkpt lat="38.83785924810341" lon="121.50990630867008">
        <ele>9.534151567146182</ele>
        <time>2025-07-19T01:50:54Z</time>
        <extensions>
          <gpxtpx:TrackPointExtension>
            <gpxtpx:hr>154</gpxtpx:hr>
          </gpxtpx:TrackPointExtension>
        </extensions>
      </trkpt>
      <trkpt lat="38.83798442407777" lon="121.50957914637351">
        <ele>10.817987295798957</ele>
        <time>2025-07-19T01:51:06Z</time>
        <extensions>
          <gpxtpx:TrackPointExtension>
            <gpxtpx:hr>155</gpxtpx:hr>
          </gpxtpx:TrackPointExtension>
        </extensions>
      </trkpt>
      <trkpt lat="38.83803796166264" lon="121.50939347236991">
        <ele>10.235368212684989</ele>
        <time>2025-07-19T01:51:12Z</time>
        <extensions>
          <gpxtpx:TrackPointExtension>
            <gpxtpx:hr>155</gpxtpx:hr>
          </gpxtpx:TrackPointExtension>
        </extensions>
      </trkpt>
      <trkpt lat="38.83830681088253" lon="121.50911885254686">
        <ele>10.232221244834363</ele>
        <time>2025-07-19T01:51:27Z</time>
        <extensions>
          <gpxtpx:TrackPointExtension>
            <gpxtpx:hr>149</gpxtpx:hr>
          </gpxtpx:TrackPointExtension>
        </extensions>
      </trkpt>
      <trkpt lat="38.83827351383943" lon="121.50903877907555">
        <ele>11.326008937321603</ele>
        <time>2025-07-19T01:51:30Z</time>
        <extensions>
          <gpxtpx:TrackPointExtension>
            <gpxtpx:hr>155</gpxtpx:hr>
          </gpxtpx:TrackPointExtension>
        </extensions>
      </trkpt>
      <trkpt lat="38.838205466517906" lon="121.50895705678435">
        <ele>12.408189767971635</ele>
        <time>2025-07-19T01:51:33Z</time>
        <extensions>
          <gpxtpx:TrackPointExtension>
            <gpxtpx:hr>155</gpxtpx:hr>
          </gpxtpx:TrackPointExtension>
        </extensions>
      </trkpt>
      <trkpt lat="38.83794575245567" lon="121.50881793844634">
        <ele>12.154673722572625</ele>
        <time>2025-07-19T01:51:45Z</time>
        <extensions>
          <gpxtpx:TrackPointExtension>
            <gpxtpx:hr>156</gpxtpx:hr>
          </gpxtpx:TrackPointExtension>
        </extensions>
      </trkpt>
      <trkpt lat="38.8378869599088" lon="121.50875434880274">
        <ele>11.344698263332248</ele>
        <time>2025-07-19T01:51:48Z</time>
        <extensions>
          <gpxtpx:TrackPointExtension>
            <gpxtpx:hr>156</gpxtpx:hr>
          </gpxtpx:TrackPointExtension>
        </extensions>
      </trkpt>
      <trkpt lat="38.83779564199458" lon="121.50860799137457">
        <ele>11.011416404508054</ele>
        <time>2025-07-19T01:51:54Z</time>
        <extensions>
          <gpxtpx:TrackPointExtension>
            <gpxtpx:hr>157</gpxtpx:hr>
          </gpxtpx:TrackPointExtension>
        </extensions>
      </trkpt>
      <trkpt lat="38.83776567151349" lon="121.5085319678039">
        <ele>11.073952759616077</ele>
        <time>2025-07-19T01:51:57Z</time>
        <extensions>
          <gpxtpx:TrackPointExtension>
            <gpxtpx:hr>156</gpxtpx:hr>
          </gpxtpx:TrackPointExtension>
        </extensions>
      </trkpt>
      <trkpt lat="38.83772894208849" lon="121.50853006154848">
        <ele>11.339023860171437</ele>
        <time>2025-07-19T01:52:00Z</time>
        <extensions>
          <gpxtpx:TrackPointExtension>
            <gpxtpx:hr>156</gpxtpx:hr>
          </gpxtpx:TrackPointExtension>
        </extensions>
      </trkpt>
    </trkseg>
  </trk>
</gpx>