<?xml version="1.0" encoding="UTF-8"?>
<gpx xmlns="http://www.topografix.com/GPX/1/1" xmlns:gpxtpx="http://www.garmin.com/xmlschemas/TrackPointExtension/v1" xmlns:xsi="http://www.w3.org/2001/XMLSchema-instance" xsi:schemaLocation="http://www.topografix.com/GPX/1/1 http://www.topografix.com/GPX/1/1/gpx.xsd" version="1.1" creator="gpx.py -- https://github.com/tkrajina/gpxpy">
  <trk>
    <name>gpx from keep</name>
    <type>Run</type>
    <trkseg>
      <trkpt lat="38.83758595342493" lon="121.50573316113694">
        <ele>7.5964274406433105</ele>
        <time>2024-11-13T00:17:14Z</time>
      </trkpt>
      <trkpt lat="38.8373993995985" lon="121.50606829182325">
        <ele>8.829643258824944</ele>
        <time>2024-11-13T00:17:30Z</time>
      </trkpt>
      <trkpt lat="38.837341810980696" lon="121.50624079123051">
        <ele>10.933520028367639</ele>
        <time>2024-11-13T00:17:38Z</time>
      </trkpt>
      <trkpt lat="38.8372917492546" lon="121.50630124894153">
        <ele>10.833784666843712</ele>
        <time>2024-11-13T00:17:42Z</time>
      </trkpt>
      <trkpt lat="38.83729846926422" lon="121.50635859604105">
        <ele>11.030678200535476</ele>
        <time>2024-11-13T00:17:46Z</time>
      </trkpt>
      <trkpt lat="38.837354888909815" lon="121.50635145443506">
        <ele>9.911364205181599</ele>
        <time>2024-11-13T00:17:50Z</time>
      </trkpt>
      <trkpt lat="38.83744072589152" lon="121.50617880857027">
        <ele>9.282465195283294</ele>
        <time>2024-11-13T00:17:58Z</time>
      </trkpt>
      <trkpt lat="38.83749732455426" lon="121.50610466031262">
        <ele>9.415164020843804</ele>
        <time>2024-11-13T00:18:02Z</time>
      </trkpt>
      <trkpt lat="38.837686528851926" lon="121.50573851345422">
        <ele>9.037007036618888</ele>
        <time>2024-11-13T00:18:18Z</time>
      </trkpt>
      <trkpt lat="38.837796584811414" lon="121.50556929249433">
        <ele>8.999063494615257</ele>
        <time>2024-11-13T00:18:26Z</time>
      </trkpt>
      <trkpt lat="38.83788726739669" lon="121.50535816083578">
        <ele>8.739605750888586</ele>
        <time>2024-11-13T00:18:34Z</time>
      </trkpt>
      <trkpt lat="38.83779197088624" lon="121.50533594433887">
        <ele>9.531519072130322</ele>
        <time>2024-11-13T00:18:38Z</time>
      </trkpt>
      <trkpt lat="38.8376270782852" lon="121.50570566990682">
        <ele>10.878014350309968</ele>
        <time>2024-11-13T00:18:54Z</time>
      </trkpt>
      <trkpt lat="38.83743811323742" lon="121.50605990223171">
        <ele>10.232448785565794</ele>
        <time>2024-11-13T00:19:10Z</time>
      </trkpt>
      <trkpt lat="38.837323286587406" lon="121.50624856930605">
        <ele>11.261685683391988</ele>
        <time>2024-11-13T00:19:17Z</time>
      </trkpt>
      <trkpt lat="38.837289203600704" lon="121.5063312782336">
        <ele>10.814230651594698</ele>
        <time>2024-11-13T00:19:20Z</time>
      </trkpt>
      <trkpt lat="38.83732237429141" lon="121.50638837850497">
        <ele>10.01741290371865</ele>
        <time>2024-11-13T00:19:23Z</time>
      </trkpt>
      <trkpt lat="38.83737492362614" lon="121.50634013100489">
        <ele>9.754757726565003</ele>
        <time>2024-11-13T00:19:26Z</time>
      </trkpt>
      <trkpt lat="38.83756159827853" lon="121.50597972647084">
        <ele>7.992765584029257</ele>
        <time>2024-11-13T00:19:41Z</time>
      </trkpt>
      <trkpt lat="38.83770640986695" lon="121.50570303891678">
        <ele>10.213014374487102</ele>
        <time>2024-11-13T00:19:53Z</time>
      </trkpt>
      <trkpt lat="38.83783513241992" lon="121.50554338864976">
        <ele>9.890620798803866</ele>
        <time>2024-11-13T00:20:01Z</time>
      </trkpt>
      <trkpt lat="38.83788161509471" lon="121.50544709097534">
        <ele>9.314309330657125</ele>
        <time>2024-11-13T00:20:05Z</time>
      </trkpt>
      <trkpt lat="38.83785490520344" lon="121.50534915741325">
        <ele>10.61108077224344</ele>
        <time>2024-11-13T00:20:09Z</time>
      </trkpt>
      <trkpt lat="38.83773357298047" lon="121.50553326793492">
        <ele>11.093048255890608</ele>
        <time>2024-11-13T00:20:17Z</time>
      </trkpt>
      <trkpt lat="38.83754248220696" lon="121.50588029327729">
        <ele>11.455643127672374</ele>
        <time>2024-11-13T00:20:33Z</time>
      </trkpt>
      <trkpt lat="38.83750391555202" lon="121.5059787354036">
        <ele>12.141327373683453</ele>
        <time>2024-11-13T00:20:37Z</time>
      </trkpt>
      <trkpt lat="38.83744655061555" lon="121.50605931734906">
        <ele>11.28670817334205</ele>
        <time>2024-11-13T00:20:41Z</time>
      </trkpt>
      <trkpt lat="38.83729668719667" lon="121.50635037908138">
        <ele>10.881204230710864</ele>
        <time>2024-11-13T00:20:53Z</time>
      </trkpt>
      <trkpt lat="38.83735974601221" lon="121.50635809534164">
        <ele>10.408626864664257</ele>
        <time>2024-11-13T00:20:57Z</time>
      </trkpt>
      <trkpt lat="38.83743157541202" lon="121.50612797509885">
        <ele>9.804909458383918</ele>
        <time>2024-11-13T00:21:05Z</time>
      </trkpt>
      <trkpt lat="38.83760546957067" lon="121.50581884917682">
        <ele>9.08723949175328</ele>
        <time>2024-11-13T00:21:17Z</time>
      </trkpt>
      <trkpt lat="38.83777903548326" lon="121.5055230827722">
        <ele>9.898896634578705</ele>
        <time>2024-11-13T00:21:29Z</time>
      </trkpt>
      <trkpt lat="38.83793641899784" lon="121.5052286827764">
        <ele>8.498889384791255</ele>
        <time>2024-11-13T00:21:41Z</time>
      </trkpt>
      <trkpt lat="38.837930213576215" lon="121.5051248645062">
        <ele>9.208423445932567</ele>
        <time>2024-11-13T00:21:45Z</time>
      </trkpt>
      <trkpt lat="38.837856161177186" lon="121.5050649050151">
        <ele>10.254986241459846</ele>
        <time>2024-11-13T00:21:49Z</time>
      </trkpt>
      <trkpt lat="38.837819957389" lon="121.50496736550673">
        <ele>7.782439186237752</ele>
        <time>2024-11-13T00:21:53Z</time>
      </trkpt>
      <trkpt lat="38.83757932822913" lon="121.50476875259854">
        <ele>8.018701788038015</ele>
        <time>2024-11-13T00:22:05Z</time>
      </trkpt>
      <trkpt lat="38.83734009500087" lon="121.50454175341238">
        <ele>9.040801621973515</ele>
        <time>2024-11-13T00:22:17Z</time>
      </trkpt>
      <trkpt lat="38.83713905835314" lon="121.50430018383891">
        <ele>8.507555301301181</ele>
        <time>2024-11-13T00:22:29Z</time>
      </trkpt>
      <trkpt lat="38.83706212341773" lon="121.50426491906182">
        <ele>7.660694906488061</ele>
        <time>2024-11-13T00:22:33Z</time>
      </trkpt>
      <trkpt lat="38.837055295717015" lon="121.50419529195658">
        <ele>6.517195507884026</ele>
        <time>2024-11-13T00:22:37Z</time>
      </trkpt>
      <trkpt lat="38.83715696745546" lon="121.5042560465886">
        <ele>7.87378563452512</ele>
        <time>2024-11-13T00:22:41Z</time>
      </trkpt>
      <trkpt lat="38.83730534948764" lon="121.50439801813563">
        <ele>8.187030367553234</ele>
        <time>2024-11-13T00:22:49Z</time>
      </trkpt>
      <trkpt lat="38.837428999139895" lon="121.50455136208183">
        <ele>8.678777168504894</ele>
        <time>2024-11-13T00:22:57Z</time>
      </trkpt>
      <trkpt lat="38.837483421508736" lon="121.50464726855257">
        <ele>7.604813339188695</ele>
        <time>2024-11-13T00:23:01Z</time>
      </trkpt>
      <trkpt lat="38.837556985443555" lon="121.50469468531806">
        <ele>8.25763001665473</ele>
        <time>2024-11-13T00:23:05Z</time>
      </trkpt>
      <trkpt lat="38.837643087936115" lon="121.50478990582126">
        <ele>8.30003965087235</ele>
        <time>2024-11-13T00:23:09Z</time>
      </trkpt>
      <trkpt lat="38.83778899724563" lon="121.50488193143464">
        <ele>6.091776792891324</ele>
        <time>2024-11-13T00:23:17Z</time>
      </trkpt>
      <trkpt lat="38.83781785343717" lon="121.5050392205017">
        <ele>8.21468021441251</ele>
        <time>2024-11-13T00:23:21Z</time>
      </trkpt>
      <trkpt lat="38.83793439937983" lon="121.50515598226657">
        <ele>8.665393062867224</ele>
        <time>2024-11-13T00:23:28Z</time>
      </trkpt>
      <trkpt lat="38.8379130161029" lon="121.50528989534257">
        <ele>9.362439003773034</ele>
        <time>2024-11-13T00:23:32Z</time>
      </trkpt>
      <trkpt lat="38.837764894488934" lon="121.50539717349984">
        <ele>10.538689190521836</ele>
        <time>2024-11-13T00:23:40Z</time>
      </trkpt>
      <trkpt lat="38.83759744143222" lon="121.50570064218628">
        <ele>11.962236298248172</ele>
        <time>2024-11-13T00:23:52Z</time>
      </trkpt>
      <trkpt lat="38.83745541458356" lon="121.50598923312879">
        <ele>11.81022951938212</ele>
        <time>2024-11-13T00:24:04Z</time>
      </trkpt>
      <trkpt lat="38.83729089257087" lon="121.50628355056732">
        <ele>10.877712913788855</ele>
        <time>2024-11-13T00:24:16Z</time>
      </trkpt>
      <trkpt lat="38.837297496270445" lon="121.5064542338332">
        <ele>8.499378236941993</ele>
        <time>2024-11-13T00:24:24Z</time>
      </trkpt>
      <trkpt lat="38.83717303226209" lon="121.5066675898868">
        <ele>10.06256240978837</ele>
        <time>2024-11-13T00:24:32Z</time>
      </trkpt>
      <trkpt lat="38.837047613218886" lon="121.50684688949758">
        <ele>10.222850490361452</ele>
        <time>2024-11-13T00:24:40Z</time>
      </trkpt>
      <trkpt lat="38.83699595345621" lon="121.5069511165533">
        <ele>9.976144498214126</ele>
        <time>2024-11-13T00:24:44Z</time>
      </trkpt>
      <trkpt lat="38.83702517319637" lon="121.5070047333106">
        <ele>10.09896404016763</ele>
        <time>2024-11-13T00:24:48Z</time>
      </trkpt>
      <trkpt lat="38.8370808583449" lon="121.50689359559483">
        <ele>8.750946553424</ele>
        <time>2024-11-13T00:24:52Z</time>
      </trkpt>
      <trkpt lat="38.83714325324505" lon="121.50682467333196">
        <ele>1.1274027824401855</ele>
        <time>2024-11-13T00:24:57Z</time>
      </trkpt>
      <trkpt lat="38.83721004768919" lon="121.50669374809671">
        <ele>9.704097021371126</ele>
        <time>2024-11-13T00:25:00Z</time>
      </trkpt>
      <trkpt lat="38.83724457490473" lon="121.50657251004274">
        <ele>9.439684325829148</ele>
        <time>2024-11-13T00:25:04Z</time>
      </trkpt>
      <trkpt lat="38.83729510347753" lon="121.50646540017287">
        <ele>9.141098491847515</ele>
        <time>2024-11-13T00:25:08Z</time>
      </trkpt>
      <trkpt lat="38.83749182011555" lon="121.506199730895">
        <ele>9.706782651133835</ele>
        <time>2024-11-13T00:25:20Z</time>
      </trkpt>
      <trkpt lat="38.83760302210221" lon="121.50598843821244">
        <ele>9.01394798886031</ele>
        <time>2024-11-13T00:25:28Z</time>
      </trkpt>
      <trkpt lat="38.8377263080075" lon="121.50581142371048">
        <ele>8.20985336881131</ele>
        <time>2024-11-13T00:25:35Z</time>
      </trkpt>
      <trkpt lat="38.837883899517855" lon="121.50552153297883">
        <ele>8.783143566921353</ele>
        <time>2024-11-13T00:25:47Z</time>
      </trkpt>
      <trkpt lat="38.8380438972402" lon="121.50522359757674">
        <ele>7.222881529480219</ele>
        <time>2024-11-13T00:25:59Z</time>
      </trkpt>
      <trkpt lat="38.83805772331025" lon="121.50512272096368">
        <ele>5.474517747759819</ele>
        <time>2024-11-13T00:26:03Z</time>
      </trkpt>
      <trkpt lat="38.837977586728265" lon="121.50504128638262">
        <ele>7.512893347069621</ele>
        <time>2024-11-13T00:26:07Z</time>
      </trkpt>
      <trkpt lat="38.837892096560616" lon="121.50498598857085">
        <ele>7.732756061479449</ele>
        <time>2024-11-13T00:26:11Z</time>
      </trkpt>
      <trkpt lat="38.83781214010379" lon="121.50490651010792">
        <ele>8.07662678975612</ele>
        <time>2024-11-13T00:26:15Z</time>
      </trkpt>
      <trkpt lat="38.837730664462626" lon="121.50486554641829">
        <ele>8.353159070946276</ele>
        <time>2024-11-13T00:26:19Z</time>
      </trkpt>
      <trkpt lat="38.837467821395244" lon="121.50459891301934">
        <ele>9.762410492636263</ele>
        <time>2024-11-13T00:26:31Z</time>
      </trkpt>
      <trkpt lat="38.837307828553925" lon="121.50444106789983">
        <ele>9.247928222641349</ele>
        <time>2024-11-13T00:26:39Z</time>
      </trkpt>
      <trkpt lat="38.83714281808847" lon="121.50425648433338">
        <ele>8.539256630465388</ele>
        <time>2024-11-13T00:26:47Z</time>
      </trkpt>
      <trkpt lat="38.83707404995377" lon="121.50422031106356">
        <ele>8.678481322713196</ele>
        <time>2024-11-13T00:26:51Z</time>
      </trkpt>
      <trkpt lat="38.83714324037465" lon="121.50435562950521">
        <ele>9.156851158477366</ele>
        <time>2024-11-13T00:26:55Z</time>
      </trkpt>
      <trkpt lat="38.837321208247275" lon="121.50449161556988">
        <ele>8.239046069793403</ele>
        <time>2024-11-13T00:27:03Z</time>
      </trkpt>
      <trkpt lat="38.837443713433196" lon="121.50464943612161">
        <ele>8.396859978325665</ele>
        <time>2024-11-13T00:27:11Z</time>
      </trkpt>
      <trkpt lat="38.83768540569953" lon="121.5048656516548">
        <ele>7.584209066815674</ele>
        <time>2024-11-13T00:27:23Z</time>
      </trkpt>
      <trkpt lat="38.8377380962265" lon="121.50492663473484">
        <ele>7.431573681533337</ele>
        <time>2024-11-13T00:27:27Z</time>
      </trkpt>
      <trkpt lat="38.8377991708844" lon="121.50504370332034">
        <ele>6.151675635017455</ele>
        <time>2024-11-13T00:27:31Z</time>
      </trkpt>
      <trkpt lat="38.83797181110163" lon="121.50515086291483">
        <ele>8.423801511526108</ele>
        <time>2024-11-13T00:27:39Z</time>
      </trkpt>
      <trkpt lat="38.83794813437014" lon="121.50528688669368">
        <ele>10.18559707608074</ele>
        <time>2024-11-13T00:27:43Z</time>
      </trkpt>
      <trkpt lat="38.83778874889687" lon="121.50537282362248">
        <ele>9.403213583864272</ele>
        <time>2024-11-13T00:27:51Z</time>
      </trkpt>
      <trkpt lat="38.83768185523797" lon="121.50559873178237">
        <ele>11.407847128808498</ele>
        <time>2024-11-13T00:27:59Z</time>
      </trkpt>
      <trkpt lat="38.83750046991046" lon="121.50587835661494">
        <ele>10.55983167886734</ele>
        <time>2024-11-13T00:28:11Z</time>
      </trkpt>
      <trkpt lat="38.837460941986066" lon="121.50598480519659">
        <ele>11.557736415416002</ele>
        <time>2024-11-13T00:28:15Z</time>
      </trkpt>
      <trkpt lat="38.83734595785518" lon="121.50619348316083">
        <ele>11.167036562226713</ele>
        <time>2024-11-13T00:28:23Z</time>
      </trkpt>
      <trkpt lat="38.83727964618952" lon="121.50628150355217">
        <ele>10.205768621526659</ele>
        <time>2024-11-13T00:28:27Z</time>
      </trkpt>
      <trkpt lat="38.83726585013507" lon="121.50637179046797">
        <ele>9.12843223195523</ele>
        <time>2024-11-13T00:28:31Z</time>
      </trkpt>
      <trkpt lat="38.837339972544136" lon="121.50641440968917">
        <ele>8.500063581392169</ele>
        <time>2024-11-13T00:28:35Z</time>
      </trkpt>
      <trkpt lat="38.837414987870936" lon="121.50632754946962">
        <ele>8.267582583241165</ele>
        <time>2024-11-13T00:28:39Z</time>
      </trkpt>
      <trkpt lat="38.8375150131287" lon="121.50613612519726">
        <ele>8.994506794959307</ele>
        <time>2024-11-13T00:28:47Z</time>
      </trkpt>
      <trkpt lat="38.837590189647926" lon="121.50604371106776">
        <ele>8.713431622833014</ele>
        <time>2024-11-13T00:28:51Z</time>
      </trkpt>
      <trkpt lat="38.83762882641277" lon="121.50593180745125">
        <ele>8.767800921574235</ele>
        <time>2024-11-13T00:28:55Z</time>
      </trkpt>
      <trkpt lat="38.837817524383546" lon="121.50562682730343">
        <ele>8.686857753433287</ele>
        <time>2024-11-13T00:29:07Z</time>
      </trkpt>
      <trkpt lat="38.8379836442933" lon="121.50530801460181">
        <ele>8.795610371045768</ele>
        <time>2024-11-13T00:29:19Z</time>
      </trkpt>
      <trkpt lat="38.83800557237866" lon="121.50519930006732">
        <ele>7.722560239955783</ele>
        <time>2024-11-13T00:29:23Z</time>
      </trkpt>
      <trkpt lat="38.8379715645831" lon="121.5050815485206">
        <ele>8.411961316131055</ele>
        <time>2024-11-13T00:29:27Z</time>
      </trkpt>
      <trkpt lat="38.837885131127344" lon="121.5049985126032">
        <ele>8.90406100731343</ele>
        <time>2024-11-13T00:29:31Z</time>
      </trkpt>
      <trkpt lat="38.83781681581736" lon="121.50489883164484">
        <ele>8.368560262955725</ele>
        <time>2024-11-13T00:29:35Z</time>
      </trkpt>
      <trkpt lat="38.837713156013045" lon="121.50484385306125">
        <ele>9.178460181690753</ele>
        <time>2024-11-13T00:29:39Z</time>
      </trkpt>
      <trkpt lat="38.837424517931396" lon="121.5045584747952">
        <ele>8.855280263349414</ele>
        <time>2024-11-13T00:29:53Z</time>
      </trkpt>
      <trkpt lat="38.837345564100666" lon="121.5045057601422">
        <ele>7.140229783952236</ele>
        <time>2024-11-13T00:29:57Z</time>
      </trkpt>
      <trkpt lat="38.837225683487056" lon="121.50433422608671">
        <ele>8.666816610842943</ele>
        <time>2024-11-13T00:30:05Z</time>
      </trkpt>
      <trkpt lat="38.83714733862027" lon="121.50425535242277">
        <ele>8.313203618861735</ele>
        <time>2024-11-13T00:30:09Z</time>
      </trkpt>
      <trkpt lat="38.83708117239674" lon="121.504289433879">
        <ele>8.708809438161552</ele>
        <time>2024-11-13T00:30:13Z</time>
      </trkpt>
      <trkpt lat="38.83732774656534" lon="121.50451217178393">
        <ele>8.162596778944135</ele>
        <time>2024-11-13T00:30:25Z</time>
      </trkpt>
      <trkpt lat="38.83746277168707" lon="121.50467760280635">
        <ele>7.70907994825393</ele>
        <time>2024-11-13T00:30:33Z</time>
      </trkpt>
      <trkpt lat="38.83746277168707" lon="121.50467760280635">
        <ele>7.70907994825393</ele>
        <time>2024-11-13T00:30:36Z</time>
      </trkpt>
    </trkseg>
  </trk>
</gpx>