<?xml version="1.0" encoding="UTF-8"?>
<gpx xmlns="http://www.topografix.com/GPX/1/1" xmlns:gpxtpx="http://www.garmin.com/xmlschemas/TrackPointExtension/v1" xmlns:xsi="http://www.w3.org/2001/XMLSchema-instance" xsi:schemaLocation="http://www.topografix.com/GPX/1/1 http://www.topografix.com/GPX/1/1/gpx.xsd" version="1.1" creator="gpx.py -- https://github.com/tkrajina/gpxpy">
  <trk>
    <name>gpx from keep</name>
    <type>Run</type>
    <trkseg>
      <trkpt lat="38.83692663769516" lon="121.50447454530818">
        <ele>9.427896245893198</ele>
        <time>2026-08-16T00:20:48Z</time>
        <extensions>
          <gpxtpx:TrackPointExtension>
            <gpxtpx:hr>94</gpxtpx:hr>
          </gpxtpx:TrackPointExtension>
        </extensions>
      </trkpt>
      <trkpt lat="38.836843908527186" lon="121.50455327511715">
        <ele>9.464403172023594</ele>
        <time>2026-08-16T00:21:00Z</time>
        <extensions>
          <gpxtpx:TrackPointExtension>
            <gpxtpx:hr>94</gpxtpx:hr>
          </gpxtpx:TrackPointExtension>
        </extensions>
      </trkpt>
      <trkpt lat="38.83680830171888" lon="121.50467217628004">
        <ele>9.325147626921535</ele>
        <time>2026-08-16T00:21:04Z</time>
        <extensions>
          <gpxtpx:TrackPointExtension>
            <gpxtpx:hr>94</gpxtpx:hr>
          </gpxtpx:TrackPointExtension>
        </extensions>
      </trkpt>
      <trkpt lat="38.836811538721" lon="121.50479588769649">
        <ele>9.32988054305315</ele>
        <time>2026-08-16T00:21:08Z</time>
        <extensions>
          <gpxtpx:TrackPointExtension>
            <gpxtpx:hr>94</gpxtpx:hr>
          </gpxtpx:TrackPointExtension>
        </extensions>
      </trkpt>
      <trkpt lat="38.83672101377064" lon="121.50496306604794">
        <ele>9.617988415062428</ele>
        <time>2026-08-16T00:21:16Z</time>
      </trkpt>
      <trkpt lat="38.836666733743286" lon="121.50514367506034">
        <ele>9.817142854444683</ele>
        <time>2026-08-16T00:21:24Z</time>
      </trkpt>
      <trkpt lat="38.83651377977461" lon="121.50553933189032">
        <ele>9.23300655465573</ele>
        <time>2026-08-16T00:21:40Z</time>
      </trkpt>
      <trkpt lat="38.83639287390742" lon="121.50586965099056">
        <ele>9.648425992578268</ele>
        <time>2026-08-16T00:21:52Z</time>
      </trkpt>
      <trkpt lat="38.83636664269516" lon="121.5058560231505">
        <ele>9.648425992578268</ele>
        <time>2026-08-16T00:21:52Z</time>
      </trkpt>
      <trkpt lat="38.83607934870324" lon="121.5067254353703">
        <ele>9.648425992578268</ele>
        <time>2026-08-16T00:21:54Z</time>
      </trkpt>
      <trkpt lat="38.835984179936474" lon="121.50665015386893">
        <ele>9.648425992578268</ele>
        <time>2026-08-16T00:21:54Z</time>
      </trkpt>
      <trkpt lat="38.83579199914755" lon="121.50655279757656">
        <ele>9.648425992578268</ele>
        <time>2026-08-16T00:21:55Z</time>
      </trkpt>
      <trkpt lat="38.83574996904848" lon="121.50653473217484">
        <ele>9.648425992578268</ele>
        <time>2026-08-16T00:21:55Z</time>
      </trkpt>
      <trkpt lat="38.83570895604439" lon="121.5065226900528">
        <ele>9.648425992578268</ele>
        <time>2026-08-16T00:21:55Z</time>
      </trkpt>
      <trkpt lat="38.83566596176763" lon="121.50651667155459">
        <ele>9.648425992578268</ele>
        <time>2026-08-16T00:21:55Z</time>
      </trkpt>
      <trkpt lat="38.83561598305476" lon="121.50651466945193">
        <ele>9.648425992578268</ele>
        <time>2026-08-16T00:21:55Z</time>
      </trkpt>
      <trkpt lat="38.83541812296796" lon="121.50652573490437">
        <ele>9.648425992578268</ele>
        <time>2026-08-16T00:21:56Z</time>
      </trkpt>
      <trkpt lat="38.83535910796775" lon="121.50650967923359">
        <ele>9.648425992578268</ele>
        <time>2026-08-16T00:21:56Z</time>
      </trkpt>
      <trkpt lat="38.8353130476718" lon="121.50648057138064">
        <ele>9.648425992578268</ele>
        <time>2026-08-16T00:21:56Z</time>
      </trkpt>
      <trkpt lat="38.83492738875658" lon="121.50618446428464">
        <ele>9.648425992578268</ele>
        <time>2026-08-16T00:21:57Z</time>
      </trkpt>
      <trkpt lat="38.83468998149211" lon="121.50600178073546">
        <ele>9.648425992578268</ele>
        <time>2026-08-16T00:21:58Z</time>
      </trkpt>
      <trkpt lat="38.83422317633272" lon="121.50564143122881">
        <ele>9.648425992578268</ele>
        <time>2026-08-16T00:21:59Z</time>
      </trkpt>
      <trkpt lat="38.83427759495959" lon="121.50545369382507">
        <ele>9.648425992578268</ele>
        <time>2026-08-16T00:21:59Z</time>
      </trkpt>
      <trkpt lat="38.83428354154969" lon="121.50543662665672">
        <ele>9.648425992578268</ele>
        <time>2026-08-16T00:22:00Z</time>
      </trkpt>
      <trkpt lat="38.834257582406046" lon="121.50541955320821">
        <ele>7.766553835012019</ele>
        <time>2026-08-16T00:22:00Z</time>
      </trkpt>
      <trkpt lat="38.834261203942035" lon="121.50552997361856">
        <ele>6.7541088704019785</ele>
        <time>2026-08-16T00:22:04Z</time>
      </trkpt>
      <trkpt lat="38.834241198253615" lon="121.50564133525346">
        <ele>6.9016958102583885</ele>
        <time>2026-08-16T00:22:08Z</time>
      </trkpt>
      <trkpt lat="38.834253446019524" lon="121.50583424135563">
        <ele>6.205762137658894</ele>
        <time>2026-08-16T00:22:16Z</time>
      </trkpt>
      <trkpt lat="38.8343650430917" lon="121.50579360420994">
        <ele>7.146000634878874</ele>
        <time>2026-08-16T00:22:28Z</time>
      </trkpt>
      <trkpt lat="38.83431813637873" lon="121.50619373680571">
        <ele>8.856148085556924</ele>
        <time>2026-08-16T00:22:48Z</time>
      </trkpt>
      <trkpt lat="38.83431849398328" lon="121.50639941763887">
        <ele>8.548869066871703</ele>
        <time>2026-08-16T00:22:52Z</time>
      </trkpt>
      <trkpt lat="38.83435100684203" lon="121.50649066040323">
        <ele>8.784573399461806</ele>
        <time>2026-08-16T00:22:59Z</time>
        <extensions>
          <gpxtpx:TrackPointExtension>
            <gpxtpx:hr>127</gpxtpx:hr>
          </gpxtpx:TrackPointExtension>
        </extensions>
      </trkpt>
      <trkpt lat="38.83440490465134" lon="121.5065870304853">
        <ele>8.12530852202326</ele>
        <time>2026-08-16T00:23:08Z</time>
        <extensions>
          <gpxtpx:TrackPointExtension>
            <gpxtpx:hr>127</gpxtpx:hr>
          </gpxtpx:TrackPointExtension>
        </extensions>
      </trkpt>
      <trkpt lat="38.834440320516634" lon="121.50671929103294">
        <ele>8.895517409779131</ele>
        <time>2026-08-16T00:23:17Z</time>
        <extensions>
          <gpxtpx:TrackPointExtension>
            <gpxtpx:hr>127</gpxtpx:hr>
          </gpxtpx:TrackPointExtension>
        </extensions>
      </trkpt>
      <trkpt lat="38.83448655148208" lon="121.50680196517808">
        <ele>8.931527209468186</ele>
        <time>2026-08-16T00:23:20Z</time>
        <extensions>
          <gpxtpx:TrackPointExtension>
            <gpxtpx:hr>127</gpxtpx:hr>
          </gpxtpx:TrackPointExtension>
        </extensions>
      </trkpt>
      <trkpt lat="38.8345286763937" lon="121.5068903818707">
        <ele>8.52325780224055</ele>
        <time>2026-08-16T00:23:23Z</time>
        <extensions>
          <gpxtpx:TrackPointExtension>
            <gpxtpx:hr>127</gpxtpx:hr>
          </gpxtpx:TrackPointExtension>
        </extensions>
      </trkpt>
      <trkpt lat="38.83455712074374" lon="121.50698895940955">
        <ele>7.834938837215304</ele>
        <time>2026-08-16T00:23:26Z</time>
        <extensions>
          <gpxtpx:TrackPointExtension>
            <gpxtpx:hr>127</gpxtpx:hr>
          </gpxtpx:TrackPointExtension>
        </extensions>
      </trkpt>
      <trkpt lat="38.834570290343734" lon="121.50715245519694">
        <ele>8.54207810293883</ele>
        <time>2026-08-16T00:23:29Z</time>
        <extensions>
          <gpxtpx:TrackPointExtension>
            <gpxtpx:hr>127</gpxtpx:hr>
          </gpxtpx:TrackPointExtension>
        </extensions>
      </trkpt>
      <trkpt lat="38.834598446152256" lon="121.50716731793366">
        <ele>8.54207810293883</ele>
        <time>2026-08-16T00:23:29Z</time>
        <extensions>
          <gpxtpx:TrackPointExtension>
            <gpxtpx:hr>127</gpxtpx:hr>
          </gpxtpx:TrackPointExtension>
        </extensions>
      </trkpt>
      <trkpt lat="38.834897628731696" lon="121.50626076431237">
        <ele>8.54207810293883</ele>
        <time>2026-08-16T00:23:30Z</time>
        <extensions>
          <gpxtpx:TrackPointExtension>
            <gpxtpx:hr>127</gpxtpx:hr>
          </gpxtpx:TrackPointExtension>
        </extensions>
      </trkpt>
      <trkpt lat="38.8352642712991" lon="121.50654783823404">
        <ele>8.54207810293883</ele>
        <time>2026-08-16T00:23:31Z</time>
        <extensions>
          <gpxtpx:TrackPointExtension>
            <gpxtpx:hr>127</gpxtpx:hr>
          </gpxtpx:TrackPointExtension>
        </extensions>
      </trkpt>
      <trkpt lat="38.83531733953565" lon="121.5065809608632">
        <ele>8.54207810293883</ele>
        <time>2026-08-16T00:23:31Z</time>
        <extensions>
          <gpxtpx:TrackPointExtension>
            <gpxtpx:hr>127</gpxtpx:hr>
          </gpxtpx:TrackPointExtension>
        </extensions>
      </trkpt>
      <trkpt lat="38.83539938024914" lon="121.50661006458259">
        <ele>8.54207810293883</ele>
        <time>2026-08-16T00:23:31Z</time>
        <extensions>
          <gpxtpx:TrackPointExtension>
            <gpxtpx:hr>127</gpxtpx:hr>
          </gpxtpx:TrackPointExtension>
        </extensions>
      </trkpt>
      <trkpt lat="38.83561325811115" lon="121.50660803240592">
        <ele>8.54207810293883</ele>
        <time>2026-08-16T00:23:32Z</time>
        <extensions>
          <gpxtpx:TrackPointExtension>
            <gpxtpx:hr>127</gpxtpx:hr>
          </gpxtpx:TrackPointExtension>
        </extensions>
      </trkpt>
      <trkpt lat="38.8356482508521" lon="121.50661204401263">
        <ele>8.54207810293883</ele>
        <time>2026-08-16T00:23:32Z</time>
        <extensions>
          <gpxtpx:TrackPointExtension>
            <gpxtpx:hr>127</gpxtpx:hr>
          </gpxtpx:TrackPointExtension>
        </extensions>
      </trkpt>
      <trkpt lat="38.83569325873457" lon="121.50662308176875">
        <ele>8.54207810293883</ele>
        <time>2026-08-16T00:23:32Z</time>
        <extensions>
          <gpxtpx:TrackPointExtension>
            <gpxtpx:hr>127</gpxtpx:hr>
          </gpxtpx:TrackPointExtension>
        </extensions>
      </trkpt>
      <trkpt lat="38.835725273678975" lon="121.50663412100457">
        <ele>8.54207810293883</ele>
        <time>2026-08-16T00:23:32Z</time>
        <extensions>
          <gpxtpx:TrackPointExtension>
            <gpxtpx:hr>127</gpxtpx:hr>
          </gpxtpx:TrackPointExtension>
        </extensions>
      </trkpt>
      <trkpt lat="38.83575931104831" lon="121.5066531911958">
        <ele>8.54207810293883</ele>
        <time>2026-08-16T00:23:32Z</time>
        <extensions>
          <gpxtpx:TrackPointExtension>
            <gpxtpx:hr>127</gpxtpx:hr>
          </gpxtpx:TrackPointExtension>
        </extensions>
      </trkpt>
      <trkpt lat="38.83594354016817" lon="121.50676560674309">
        <ele>8.54207810293883</ele>
        <time>2026-08-16T00:23:32Z</time>
        <extensions>
          <gpxtpx:TrackPointExtension>
            <gpxtpx:hr>127</gpxtpx:hr>
          </gpxtpx:TrackPointExtension>
        </extensions>
      </trkpt>
      <trkpt lat="38.8360347374632" lon="121.50684992366453">
        <ele>8.54207810293883</ele>
        <time>2026-08-16T00:23:33Z</time>
      </trkpt>
      <trkpt lat="38.83597827057424" lon="121.50702159616932">
        <ele>8.54207810293883</ele>
        <time>2026-08-16T00:23:33Z</time>
      </trkpt>
      <trkpt lat="38.83590495930733" lon="121.50724346484057">
        <ele>8.54207810293883</ele>
        <time>2026-08-16T00:23:33Z</time>
      </trkpt>
      <trkpt lat="38.83567313723674" lon="121.50794621232389">
        <ele>8.54207810293883</ele>
        <time>2026-08-16T00:23:34Z</time>
      </trkpt>
      <trkpt lat="38.83561864683002" lon="121.50811085515207">
        <ele>8.54207810293883</ele>
        <time>2026-08-16T00:23:35Z</time>
      </trkpt>
      <trkpt lat="38.83564875996122" lon="121.50812766026729">
        <ele>9.220887650735676</ele>
        <time>2026-08-16T00:23:35Z</time>
      </trkpt>
      <trkpt lat="38.8356433320731" lon="121.50821556105608">
        <ele>9.416363412514329</ele>
        <time>2026-08-16T00:23:38Z</time>
      </trkpt>
      <trkpt lat="38.83558619006305" lon="121.50837577049587">
        <ele>10.060027677565813</ele>
        <time>2026-08-16T00:23:44Z</time>
        <extensions>
          <gpxtpx:TrackPointExtension>
            <gpxtpx:hr>134</gpxtpx:hr>
          </gpxtpx:TrackPointExtension>
        </extensions>
      </trkpt>
      <trkpt lat="38.83551130337278" lon="121.50870667618392">
        <ele>6.885015271604061</ele>
        <time>2026-08-16T00:23:57Z</time>
        <extensions>
          <gpxtpx:TrackPointExtension>
            <gpxtpx:hr>134</gpxtpx:hr>
          </gpxtpx:TrackPointExtension>
        </extensions>
      </trkpt>
      <trkpt lat="38.835433331596036" lon="121.5088640265533">
        <ele>7.999726985581219</ele>
        <time>2026-08-16T00:24:03Z</time>
        <extensions>
          <gpxtpx:TrackPointExtension>
            <gpxtpx:hr>133</gpxtpx:hr>
          </gpxtpx:TrackPointExtension>
        </extensions>
      </trkpt>
      <trkpt lat="38.83542167660144" lon="121.5089404110814">
        <ele>7.571722419932485</ele>
        <time>2026-08-16T00:24:06Z</time>
        <extensions>
          <gpxtpx:TrackPointExtension>
            <gpxtpx:hr>133</gpxtpx:hr>
          </gpxtpx:TrackPointExtension>
        </extensions>
      </trkpt>
      <trkpt lat="38.83543130422613" lon="121.50901064826591">
        <ele>7.641163973137736</ele>
        <time>2026-08-16T00:24:09Z</time>
        <extensions>
          <gpxtpx:TrackPointExtension>
            <gpxtpx:hr>133</gpxtpx:hr>
          </gpxtpx:TrackPointExtension>
        </extensions>
      </trkpt>
      <trkpt lat="38.835309012807805" lon="121.5091750660934">
        <ele>9.030774372629821</ele>
        <time>2026-08-16T00:24:15Z</time>
        <extensions>
          <gpxtpx:TrackPointExtension>
            <gpxtpx:hr>133</gpxtpx:hr>
          </gpxtpx:TrackPointExtension>
        </extensions>
      </trkpt>
      <trkpt lat="38.83520741096284" lon="121.50952529558238">
        <ele>7.632136456668377</ele>
        <time>2026-08-16T00:24:27Z</time>
      </trkpt>
      <trkpt lat="38.83516606971693" lon="121.50958339226213">
        <ele>6.814008076675236</ele>
        <time>2026-08-16T00:24:30Z</time>
        <extensions>
          <gpxtpx:TrackPointExtension>
            <gpxtpx:hr>138</gpxtpx:hr>
          </gpxtpx:TrackPointExtension>
        </extensions>
      </trkpt>
      <trkpt lat="38.83505760614707" lon="121.50993808858512">
        <ele>6.893691680394113</ele>
        <time>2026-08-16T00:24:42Z</time>
        <extensions>
          <gpxtpx:TrackPointExtension>
            <gpxtpx:hr>138</gpxtpx:hr>
          </gpxtpx:TrackPointExtension>
        </extensions>
      </trkpt>
      <trkpt lat="38.83505721551519" lon="121.5100265479668">
        <ele>6.917366690933704</ele>
        <time>2026-08-16T00:24:45Z</time>
        <extensions>
          <gpxtpx:TrackPointExtension>
            <gpxtpx:hr>138</gpxtpx:hr>
          </gpxtpx:TrackPointExtension>
        </extensions>
      </trkpt>
      <trkpt lat="38.834923509886046" lon="121.51033351627241">
        <ele>7.8124540485441685</ele>
        <time>2026-08-16T00:24:57Z</time>
        <extensions>
          <gpxtpx:TrackPointExtension>
            <gpxtpx:hr>138</gpxtpx:hr>
          </gpxtpx:TrackPointExtension>
        </extensions>
      </trkpt>
      <trkpt lat="38.83482124103719" lon="121.51065659899191">
        <ele>7.72485476359725</ele>
        <time>2026-08-16T00:25:08Z</time>
      </trkpt>
      <trkpt lat="38.83471220704387" lon="121.51100213516064">
        <ele>7.9976267060264945</ele>
        <time>2026-08-16T00:25:20Z</time>
      </trkpt>
      <trkpt lat="38.83466444739541" lon="121.51110402124012">
        <ele>7.060005196370184</ele>
        <time>2026-08-16T00:25:24Z</time>
      </trkpt>
      <trkpt lat="38.834654455616416" lon="121.51120131038965">
        <ele>5.883147177286446</ele>
        <time>2026-08-16T00:25:28Z</time>
      </trkpt>
      <trkpt lat="38.83453932458042" lon="121.51151472305408">
        <ele>6.531807788647711</ele>
        <time>2026-08-16T00:25:40Z</time>
      </trkpt>
      <trkpt lat="38.83452399584141" lon="121.51161193952731">
        <ele>6.116946177557111</ele>
        <time>2026-08-16T00:25:43Z</time>
      </trkpt>
      <trkpt lat="38.83444831381483" lon="121.51179063540623">
        <ele>8.470436531119049</ele>
        <time>2026-08-16T00:25:49Z</time>
        <extensions>
          <gpxtpx:TrackPointExtension>
            <gpxtpx:hr>142</gpxtpx:hr>
          </gpxtpx:TrackPointExtension>
        </extensions>
      </trkpt>
      <trkpt lat="38.83439107964902" lon="121.51203099216718">
        <ele>8.998182102106512</ele>
        <time>2026-08-16T00:25:58Z</time>
        <extensions>
          <gpxtpx:TrackPointExtension>
            <gpxtpx:hr>142</gpxtpx:hr>
          </gpxtpx:TrackPointExtension>
        </extensions>
      </trkpt>
      <trkpt lat="38.83432546878106" lon="121.51217641577759">
        <ele>7.017886002548039</ele>
        <time>2026-08-16T00:26:04Z</time>
        <extensions>
          <gpxtpx:TrackPointExtension>
            <gpxtpx:hr>142</gpxtpx:hr>
          </gpxtpx:TrackPointExtension>
        </extensions>
      </trkpt>
      <trkpt lat="38.83420812680962" lon="121.51255741948985">
        <ele>4.928911712951958</ele>
        <time>2026-08-16T00:26:19Z</time>
      </trkpt>
      <trkpt lat="38.83410156404954" lon="121.51288123607824">
        <ele>6.701100206933916</ele>
        <time>2026-08-16T00:26:31Z</time>
        <extensions>
          <gpxtpx:TrackPointExtension>
            <gpxtpx:hr>144</gpxtpx:hr>
          </gpxtpx:TrackPointExtension>
        </extensions>
      </trkpt>
      <trkpt lat="38.83399641976041" lon="121.51320879444891">
        <ele>6.591570197604597</ele>
        <time>2026-08-16T00:26:43Z</time>
        <extensions>
          <gpxtpx:TrackPointExtension>
            <gpxtpx:hr>144</gpxtpx:hr>
          </gpxtpx:TrackPointExtension>
        </extensions>
      </trkpt>
      <trkpt lat="38.83396495271131" lon="121.5132864622434">
        <ele>6.108980048447847</ele>
        <time>2026-08-16T00:26:46Z</time>
        <extensions>
          <gpxtpx:TrackPointExtension>
            <gpxtpx:hr>145</gpxtpx:hr>
          </gpxtpx:TrackPointExtension>
        </extensions>
      </trkpt>
      <trkpt lat="38.833932058923196" lon="121.51342616339811">
        <ele>5.2241524793207645</ele>
        <time>2026-08-16T00:26:52Z</time>
        <extensions>
          <gpxtpx:TrackPointExtension>
            <gpxtpx:hr>145</gpxtpx:hr>
          </gpxtpx:TrackPointExtension>
        </extensions>
      </trkpt>
      <trkpt lat="38.83390319977004" lon="121.51349736791131">
        <ele>5.797758916392922</ele>
        <time>2026-08-16T00:27:01Z</time>
        <extensions>
          <gpxtpx:TrackPointExtension>
            <gpxtpx:hr>145</gpxtpx:hr>
          </gpxtpx:TrackPointExtension>
        </extensions>
      </trkpt>
      <trkpt lat="38.83400196992022" lon="121.51316780827642">
        <ele>6.168928380124271</ele>
        <time>2026-08-16T00:27:15Z</time>
        <extensions>
          <gpxtpx:TrackPointExtension>
            <gpxtpx:hr>146</gpxtpx:hr>
          </gpxtpx:TrackPointExtension>
        </extensions>
      </trkpt>
      <trkpt lat="38.834112772994146" lon="121.51280731408941">
        <ele>6.726074148900807</ele>
        <time>2026-08-16T00:27:27Z</time>
        <extensions>
          <gpxtpx:TrackPointExtension>
            <gpxtpx:hr>144</gpxtpx:hr>
          </gpxtpx:TrackPointExtension>
        </extensions>
      </trkpt>
      <trkpt lat="38.83421522353234" lon="121.512480598926">
        <ele>7.955766765400767</ele>
        <time>2026-08-16T00:27:39Z</time>
        <extensions>
          <gpxtpx:TrackPointExtension>
            <gpxtpx:hr>146</gpxtpx:hr>
          </gpxtpx:TrackPointExtension>
        </extensions>
      </trkpt>
      <trkpt lat="38.834308943701465" lon="121.5121688950604">
        <ele>7.651716308668256</ele>
        <time>2026-08-16T00:27:49Z</time>
        <extensions>
          <gpxtpx:TrackPointExtension>
            <gpxtpx:hr>146</gpxtpx:hr>
          </gpxtpx:TrackPointExtension>
        </extensions>
      </trkpt>
      <trkpt lat="38.8344406171936" lon="121.5119337396743">
        <ele>5.647265895269811</ele>
        <time>2026-08-16T00:27:58Z</time>
        <extensions>
          <gpxtpx:TrackPointExtension>
            <gpxtpx:hr>146</gpxtpx:hr>
          </gpxtpx:TrackPointExtension>
        </extensions>
      </trkpt>
      <trkpt lat="38.83444748754315" lon="121.51182435966382">
        <ele>5.514246207661927</ele>
        <time>2026-08-16T00:28:01Z</time>
        <extensions>
          <gpxtpx:TrackPointExtension>
            <gpxtpx:hr>146</gpxtpx:hr>
          </gpxtpx:TrackPointExtension>
        </extensions>
      </trkpt>
      <trkpt lat="38.83451792985374" lon="121.51159381684619">
        <ele>6.823171517811716</ele>
        <time>2026-08-16T00:28:10Z</time>
        <extensions>
          <gpxtpx:TrackPointExtension>
            <gpxtpx:hr>147</gpxtpx:hr>
          </gpxtpx:TrackPointExtension>
        </extensions>
      </trkpt>
      <trkpt lat="38.834574070919864" lon="121.51152354700393">
        <ele>7.250687518157065</ele>
        <time>2026-08-16T00:28:13Z</time>
        <extensions>
          <gpxtpx:TrackPointExtension>
            <gpxtpx:hr>147</gpxtpx:hr>
          </gpxtpx:TrackPointExtension>
        </extensions>
      </trkpt>
      <trkpt lat="38.83460247651765" lon="121.51133406833313">
        <ele>7.391599765978754</ele>
        <time>2026-08-16T00:28:19Z</time>
        <extensions>
          <gpxtpx:TrackPointExtension>
            <gpxtpx:hr>146</gpxtpx:hr>
          </gpxtpx:TrackPointExtension>
        </extensions>
      </trkpt>
      <trkpt lat="38.83470995519357" lon="121.51110139729263">
        <ele>6.589637806639075</ele>
        <time>2026-08-16T00:28:28Z</time>
        <extensions>
          <gpxtpx:TrackPointExtension>
            <gpxtpx:hr>150</gpxtpx:hr>
          </gpxtpx:TrackPointExtension>
        </extensions>
      </trkpt>
      <trkpt lat="38.83472426483268" lon="121.5110104275925">
        <ele>5.560971872881055</ele>
        <time>2026-08-16T00:28:31Z</time>
        <extensions>
          <gpxtpx:TrackPointExtension>
            <gpxtpx:hr>150</gpxtpx:hr>
          </gpxtpx:TrackPointExtension>
        </extensions>
      </trkpt>
      <trkpt lat="38.83476505888852" lon="121.51091829202016">
        <ele>4.664218089543283</ele>
        <time>2026-08-16T00:28:34Z</time>
        <extensions>
          <gpxtpx:TrackPointExtension>
            <gpxtpx:hr>151</gpxtpx:hr>
          </gpxtpx:TrackPointExtension>
        </extensions>
      </trkpt>
      <trkpt lat="38.83478789142485" lon="121.5107351662494">
        <ele>7.862950722686946</ele>
        <time>2026-08-16T00:28:40Z</time>
        <extensions>
          <gpxtpx:TrackPointExtension>
            <gpxtpx:hr>151</gpxtpx:hr>
          </gpxtpx:TrackPointExtension>
        </extensions>
      </trkpt>
      <trkpt lat="38.834908589822966" lon="121.51047255189451">
        <ele>8.28715140093118</ele>
        <time>2026-08-16T00:28:49Z</time>
        <extensions>
          <gpxtpx:TrackPointExtension>
            <gpxtpx:hr>152</gpxtpx:hr>
          </gpxtpx:TrackPointExtension>
        </extensions>
      </trkpt>
      <trkpt lat="38.834971458960915" lon="121.51021035457826">
        <ele>7.044944781810045</ele>
        <time>2026-08-16T00:28:58Z</time>
        <extensions>
          <gpxtpx:TrackPointExtension>
            <gpxtpx:hr>151</gpxtpx:hr>
          </gpxtpx:TrackPointExtension>
        </extensions>
      </trkpt>
      <trkpt lat="38.8351157061342" lon="121.50985584223977">
        <ele>8.004254231229424</ele>
        <time>2026-08-16T00:29:10Z</time>
        <extensions>
          <gpxtpx:TrackPointExtension>
            <gpxtpx:hr>152</gpxtpx:hr>
          </gpxtpx:TrackPointExtension>
        </extensions>
      </trkpt>
      <trkpt lat="38.83518240071081" lon="121.50965980648837">
        <ele>7.537042370066047</ele>
        <time>2026-08-16T00:29:17Z</time>
        <extensions>
          <gpxtpx:TrackPointExtension>
            <gpxtpx:hr>152</gpxtpx:hr>
          </gpxtpx:TrackPointExtension>
        </extensions>
      </trkpt>
      <trkpt lat="38.83521955250697" lon="121.50939760538121">
        <ele>6.776701733469963</ele>
        <time>2026-08-16T00:29:38Z</time>
        <extensions>
          <gpxtpx:TrackPointExtension>
            <gpxtpx:hr>154</gpxtpx:hr>
          </gpxtpx:TrackPointExtension>
        </extensions>
      </trkpt>
      <trkpt lat="38.83528918485994" lon="121.50927293694953">
        <ele>6.594494936987758</ele>
        <time>2026-08-16T00:29:44Z</time>
        <extensions>
          <gpxtpx:TrackPointExtension>
            <gpxtpx:hr>154</gpxtpx:hr>
          </gpxtpx:TrackPointExtension>
        </extensions>
      </trkpt>
      <trkpt lat="38.83528601486004" lon="121.50919988832773">
        <ele>8.109993102028966</ele>
        <time>2026-08-16T00:29:47Z</time>
        <extensions>
          <gpxtpx:TrackPointExtension>
            <gpxtpx:hr>154</gpxtpx:hr>
          </gpxtpx:TrackPointExtension>
        </extensions>
      </trkpt>
      <trkpt lat="38.83541566521918" lon="121.50890516331228">
        <ele>8.806081794202328</ele>
        <time>2026-08-16T00:29:56Z</time>
        <extensions>
          <gpxtpx:TrackPointExtension>
            <gpxtpx:hr>146</gpxtpx:hr>
          </gpxtpx:TrackPointExtension>
        </extensions>
      </trkpt>
      <trkpt lat="38.835540143084074" lon="121.5085286862586">
        <ele>9.402309100143611</ele>
        <time>2026-08-16T00:30:08Z</time>
        <extensions>
          <gpxtpx:TrackPointExtension>
            <gpxtpx:hr>144</gpxtpx:hr>
          </gpxtpx:TrackPointExtension>
        </extensions>
      </trkpt>
      <trkpt lat="38.83567838636792" lon="121.5081568513822">
        <ele>9.883197544142604</ele>
        <time>2026-08-16T00:30:20Z</time>
        <extensions>
          <gpxtpx:TrackPointExtension>
            <gpxtpx:hr>144</gpxtpx:hr>
          </gpxtpx:TrackPointExtension>
        </extensions>
      </trkpt>
      <trkpt lat="38.8357565525698" lon="121.50797490940232">
        <ele>8.700439358130097</ele>
        <time>2026-08-16T00:30:26Z</time>
        <extensions>
          <gpxtpx:TrackPointExtension>
            <gpxtpx:hr>144</gpxtpx:hr>
          </gpxtpx:TrackPointExtension>
        </extensions>
      </trkpt>
      <trkpt lat="38.835819971484376" lon="121.50771339831364">
        <ele>9.420100392773747</ele>
        <time>2026-08-16T00:30:35Z</time>
      </trkpt>
      <trkpt lat="38.83594884480085" lon="121.50734069517462">
        <ele>9.703514317981899</ele>
        <time>2026-08-16T00:30:47Z</time>
        <extensions>
          <gpxtpx:TrackPointExtension>
            <gpxtpx:hr>155</gpxtpx:hr>
          </gpxtpx:TrackPointExtension>
        </extensions>
      </trkpt>
      <trkpt lat="38.836030330520536" lon="121.50706947444415">
        <ele>9.18323956336826</ele>
        <time>2026-08-16T00:30:56Z</time>
        <extensions>
          <gpxtpx:TrackPointExtension>
            <gpxtpx:hr>155</gpxtpx:hr>
          </gpxtpx:TrackPointExtension>
        </extensions>
      </trkpt>
      <trkpt lat="38.83607098366293" lon="121.50698064118806">
        <ele>9.25931884534657</ele>
        <time>2026-08-16T00:30:59Z</time>
        <extensions>
          <gpxtpx:TrackPointExtension>
            <gpxtpx:hr>155</gpxtpx:hr>
          </gpxtpx:TrackPointExtension>
        </extensions>
      </trkpt>
      <trkpt lat="38.83609243591877" lon="121.506925233942">
        <ele>9.27050163783133</ele>
        <time>2026-08-16T00:31:25Z</time>
        <extensions>
          <gpxtpx:TrackPointExtension>
            <gpxtpx:hr>149</gpxtpx:hr>
          </gpxtpx:TrackPointExtension>
        </extensions>
      </trkpt>
      <trkpt lat="38.836142045251876" lon="121.50687021084045">
        <ele>8.77768023032695</ele>
        <time>2026-08-16T00:31:29Z</time>
        <extensions>
          <gpxtpx:TrackPointExtension>
            <gpxtpx:hr>144</gpxtpx:hr>
          </gpxtpx:TrackPointExtension>
        </extensions>
      </trkpt>
      <trkpt lat="38.8361702394857" lon="121.50673221815214">
        <ele>8.682678048498929</ele>
        <time>2026-08-16T00:31:33Z</time>
        <extensions>
          <gpxtpx:TrackPointExtension>
            <gpxtpx:hr>144</gpxtpx:hr>
          </gpxtpx:TrackPointExtension>
        </extensions>
      </trkpt>
      <trkpt lat="38.83620757687009" lon="121.50663613249185">
        <ele>8.983256504870951</ele>
        <time>2026-08-16T00:31:37Z</time>
        <extensions>
          <gpxtpx:TrackPointExtension>
            <gpxtpx:hr>141</gpxtpx:hr>
          </gpxtpx:TrackPointExtension>
        </extensions>
      </trkpt>
      <trkpt lat="38.836234769752636" lon="121.50645677377622">
        <ele>8.708682080730796</ele>
        <time>2026-08-16T00:31:43Z</time>
        <extensions>
          <gpxtpx:TrackPointExtension>
            <gpxtpx:hr>141</gpxtpx:hr>
          </gpxtpx:TrackPointExtension>
        </extensions>
      </trkpt>
      <trkpt lat="38.83627521933983" lon="121.50639085541965">
        <ele>7.75640154723078</ele>
        <time>2026-08-16T00:31:46Z</time>
        <extensions>
          <gpxtpx:TrackPointExtension>
            <gpxtpx:hr>141</gpxtpx:hr>
          </gpxtpx:TrackPointExtension>
        </extensions>
      </trkpt>
      <trkpt lat="38.83632831359222" lon="121.5060722411052">
        <ele>8.763933226466179</ele>
        <time>2026-08-16T00:31:55Z</time>
        <extensions>
          <gpxtpx:TrackPointExtension>
            <gpxtpx:hr>141</gpxtpx:hr>
          </gpxtpx:TrackPointExtension>
        </extensions>
      </trkpt>
      <trkpt lat="38.836369780172376" lon="121.50599564995449">
        <ele>8.616178311407566</ele>
        <time>2026-08-16T00:31:58Z</time>
      </trkpt>
      <trkpt lat="38.83642078963547" lon="121.50581636739679">
        <ele>8.807491531595588</ele>
        <time>2026-08-16T00:32:04Z</time>
      </trkpt>
      <trkpt lat="38.836533825930815" lon="121.50556452266507">
        <ele>10.031431117095053</ele>
        <time>2026-08-16T00:32:13Z</time>
      </trkpt>
      <trkpt lat="38.8366137989454" lon="121.5052026465168">
        <ele>9.462495068088174</ele>
        <time>2026-08-16T00:32:25Z</time>
        <extensions>
          <gpxtpx:TrackPointExtension>
            <gpxtpx:hr>148</gpxtpx:hr>
          </gpxtpx:TrackPointExtension>
        </extensions>
      </trkpt>
      <trkpt lat="38.836725841978215" lon="121.50492489339102">
        <ele>9.811486234888434</ele>
        <time>2026-08-16T00:32:34Z</time>
        <extensions>
          <gpxtpx:TrackPointExtension>
            <gpxtpx:hr>148</gpxtpx:hr>
          </gpxtpx:TrackPointExtension>
        </extensions>
      </trkpt>
      <trkpt lat="38.83673434973767" lon="121.50482104453936">
        <ele>8.776092915795743</ele>
        <time>2026-08-16T00:32:40Z</time>
        <extensions>
          <gpxtpx:TrackPointExtension>
            <gpxtpx:hr>148</gpxtpx:hr>
          </gpxtpx:TrackPointExtension>
        </extensions>
      </trkpt>
    </trkseg>
  </trk>
</gpx>