<?xml version="1.0" encoding="UTF-8"?>
<gpx xmlns="http://www.topografix.com/GPX/1/1" xmlns:gpxtpx="http://www.garmin.com/xmlschemas/TrackPointExtension/v1" xmlns:xsi="http://www.w3.org/2001/XMLSchema-instance" xsi:schemaLocation="http://www.topografix.com/GPX/1/1 http://www.topografix.com/GPX/1/1/gpx.xsd" version="1.1" creator="gpx.py -- https://github.com/tkrajina/gpxpy">
  <trk>
    <name>gpx from keep</name>
    <type>Run</type>
    <trkseg>
      <trkpt lat="38.83321536482473" lon="121.50733331226952">
        <ele>4.044523713178933</ele>
        <time>2025-07-25T00:09:52Z</time>
      </trkpt>
      <trkpt lat="38.833198276435596" lon="121.5071694537311">
        <ele>4.089995094574988</ele>
        <time>2025-07-25T00:10:00Z</time>
      </trkpt>
      <trkpt lat="38.83305160352937" lon="121.50685692123277">
        <ele>3.6334494100883603</ele>
        <time>2025-07-25T00:10:15Z</time>
      </trkpt>
      <trkpt lat="38.83283005333234" lon="121.50662856390093">
        <ele>3.255179710686207</ele>
        <time>2025-07-25T00:10:31Z</time>
      </trkpt>
      <trkpt lat="38.83261395483829" lon="121.5065304606579">
        <ele>1.8643471961840987</ele>
        <time>2025-07-25T00:10:43Z</time>
      </trkpt>
      <trkpt lat="38.83248015972006" lon="121.5065269183329">
        <ele>1.9601210746914148</ele>
        <time>2025-07-25T00:10:51Z</time>
      </trkpt>
      <trkpt lat="38.8323383688508" lon="121.50646213817043">
        <ele>1.5089890118688345</ele>
        <time>2025-07-25T00:10:59Z</time>
      </trkpt>
      <trkpt lat="38.83221680016863" lon="121.50636016893891">
        <ele>1.7607021471485496</ele>
        <time>2025-07-25T00:11:07Z</time>
      </trkpt>
      <trkpt lat="38.83216952273627" lon="121.50628556630143">
        <ele>2.331261832267046</ele>
        <time>2025-07-25T00:11:11Z</time>
      </trkpt>
      <trkpt lat="38.83210734371935" lon="121.50622915546897">
        <ele>1.8600276643410325</ele>
        <time>2025-07-25T00:11:15Z</time>
      </trkpt>
      <trkpt lat="38.83197239291683" lon="121.50588277012241">
        <ele>3.478402005508542</ele>
        <time>2025-07-25T00:11:31Z</time>
      </trkpt>
      <trkpt lat="38.831822316025125" lon="121.50564959626215">
        <ele>3.564707765355706</ele>
        <time>2025-07-25T00:11:43Z</time>
      </trkpt>
      <trkpt lat="38.83155324096683" lon="121.5054401121626">
        <ele>2.8248654529452324</ele>
        <time>2025-07-25T00:11:59Z</time>
      </trkpt>
      <trkpt lat="38.83142053589061" lon="121.50537915171392">
        <ele>3.1005719788372517</ele>
        <time>2025-07-25T00:12:06Z</time>
      </trkpt>
      <trkpt lat="38.83111620269899" lon="121.50534685309137">
        <ele>2.865694986656308</ele>
        <time>2025-07-25T00:12:22Z</time>
      </trkpt>
      <trkpt lat="38.830956420934484" lon="121.50533474335187">
        <ele>2.5436650831252337</ele>
        <time>2025-07-25T00:12:30Z</time>
      </trkpt>
      <trkpt lat="38.83087842112445" lon="121.50531091276451">
        <ele>2.1136691104620695</ele>
        <time>2025-07-25T00:12:34Z</time>
      </trkpt>
      <trkpt lat="38.83080452283999" lon="121.50526337347134">
        <ele>1.8753930199891329</ele>
        <time>2025-07-25T00:12:38Z</time>
      </trkpt>
      <trkpt lat="38.83062337237882" lon="121.50507374428189">
        <ele>2.454437056556344</ele>
        <time>2025-07-25T00:12:50Z</time>
      </trkpt>
      <trkpt lat="38.83032008379222" lon="121.50490031550939">
        <ele>3.0058610774576664</ele>
        <time>2025-07-25T00:13:06Z</time>
      </trkpt>
      <trkpt lat="38.83008423070316" lon="121.50475979854323">
        <ele>2.6777977738529444</ele>
        <time>2025-07-25T00:13:18Z</time>
      </trkpt>
      <trkpt lat="38.83001957707665" lon="121.50468085843096">
        <ele>2.341742633841932</ele>
        <time>2025-07-25T00:13:22Z</time>
      </trkpt>
      <trkpt lat="38.82993253900533" lon="121.50463006423676">
        <ele>2.1291799498721957</ele>
        <time>2025-07-25T00:13:26Z</time>
      </trkpt>
      <trkpt lat="38.82972484612939" lon="121.50438021700863">
        <ele>2.531096674501896</ele>
        <time>2025-07-25T00:13:38Z</time>
      </trkpt>
      <trkpt lat="38.829473903419874" lon="121.50418333319061">
        <ele>0.949570338241756</ele>
        <time>2025-07-25T00:13:50Z</time>
      </trkpt>
      <trkpt lat="38.82921881280113" lon="121.50405432950701">
        <ele>2.2527347253635526</ele>
        <time>2025-07-25T00:14:02Z</time>
      </trkpt>
      <trkpt lat="38.82913139716347" lon="121.50403610941352">
        <ele>3.5881735645234585</ele>
        <time>2025-07-25T00:14:06Z</time>
      </trkpt>
      <trkpt lat="38.82898622344073" lon="121.5040783835777">
        <ele>2.2303099166601896</ele>
        <time>2025-07-25T00:14:13Z</time>
      </trkpt>
      <trkpt lat="38.82889995742397" lon="121.50404386339638">
        <ele>2.4335229489952326</ele>
        <time>2025-07-25T00:14:17Z</time>
      </trkpt>
      <trkpt lat="38.82873063213656" lon="121.50405292338291">
        <ele>1.5969616202637553</ele>
        <time>2025-07-25T00:14:25Z</time>
      </trkpt>
      <trkpt lat="38.828381354139566" lon="121.50409166464425">
        <ele>1.953055426478386</ele>
        <time>2025-07-25T00:14:41Z</time>
      </trkpt>
      <trkpt lat="38.82820646737722" lon="121.50403396563281">
        <ele>2.463763041421771</ele>
        <time>2025-07-25T00:14:49Z</time>
      </trkpt>
      <trkpt lat="38.82806930376657" lon="121.50390720514058">
        <ele>2.689319350756705</ele>
        <time>2025-07-25T00:14:57Z</time>
      </trkpt>
      <trkpt lat="38.82795846982085" lon="121.5037405285585">
        <ele>3.415666274726391</ele>
        <time>2025-07-25T00:15:05Z</time>
      </trkpt>
      <trkpt lat="38.82789157813801" lon="121.50354227729437">
        <ele>2.150377109646797</ele>
        <time>2025-07-25T00:15:13Z</time>
      </trkpt>
      <trkpt lat="38.82787161273242" lon="121.50343230736482">
        <ele>3.1130125150084496</ele>
        <time>2025-07-25T00:15:17Z</time>
      </trkpt>
      <trkpt lat="38.82782581117635" lon="121.50332826035118">
        <ele>3.0320797311142087</ele>
        <time>2025-07-25T00:15:21Z</time>
      </trkpt>
      <trkpt lat="38.827662573981314" lon="121.50319505133905">
        <ele>2.7571534560993314</ele>
        <time>2025-07-25T00:15:29Z</time>
      </trkpt>
      <trkpt lat="38.82760737138031" lon="121.50309767475179">
        <ele>2.621853788383305</ele>
        <time>2025-07-25T00:15:33Z</time>
      </trkpt>
      <trkpt lat="38.827346849021346" lon="121.50296593719588">
        <ele>3.5077175302430987</ele>
        <time>2025-07-25T00:15:45Z</time>
      </trkpt>
      <trkpt lat="38.8271740691" lon="121.50300251666856">
        <ele>3.3422932755202055</ele>
        <time>2025-07-25T00:15:53Z</time>
      </trkpt>
      <trkpt lat="38.826903235303405" lon="121.50329939430857">
        <ele>3.69176893401891</ele>
        <time>2025-07-25T00:16:09Z</time>
      </trkpt>
      <trkpt lat="38.82675959780429" lon="121.50343827106201">
        <ele>3.9186784848570824</ele>
        <time>2025-07-25T00:16:17Z</time>
      </trkpt>
      <trkpt lat="38.82664841577643" lon="121.50363283646422">
        <ele>3.616943740285933</ele>
        <time>2025-07-25T00:16:25Z</time>
      </trkpt>
      <trkpt lat="38.826581336088" lon="121.50383630293994">
        <ele>2.984484019689262</ele>
        <time>2025-07-25T00:16:33Z</time>
      </trkpt>
      <trkpt lat="38.82656405749779" lon="121.50428405018341">
        <ele>1.7412419905886054</ele>
        <time>2025-07-25T00:16:49Z</time>
      </trkpt>
      <trkpt lat="38.82656397922552" lon="121.50439408240953">
        <ele>2.100625429302454</ele>
        <time>2025-07-25T00:16:53Z</time>
      </trkpt>
      <trkpt lat="38.82654240683896" lon="121.50450572665653">
        <ele>2.468028672039509</ele>
        <time>2025-07-25T00:16:57Z</time>
      </trkpt>
      <trkpt lat="38.826488326071804" lon="121.50460966928766">
        <ele>1.9186226027086377</ele>
        <time>2025-07-25T00:17:01Z</time>
      </trkpt>
      <trkpt lat="38.82645584025827" lon="121.5047137463367">
        <ele>1.6893157325685024</ele>
        <time>2025-07-25T00:17:05Z</time>
      </trkpt>
      <trkpt lat="38.826405925804806" lon="121.50480546870459">
        <ele>1.9580526212230325</ele>
        <time>2025-07-25T00:17:09Z</time>
      </trkpt>
      <trkpt lat="38.826344283614894" lon="121.5048726699148">
        <ele>2.201381710357964</ele>
        <time>2025-07-25T00:17:13Z</time>
      </trkpt>
      <trkpt lat="38.82627430979546" lon="121.50490451247933">
        <ele>2.3949802611023188</ele>
        <time>2025-07-25T00:17:17Z</time>
      </trkpt>
      <trkpt lat="38.8264089077302" lon="121.50473196825357">
        <ele>2.1390722366049886</ele>
        <time>2025-07-25T00:17:28Z</time>
      </trkpt>
      <trkpt lat="38.82652647711028" lon="121.50443891082267">
        <ele>2.437794592231512</ele>
        <time>2025-07-25T00:17:40Z</time>
      </trkpt>
      <trkpt lat="38.8265862294712" lon="121.50421502901">
        <ele>2.3115546153858304</ele>
        <time>2025-07-25T00:17:48Z</time>
      </trkpt>
      <trkpt lat="38.8266147371584" lon="121.50386846263149">
        <ele>3.0750049902126193</ele>
        <time>2025-07-25T00:18:00Z</time>
      </trkpt>
      <trkpt lat="38.82664372613491" lon="121.50376304742153">
        <ele>2.6450827838853</ele>
        <time>2025-07-25T00:18:04Z</time>
      </trkpt>
      <trkpt lat="38.82673975176127" lon="121.50357986637823">
        <ele>2.6637755762785673</ele>
        <time>2025-07-25T00:18:12Z</time>
      </trkpt>
      <trkpt lat="38.826922791914406" lon="121.50332372541487">
        <ele>2.3684182493016124</ele>
        <time>2025-07-25T00:18:24Z</time>
      </trkpt>
      <trkpt lat="38.82713765122285" lon="121.50308262490451">
        <ele>2.7668058685958385</ele>
        <time>2025-07-25T00:18:36Z</time>
      </trkpt>
      <trkpt lat="38.827220596884814" lon="121.50303554031022">
        <ele>2.933028621599078</ele>
        <time>2025-07-25T00:18:40Z</time>
      </trkpt>
      <trkpt lat="38.82740244839785" lon="121.50300747135584">
        <ele>2.2651803186163306</ele>
        <time>2025-07-25T00:18:48Z</time>
      </trkpt>
      <trkpt lat="38.82748762353924" lon="121.50301273365598">
        <ele>2.8201458137482405</ele>
        <time>2025-07-25T00:18:52Z</time>
      </trkpt>
      <trkpt lat="38.827573015270765" lon="121.50306648848792">
        <ele>2.0496531073004007</ele>
        <time>2025-07-25T00:18:56Z</time>
      </trkpt>
      <trkpt lat="38.82764449508916" lon="121.50314479402822">
        <ele>2.5955251893028617</ele>
        <time>2025-07-25T00:19:00Z</time>
      </trkpt>
      <trkpt lat="38.82780839528296" lon="121.50323200720396">
        <ele>2.0708908354863524</ele>
        <time>2025-07-25T00:19:08Z</time>
      </trkpt>
      <trkpt lat="38.827924069939925" lon="121.50357745501128">
        <ele>1.6420879792422056</ele>
        <time>2025-07-25T00:19:20Z</time>
      </trkpt>
      <trkpt lat="38.828073861885336" lon="121.50388111723342">
        <ele>2.2389213629066944</ele>
        <time>2025-07-25T00:19:32Z</time>
      </trkpt>
      <trkpt lat="38.82815169372859" lon="121.50395981597285">
        <ele>2.170992930419743</ele>
        <time>2025-07-25T00:19:36Z</time>
      </trkpt>
      <trkpt lat="38.82831149839428" lon="121.5040440626093">
        <ele>2.0973004698753357</ele>
        <time>2025-07-25T00:19:44Z</time>
      </trkpt>
      <trkpt lat="38.82840189241672" lon="121.50407125928201">
        <ele>2.5563989682123065</ele>
        <time>2025-07-25T00:19:48Z</time>
      </trkpt>
      <trkpt lat="38.82858511054503" lon="121.50406892771728">
        <ele>2.3075943617150187</ele>
        <time>2025-07-25T00:19:56Z</time>
      </trkpt>
      <trkpt lat="38.828762662607296" lon="121.50403406747616">
        <ele>2.4236802561208606</ele>
        <time>2025-07-25T00:20:04Z</time>
      </trkpt>
      <trkpt lat="38.82884103909577" lon="121.50399180211288">
        <ele>2.640002160333097</ele>
        <time>2025-07-25T00:20:08Z</time>
      </trkpt>
      <trkpt lat="38.82893462236109" lon="121.50398125333808">
        <ele>2.287215705960989</ele>
        <time>2025-07-25T00:20:12Z</time>
      </trkpt>
      <trkpt lat="38.82902543063447" lon="121.50402119332901">
        <ele>2.8139800541102886</ele>
        <time>2025-07-25T00:20:16Z</time>
      </trkpt>
      <trkpt lat="38.82920857417437" lon="121.50405366120825">
        <ele>2.8007032508030534</ele>
        <time>2025-07-25T00:20:24Z</time>
      </trkpt>
      <trkpt lat="38.82939067981425" lon="121.5041309626311">
        <ele>2.751548994332552</ele>
        <time>2025-07-25T00:20:32Z</time>
      </trkpt>
      <trkpt lat="38.829703266186506" lon="121.50436417144435">
        <ele>2.1173165161162615</ele>
        <time>2025-07-25T00:20:48Z</time>
      </trkpt>
      <trkpt lat="38.82991607680508" lon="121.50460636830154">
        <ele>2.16049322206527</ele>
        <time>2025-07-25T00:21:00Z</time>
      </trkpt>
      <trkpt lat="38.829996338467424" lon="121.50468349933034">
        <ele>2.665406968444586</ele>
        <time>2025-07-25T00:21:04Z</time>
      </trkpt>
      <trkpt lat="38.8302591066886" lon="121.50481745147411">
        <ele>2.2069432949647307</ele>
        <time>2025-07-25T00:21:16Z</time>
      </trkpt>
      <trkpt lat="38.830519085124486" lon="121.50497960869662">
        <ele>3.1807184433564544</ele>
        <time>2025-07-25T00:21:28Z</time>
      </trkpt>
      <trkpt lat="38.83074883337323" lon="121.50519756069613">
        <ele>2.9674861459061503</ele>
        <time>2025-07-25T00:21:40Z</time>
      </trkpt>
      <trkpt lat="38.83083513120444" lon="121.50525147785665">
        <ele>3.027279923669994</ele>
        <time>2025-07-25T00:21:44Z</time>
      </trkpt>
      <trkpt lat="38.831031545858195" lon="121.5052935254281">
        <ele>3.128644566051662</ele>
        <time>2025-07-25T00:21:52Z</time>
      </trkpt>
      <trkpt lat="38.83131752149526" lon="121.50528648281644">
        <ele>2.870934677310288</ele>
        <time>2025-07-25T00:22:04Z</time>
      </trkpt>
      <trkpt lat="38.83149410209473" lon="121.50533858245048">
        <ele>2.580762124620378</ele>
        <time>2025-07-25T00:22:12Z</time>
      </trkpt>
      <trkpt lat="38.83174834356788" lon="121.50551587226927">
        <ele>2.6786866150796413</ele>
        <time>2025-07-25T00:22:24Z</time>
      </trkpt>
      <trkpt lat="38.83188100723257" lon="121.50570918442571">
        <ele>4.118642326444387</ele>
        <time>2025-07-25T00:22:32Z</time>
      </trkpt>
      <trkpt lat="38.83199850751847" lon="121.5060363676598">
        <ele>3.0770671600475907</ele>
        <time>2025-07-25T00:22:44Z</time>
      </trkpt>
      <trkpt lat="38.83216695586154" lon="121.50632089314774">
        <ele>2.6143405633047223</ele>
        <time>2025-07-25T00:22:56Z</time>
      </trkpt>
      <trkpt lat="38.832323818754595" lon="121.50646090186332">
        <ele>2.819660953246057</ele>
        <time>2025-07-25T00:23:04Z</time>
      </trkpt>
      <trkpt lat="38.83259756337007" lon="121.50653756287927">
        <ele>3.079862424172461</ele>
        <time>2025-07-25T00:23:16Z</time>
      </trkpt>
      <trkpt lat="38.832780024824274" lon="121.50659983477095">
        <ele>2.3164449371397495</ele>
        <time>2025-07-25T00:23:24Z</time>
      </trkpt>
      <trkpt lat="38.832938654196326" lon="121.50672842313982">
        <ele>1.6956295985728502</ele>
        <time>2025-07-25T00:23:32Z</time>
      </trkpt>
      <trkpt lat="38.83307979583793" lon="121.50692309473925">
        <ele>3.0091728549450636</ele>
        <time>2025-07-25T00:23:40Z</time>
      </trkpt>
      <trkpt lat="38.8332087362255" lon="121.5072461783942">
        <ele>3.271770109422505</ele>
        <time>2025-07-25T00:23:52Z</time>
      </trkpt>
      <trkpt lat="38.83322465354399" lon="121.50736907245387">
        <ele>3.8431789577007294</ele>
        <time>2025-07-25T00:23:56Z</time>
      </trkpt>
      <trkpt lat="38.83321824379295" lon="121.50748978841087">
        <ele>3.3941569570451975</ele>
        <time>2025-07-25T00:24:00Z</time>
      </trkpt>
      <trkpt lat="38.83309071174061" lon="121.50780711382625">
        <ele>4.925428941845894</ele>
        <time>2025-07-25T00:24:12Z</time>
      </trkpt>
      <trkpt lat="38.833015919202175" lon="121.5081190250814">
        <ele>3.0960759120061994</ele>
        <time>2025-07-25T00:24:24Z</time>
      </trkpt>
      <trkpt lat="38.832919680044405" lon="121.508315350921">
        <ele>3.6764205265790224</ele>
        <time>2025-07-25T00:24:32Z</time>
      </trkpt>
      <trkpt lat="38.83284723442202" lon="121.50840250620588">
        <ele>2.8396268654614687</ele>
        <time>2025-07-25T00:24:36Z</time>
      </trkpt>
      <trkpt lat="38.832679710566076" lon="121.50852128977407">
        <ele>1.4367216108366847</ele>
        <time>2025-07-25T00:24:44Z</time>
      </trkpt>
      <trkpt lat="38.832501283691805" lon="121.50858487275853">
        <ele>3.043932633474469</ele>
        <time>2025-07-25T00:24:52Z</time>
      </trkpt>
      <trkpt lat="38.832320024626405" lon="121.50857112621424">
        <ele>-0.8952614879235625</ele>
        <time>2025-07-25T00:25:00Z</time>
      </trkpt>
      <trkpt lat="38.832127382660474" lon="121.50850425097386">
        <ele>0.38633451890200377</ele>
        <time>2025-07-25T00:25:08Z</time>
      </trkpt>
      <trkpt lat="38.83196027967963" lon="121.5083451572155">
        <ele>2.4437227016314864</ele>
        <time>2025-07-25T00:25:16Z</time>
      </trkpt>
      <trkpt lat="38.83189621285824" lon="121.50825664445507">
        <ele>1.5597331328317523</ele>
        <time>2025-07-25T00:25:20Z</time>
      </trkpt>
      <trkpt lat="38.831751151159274" lon="121.5079629959398">
        <ele>1.9680230570957065</ele>
        <time>2025-07-25T00:25:32Z</time>
      </trkpt>
      <trkpt lat="38.83161621310685" lon="121.50782428124874">
        <ele>1.2581719132140279</ele>
        <time>2025-07-25T00:25:40Z</time>
      </trkpt>
      <trkpt lat="38.83144597501795" lon="121.50770802518812">
        <ele>2.0004592863842845</ele>
        <time>2025-07-25T00:25:48Z</time>
      </trkpt>
      <trkpt lat="38.83135743489939" lon="121.50767635207714">
        <ele>2.11061710678041</ele>
        <time>2025-07-25T00:25:52Z</time>
      </trkpt>
      <trkpt lat="38.83107577912662" lon="121.50769107385433">
        <ele>1.482089619152248</ele>
        <time>2025-07-25T00:26:04Z</time>
      </trkpt>
      <trkpt lat="38.830880545020655" lon="121.5076689279833">
        <ele>2.3633680809289217</ele>
        <time>2025-07-25T00:26:12Z</time>
      </trkpt>
      <trkpt lat="38.83069628719703" lon="121.50759186968037">
        <ele>2.6665034610778093</ele>
        <time>2025-07-25T00:26:20Z</time>
      </trkpt>
      <trkpt lat="38.83045547678572" lon="121.50738289207952">
        <ele>2.162007718347013</ele>
        <time>2025-07-25T00:26:32Z</time>
      </trkpt>
      <trkpt lat="38.83034012686925" lon="121.50718907735893">
        <ele>2.351314972154796</ele>
        <time>2025-07-25T00:26:40Z</time>
      </trkpt>
      <trkpt lat="38.830223362019325" lon="121.50686446678326">
        <ele>2.398768479935825</ele>
        <time>2025-07-25T00:26:52Z</time>
      </trkpt>
      <trkpt lat="38.83016001952319" lon="121.50676424131517">
        <ele>2.6232034005224705</ele>
        <time>2025-07-25T00:26:56Z</time>
      </trkpt>
      <trkpt lat="38.829853482516484" lon="121.50653766689955">
        <ele>1.2750909607857466</ele>
        <time>2025-07-25T00:27:12Z</time>
      </trkpt>
      <trkpt lat="38.82969377458549" lon="121.50642486345181">
        <ele>2.593407804146409</ele>
        <time>2025-07-25T00:27:20Z</time>
      </trkpt>
      <trkpt lat="38.829490256923094" lon="121.50617443054101">
        <ele>2.1215529423207045</ele>
        <time>2025-07-25T00:27:32Z</time>
      </trkpt>
      <trkpt lat="38.829338438565" lon="121.5060241090219">
        <ele>3.1071243826299906</ele>
        <time>2025-07-25T00:27:40Z</time>
      </trkpt>
      <trkpt lat="38.8290810133707" lon="121.50592961885056">
        <ele>1.408209259621799</ele>
        <time>2025-07-25T00:27:52Z</time>
      </trkpt>
      <trkpt lat="38.82899195418166" lon="121.50591835751233">
        <ele>2.9817490093410015</ele>
        <time>2025-07-25T00:27:56Z</time>
      </trkpt>
      <trkpt lat="38.82873576311305" lon="121.50600949360788">
        <ele>2.2039785981178284</ele>
        <time>2025-07-25T00:28:08Z</time>
      </trkpt>
      <trkpt lat="38.82859250932175" lon="121.50612696188065">
        <ele>2.047374103218317</ele>
        <time>2025-07-25T00:28:16Z</time>
      </trkpt>
      <trkpt lat="38.82848225289567" lon="121.50631066198466">
        <ele>1.7044191462919116</ele>
        <time>2025-07-25T00:28:24Z</time>
      </trkpt>
      <trkpt lat="38.82843304967937" lon="121.50642299599556">
        <ele>1.4728100765496492</ele>
        <time>2025-07-25T00:28:28Z</time>
      </trkpt>
      <trkpt lat="38.8283961377947" lon="121.50665344198687">
        <ele>1.9527411935850978</ele>
        <time>2025-07-25T00:28:36Z</time>
      </trkpt>
      <trkpt lat="38.82836414143836" lon="121.50700422500648">
        <ele>1.7644628072157502</ele>
        <time>2025-07-25T00:28:48Z</time>
      </trkpt>
      <trkpt lat="38.82836855091114" lon="121.50708938960781">
        <ele>0.2736151423305273</ele>
        <time>2025-07-25T00:28:52Z</time>
      </trkpt>
      <trkpt lat="38.82833122747516" lon="121.50727671533875">
        <ele>0.8608632683753967</ele>
        <time>2025-07-25T00:29:00Z</time>
      </trkpt>
      <trkpt lat="38.828208379089524" lon="121.50753528534321">
        <ele>2.0612134197726846</ele>
        <time>2025-07-25T00:29:08Z</time>
      </trkpt>
      <trkpt lat="38.828140286567944" lon="121.50762897705194">
        <ele>2.723564193584025</ele>
        <time>2025-07-25T00:29:12Z</time>
      </trkpt>
      <trkpt lat="38.827856294744144" lon="121.50786912667512">
        <ele>2.5932078259065747</ele>
        <time>2025-07-25T00:29:24Z</time>
      </trkpt>
      <trkpt lat="38.82776235321601" lon="121.50793133434993">
        <ele>3.0597395384684205</ele>
        <time>2025-07-25T00:29:28Z</time>
      </trkpt>
      <trkpt lat="38.82748394671009" lon="121.5080106295373">
        <ele>1.0377476997673512</ele>
        <time>2025-07-25T00:29:40Z</time>
      </trkpt>
      <trkpt lat="38.827387591276434" lon="121.50802356142911">
        <ele>2.9833189249038696</ele>
        <time>2025-07-25T00:29:44Z</time>
      </trkpt>
      <trkpt lat="38.82721322387271" lon="121.50808564726427">
        <ele>0.6849534967914224</ele>
        <time>2025-07-25T00:29:52Z</time>
      </trkpt>
      <trkpt lat="38.82705058264567" lon="121.50818991458037">
        <ele>0.887046106159687</ele>
        <time>2025-07-25T00:30:00Z</time>
      </trkpt>
      <trkpt lat="38.82694166687086" lon="121.50832038141648">
        <ele>0.4562105434015393</ele>
        <time>2025-07-25T00:30:08Z</time>
      </trkpt>
      <trkpt lat="38.82692573289162" lon="121.5083846981192">
        <ele>0.2553221760317683</ele>
        <time>2025-07-25T00:30:12Z</time>
      </trkpt>
      <trkpt lat="38.82692573289162" lon="121.5083846981192">
        <ele>0.2553221760317683</ele>
        <time>2025-07-25T00:30:16Z</time>
      </trkpt>
    </trkseg>
  </trk>
</gpx>