<?xml version="1.0" encoding="UTF-8"?>
<gpx xmlns="http://www.topografix.com/GPX/1/1" xmlns:gpxtpx="http://www.garmin.com/xmlschemas/TrackPointExtension/v1" xmlns:xsi="http://www.w3.org/2001/XMLSchema-instance" xsi:schemaLocation="http://www.topografix.com/GPX/1/1 http://www.topografix.com/GPX/1/1/gpx.xsd" version="1.1" creator="gpx.py -- https://github.com/tkrajina/gpxpy">
  <trk>
    <name>gpx from keep</name>
    <type>Run</type>
    <trkseg>
      <trkpt lat="38.8376846207447" lon="121.50562537126889">
        <ele>10.657591800572305</ele>
        <time>2025-12-17T23:47:17Z</time>
      </trkpt>
      <trkpt lat="38.837626537144615" lon="121.50561403266154">
        <ele>10.008349511772394</ele>
        <time>2025-12-17T23:47:31Z</time>
      </trkpt>
      <trkpt lat="38.83754759244295" lon="121.50572240625273">
        <ele>10.060314666479826</ele>
        <time>2025-12-17T23:47:35Z</time>
      </trkpt>
      <trkpt lat="38.83738606217388" lon="121.5060148073179">
        <ele>10.208271199837327</ele>
        <time>2025-12-17T23:47:47Z</time>
      </trkpt>
      <trkpt lat="38.83727173539802" lon="121.50622261772163">
        <ele>10.18264587316662</ele>
        <time>2025-12-17T23:47:59Z</time>
      </trkpt>
      <trkpt lat="38.837258723700835" lon="121.50643037727266">
        <ele>10.952425122261047</ele>
        <time>2025-12-17T23:48:07Z</time>
      </trkpt>
      <trkpt lat="38.8370641793595" lon="121.50673689109563">
        <ele>9.847254008986056</ele>
        <time>2025-12-17T23:48:22Z</time>
      </trkpt>
      <trkpt lat="38.83704260064998" lon="121.50680736456414">
        <ele>10.127055161632597</ele>
        <time>2025-12-17T23:48:25Z</time>
      </trkpt>
      <trkpt lat="38.83685078902125" lon="121.50711134141262">
        <ele>9.757554572075605</ele>
        <time>2025-12-17T23:48:40Z</time>
      </trkpt>
      <trkpt lat="38.83681633850912" lon="121.50718058830255">
        <ele>9.513825310394168</ele>
        <time>2025-12-17T23:48:43Z</time>
      </trkpt>
      <trkpt lat="38.83675564223675" lon="121.50721428868533">
        <ele>9.330699611455202</ele>
        <time>2025-12-17T23:48:46Z</time>
      </trkpt>
      <trkpt lat="38.83668578494639" lon="121.50719499723944">
        <ele>8.685879120603204</ele>
        <time>2025-12-17T23:48:49Z</time>
      </trkpt>
      <trkpt lat="38.83641464028843" lon="121.50699073328177">
        <ele>8.912345073185861</ele>
        <time>2025-12-17T23:49:04Z</time>
      </trkpt>
      <trkpt lat="38.836151710451645" lon="121.50678527273715">
        <ele>9.945760500617325</ele>
        <time>2025-12-17T23:49:22Z</time>
      </trkpt>
      <trkpt lat="38.83610516781217" lon="121.50693072829172">
        <ele>7.921775666996837</ele>
        <time>2025-12-17T23:49:53Z</time>
      </trkpt>
      <trkpt lat="38.83601162666908" lon="121.50710098977943">
        <ele>8.224194682203233</ele>
        <time>2025-12-17T23:50:01Z</time>
      </trkpt>
      <trkpt lat="38.83593248990488" lon="121.50743407303965">
        <ele>8.349230349995196</ele>
        <time>2025-12-17T23:50:14Z</time>
      </trkpt>
      <trkpt lat="38.83581086304648" lon="121.50775581811017">
        <ele>8.923046342097223</ele>
        <time>2025-12-17T23:50:27Z</time>
      </trkpt>
      <trkpt lat="38.83568788829352" lon="121.50814507600971">
        <ele>9.366977484896779</ele>
        <time>2025-12-17T23:50:42Z</time>
      </trkpt>
      <trkpt lat="38.83556025425125" lon="121.5085142728032">
        <ele>9.52177058532834</ele>
        <time>2025-12-17T23:50:57Z</time>
      </trkpt>
      <trkpt lat="38.83542675736022" lon="121.50887633796187">
        <ele>9.801065938547254</ele>
        <time>2025-12-17T23:51:12Z</time>
      </trkpt>
      <trkpt lat="38.8353805122295" lon="121.50902908816937">
        <ele>9.417244578711689</ele>
        <time>2025-12-17T23:51:18Z</time>
      </trkpt>
      <trkpt lat="38.83534030836531" lon="121.50910329286216">
        <ele>9.575979652814567</ele>
        <time>2025-12-17T23:51:21Z</time>
      </trkpt>
      <trkpt lat="38.835303730805016" lon="121.50924732239885">
        <ele>8.811486122198403</ele>
        <time>2025-12-17T23:51:27Z</time>
      </trkpt>
      <trkpt lat="38.83530775647907" lon="121.50941116807698">
        <ele>8.428252295590937</ele>
        <time>2025-12-17T23:51:37Z</time>
      </trkpt>
      <trkpt lat="38.83545657663088" lon="121.50955507441972">
        <ele>8.432052180171013</ele>
        <time>2025-12-17T23:51:45Z</time>
      </trkpt>
      <trkpt lat="38.83553991184927" lon="121.50959217203794">
        <ele>8.634207643568516</ele>
        <time>2025-12-17T23:51:49Z</time>
      </trkpt>
      <trkpt lat="38.83565875321023" lon="121.5097302560135">
        <ele>9.146885270252824</ele>
        <time>2025-12-17T23:51:57Z</time>
      </trkpt>
      <trkpt lat="38.83572731116601" lon="121.50977714961716">
        <ele>8.61242464184761</ele>
        <time>2025-12-17T23:52:01Z</time>
      </trkpt>
      <trkpt lat="38.83584045692426" lon="121.50990182278547">
        <ele>8.314193698577583</ele>
        <time>2025-12-17T23:52:08Z</time>
      </trkpt>
      <trkpt lat="38.836000831614086" lon="121.5100463371949">
        <ele>7.90398273896426</ele>
        <time>2025-12-17T23:52:17Z</time>
      </trkpt>
      <trkpt lat="38.836001245060636" lon="121.51013395102098">
        <ele>7.493746650405228</ele>
        <time>2025-12-17T23:52:20Z</time>
      </trkpt>
      <trkpt lat="38.83609823799847" lon="121.51020559855542">
        <ele>7.038677137345076</ele>
        <time>2025-12-17T23:52:26Z</time>
      </trkpt>
      <trkpt lat="38.836194201263275" lon="121.51039136586094">
        <ele>7.828508680686355</ele>
        <time>2025-12-17T23:52:35Z</time>
      </trkpt>
      <trkpt lat="38.83623262203412" lon="121.51054464874635">
        <ele>7.351551402360201</ele>
        <time>2025-12-17T23:52:41Z</time>
      </trkpt>
      <trkpt lat="38.83621116993945" lon="121.51078454426613">
        <ele>6.684465657919645</ele>
        <time>2025-12-17T23:52:50Z</time>
      </trkpt>
      <trkpt lat="38.836050296450324" lon="121.51111572547711">
        <ele>5.967154097743332</ele>
        <time>2025-12-17T23:53:05Z</time>
      </trkpt>
      <trkpt lat="38.83596127886676" lon="121.51141185413087">
        <ele>7.23655254766345</ele>
        <time>2025-12-17T23:53:17Z</time>
      </trkpt>
      <trkpt lat="38.835979150192465" lon="121.51161374566601">
        <ele>6.642546816729009</ele>
        <time>2025-12-17T23:53:26Z</time>
      </trkpt>
      <trkpt lat="38.83605699850696" lon="121.51180947025306">
        <ele>6.532395511865616</ele>
        <time>2025-12-17T23:53:35Z</time>
      </trkpt>
      <trkpt lat="38.83609478426409" lon="121.51186241823812">
        <ele>5.879058244638145</ele>
        <time>2025-12-17T23:53:38Z</time>
      </trkpt>
      <trkpt lat="38.83621699519605" lon="121.51193777505925">
        <ele>6.777618884108961</ele>
        <time>2025-12-17T23:53:45Z</time>
      </trkpt>
      <trkpt lat="38.836362751455816" lon="121.51193201834253">
        <ele>6.810319671407342</ele>
        <time>2025-12-17T23:53:53Z</time>
      </trkpt>
      <trkpt lat="38.836584429157924" lon="121.51183055778063">
        <ele>7.432966611348093</ele>
        <time>2025-12-17T23:54:05Z</time>
      </trkpt>
      <trkpt lat="38.836793630783745" lon="121.51157087566239">
        <ele>7.743886381387711</ele>
        <time>2025-12-17T23:54:20Z</time>
      </trkpt>
      <trkpt lat="38.83693571322001" lon="121.51132426923766">
        <ele>7.668828709051013</ele>
        <time>2025-12-17T23:54:32Z</time>
      </trkpt>
      <trkpt lat="38.837016074465986" lon="121.51111157526336">
        <ele>7.709967392496765</ele>
        <time>2025-12-17T23:54:41Z</time>
      </trkpt>
      <trkpt lat="38.837040419988035" lon="121.51094636969333">
        <ele>8.025637266226113</ele>
        <time>2025-12-17T23:54:47Z</time>
      </trkpt>
      <trkpt lat="38.83720850300911" lon="121.5106029358928">
        <ele>8.451619160361588</ele>
        <time>2025-12-17T23:55:02Z</time>
      </trkpt>
      <trkpt lat="38.83743754342437" lon="121.5103224479496">
        <ele>9.501824122853577</ele>
        <time>2025-12-17T23:55:17Z</time>
      </trkpt>
      <trkpt lat="38.8376873507441" lon="121.51010598799">
        <ele>9.684825016185641</ele>
        <time>2025-12-17T23:55:32Z</time>
      </trkpt>
      <trkpt lat="38.83772113190496" lon="121.51003571882941">
        <ele>9.992150818929076</ele>
        <time>2025-12-17T23:55:35Z</time>
      </trkpt>
      <trkpt lat="38.83773648251572" lon="121.50995777603876">
        <ele>9.702198050916195</ele>
        <time>2025-12-17T23:55:38Z</time>
      </trkpt>
      <trkpt lat="38.837850632442446" lon="121.50990418768394">
        <ele>9.761100456118584</ele>
        <time>2025-12-17T23:55:44Z</time>
      </trkpt>
      <trkpt lat="38.837921274933045" lon="121.50971163821305">
        <ele>10.383731306530535</ele>
        <time>2025-12-17T23:55:52Z</time>
      </trkpt>
      <trkpt lat="38.837978924946775" lon="121.50943255265263">
        <ele>10.791772777214646</ele>
        <time>2025-12-17T23:56:04Z</time>
      </trkpt>
      <trkpt lat="38.83801072433149" lon="121.50936980243993">
        <ele>10.385796869173646</ele>
        <time>2025-12-17T23:56:07Z</time>
      </trkpt>
      <trkpt lat="38.83826449635594" lon="121.50915164573433">
        <ele>10.882587384432554</ele>
        <time>2025-12-17T23:56:22Z</time>
      </trkpt>
      <trkpt lat="38.838276125645905" lon="121.50906912591384">
        <ele>11.392254043370485</ele>
        <time>2025-12-17T23:56:25Z</time>
      </trkpt>
      <trkpt lat="38.83818207827956" lon="121.50897514571528">
        <ele>11.900870490819216</ele>
        <time>2025-12-17T23:56:31Z</time>
      </trkpt>
      <trkpt lat="38.83794596354213" lon="121.50883116814647">
        <ele>11.974925465881824</ele>
        <time>2025-12-17T23:56:49Z</time>
      </trkpt>
      <trkpt lat="38.83774314349796" lon="121.50855676565195">
        <ele>10.458696043118834</ele>
        <time>2025-12-17T23:57:04Z</time>
      </trkpt>
      <trkpt lat="38.837690947724845" lon="121.50851461138735">
        <ele>11.27497433964163</ele>
        <time>2025-12-17T23:57:07Z</time>
      </trkpt>
      <trkpt lat="38.83758986762584" lon="121.50831369960825">
        <ele>10.163353991694748</ele>
        <time>2025-12-17T23:57:16Z</time>
      </trkpt>
      <trkpt lat="38.83743231958451" lon="121.50817366601851">
        <ele>9.978292557410896</ele>
        <time>2025-12-17T23:57:25Z</time>
      </trkpt>
      <trkpt lat="38.83731056487909" lon="121.50809948539172">
        <ele>10.60916137136519</ele>
        <time>2025-12-17T23:57:31Z</time>
      </trkpt>
      <trkpt lat="38.837177787581716" lon="121.50793613146604">
        <ele>10.60324857570231</ele>
        <time>2025-12-17T23:57:40Z</time>
      </trkpt>
      <trkpt lat="38.83693650700274" lon="121.50772777124938">
        <ele>11.124344007112086</ele>
        <time>2025-12-17T23:57:53Z</time>
      </trkpt>
      <trkpt lat="38.83668472223261" lon="121.50746091509282">
        <ele>9.922872481867671</ele>
        <time>2025-12-17T23:58:16Z</time>
      </trkpt>
      <trkpt lat="38.83644034378069" lon="121.50725429621953">
        <ele>9.443541964516044</ele>
        <time>2025-12-17T23:58:31Z</time>
      </trkpt>
      <trkpt lat="38.83615797874906" lon="121.50706728187625">
        <ele>8.496420392766595</ele>
        <time>2025-12-17T23:58:46Z</time>
      </trkpt>
      <trkpt lat="38.83607204146651" lon="121.50698439835311">
        <ele>8.180680415593088</ele>
        <time>2025-12-17T23:58:55Z</time>
      </trkpt>
      <trkpt lat="38.83610817567693" lon="121.50693754527856">
        <ele>8.01921592373401</ele>
        <time>2025-12-17T23:59:37Z</time>
      </trkpt>
      <trkpt lat="38.83612530028953" lon="121.50685115107386">
        <ele>9.342167899012566</ele>
        <time>2025-12-17T23:59:43Z</time>
      </trkpt>
      <trkpt lat="38.836163616607834" lon="121.5068087600522">
        <ele>7.647544790990651</ele>
        <time>2025-12-17T23:59:46Z</time>
      </trkpt>
      <trkpt lat="38.83618620754088" lon="121.50674848407009">
        <ele>7.73445360828191</ele>
        <time>2025-12-17T23:59:49Z</time>
      </trkpt>
      <trkpt lat="38.83615765726442" lon="121.50666888515045">
        <ele>8.47000771574676</ele>
        <time>2025-12-17T23:59:55Z</time>
      </trkpt>
      <trkpt lat="38.836200990890504" lon="121.50662048980307">
        <ele>7.4570740647614</ele>
        <time>2025-12-17T23:59:59Z</time>
      </trkpt>
      <trkpt lat="38.83631792178812" lon="121.50623063067101">
        <ele>9.277508144266903</ele>
        <time>2025-12-18T00:00:15Z</time>
      </trkpt>
      <trkpt lat="38.83642850638903" lon="121.50586537333794">
        <ele>10.334916599094868</ele>
        <time>2025-12-18T00:00:30Z</time>
      </trkpt>
      <trkpt lat="38.836493338688186" lon="121.50565500320104">
        <ele>9.378198996186256</ele>
        <time>2025-12-18T00:00:39Z</time>
      </trkpt>
      <trkpt lat="38.83657844679272" lon="121.50544786257298">
        <ele>8.779005663469434</ele>
        <time>2025-12-18T00:00:48Z</time>
      </trkpt>
      <trkpt lat="38.83670188613004" lon="121.50505247416707">
        <ele>8.881661830469966</ele>
        <time>2025-12-18T00:01:03Z</time>
      </trkpt>
      <trkpt lat="38.83672787579447" lon="121.50497655659971">
        <ele>8.907645819708705</ele>
        <time>2025-12-18T00:01:06Z</time>
      </trkpt>
      <trkpt lat="38.836736806946696" lon="121.50489014469676">
        <ele>8.389716082252562</ele>
        <time>2025-12-18T00:01:09Z</time>
      </trkpt>
      <trkpt lat="38.83687385224685" lon="121.50450692718131">
        <ele>8.48796177841723</ele>
        <time>2025-12-18T00:01:24Z</time>
      </trkpt>
      <trkpt lat="38.83692441077077" lon="121.50436701432876">
        <ele>7.843385091051459</ele>
        <time>2025-12-18T00:01:30Z</time>
      </trkpt>
      <trkpt lat="38.83696660704151" lon="121.50430242188189">
        <ele>8.41597939748317</ele>
        <time>2025-12-18T00:01:33Z</time>
      </trkpt>
      <trkpt lat="38.837010040717765" lon="121.50428337511154">
        <ele>7.67721052467823</ele>
        <time>2025-12-18T00:01:36Z</time>
      </trkpt>
      <trkpt lat="38.83701211567167" lon="121.50421460216275">
        <ele>8.152655588462949</ele>
        <time>2025-12-18T00:01:42Z</time>
      </trkpt>
      <trkpt lat="38.83701211567167" lon="121.50421460216275">
        <ele>8.152655588462949</ele>
        <time>2025-12-18T00:01:47Z</time>
      </trkpt>
    </trkseg>
  </trk>
</gpx>