<?xml version="1.0" encoding="UTF-8"?>
<gpx xmlns="http://www.topografix.com/GPX/1/1" xmlns:gpxtpx="http://www.garmin.com/xmlschemas/TrackPointExtension/v1" xmlns:xsi="http://www.w3.org/2001/XMLSchema-instance" xsi:schemaLocation="http://www.topografix.com/GPX/1/1 http://www.topografix.com/GPX/1/1/gpx.xsd" version="1.1" creator="gpx.py -- https://github.com/tkrajina/gpxpy">
  <trk>
    <name>gpx from keep</name>
    <type>Run</type>
    <trkseg>
      <trkpt lat="38.83305656528578" lon="121.50688071306868">
        <ele>3.3564690006896853</ele>
        <time>2025-09-01T01:13:08Z</time>
        <extensions>
          <gpxtpx:TrackPointExtension>
            <gpxtpx:hr>66</gpxtpx:hr>
          </gpxtpx:TrackPointExtension>
        </extensions>
      </trkpt>
      <trkpt lat="38.833013552280434" lon="121.5068359586951">
        <ele>2.8631413793191314</ele>
        <time>2025-09-01T01:13:14Z</time>
        <extensions>
          <gpxtpx:TrackPointExtension>
            <gpxtpx:hr>66</gpxtpx:hr>
          </gpxtpx:TrackPointExtension>
        </extensions>
      </trkpt>
      <trkpt lat="38.832976925856144" lon="121.50676263967722">
        <ele>2.757916336879134</ele>
        <time>2025-09-01T01:13:41Z</time>
      </trkpt>
      <trkpt lat="38.83279003969079" lon="121.50658961049957">
        <ele>2.1701358389109373</ele>
        <time>2025-09-01T01:13:50Z</time>
      </trkpt>
      <trkpt lat="38.83265684902418" lon="121.50653446374568">
        <ele>1.3285933770239353</ele>
        <time>2025-09-01T01:13:56Z</time>
        <extensions>
          <gpxtpx:TrackPointExtension>
            <gpxtpx:hr>115</gpxtpx:hr>
          </gpxtpx:TrackPointExtension>
        </extensions>
      </trkpt>
      <trkpt lat="38.83244311054232" lon="121.50650822419503">
        <ele>1.0202596746385098</ele>
        <time>2025-09-01T01:14:05Z</time>
        <extensions>
          <gpxtpx:TrackPointExtension>
            <gpxtpx:hr>115</gpxtpx:hr>
          </gpxtpx:TrackPointExtension>
        </extensions>
      </trkpt>
      <trkpt lat="38.83230298843239" lon="121.50644996140994">
        <ele>0.4833447439596057</ele>
        <time>2025-09-01T01:14:11Z</time>
        <extensions>
          <gpxtpx:TrackPointExtension>
            <gpxtpx:hr>116</gpxtpx:hr>
          </gpxtpx:TrackPointExtension>
        </extensions>
      </trkpt>
      <trkpt lat="38.832091439395626" lon="121.50619370750876">
        <ele>1.01080353371799</ele>
        <time>2025-09-01T01:14:23Z</time>
        <extensions>
          <gpxtpx:TrackPointExtension>
            <gpxtpx:hr>117</gpxtpx:hr>
          </gpxtpx:TrackPointExtension>
        </extensions>
      </trkpt>
      <trkpt lat="38.831969905032324" lon="121.50586761736376">
        <ele>1.5051234858110547</ele>
        <time>2025-09-01T01:14:35Z</time>
        <extensions>
          <gpxtpx:TrackPointExtension>
            <gpxtpx:hr>122</gpxtpx:hr>
          </gpxtpx:TrackPointExtension>
        </extensions>
      </trkpt>
      <trkpt lat="38.83194851506018" lon="121.50579122199414">
        <ele>1.231410751119256</ele>
        <time>2025-09-01T01:14:38Z</time>
        <extensions>
          <gpxtpx:TrackPointExtension>
            <gpxtpx:hr>122</gpxtpx:hr>
          </gpxtpx:TrackPointExtension>
        </extensions>
      </trkpt>
      <trkpt lat="38.83188134984923" lon="121.50572253798585">
        <ele>1.779782960191369</ele>
        <time>2025-09-01T01:14:41Z</time>
        <extensions>
          <gpxtpx:TrackPointExtension>
            <gpxtpx:hr>122</gpxtpx:hr>
          </gpxtpx:TrackPointExtension>
        </extensions>
      </trkpt>
      <trkpt lat="38.83185204096784" lon="121.50564352558457">
        <ele>1.506913285702467</ele>
        <time>2025-09-01T01:14:44Z</time>
        <extensions>
          <gpxtpx:TrackPointExtension>
            <gpxtpx:hr>122</gpxtpx:hr>
          </gpxtpx:TrackPointExtension>
        </extensions>
      </trkpt>
      <trkpt lat="38.83179854325259" lon="121.50557225211415">
        <ele>1.951230457983911</ele>
        <time>2025-09-01T01:14:47Z</time>
        <extensions>
          <gpxtpx:TrackPointExtension>
            <gpxtpx:hr>122</gpxtpx:hr>
          </gpxtpx:TrackPointExtension>
        </extensions>
      </trkpt>
      <trkpt lat="38.83177180225161" lon="121.50550219288955">
        <ele>2.726612945087254</ele>
        <time>2025-09-01T01:14:50Z</time>
        <extensions>
          <gpxtpx:TrackPointExtension>
            <gpxtpx:hr>122</gpxtpx:hr>
          </gpxtpx:TrackPointExtension>
        </extensions>
      </trkpt>
      <trkpt lat="38.83156717929426" lon="121.50534427421144">
        <ele>2.2359548900276423</ele>
        <time>2025-09-01T01:14:59Z</time>
      </trkpt>
      <trkpt lat="38.83147609656818" lon="121.50530227265232">
        <ele>3.4253308223560452</ele>
        <time>2025-09-01T01:15:03Z</time>
      </trkpt>
      <trkpt lat="38.831391803498946" lon="121.50531914922621">
        <ele>3.204135302454233</ele>
        <time>2025-09-01T01:15:06Z</time>
      </trkpt>
      <trkpt lat="38.831257073304236" lon="121.50524884341844">
        <ele>1.8137764111161232</ele>
        <time>2025-09-01T01:15:12Z</time>
      </trkpt>
      <trkpt lat="38.83101303520036" lon="121.5052517114481">
        <ele>1.0377321345731616</ele>
        <time>2025-09-01T01:15:21Z</time>
      </trkpt>
      <trkpt lat="38.83095860757226" lon="121.50521311992682">
        <ele>3.9708986235782504</ele>
        <time>2025-09-01T01:15:24Z</time>
      </trkpt>
      <trkpt lat="38.830880340705995" lon="121.50526628785458">
        <ele>2.9826602675020695</ele>
        <time>2025-09-01T01:15:27Z</time>
      </trkpt>
      <trkpt lat="38.83080177243116" lon="121.50523468518217">
        <ele>2.7796358158811927</ele>
        <time>2025-09-01T01:15:30Z</time>
      </trkpt>
      <trkpt lat="38.830684607491726" lon="121.50512792419681">
        <ele>2.3205489004030824</ele>
        <time>2025-09-01T01:15:36Z</time>
      </trkpt>
      <trkpt lat="38.830613564194714" lon="121.50508816091642">
        <ele>3.2143166977912188</ele>
        <time>2025-09-01T01:15:39Z</time>
      </trkpt>
      <trkpt lat="38.830460826121644" lon="121.50490064883553">
        <ele>1.1057671532034874</ele>
        <time>2025-09-01T01:15:48Z</time>
      </trkpt>
      <trkpt lat="38.83024942475271" lon="121.50480795558948">
        <ele>1.5288104638457298</ele>
        <time>2025-09-01T01:15:57Z</time>
      </trkpt>
      <trkpt lat="38.83004800936384" lon="121.50470921695695">
        <ele>2.697921507060528</ele>
        <time>2025-09-01T01:16:06Z</time>
      </trkpt>
      <trkpt lat="38.829934924996486" lon="121.50457876425075">
        <ele>1.7478588363155723</ele>
        <time>2025-09-01T01:16:12Z</time>
      </trkpt>
      <trkpt lat="38.82986762226609" lon="121.50455302606399">
        <ele>1.8591250237077475</ele>
        <time>2025-09-01T01:16:15Z</time>
      </trkpt>
      <trkpt lat="38.82971632285372" lon="121.50435921305333">
        <ele>1.0531930681318045</ele>
        <time>2025-09-01T01:16:24Z</time>
      </trkpt>
      <trkpt lat="38.82963921411931" lon="121.5042994956884">
        <ele>1.5185808315873146</ele>
        <time>2025-09-01T01:16:27Z</time>
      </trkpt>
      <trkpt lat="38.82953280028288" lon="121.50419257835772">
        <ele>1.2420136164873838</ele>
        <time>2025-09-01T01:16:33Z</time>
      </trkpt>
      <trkpt lat="38.82925749906036" lon="121.50406420152272">
        <ele>0.9926270069554448</ele>
        <time>2025-09-01T01:16:45Z</time>
      </trkpt>
      <trkpt lat="38.82912910502602" lon="121.50401793091541">
        <ele>1.5781535003334284</ele>
        <time>2025-09-01T01:16:51Z</time>
      </trkpt>
      <trkpt lat="38.82904968070621" lon="121.5040260763851">
        <ele>1.862880114465952</ele>
        <time>2025-09-01T01:16:54Z</time>
      </trkpt>
      <trkpt lat="38.828991970706554" lon="121.50408550523946">
        <ele>1.8140524681657553</ele>
        <time>2025-09-01T01:16:57Z</time>
      </trkpt>
      <trkpt lat="38.82885092237231" lon="121.50402404904075">
        <ele>0.9335027560591698</ele>
        <time>2025-09-01T01:17:03Z</time>
      </trkpt>
      <trkpt lat="38.828740890139365" lon="121.50401274645833">
        <ele>0.5932756653055549</ele>
        <time>2025-09-01T01:17:07Z</time>
      </trkpt>
      <trkpt lat="38.82841100878151" lon="121.50406711062327">
        <ele>2.4295935221016407</ele>
        <time>2025-09-01T01:17:20Z</time>
        <extensions>
          <gpxtpx:TrackPointExtension>
            <gpxtpx:hr>155</gpxtpx:hr>
          </gpxtpx:TrackPointExtension>
        </extensions>
      </trkpt>
      <trkpt lat="38.82826193533943" lon="121.50405522722241">
        <ele>0.7316915104165673</ele>
        <time>2025-09-01T01:17:26Z</time>
        <extensions>
          <gpxtpx:TrackPointExtension>
            <gpxtpx:hr>155</gpxtpx:hr>
          </gpxtpx:TrackPointExtension>
        </extensions>
      </trkpt>
      <trkpt lat="38.828098216624525" lon="121.50395719263672">
        <ele>1.8582471022382379</ele>
        <time>2025-09-01T01:17:35Z</time>
        <extensions>
          <gpxtpx:TrackPointExtension>
            <gpxtpx:hr>156</gpxtpx:hr>
          </gpxtpx:TrackPointExtension>
        </extensions>
      </trkpt>
      <trkpt lat="38.82791819783536" lon="121.50364363599341">
        <ele>2.922328047454357</ele>
        <time>2025-09-01T01:17:47Z</time>
        <extensions>
          <gpxtpx:TrackPointExtension>
            <gpxtpx:hr>147</gpxtpx:hr>
          </gpxtpx:TrackPointExtension>
        </extensions>
      </trkpt>
      <trkpt lat="38.82786485121025" lon="121.50338330469282">
        <ele>1.9007153678685427</ele>
        <time>2025-09-01T01:17:56Z</time>
        <extensions>
          <gpxtpx:TrackPointExtension>
            <gpxtpx:hr>154</gpxtpx:hr>
          </gpxtpx:TrackPointExtension>
        </extensions>
      </trkpt>
      <trkpt lat="38.82777352465078" lon="121.5032240611878">
        <ele>4.275943675078452</ele>
        <time>2025-09-01T01:18:02Z</time>
        <extensions>
          <gpxtpx:TrackPointExtension>
            <gpxtpx:hr>154</gpxtpx:hr>
          </gpxtpx:TrackPointExtension>
        </extensions>
      </trkpt>
      <trkpt lat="38.82771232577375" lon="121.50321181008233">
        <ele>0.36109669134020805</ele>
        <time>2025-09-01T01:18:05Z</time>
        <extensions>
          <gpxtpx:TrackPointExtension>
            <gpxtpx:hr>154</gpxtpx:hr>
          </gpxtpx:TrackPointExtension>
        </extensions>
      </trkpt>
      <trkpt lat="38.8276400505759" lon="121.50315800675595">
        <ele>1.0161049105226994</ele>
        <time>2025-09-01T01:18:08Z</time>
        <extensions>
          <gpxtpx:TrackPointExtension>
            <gpxtpx:hr>154</gpxtpx:hr>
          </gpxtpx:TrackPointExtension>
        </extensions>
      </trkpt>
      <trkpt lat="38.82760505048401" lon="121.5030756881499">
        <ele>1.5777069963514805</ele>
        <time>2025-09-01T01:18:11Z</time>
        <extensions>
          <gpxtpx:TrackPointExtension>
            <gpxtpx:hr>154</gpxtpx:hr>
          </gpxtpx:TrackPointExtension>
        </extensions>
      </trkpt>
      <trkpt lat="38.82738333271642" lon="121.50298490686528">
        <ele>1.6203480567783117</ele>
        <time>2025-09-01T01:18:20Z</time>
      </trkpt>
      <trkpt lat="38.82730195305843" lon="121.50299086418778">
        <ele>1.2901109037920833</ele>
        <time>2025-09-01T01:18:23Z</time>
      </trkpt>
      <trkpt lat="38.8272336119279" lon="121.50303903573729">
        <ele>1.9032291825860739</ele>
        <time>2025-09-01T01:18:26Z</time>
      </trkpt>
      <trkpt lat="38.82715471614392" lon="121.50302899209323">
        <ele>2.4466081643477082</ele>
        <time>2025-09-01T01:18:29Z</time>
      </trkpt>
      <trkpt lat="38.82699755695578" lon="121.50311918272142">
        <ele>2.2783871982246637</ele>
        <time>2025-09-01T01:18:35Z</time>
      </trkpt>
      <trkpt lat="38.826970098117854" lon="121.50320223618182">
        <ele>2.236448112875223</ele>
        <time>2025-09-01T01:18:38Z</time>
      </trkpt>
      <trkpt lat="38.82691502429073" lon="121.50323585768615">
        <ele>1.8704190701246262</ele>
        <time>2025-09-01T01:18:41Z</time>
      </trkpt>
      <trkpt lat="38.82673506184748" lon="121.50341464272438">
        <ele>1.0550451138988137</ele>
        <time>2025-09-01T01:18:50Z</time>
      </trkpt>
      <trkpt lat="38.826680276918474" lon="121.50349004572823">
        <ele>1.7512117894366384</ele>
        <time>2025-09-01T01:18:53Z</time>
      </trkpt>
      <trkpt lat="38.82659322090178" lon="121.50366151200096">
        <ele>1.8221185561269522</ele>
        <time>2025-09-01T01:18:59Z</time>
      </trkpt>
      <trkpt lat="38.826573148656756" lon="121.50375859225164">
        <ele>2.2386667393147945</ele>
        <time>2025-09-01T01:19:02Z</time>
      </trkpt>
      <trkpt lat="38.826621437866876" lon="121.50383666547819">
        <ele>4.105203839018941</ele>
        <time>2025-09-01T01:19:05Z</time>
      </trkpt>
      <trkpt lat="38.826552294519765" lon="121.50393868688606">
        <ele>3.863446650095284</ele>
        <time>2025-09-01T01:19:08Z</time>
      </trkpt>
      <trkpt lat="38.8265458950974" lon="121.50424806082718">
        <ele>1.4059223914518952</ele>
        <time>2025-09-01T01:19:18Z</time>
      </trkpt>
      <trkpt lat="38.82658613197428" lon="121.50417296576241">
        <ele>1.3194185951724648</ele>
        <time>2025-09-01T01:19:21Z</time>
      </trkpt>
      <trkpt lat="38.82655841423292" lon="121.50407417086139">
        <ele>1.4788122940808535</ele>
        <time>2025-09-01T01:19:24Z</time>
      </trkpt>
      <trkpt lat="38.826568514402425" lon="121.50378746032081">
        <ele>3.0233256751671433</ele>
        <time>2025-09-01T01:19:33Z</time>
        <extensions>
          <gpxtpx:TrackPointExtension>
            <gpxtpx:hr>162</gpxtpx:hr>
          </gpxtpx:TrackPointExtension>
        </extensions>
      </trkpt>
      <trkpt lat="38.82667253599358" lon="121.50351952835157">
        <ele>2.2317003421485424</ele>
        <time>2025-09-01T01:19:42Z</time>
        <extensions>
          <gpxtpx:TrackPointExtension>
            <gpxtpx:hr>162</gpxtpx:hr>
          </gpxtpx:TrackPointExtension>
        </extensions>
      </trkpt>
      <trkpt lat="38.82684404422943" lon="121.5033231226594">
        <ele>1.8239116156473756</ele>
        <time>2025-09-01T01:19:51Z</time>
        <extensions>
          <gpxtpx:TrackPointExtension>
            <gpxtpx:hr>162</gpxtpx:hr>
          </gpxtpx:TrackPointExtension>
        </extensions>
      </trkpt>
      <trkpt lat="38.82689325307809" lon="121.50324473135268">
        <ele>1.734720672480762</ele>
        <time>2025-09-01T01:19:54Z</time>
        <extensions>
          <gpxtpx:TrackPointExtension>
            <gpxtpx:hr>162</gpxtpx:hr>
          </gpxtpx:TrackPointExtension>
        </extensions>
      </trkpt>
      <trkpt lat="38.82713829430028" lon="121.5030230581021">
        <ele>2.274737170897424</ele>
        <time>2025-09-01T01:20:06Z</time>
        <extensions>
          <gpxtpx:TrackPointExtension>
            <gpxtpx:hr>161</gpxtpx:hr>
          </gpxtpx:TrackPointExtension>
        </extensions>
      </trkpt>
      <trkpt lat="38.82721510653772" lon="121.5029849251445">
        <ele>2.1999890748411417</ele>
        <time>2025-09-01T01:20:09Z</time>
        <extensions>
          <gpxtpx:TrackPointExtension>
            <gpxtpx:hr>161</gpxtpx:hr>
          </gpxtpx:TrackPointExtension>
        </extensions>
      </trkpt>
      <trkpt lat="38.8274506268341" lon="121.5029972437549">
        <ele>2.255034849047661</ele>
        <time>2025-09-01T01:20:18Z</time>
        <extensions>
          <gpxtpx:TrackPointExtension>
            <gpxtpx:hr>161</gpxtpx:hr>
          </gpxtpx:TrackPointExtension>
        </extensions>
      </trkpt>
      <trkpt lat="38.827642471869595" lon="121.50312383761013">
        <ele>1.8611202351748943</ele>
        <time>2025-09-01T01:20:27Z</time>
        <extensions>
          <gpxtpx:TrackPointExtension>
            <gpxtpx:hr>161</gpxtpx:hr>
          </gpxtpx:TrackPointExtension>
        </extensions>
      </trkpt>
      <trkpt lat="38.82769528493395" lon="121.50320431190356">
        <ele>1.9454194456338882</ele>
        <time>2025-09-01T01:20:30Z</time>
        <extensions>
          <gpxtpx:TrackPointExtension>
            <gpxtpx:hr>161</gpxtpx:hr>
          </gpxtpx:TrackPointExtension>
        </extensions>
      </trkpt>
      <trkpt lat="38.82776457151261" lon="121.50323777632572">
        <ele>2.594953116029501</ele>
        <time>2025-09-01T01:20:33Z</time>
      </trkpt>
      <trkpt lat="38.82783205342271" lon="121.50330462662988">
        <ele>2.2134324070066214</ele>
        <time>2025-09-01T01:20:36Z</time>
      </trkpt>
      <trkpt lat="38.827930416770656" lon="121.50367576090912">
        <ele>1.4970390060916543</ele>
        <time>2025-09-01T01:20:48Z</time>
      </trkpt>
      <trkpt lat="38.82802204905472" lon="121.50381985255957">
        <ele>2.0911219511181116</ele>
        <time>2025-09-01T01:20:54Z</time>
      </trkpt>
      <trkpt lat="38.82813037547992" lon="121.5038440527754">
        <ele>1.7858566408976912</ele>
        <time>2025-09-01T01:21:00Z</time>
      </trkpt>
      <trkpt lat="38.82819053122708" lon="121.50392147678443">
        <ele>1.767559808678925</ele>
        <time>2025-09-01T01:21:03Z</time>
      </trkpt>
      <trkpt lat="38.82832570059264" lon="121.50399770941559">
        <ele>1.4763830117881298</ele>
        <time>2025-09-01T01:21:09Z</time>
      </trkpt>
      <trkpt lat="38.82847912638934" lon="121.50405629040687">
        <ele>2.151459517888725</ele>
        <time>2025-09-01T01:21:15Z</time>
      </trkpt>
      <trkpt lat="38.82859623081386" lon="121.50400981990516">
        <ele>1.9375386228784919</ele>
        <time>2025-09-01T01:21:19Z</time>
      </trkpt>
      <trkpt lat="38.82869785153304" lon="121.504034440524">
        <ele>2.4344217209145427</ele>
        <time>2025-09-01T01:21:23Z</time>
      </trkpt>
      <trkpt lat="38.828760923158235" lon="121.50400840593295">
        <ele>1.3227335894480348</ele>
        <time>2025-09-01T01:21:27Z</time>
      </trkpt>
      <trkpt lat="38.82896293911537" lon="121.50409183858378">
        <ele>3.3939884416759014</ele>
        <time>2025-09-01T01:21:35Z</time>
      </trkpt>
      <trkpt lat="38.829050507760435" lon="121.5040306550821">
        <ele>2.3470913683995605</ele>
        <time>2025-09-01T01:21:39Z</time>
      </trkpt>
      <trkpt lat="38.82933747221668" lon="121.50410408174686">
        <ele>2.862664293497801</ele>
        <time>2025-09-01T01:21:49Z</time>
      </trkpt>
      <trkpt lat="38.829409284343264" lon="121.5041569327051">
        <ele>3.387206888757646</ele>
        <time>2025-09-01T01:21:52Z</time>
      </trkpt>
      <trkpt lat="38.82948635833941" lon="121.50417562652319">
        <ele>2.723190280608833</ele>
        <time>2025-09-01T01:21:55Z</time>
      </trkpt>
      <trkpt lat="38.829738462393735" lon="121.50441655960918">
        <ele>2.0009307004511356</ele>
        <time>2025-09-01T01:22:07Z</time>
      </trkpt>
      <trkpt lat="38.82998870236087" lon="121.50471080586286">
        <ele>1.4075958542525768</ele>
        <time>2025-09-01T01:22:19Z</time>
      </trkpt>
      <trkpt lat="38.83005421790602" lon="121.50475928457517">
        <ele>1.6003094632178545</ele>
        <time>2025-09-01T01:22:22Z</time>
      </trkpt>
      <trkpt lat="38.8302768883291" lon="121.50486232507092">
        <ele>1.8243412049487233</ele>
        <time>2025-09-01T01:22:31Z</time>
      </trkpt>
      <trkpt lat="38.830429945030346" lon="121.50489517126702">
        <ele>2.1562978252768517</ele>
        <time>2025-09-01T01:22:37Z</time>
      </trkpt>
      <trkpt lat="38.830708006749255" lon="121.50510043635367">
        <ele>3.277045984752476</ele>
        <time>2025-09-01T01:22:49Z</time>
      </trkpt>
      <trkpt lat="38.83099579476962" lon="121.50524245719149">
        <ele>2.8604109454900026</ele>
        <time>2025-09-01T01:23:01Z</time>
      </trkpt>
      <trkpt lat="38.83109223129679" lon="121.50522979634016">
        <ele>2.7587336329743266</ele>
        <time>2025-09-01T01:23:04Z</time>
      </trkpt>
      <trkpt lat="38.83123351107333" lon="121.5052958818348">
        <ele>2.744042177684605</ele>
        <time>2025-09-01T01:23:10Z</time>
      </trkpt>
      <trkpt lat="38.83147229562928" lon="121.50530585342833">
        <ele>3.1720097148790956</ele>
        <time>2025-09-01T01:23:19Z</time>
      </trkpt>
      <trkpt lat="38.83164860834929" lon="121.50538464961625">
        <ele>2.710471786558628</ele>
        <time>2025-09-01T01:23:26Z</time>
      </trkpt>
      <trkpt lat="38.83174662578375" lon="121.5054639139997">
        <ele>2.8283043215051293</ele>
        <time>2025-09-01T01:23:30Z</time>
      </trkpt>
      <trkpt lat="38.83179983630508" lon="121.50558184554906">
        <ele>2.8558009080588818</ele>
        <time>2025-09-01T01:23:34Z</time>
      </trkpt>
      <trkpt lat="38.83195474182089" lon="121.50578785739121">
        <ele>2.6806670278310776</ele>
        <time>2025-09-01T01:23:42Z</time>
      </trkpt>
      <trkpt lat="38.83203888484206" lon="121.50608940424775">
        <ele>2.9568249443545938</ele>
        <time>2025-09-01T01:23:52Z</time>
      </trkpt>
      <trkpt lat="38.83213741423825" lon="121.50628667804833">
        <ele>1.5753323324024677</ele>
        <time>2025-09-01T01:23:58Z</time>
      </trkpt>
      <trkpt lat="38.83228440220591" lon="121.50638316303046">
        <ele>1.6314968755468726</ele>
        <time>2025-09-01T01:24:04Z</time>
      </trkpt>
      <trkpt lat="38.83249412759917" lon="121.50647542056231">
        <ele>2.2397170029580593</ele>
        <time>2025-09-01T01:24:13Z</time>
      </trkpt>
      <trkpt lat="38.83273101782754" lon="121.5065334125564">
        <ele>1.7888672733679414</ele>
        <time>2025-09-01T01:24:22Z</time>
      </trkpt>
      <trkpt lat="38.832875523560425" lon="121.50661561119614">
        <ele>2.1602420397102833</ele>
        <time>2025-09-01T01:24:28Z</time>
      </trkpt>
      <trkpt lat="38.83303606719094" lon="121.50681118291256">
        <ele>1.6813710173591971</ele>
        <time>2025-09-01T01:24:37Z</time>
      </trkpt>
      <trkpt lat="38.83311966198933" lon="121.50687411844284">
        <ele>1.4080836987122893</ele>
        <time>2025-09-01T01:24:40Z</time>
      </trkpt>
      <trkpt lat="38.83313325449103" lon="121.50697229239547">
        <ele>0.6145761692896485</ele>
        <time>2025-09-01T01:24:43Z</time>
      </trkpt>
      <trkpt lat="38.833209946903125" lon="121.5072364430344">
        <ele>1.9264035280793905</ele>
        <time>2025-09-01T01:24:52Z</time>
      </trkpt>
      <trkpt lat="38.83321887722619" lon="121.50743147278551">
        <ele>2.703927461989224</ele>
        <time>2025-09-01T01:24:58Z</time>
      </trkpt>
      <trkpt lat="38.83318496157523" lon="121.50753204702369">
        <ele>2.8577272119000554</ele>
        <time>2025-09-01T01:25:07Z</time>
      </trkpt>
    </trkseg>
  </trk>
</gpx>