<?xml version="1.0" encoding="UTF-8"?>
<gpx xmlns="http://www.topografix.com/GPX/1/1" xmlns:gpxtpx="http://www.garmin.com/xmlschemas/TrackPointExtension/v1" xmlns:xsi="http://www.w3.org/2001/XMLSchema-instance" xsi:schemaLocation="http://www.topografix.com/GPX/1/1 http://www.topografix.com/GPX/1/1/gpx.xsd" version="1.1" creator="gpx.py -- https://github.com/tkrajina/gpxpy">
  <trk>
    <name>gpx from keep</name>
    <type>Run</type>
    <trkseg>
      <trkpt lat="38.83788422726201" lon="121.50449520599862">
        <ele>9.222425272989998</ele>
        <time>2026-01-04T15:48:57Z</time>
        <extensions>
          <gpxtpx:TrackPointExtension>
            <gpxtpx:hr>72</gpxtpx:hr>
          </gpxtpx:TrackPointExtension>
        </extensions>
      </trkpt>
      <trkpt lat="38.83776728548923" lon="121.50435992203398">
        <ele>8.775539792497351</ele>
        <time>2026-01-04T15:49:05Z</time>
        <extensions>
          <gpxtpx:TrackPointExtension>
            <gpxtpx:hr>72</gpxtpx:hr>
          </gpxtpx:TrackPointExtension>
        </extensions>
      </trkpt>
      <trkpt lat="38.83766193183171" lon="121.50443851668294">
        <ele>8.775394387543201</ele>
        <time>2026-01-04T15:49:13Z</time>
        <extensions>
          <gpxtpx:TrackPointExtension>
            <gpxtpx:hr>72</gpxtpx:hr>
          </gpxtpx:TrackPointExtension>
        </extensions>
      </trkpt>
      <trkpt lat="38.83756274594742" lon="121.50442865045783">
        <ele>8.775394573807716</ele>
        <time>2026-01-04T15:49:17Z</time>
        <extensions>
          <gpxtpx:TrackPointExtension>
            <gpxtpx:hr>72</gpxtpx:hr>
          </gpxtpx:TrackPointExtension>
        </extensions>
      </trkpt>
      <trkpt lat="38.837524138027185" lon="121.50447805718355">
        <ele>8.775394233874977</ele>
        <time>2026-01-04T15:49:21Z</time>
        <extensions>
          <gpxtpx:TrackPointExtension>
            <gpxtpx:hr>72</gpxtpx:hr>
          </gpxtpx:TrackPointExtension>
        </extensions>
      </trkpt>
      <trkpt lat="38.83751580149393" lon="121.50454621630875">
        <ele>8.521297433413565</ele>
        <time>2026-01-04T15:49:28Z</time>
      </trkpt>
      <trkpt lat="38.837337142292" lon="121.50444516720738">
        <ele>10.474857859313488</ele>
        <time>2026-01-04T15:49:40Z</time>
      </trkpt>
      <trkpt lat="38.83708289260914" lon="121.50423702880792">
        <ele>10.592448596842587</ele>
        <time>2026-01-04T15:49:56Z</time>
      </trkpt>
      <trkpt lat="38.83701255840976" lon="121.50424403500529">
        <ele>10.756210648454726</ele>
        <time>2026-01-04T15:50:00Z</time>
      </trkpt>
      <trkpt lat="38.836942913504714" lon="121.50438107569738">
        <ele>10.2591093480587</ele>
        <time>2026-01-04T15:50:08Z</time>
      </trkpt>
      <trkpt lat="38.83682440277218" lon="121.50476823301206">
        <ele>10.047110590152442</ele>
        <time>2026-01-04T15:50:24Z</time>
      </trkpt>
      <trkpt lat="38.83669946351323" lon="121.50515744889397">
        <ele>10.353624418377876</ele>
        <time>2026-01-04T15:50:40Z</time>
      </trkpt>
      <trkpt lat="38.83664389825456" lon="121.5053640653967">
        <ele>10.20561945065856</ele>
        <time>2026-01-04T15:50:48Z</time>
      </trkpt>
      <trkpt lat="38.83659117271688" lon="121.50545291121202">
        <ele>9.864251767285168</ele>
        <time>2026-01-04T15:50:52Z</time>
      </trkpt>
      <trkpt lat="38.83646412475893" lon="121.50582149690364">
        <ele>10.174615869298577</ele>
        <time>2026-01-04T15:51:08Z</time>
      </trkpt>
      <trkpt lat="38.8363643482234" lon="121.50616678150136">
        <ele>9.615679784677923</ele>
        <time>2026-01-04T15:51:21Z</time>
      </trkpt>
      <trkpt lat="38.83634237842288" lon="121.50623808154211">
        <ele>9.722948682494462</ele>
        <time>2026-01-04T15:51:24Z</time>
      </trkpt>
      <trkpt lat="38.83631420256713" lon="121.50640212395714">
        <ele>8.834719827398658</ele>
        <time>2026-01-04T15:51:30Z</time>
      </trkpt>
      <trkpt lat="38.83618669901836" lon="121.50673923788302">
        <ele>10.525097063742578</ele>
        <time>2026-01-04T15:51:45Z</time>
      </trkpt>
      <trkpt lat="38.836216130487415" lon="121.50679837808343">
        <ele>10.95295580290258</ele>
        <time>2026-01-04T15:51:48Z</time>
      </trkpt>
      <trkpt lat="38.83647318542573" lon="121.50697535247873">
        <ele>8.862737477757037</ele>
        <time>2026-01-04T15:52:03Z</time>
      </trkpt>
      <trkpt lat="38.83668456247658" lon="121.5071803894538">
        <ele>9.117532872594893</ele>
        <time>2026-01-04T15:52:15Z</time>
      </trkpt>
      <trkpt lat="38.8367689401554" lon="121.50722358658824">
        <ele>10.480544456280768</ele>
        <time>2026-01-04T15:52:19Z</time>
      </trkpt>
      <trkpt lat="38.83701295857189" lon="121.5074617854173">
        <ele>10.478339420631528</ele>
        <time>2026-01-04T15:52:34Z</time>
      </trkpt>
      <trkpt lat="38.83710526571762" lon="121.5075441054531">
        <ele>9.7018250413239</ele>
        <time>2026-01-04T15:52:40Z</time>
      </trkpt>
      <trkpt lat="38.83716383723047" lon="121.50762287550835">
        <ele>10.424037924036384</ele>
        <time>2026-01-04T15:52:43Z</time>
      </trkpt>
      <trkpt lat="38.83736474261319" lon="121.50781445851953">
        <ele>11.468666290864348</ele>
        <time>2026-01-04T15:52:55Z</time>
      </trkpt>
      <trkpt lat="38.83759252852367" lon="121.50798511784227">
        <ele>10.839837682433426</ele>
        <time>2026-01-04T15:53:07Z</time>
      </trkpt>
      <trkpt lat="38.83764654107805" lon="121.50804342047789">
        <ele>11.390191439539194</ele>
        <time>2026-01-04T15:53:10Z</time>
      </trkpt>
      <trkpt lat="38.83772535149159" lon="121.50809153976267">
        <ele>11.839202074334025</ele>
        <time>2026-01-04T15:53:14Z</time>
      </trkpt>
      <trkpt lat="38.83800370453517" lon="121.5083483210341">
        <ele>9.853367580100894</ele>
        <time>2026-01-04T15:53:30Z</time>
      </trkpt>
      <trkpt lat="38.838069744528575" lon="121.50839447626714">
        <ele>10.101554969325662</ele>
        <time>2026-01-04T15:53:34Z</time>
      </trkpt>
      <trkpt lat="38.83820203608774" lon="121.50855241286365">
        <ele>9.868016114458442</ele>
        <time>2026-01-04T15:53:42Z</time>
      </trkpt>
      <trkpt lat="38.83842406977521" lon="121.50873590986713">
        <ele>9.339561711996794</ele>
        <time>2026-01-04T15:53:54Z</time>
      </trkpt>
      <trkpt lat="38.83848683467959" lon="121.50876614646826">
        <ele>9.943716389127076</ele>
        <time>2026-01-04T15:53:58Z</time>
      </trkpt>
      <trkpt lat="38.83858931627445" lon="121.50870860223226">
        <ele>8.751964889466763</ele>
        <time>2026-01-04T15:54:04Z</time>
      </trkpt>
      <trkpt lat="38.83861979363217" lon="121.50864107168422">
        <ele>8.94627801887691</ele>
        <time>2026-01-04T15:54:07Z</time>
      </trkpt>
      <trkpt lat="38.83867439862122" lon="121.5086297209039">
        <ele>9.040259913541377</ele>
        <time>2026-01-04T15:54:10Z</time>
      </trkpt>
      <trkpt lat="38.83887080561956" lon="121.50831864939104">
        <ele>7.717545037157834</ele>
        <time>2026-01-04T15:54:25Z</time>
      </trkpt>
      <trkpt lat="38.83895516354953" lon="121.50819897510279">
        <ele>8.310132298618555</ele>
        <time>2026-01-04T15:54:31Z</time>
      </trkpt>
      <trkpt lat="38.83914358678819" lon="121.50784046738111">
        <ele>9.823185966350138</ele>
        <time>2026-01-04T15:54:46Z</time>
      </trkpt>
      <trkpt lat="38.839302120092825" lon="121.50755870961773">
        <ele>9.348382955417037</ele>
        <time>2026-01-04T15:54:58Z</time>
      </trkpt>
      <trkpt lat="38.83942479630756" lon="121.50734901675648">
        <ele>8.14911191817373</ele>
        <time>2026-01-04T15:55:07Z</time>
      </trkpt>
      <trkpt lat="38.83945087871425" lon="121.50726560664314">
        <ele>9.261885108426213</ele>
        <time>2026-01-04T15:55:10Z</time>
      </trkpt>
      <trkpt lat="38.839636119550065" lon="121.50691979089714">
        <ele>10.792948324233294</ele>
        <time>2026-01-04T15:55:24Z</time>
      </trkpt>
      <trkpt lat="38.839684870407766" lon="121.50682859491288">
        <ele>11.756895435974002</ele>
        <time>2026-01-04T15:55:28Z</time>
      </trkpt>
      <trkpt lat="38.83970206743135" lon="121.5067131287345">
        <ele>13.474541021510959</ele>
        <time>2026-01-04T15:55:32Z</time>
      </trkpt>
      <trkpt lat="38.839792332305045" lon="121.50664381165808">
        <ele>13.334865258075297</ele>
        <time>2026-01-04T15:55:36Z</time>
      </trkpt>
      <trkpt lat="38.839866558084786" lon="121.50655850211004">
        <ele>13.508686190471053</ele>
        <time>2026-01-04T15:55:40Z</time>
      </trkpt>
      <trkpt lat="38.83995111777367" lon="121.50635595612121">
        <ele>14.445618027821183</ele>
        <time>2026-01-04T15:55:48Z</time>
      </trkpt>
      <trkpt lat="38.83997514244342" lon="121.50623883361514">
        <ele>14.124021289870143</ele>
        <time>2026-01-04T15:55:52Z</time>
      </trkpt>
      <trkpt lat="38.84003244922505" lon="121.50616645273618">
        <ele>13.767362799495459</ele>
        <time>2026-01-04T15:55:56Z</time>
      </trkpt>
      <trkpt lat="38.84014689753314" lon="121.5058954821567">
        <ele>14.359578182920814</ele>
        <time>2026-01-04T15:56:07Z</time>
      </trkpt>
      <trkpt lat="38.840266342713306" lon="121.50580318368806">
        <ele>13.052351849153638</ele>
        <time>2026-01-04T15:56:13Z</time>
      </trkpt>
      <trkpt lat="38.84028602938241" lon="121.50572083287841">
        <ele>12.249907328747213</ele>
        <time>2026-01-04T15:56:16Z</time>
      </trkpt>
      <trkpt lat="38.84032574456552" lon="121.50564359301192">
        <ele>12.91188337188214</ele>
        <time>2026-01-04T15:56:19Z</time>
      </trkpt>
      <trkpt lat="38.84044995400666" lon="121.50555532631567">
        <ele>11.930448387749493</ele>
        <time>2026-01-04T15:56:25Z</time>
      </trkpt>
      <trkpt lat="38.84057361473404" lon="121.50534833385517">
        <ele>11.615388951264322</ele>
        <time>2026-01-04T15:56:34Z</time>
      </trkpt>
      <trkpt lat="38.84062960229445" lon="121.50517736618308">
        <ele>11.13174086343497</ele>
        <time>2026-01-04T15:56:40Z</time>
      </trkpt>
      <trkpt lat="38.84084017372573" lon="121.50487190257307">
        <ele>7.769616167061031</ele>
        <time>2026-01-04T15:56:55Z</time>
      </trkpt>
      <trkpt lat="38.840851992503076" lon="121.50479508475432">
        <ele>6.920213502831757</ele>
        <time>2026-01-04T15:56:58Z</time>
      </trkpt>
      <trkpt lat="38.84093695343937" lon="121.50465131522355">
        <ele>7.552899833768606</ele>
        <time>2026-01-04T15:57:04Z</time>
      </trkpt>
      <trkpt lat="38.84094318666593" lon="121.50457709719173">
        <ele>6.742952327243984</ele>
        <time>2026-01-04T15:57:07Z</time>
      </trkpt>
      <trkpt lat="38.84106118676392" lon="121.50436501678762">
        <ele>7.678242742083967</ele>
        <time>2026-01-04T15:57:16Z</time>
      </trkpt>
      <trkpt lat="38.84106700582363" lon="121.50394307947916">
        <ele>6.426255692727864</ele>
        <time>2026-01-04T15:57:30Z</time>
      </trkpt>
      <trkpt lat="38.841077199791336" lon="121.50357849208066">
        <ele>7.136317641474307</ele>
        <time>2026-01-04T15:57:42Z</time>
      </trkpt>
      <trkpt lat="38.84105280023017" lon="121.50346933456748">
        <ele>7.089151623658836</ele>
        <time>2026-01-04T15:57:46Z</time>
      </trkpt>
      <trkpt lat="38.84073335434948" lon="121.50337078597276">
        <ele>8.915924447588623</ele>
        <time>2026-01-04T15:58:01Z</time>
      </trkpt>
      <trkpt lat="38.84044700903365" lon="121.5034002025636">
        <ele>9.224761052057147</ele>
        <time>2026-01-04T15:58:13Z</time>
      </trkpt>
      <trkpt lat="38.84025827488186" lon="121.5034024776956">
        <ele>9.325134898535907</ele>
        <time>2026-01-04T15:58:22Z</time>
      </trkpt>
      <trkpt lat="38.840127240624895" lon="121.50337417014937">
        <ele>8.535479046404362</ele>
        <time>2026-01-04T15:58:28Z</time>
      </trkpt>
      <trkpt lat="38.84000427104082" lon="121.5033062357539">
        <ele>9.459838579408824</ele>
        <time>2026-01-04T15:58:34Z</time>
      </trkpt>
      <trkpt lat="38.839720806889886" lon="121.50332041472117">
        <ele>9.000212917104363</ele>
        <time>2026-01-04T15:58:46Z</time>
      </trkpt>
      <trkpt lat="38.83945454988803" lon="121.50331380481053">
        <ele>7.565711732022464</ele>
        <time>2026-01-04T15:58:58Z</time>
      </trkpt>
      <trkpt lat="38.83924781269602" lon="121.50324422607572">
        <ele>8.085663908161223</ele>
        <time>2026-01-04T15:59:07Z</time>
      </trkpt>
      <trkpt lat="38.83897646068382" lon="121.5033121373887">
        <ele>7.32041853480041</ele>
        <time>2026-01-04T15:59:19Z</time>
        <extensions>
          <gpxtpx:TrackPointExtension>
            <gpxtpx:hr>132</gpxtpx:hr>
          </gpxtpx:TrackPointExtension>
        </extensions>
      </trkpt>
      <trkpt lat="38.838913266039555" lon="121.50331227500766">
        <ele>6.242536412551999</ele>
        <time>2026-01-04T15:59:22Z</time>
        <extensions>
          <gpxtpx:TrackPointExtension>
            <gpxtpx:hr>132</gpxtpx:hr>
          </gpxtpx:TrackPointExtension>
        </extensions>
      </trkpt>
      <trkpt lat="38.838697931844514" lon="121.50337009943377">
        <ele>7.242134830914438</ele>
        <time>2026-01-04T15:59:32Z</time>
        <extensions>
          <gpxtpx:TrackPointExtension>
            <gpxtpx:hr>131</gpxtpx:hr>
          </gpxtpx:TrackPointExtension>
        </extensions>
      </trkpt>
      <trkpt lat="38.83860205488488" lon="121.50335477302404">
        <ele>7.174331518821418</ele>
        <time>2026-01-04T15:59:36Z</time>
        <extensions>
          <gpxtpx:TrackPointExtension>
            <gpxtpx:hr>132</gpxtpx:hr>
          </gpxtpx:TrackPointExtension>
        </extensions>
      </trkpt>
      <trkpt lat="38.83851333427238" lon="121.5033860839672">
        <ele>8.047959549352527</ele>
        <time>2026-01-04T15:59:40Z</time>
        <extensions>
          <gpxtpx:TrackPointExtension>
            <gpxtpx:hr>132</gpxtpx:hr>
          </gpxtpx:TrackPointExtension>
        </extensions>
      </trkpt>
      <trkpt lat="38.83842509674206" lon="121.50335264804276">
        <ele>7.406747095286846</ele>
        <time>2026-01-04T15:59:44Z</time>
        <extensions>
          <gpxtpx:TrackPointExtension>
            <gpxtpx:hr>132</gpxtpx:hr>
          </gpxtpx:TrackPointExtension>
        </extensions>
      </trkpt>
      <trkpt lat="38.838329337832675" lon="121.50337726444698">
        <ele>8.061526076868176</ele>
        <time>2026-01-04T15:59:48Z</time>
        <extensions>
          <gpxtpx:TrackPointExtension>
            <gpxtpx:hr>132</gpxtpx:hr>
          </gpxtpx:TrackPointExtension>
        </extensions>
      </trkpt>
      <trkpt lat="38.838239910564695" lon="121.50336691431819">
        <ele>9.23764321487397</ele>
        <time>2026-01-04T15:59:52Z</time>
        <extensions>
          <gpxtpx:TrackPointExtension>
            <gpxtpx:hr>133</gpxtpx:hr>
          </gpxtpx:TrackPointExtension>
        </extensions>
      </trkpt>
      <trkpt lat="38.83807499685335" lon="121.50340120125665">
        <ele>9.151346549391747</ele>
        <time>2026-01-04T15:59:59Z</time>
        <extensions>
          <gpxtpx:TrackPointExtension>
            <gpxtpx:hr>134</gpxtpx:hr>
          </gpxtpx:TrackPointExtension>
        </extensions>
      </trkpt>
      <trkpt lat="38.837864608522004" lon="121.50341743815568">
        <ele>10.046827361918986</ele>
        <time>2026-01-04T16:00:08Z</time>
        <extensions>
          <gpxtpx:TrackPointExtension>
            <gpxtpx:hr>134</gpxtpx:hr>
          </gpxtpx:TrackPointExtension>
        </extensions>
      </trkpt>
      <trkpt lat="38.837721559585106" lon="121.50344829541517">
        <ele>8.919423448853195</ele>
        <time>2026-01-04T16:00:14Z</time>
        <extensions>
          <gpxtpx:TrackPointExtension>
            <gpxtpx:hr>135</gpxtpx:hr>
          </gpxtpx:TrackPointExtension>
        </extensions>
      </trkpt>
      <trkpt lat="38.83765975482243" lon="121.50343691933269">
        <ele>8.817013090476394</ele>
        <time>2026-01-04T16:00:17Z</time>
        <extensions>
          <gpxtpx:TrackPointExtension>
            <gpxtpx:hr>135</gpxtpx:hr>
          </gpxtpx:TrackPointExtension>
        </extensions>
      </trkpt>
      <trkpt lat="38.837385500866" lon="121.5034699819767">
        <ele>8.370987021364272</ele>
        <time>2026-01-04T16:00:29Z</time>
        <extensions>
          <gpxtpx:TrackPointExtension>
            <gpxtpx:hr>136</gpxtpx:hr>
          </gpxtpx:TrackPointExtension>
        </extensions>
      </trkpt>
      <trkpt lat="38.83726868789332" lon="121.50348480337377">
        <ele>8.635410179384053</ele>
        <time>2026-01-04T16:00:35Z</time>
        <extensions>
          <gpxtpx:TrackPointExtension>
            <gpxtpx:hr>137</gpxtpx:hr>
          </gpxtpx:TrackPointExtension>
        </extensions>
      </trkpt>
      <trkpt lat="38.83722182791254" lon="121.50351349788113">
        <ele>8.619220622815192</ele>
        <time>2026-01-04T16:00:41Z</time>
        <extensions>
          <gpxtpx:TrackPointExtension>
            <gpxtpx:hr>137</gpxtpx:hr>
          </gpxtpx:TrackPointExtension>
        </extensions>
      </trkpt>
      <trkpt lat="38.837131630275465" lon="121.50379198549727">
        <ele>8.831187890842557</ele>
        <time>2026-01-04T16:01:05Z</time>
        <extensions>
          <gpxtpx:TrackPointExtension>
            <gpxtpx:hr>126</gpxtpx:hr>
          </gpxtpx:TrackPointExtension>
        </extensions>
      </trkpt>
      <trkpt lat="38.83711573079879" lon="121.50389327716667">
        <ele>9.655645297840238</ele>
        <time>2026-01-04T16:01:11Z</time>
        <extensions>
          <gpxtpx:TrackPointExtension>
            <gpxtpx:hr>125</gpxtpx:hr>
          </gpxtpx:TrackPointExtension>
        </extensions>
      </trkpt>
    </trkseg>
  </trk>
</gpx>