<?xml version="1.0" encoding="UTF-8"?>
<gpx xmlns="http://www.topografix.com/GPX/1/1" xmlns:gpxtpx="http://www.garmin.com/xmlschemas/TrackPointExtension/v1" xmlns:xsi="http://www.w3.org/2001/XMLSchema-instance" xsi:schemaLocation="http://www.topografix.com/GPX/1/1 http://www.topografix.com/GPX/1/1/gpx.xsd" version="1.1" creator="gpx.py -- https://github.com/tkrajina/gpxpy">
  <trk>
    <name>gpx from keep</name>
    <type>Run</type>
    <trkseg>
      <trkpt lat="38.83590497683761" lon="121.5073807678718">
        <ele>9.733103513330231</ele>
        <time>2025-12-21T23:50:39Z</time>
      </trkpt>
      <trkpt lat="38.83591598266961" lon="121.50747758330898">
        <ele>10.287291418189497</ele>
        <time>2025-12-21T23:50:43Z</time>
      </trkpt>
      <trkpt lat="38.83590749620337" lon="121.50755489152921">
        <ele>9.491417307406664</ele>
        <time>2025-12-21T23:50:50Z</time>
      </trkpt>
      <trkpt lat="38.83585761376502" lon="121.50761563762683">
        <ele>9.711919807828963</ele>
        <time>2025-12-21T23:50:57Z</time>
      </trkpt>
      <trkpt lat="38.83573703397859" lon="121.50798815240037">
        <ele>8.957379410043359</ele>
        <time>2025-12-21T23:51:18Z</time>
      </trkpt>
      <trkpt lat="38.83562547969932" lon="121.50833830621038">
        <ele>8.411311051808298</ele>
        <time>2025-12-21T23:51:39Z</time>
      </trkpt>
      <trkpt lat="38.83551310747236" lon="121.50868274363815">
        <ele>7.639728266745806</ele>
        <time>2025-12-21T23:51:57Z</time>
      </trkpt>
      <trkpt lat="38.8354156198165" lon="121.50894577600516">
        <ele>8.910812813788652</ele>
        <time>2025-12-21T23:52:09Z</time>
      </trkpt>
      <trkpt lat="38.83539598446035" lon="121.50905728670644">
        <ele>7.961132635362446</ele>
        <time>2025-12-21T23:52:15Z</time>
      </trkpt>
      <trkpt lat="38.83530937165692" lon="121.50928563279582">
        <ele>7.2692923825234175</ele>
        <time>2025-12-21T23:52:27Z</time>
      </trkpt>
      <trkpt lat="38.835316292578135" lon="121.50936095844258">
        <ele>7.78215335868299</ele>
        <time>2025-12-21T23:52:30Z</time>
      </trkpt>
      <trkpt lat="38.835468060358785" lon="121.50947466442038">
        <ele>7.502461224794388</ele>
        <time>2025-12-21T23:52:39Z</time>
      </trkpt>
      <trkpt lat="38.835528488513276" lon="121.50957667593701">
        <ele>7.070673848502338</ele>
        <time>2025-12-21T23:52:45Z</time>
      </trkpt>
      <trkpt lat="38.835543855450034" lon="121.50963779980952">
        <ele>6.863770314492285</ele>
        <time>2025-12-21T23:52:48Z</time>
      </trkpt>
      <trkpt lat="38.835787852355374" lon="121.5098569108895">
        <ele>7.439887495711446</ele>
        <time>2025-12-21T23:53:04Z</time>
      </trkpt>
      <trkpt lat="38.835979755407884" lon="121.51003699361699">
        <ele>7.11224724445492</ele>
        <time>2025-12-21T23:53:16Z</time>
      </trkpt>
      <trkpt lat="38.83600687950089" lon="121.5101304265779">
        <ele>6.951202645897865</ele>
        <time>2025-12-21T23:53:20Z</time>
      </trkpt>
      <trkpt lat="38.83611536879452" lon="121.51023587501459">
        <ele>7.97819474991411</ele>
        <time>2025-12-21T23:53:28Z</time>
      </trkpt>
      <trkpt lat="38.83622960660215" lon="121.51057332365271">
        <ele>6.754286186769605</ele>
        <time>2025-12-21T23:53:44Z</time>
      </trkpt>
      <trkpt lat="38.83618827649659" lon="121.51085991702573">
        <ele>7.395901361480355</ele>
        <time>2025-12-21T23:53:56Z</time>
      </trkpt>
      <trkpt lat="38.836034553004104" lon="121.51114806151291">
        <ele>5.5284323850646615</ele>
        <time>2025-12-21T23:54:11Z</time>
      </trkpt>
      <trkpt lat="38.83596779740885" lon="121.51140192821074">
        <ele>5.482521052472293</ele>
        <time>2025-12-21T23:54:23Z</time>
        <extensions>
          <gpxtpx:TrackPointExtension>
            <gpxtpx:hr>113</gpxtpx:hr>
          </gpxtpx:TrackPointExtension>
        </extensions>
      </trkpt>
      <trkpt lat="38.83600409742993" lon="121.51167996870801">
        <ele>4.985758593305945</ele>
        <time>2025-12-21T23:54:35Z</time>
        <extensions>
          <gpxtpx:TrackPointExtension>
            <gpxtpx:hr>113</gpxtpx:hr>
          </gpxtpx:TrackPointExtension>
        </extensions>
      </trkpt>
      <trkpt lat="38.83611949519989" lon="121.51186321643213">
        <ele>4.6810532081872225</ele>
        <time>2025-12-21T23:54:44Z</time>
        <extensions>
          <gpxtpx:TrackPointExtension>
            <gpxtpx:hr>117</gpxtpx:hr>
          </gpxtpx:TrackPointExtension>
        </extensions>
      </trkpt>
      <trkpt lat="38.836228173321565" lon="121.5119304773591">
        <ele>4.856807711534202</ele>
        <time>2025-12-21T23:54:50Z</time>
        <extensions>
          <gpxtpx:TrackPointExtension>
            <gpxtpx:hr>121</gpxtpx:hr>
          </gpxtpx:TrackPointExtension>
        </extensions>
      </trkpt>
      <trkpt lat="38.83628786340823" lon="121.51194496332">
        <ele>4.420021795667708</ele>
        <time>2025-12-21T23:54:53Z</time>
        <extensions>
          <gpxtpx:TrackPointExtension>
            <gpxtpx:hr>112</gpxtpx:hr>
          </gpxtpx:TrackPointExtension>
        </extensions>
      </trkpt>
      <trkpt lat="38.83651387455658" lon="121.51187694799641">
        <ele>5.201369167305529</ele>
        <time>2025-12-21T23:55:05Z</time>
        <extensions>
          <gpxtpx:TrackPointExtension>
            <gpxtpx:hr>122</gpxtpx:hr>
          </gpxtpx:TrackPointExtension>
        </extensions>
      </trkpt>
      <trkpt lat="38.83669709069865" lon="121.51172555898243">
        <ele>6.469064905308187</ele>
        <time>2025-12-21T23:55:17Z</time>
        <extensions>
          <gpxtpx:TrackPointExtension>
            <gpxtpx:hr>114</gpxtpx:hr>
          </gpxtpx:TrackPointExtension>
        </extensions>
      </trkpt>
      <trkpt lat="38.8368952219814" lon="121.51141199923939">
        <ele>7.439173732884228</ele>
        <time>2025-12-21T23:55:32Z</time>
        <extensions>
          <gpxtpx:TrackPointExtension>
            <gpxtpx:hr>125</gpxtpx:hr>
          </gpxtpx:TrackPointExtension>
        </extensions>
      </trkpt>
      <trkpt lat="38.837009944040524" lon="121.51106293246508">
        <ele>7.009341019205749</ele>
        <time>2025-12-21T23:55:47Z</time>
        <extensions>
          <gpxtpx:TrackPointExtension>
            <gpxtpx:hr>126</gpxtpx:hr>
          </gpxtpx:TrackPointExtension>
        </extensions>
      </trkpt>
      <trkpt lat="38.83713563346729" lon="121.51070794206743">
        <ele>8.050721175968647</ele>
        <time>2025-12-21T23:56:02Z</time>
        <extensions>
          <gpxtpx:TrackPointExtension>
            <gpxtpx:hr>126</gpxtpx:hr>
          </gpxtpx:TrackPointExtension>
        </extensions>
      </trkpt>
      <trkpt lat="38.83732391497613" lon="121.51043980776981">
        <ele>9.137189482338727</ele>
        <time>2025-12-21T23:56:17Z</time>
      </trkpt>
      <trkpt lat="38.837562687739485" lon="121.51022974519188">
        <ele>8.813686241395772</ele>
        <time>2025-12-21T23:56:32Z</time>
      </trkpt>
      <trkpt lat="38.83761903682709" lon="121.5102016935598">
        <ele>8.317029934376478</ele>
        <time>2025-12-21T23:56:35Z</time>
      </trkpt>
      <trkpt lat="38.83770120365505" lon="121.51008358651625">
        <ele>8.41927451081574</ele>
        <time>2025-12-21T23:56:41Z</time>
      </trkpt>
      <trkpt lat="38.83774686237356" lon="121.5099407355953">
        <ele>8.481828639283776</ele>
        <time>2025-12-21T23:56:47Z</time>
      </trkpt>
      <trkpt lat="38.83781168255215" lon="121.50993806935544">
        <ele>9.224636897444725</ele>
        <time>2025-12-21T23:56:50Z</time>
      </trkpt>
      <trkpt lat="38.83791689311343" lon="121.50974927702032">
        <ele>8.586118721403182</ele>
        <time>2025-12-21T23:56:59Z</time>
      </trkpt>
      <trkpt lat="38.83798243535199" lon="121.509459159395">
        <ele>8.735660082660615</ele>
        <time>2025-12-21T23:57:11Z</time>
      </trkpt>
      <trkpt lat="38.83806867033701" lon="121.50932752033933">
        <ele>10.041726117022336</ele>
        <time>2025-12-21T23:57:18Z</time>
      </trkpt>
      <trkpt lat="38.8382676214966" lon="121.50917428034087">
        <ele>9.25434734672308</ele>
        <time>2025-12-21T23:57:30Z</time>
        <extensions>
          <gpxtpx:TrackPointExtension>
            <gpxtpx:hr>130</gpxtpx:hr>
          </gpxtpx:TrackPointExtension>
        </extensions>
      </trkpt>
      <trkpt lat="38.838289648647525" lon="121.50910663805686">
        <ele>9.663173826411366</ele>
        <time>2025-12-21T23:57:33Z</time>
        <extensions>
          <gpxtpx:TrackPointExtension>
            <gpxtpx:hr>130</gpxtpx:hr>
          </gpxtpx:TrackPointExtension>
        </extensions>
      </trkpt>
      <trkpt lat="38.838212442456054" lon="121.50899301894276">
        <ele>10.351081718690693</ele>
        <time>2025-12-21T23:57:39Z</time>
        <extensions>
          <gpxtpx:TrackPointExtension>
            <gpxtpx:hr>120</gpxtpx:hr>
          </gpxtpx:TrackPointExtension>
        </extensions>
      </trkpt>
      <trkpt lat="38.837960228112095" lon="121.50883371628623">
        <ele>9.56738397385925</ele>
        <time>2025-12-21T23:57:54Z</time>
        <extensions>
          <gpxtpx:TrackPointExtension>
            <gpxtpx:hr>131</gpxtpx:hr>
          </gpxtpx:TrackPointExtension>
        </extensions>
      </trkpt>
      <trkpt lat="38.83774923810537" lon="121.50856353991506">
        <ele>10.581862770020962</ele>
        <time>2025-12-21T23:58:09Z</time>
        <extensions>
          <gpxtpx:TrackPointExtension>
            <gpxtpx:hr>127</gpxtpx:hr>
          </gpxtpx:TrackPointExtension>
        </extensions>
      </trkpt>
      <trkpt lat="38.837696766208694" lon="121.50852522851248">
        <ele>9.354312778450549</ele>
        <time>2025-12-21T23:58:12Z</time>
        <extensions>
          <gpxtpx:TrackPointExtension>
            <gpxtpx:hr>123</gpxtpx:hr>
          </gpxtpx:TrackPointExtension>
        </extensions>
      </trkpt>
      <trkpt lat="38.83763145881404" lon="121.50852935928043">
        <ele>9.939908879809082</ele>
        <time>2025-12-21T23:58:15Z</time>
        <extensions>
          <gpxtpx:TrackPointExtension>
            <gpxtpx:hr>123</gpxtpx:hr>
          </gpxtpx:TrackPointExtension>
        </extensions>
      </trkpt>
      <trkpt lat="38.83758430024075" lon="121.50857518913072">
        <ele>10.305261909030378</ele>
        <time>2025-12-21T23:58:18Z</time>
        <extensions>
          <gpxtpx:TrackPointExtension>
            <gpxtpx:hr>123</gpxtpx:hr>
          </gpxtpx:TrackPointExtension>
        </extensions>
      </trkpt>
      <trkpt lat="38.83749165941566" lon="121.50886929829538">
        <ele>9.881880193017423</ele>
        <time>2025-12-21T23:58:30Z</time>
        <extensions>
          <gpxtpx:TrackPointExtension>
            <gpxtpx:hr>122</gpxtpx:hr>
          </gpxtpx:TrackPointExtension>
        </extensions>
      </trkpt>
      <trkpt lat="38.83734828169185" lon="121.50903559157972">
        <ele>8.69094085227698</ele>
        <time>2025-12-21T23:58:39Z</time>
        <extensions>
          <gpxtpx:TrackPointExtension>
            <gpxtpx:hr>122</gpxtpx:hr>
          </gpxtpx:TrackPointExtension>
        </extensions>
      </trkpt>
      <trkpt lat="38.83724397238239" lon="121.50912435576167">
        <ele>9.137880314141512</ele>
        <time>2025-12-21T23:58:45Z</time>
        <extensions>
          <gpxtpx:TrackPointExtension>
            <gpxtpx:hr>122</gpxtpx:hr>
          </gpxtpx:TrackPointExtension>
        </extensions>
      </trkpt>
      <trkpt lat="38.837110637597256" lon="121.50939091883967">
        <ele>9.489585072733462</ele>
        <time>2025-12-21T23:58:57Z</time>
        <extensions>
          <gpxtpx:TrackPointExtension>
            <gpxtpx:hr>127</gpxtpx:hr>
          </gpxtpx:TrackPointExtension>
        </extensions>
      </trkpt>
      <trkpt lat="38.83700311973987" lon="121.50969818416065">
        <ele>9.02192610129714</ele>
        <time>2025-12-21T23:59:10Z</time>
        <extensions>
          <gpxtpx:TrackPointExtension>
            <gpxtpx:hr>128</gpxtpx:hr>
          </gpxtpx:TrackPointExtension>
        </extensions>
      </trkpt>
      <trkpt lat="38.83690765433074" lon="121.5098322216703">
        <ele>8.64038832206279</ele>
        <time>2025-12-21T23:59:17Z</time>
        <extensions>
          <gpxtpx:TrackPointExtension>
            <gpxtpx:hr>131</gpxtpx:hr>
          </gpxtpx:TrackPointExtension>
        </extensions>
      </trkpt>
      <trkpt lat="38.83677701289606" lon="121.50992489874307">
        <ele>8.286537478677928</ele>
        <time>2025-12-21T23:59:24Z</time>
        <extensions>
          <gpxtpx:TrackPointExtension>
            <gpxtpx:hr>129</gpxtpx:hr>
          </gpxtpx:TrackPointExtension>
        </extensions>
      </trkpt>
      <trkpt lat="38.836464874836246" lon="121.5099766559107">
        <ele>9.212153801694512</ele>
        <time>2025-12-21T23:59:39Z</time>
        <extensions>
          <gpxtpx:TrackPointExtension>
            <gpxtpx:hr>135</gpxtpx:hr>
          </gpxtpx:TrackPointExtension>
        </extensions>
      </trkpt>
      <trkpt lat="38.83615699932035" lon="121.51006735820266">
        <ele>6.989508579485118</ele>
        <time>2025-12-21T23:59:54Z</time>
        <extensions>
          <gpxtpx:TrackPointExtension>
            <gpxtpx:hr>133</gpxtpx:hr>
          </gpxtpx:TrackPointExtension>
        </extensions>
      </trkpt>
      <trkpt lat="38.83610627993437" lon="121.51010798419746">
        <ele>6.274625054560602</ele>
        <time>2025-12-21T23:59:57Z</time>
        <extensions>
          <gpxtpx:TrackPointExtension>
            <gpxtpx:hr>133</gpxtpx:hr>
          </gpxtpx:TrackPointExtension>
        </extensions>
      </trkpt>
      <trkpt lat="38.83609236251333" lon="121.51018825331931">
        <ele>5.396803849376738</ele>
        <time>2025-12-22T00:00:00Z</time>
        <extensions>
          <gpxtpx:TrackPointExtension>
            <gpxtpx:hr>136</gpxtpx:hr>
          </gpxtpx:TrackPointExtension>
        </extensions>
      </trkpt>
      <trkpt lat="38.83621785554962" lon="121.51048956112648">
        <ele>5.87085150834173</ele>
        <time>2025-12-22T00:00:12Z</time>
        <extensions>
          <gpxtpx:TrackPointExtension>
            <gpxtpx:hr>131</gpxtpx:hr>
          </gpxtpx:TrackPointExtension>
        </extensions>
      </trkpt>
      <trkpt lat="38.836231853819235" lon="121.51056722243943">
        <ele>5.952837288379669</ele>
        <time>2025-12-22T00:00:15Z</time>
        <extensions>
          <gpxtpx:TrackPointExtension>
            <gpxtpx:hr>137</gpxtpx:hr>
          </gpxtpx:TrackPointExtension>
        </extensions>
      </trkpt>
      <trkpt lat="38.83618770623204" lon="121.51082627778497">
        <ele>6.473729127086699</ele>
        <time>2025-12-22T00:00:24Z</time>
        <extensions>
          <gpxtpx:TrackPointExtension>
            <gpxtpx:hr>138</gpxtpx:hr>
          </gpxtpx:TrackPointExtension>
        </extensions>
      </trkpt>
      <trkpt lat="38.83604520473462" lon="121.51112237720092">
        <ele>6.036809633485973</ele>
        <time>2025-12-22T00:00:36Z</time>
        <extensions>
          <gpxtpx:TrackPointExtension>
            <gpxtpx:hr>136</gpxtpx:hr>
          </gpxtpx:TrackPointExtension>
        </extensions>
      </trkpt>
      <trkpt lat="38.8359533992737" lon="121.51141768590415">
        <ele>5.974071970209479</ele>
        <time>2025-12-22T00:00:48Z</time>
        <extensions>
          <gpxtpx:TrackPointExtension>
            <gpxtpx:hr>139</gpxtpx:hr>
          </gpxtpx:TrackPointExtension>
        </extensions>
      </trkpt>
      <trkpt lat="38.835955897357266" lon="121.51156597019667">
        <ele>6.220406390726566</ele>
        <time>2025-12-22T00:00:54Z</time>
        <extensions>
          <gpxtpx:TrackPointExtension>
            <gpxtpx:hr>137</gpxtpx:hr>
          </gpxtpx:TrackPointExtension>
        </extensions>
      </trkpt>
      <trkpt lat="38.836039637042845" lon="121.51177242719575">
        <ele>5.852982018142939</ele>
        <time>2025-12-22T00:01:03Z</time>
        <extensions>
          <gpxtpx:TrackPointExtension>
            <gpxtpx:hr>132</gpxtpx:hr>
          </gpxtpx:TrackPointExtension>
        </extensions>
      </trkpt>
      <trkpt lat="38.836140873779286" lon="121.51188537740425">
        <ele>5.975921838544309</ele>
        <time>2025-12-22T00:01:09Z</time>
        <extensions>
          <gpxtpx:TrackPointExtension>
            <gpxtpx:hr>138</gpxtpx:hr>
          </gpxtpx:TrackPointExtension>
        </extensions>
      </trkpt>
      <trkpt lat="38.83628543849275" lon="121.51194057319131">
        <ele>5.589510057121515</ele>
        <time>2025-12-22T00:01:16Z</time>
        <extensions>
          <gpxtpx:TrackPointExtension>
            <gpxtpx:hr>140</gpxtpx:hr>
          </gpxtpx:TrackPointExtension>
        </extensions>
      </trkpt>
      <trkpt lat="38.83635324656764" lon="121.51194464636623">
        <ele>5.337857983075082</ele>
        <time>2025-12-22T00:01:19Z</time>
        <extensions>
          <gpxtpx:TrackPointExtension>
            <gpxtpx:hr>142</gpxtpx:hr>
          </gpxtpx:TrackPointExtension>
        </extensions>
      </trkpt>
      <trkpt lat="38.836586154521406" lon="121.51182851605772">
        <ele>5.670919937081635</ele>
        <time>2025-12-22T00:01:31Z</time>
        <extensions>
          <gpxtpx:TrackPointExtension>
            <gpxtpx:hr>142</gpxtpx:hr>
          </gpxtpx:TrackPointExtension>
        </extensions>
      </trkpt>
      <trkpt lat="38.836775345732526" lon="121.51161015268103">
        <ele>6.5445032911375165</ele>
        <time>2025-12-22T00:01:43Z</time>
        <extensions>
          <gpxtpx:TrackPointExtension>
            <gpxtpx:hr>143</gpxtpx:hr>
          </gpxtpx:TrackPointExtension>
        </extensions>
      </trkpt>
      <trkpt lat="38.8369336773227" lon="121.51132475522505">
        <ele>6.856046850793064</ele>
        <time>2025-12-22T00:01:55Z</time>
        <extensions>
          <gpxtpx:TrackPointExtension>
            <gpxtpx:hr>146</gpxtpx:hr>
          </gpxtpx:TrackPointExtension>
        </extensions>
      </trkpt>
      <trkpt lat="38.83702314899434" lon="121.51093876498204">
        <ele>6.855138095095754</ele>
        <time>2025-12-22T00:02:10Z</time>
        <extensions>
          <gpxtpx:TrackPointExtension>
            <gpxtpx:hr>148</gpxtpx:hr>
          </gpxtpx:TrackPointExtension>
        </extensions>
      </trkpt>
      <trkpt lat="38.83719468598678" lon="121.51058833100473">
        <ele>7.0566831808537245</ele>
        <time>2025-12-22T00:02:25Z</time>
        <extensions>
          <gpxtpx:TrackPointExtension>
            <gpxtpx:hr>146</gpxtpx:hr>
          </gpxtpx:TrackPointExtension>
        </extensions>
      </trkpt>
      <trkpt lat="38.83744504205465" lon="121.51031845627737">
        <ele>8.656707871705294</ele>
        <time>2025-12-22T00:02:40Z</time>
        <extensions>
          <gpxtpx:TrackPointExtension>
            <gpxtpx:hr>147</gpxtpx:hr>
          </gpxtpx:TrackPointExtension>
        </extensions>
      </trkpt>
      <trkpt lat="38.83760786939201" lon="121.5101841915523">
        <ele>8.527514947578311</ele>
        <time>2025-12-22T00:02:49Z</time>
        <extensions>
          <gpxtpx:TrackPointExtension>
            <gpxtpx:hr>149</gpxtpx:hr>
          </gpxtpx:TrackPointExtension>
        </extensions>
      </trkpt>
      <trkpt lat="38.83769474976988" lon="121.51005921292514">
        <ele>9.076708232983947</ele>
        <time>2025-12-22T00:02:55Z</time>
        <extensions>
          <gpxtpx:TrackPointExtension>
            <gpxtpx:hr>148</gpxtpx:hr>
          </gpxtpx:TrackPointExtension>
        </extensions>
      </trkpt>
      <trkpt lat="38.837724930164775" lon="121.5099867833533">
        <ele>9.089719193987548</ele>
        <time>2025-12-22T00:02:58Z</time>
        <extensions>
          <gpxtpx:TrackPointExtension>
            <gpxtpx:hr>148</gpxtpx:hr>
          </gpxtpx:TrackPointExtension>
        </extensions>
      </trkpt>
      <trkpt lat="38.83777373681311" lon="121.50993140942234">
        <ele>9.097724497318268</ele>
        <time>2025-12-22T00:03:01Z</time>
        <extensions>
          <gpxtpx:TrackPointExtension>
            <gpxtpx:hr>148</gpxtpx:hr>
          </gpxtpx:TrackPointExtension>
        </extensions>
      </trkpt>
      <trkpt lat="38.8378314505388" lon="121.50990127219667">
        <ele>9.260006768628955</ele>
        <time>2025-12-22T00:03:04Z</time>
        <extensions>
          <gpxtpx:TrackPointExtension>
            <gpxtpx:hr>148</gpxtpx:hr>
          </gpxtpx:TrackPointExtension>
        </extensions>
      </trkpt>
      <trkpt lat="38.83790738301103" lon="121.50975022428183">
        <ele>9.045640380121768</ele>
        <time>2025-12-22T00:03:10Z</time>
        <extensions>
          <gpxtpx:TrackPointExtension>
            <gpxtpx:hr>148</gpxtpx:hr>
          </gpxtpx:TrackPointExtension>
        </extensions>
      </trkpt>
      <trkpt lat="38.837960388499006" lon="121.50946840660033">
        <ele>9.612821490503848</ele>
        <time>2025-12-22T00:03:21Z</time>
        <extensions>
          <gpxtpx:TrackPointExtension>
            <gpxtpx:hr>149</gpxtpx:hr>
          </gpxtpx:TrackPointExtension>
        </extensions>
      </trkpt>
      <trkpt lat="38.83800483459838" lon="121.50938401993844">
        <ele>9.526578141376376</ele>
        <time>2025-12-22T00:03:25Z</time>
        <extensions>
          <gpxtpx:TrackPointExtension>
            <gpxtpx:hr>150</gpxtpx:hr>
          </gpxtpx:TrackPointExtension>
        </extensions>
      </trkpt>
      <trkpt lat="38.83806980619326" lon="121.50931069141626">
        <ele>9.934564108029008</ele>
        <time>2025-12-22T00:03:29Z</time>
        <extensions>
          <gpxtpx:TrackPointExtension>
            <gpxtpx:hr>148</gpxtpx:hr>
          </gpxtpx:TrackPointExtension>
        </extensions>
      </trkpt>
      <trkpt lat="38.83820258686539" lon="121.50922625993007">
        <ele>9.552440883591771</ele>
        <time>2025-12-22T00:03:36Z</time>
        <extensions>
          <gpxtpx:TrackPointExtension>
            <gpxtpx:hr>146</gpxtpx:hr>
          </gpxtpx:TrackPointExtension>
        </extensions>
      </trkpt>
      <trkpt lat="38.83825047615069" lon="121.50917356622331">
        <ele>9.698977511376143</ele>
        <time>2025-12-22T00:03:39Z</time>
        <extensions>
          <gpxtpx:TrackPointExtension>
            <gpxtpx:hr>146</gpxtpx:hr>
          </gpxtpx:TrackPointExtension>
        </extensions>
      </trkpt>
      <trkpt lat="38.838279571679145" lon="121.50910978702444">
        <ele>9.84569891821593</ele>
        <time>2025-12-22T00:03:42Z</time>
        <extensions>
          <gpxtpx:TrackPointExtension>
            <gpxtpx:hr>146</gpxtpx:hr>
          </gpxtpx:TrackPointExtension>
        </extensions>
      </trkpt>
      <trkpt lat="38.83811265829676" lon="121.50887760762772">
        <ele>10.119520856067538</ele>
        <time>2025-12-22T00:03:54Z</time>
        <extensions>
          <gpxtpx:TrackPointExtension>
            <gpxtpx:hr>150</gpxtpx:hr>
          </gpxtpx:TrackPointExtension>
        </extensions>
      </trkpt>
      <trkpt lat="38.837849494872984" lon="121.50863202582212">
        <ele>10.25431629177183</ele>
        <time>2025-12-22T00:04:09Z</time>
        <extensions>
          <gpxtpx:TrackPointExtension>
            <gpxtpx:hr>151</gpxtpx:hr>
          </gpxtpx:TrackPointExtension>
        </extensions>
      </trkpt>
      <trkpt lat="38.837709823096525" lon="121.50846709627902">
        <ele>10.473673262633383</ele>
        <time>2025-12-22T00:04:18Z</time>
        <extensions>
          <gpxtpx:TrackPointExtension>
            <gpxtpx:hr>151</gpxtpx:hr>
          </gpxtpx:TrackPointExtension>
        </extensions>
      </trkpt>
      <trkpt lat="38.83765153257792" lon="121.50847515122493">
        <ele>10.386285225860775</ele>
        <time>2025-12-22T00:04:21Z</time>
        <extensions>
          <gpxtpx:TrackPointExtension>
            <gpxtpx:hr>150</gpxtpx:hr>
          </gpxtpx:TrackPointExtension>
        </extensions>
      </trkpt>
      <trkpt lat="38.837610469486826" lon="121.50853617405777">
        <ele>10.975050465203822</ele>
        <time>2025-12-22T00:04:24Z</time>
        <extensions>
          <gpxtpx:TrackPointExtension>
            <gpxtpx:hr>149</gpxtpx:hr>
          </gpxtpx:TrackPointExtension>
        </extensions>
      </trkpt>
      <trkpt lat="38.83747343745903" lon="121.50890977268672">
        <ele>10.569833938963711</ele>
        <time>2025-12-22T00:04:39Z</time>
        <extensions>
          <gpxtpx:TrackPointExtension>
            <gpxtpx:hr>151</gpxtpx:hr>
          </gpxtpx:TrackPointExtension>
        </extensions>
      </trkpt>
      <trkpt lat="38.83723169577326" lon="121.50913646544547">
        <ele>9.60523628257215</ele>
        <time>2025-12-22T00:04:54Z</time>
        <extensions>
          <gpxtpx:TrackPointExtension>
            <gpxtpx:hr>148</gpxtpx:hr>
          </gpxtpx:TrackPointExtension>
        </extensions>
      </trkpt>
      <trkpt lat="38.837084632937334" lon="121.50951255955644">
        <ele>9.693003379739821</ele>
        <time>2025-12-22T00:05:09Z</time>
        <extensions>
          <gpxtpx:TrackPointExtension>
            <gpxtpx:hr>148</gpxtpx:hr>
          </gpxtpx:TrackPointExtension>
        </extensions>
      </trkpt>
      <trkpt lat="38.83699404692314" lon="121.50971505673621">
        <ele>8.611474407836795</ele>
        <time>2025-12-22T00:05:18Z</time>
        <extensions>
          <gpxtpx:TrackPointExtension>
            <gpxtpx:hr>147</gpxtpx:hr>
          </gpxtpx:TrackPointExtension>
        </extensions>
      </trkpt>
      <trkpt lat="38.836839100056075" lon="121.50988992710923">
        <ele>8.439947856590152</ele>
        <time>2025-12-22T00:05:28Z</time>
        <extensions>
          <gpxtpx:TrackPointExtension>
            <gpxtpx:hr>148</gpxtpx:hr>
          </gpxtpx:TrackPointExtension>
        </extensions>
      </trkpt>
      <trkpt lat="38.83663925685451" lon="121.50995997077423">
        <ele>8.846359761431813</ele>
        <time>2025-12-22T00:05:38Z</time>
        <extensions>
          <gpxtpx:TrackPointExtension>
            <gpxtpx:hr>146</gpxtpx:hr>
          </gpxtpx:TrackPointExtension>
        </extensions>
      </trkpt>
      <trkpt lat="38.83639961486071" lon="121.50998834329833">
        <ele>8.477241802029312</ele>
        <time>2025-12-22T00:05:50Z</time>
        <extensions>
          <gpxtpx:TrackPointExtension>
            <gpxtpx:hr>144</gpxtpx:hr>
          </gpxtpx:TrackPointExtension>
        </extensions>
      </trkpt>
      <trkpt lat="38.83622398903339" lon="121.51004419249418">
        <ele>8.39664452150464</ele>
        <time>2025-12-22T00:05:59Z</time>
        <extensions>
          <gpxtpx:TrackPointExtension>
            <gpxtpx:hr>143</gpxtpx:hr>
          </gpxtpx:TrackPointExtension>
        </extensions>
      </trkpt>
      <trkpt lat="38.836175642365454" lon="121.51008516495793">
        <ele>8.62205639667809</ele>
        <time>2025-12-22T00:06:02Z</time>
        <extensions>
          <gpxtpx:TrackPointExtension>
            <gpxtpx:hr>143</gpxtpx:hr>
          </gpxtpx:TrackPointExtension>
        </extensions>
      </trkpt>
      <trkpt lat="38.83612410244173" lon="121.51010174190931">
        <ele>6.520632565021515</ele>
        <time>2025-12-22T00:06:05Z</time>
        <extensions>
          <gpxtpx:TrackPointExtension>
            <gpxtpx:hr>143</gpxtpx:hr>
          </gpxtpx:TrackPointExtension>
        </extensions>
      </trkpt>
      <trkpt lat="38.83608897071153" lon="121.5101603321419">
        <ele>7.308223054744303</ele>
        <time>2025-12-22T00:06:08Z</time>
        <extensions>
          <gpxtpx:TrackPointExtension>
            <gpxtpx:hr>143</gpxtpx:hr>
          </gpxtpx:TrackPointExtension>
        </extensions>
      </trkpt>
      <trkpt lat="38.8361964162599" lon="121.51050251247672">
        <ele>7.291881243698299</ele>
        <time>2025-12-22T00:06:23Z</time>
        <extensions>
          <gpxtpx:TrackPointExtension>
            <gpxtpx:hr>144</gpxtpx:hr>
          </gpxtpx:TrackPointExtension>
        </extensions>
      </trkpt>
      <trkpt lat="38.836207964487" lon="121.51057627258105">
        <ele>6.357657892629504</ele>
        <time>2025-12-22T00:06:26Z</time>
        <extensions>
          <gpxtpx:TrackPointExtension>
            <gpxtpx:hr>144</gpxtpx:hr>
          </gpxtpx:TrackPointExtension>
        </extensions>
      </trkpt>
      <trkpt lat="38.83618247555852" lon="121.51081356196164">
        <ele>6.921804249286652</ele>
        <time>2025-12-22T00:06:35Z</time>
        <extensions>
          <gpxtpx:TrackPointExtension>
            <gpxtpx:hr>150</gpxtpx:hr>
          </gpxtpx:TrackPointExtension>
        </extensions>
      </trkpt>
      <trkpt lat="38.83603030917632" lon="121.51116030175098">
        <ele>6.858897645026445</ele>
        <time>2025-12-22T00:06:50Z</time>
        <extensions>
          <gpxtpx:TrackPointExtension>
            <gpxtpx:hr>144</gpxtpx:hr>
          </gpxtpx:TrackPointExtension>
        </extensions>
      </trkpt>
      <trkpt lat="38.83596402115356" lon="121.51137777005918">
        <ele>5.615185374394059</ele>
        <time>2025-12-22T00:06:59Z</time>
        <extensions>
          <gpxtpx:TrackPointExtension>
            <gpxtpx:hr>143</gpxtpx:hr>
          </gpxtpx:TrackPointExtension>
        </extensions>
      </trkpt>
      <trkpt lat="38.83598075345144" lon="121.51161508293546">
        <ele>6.15500932559371</ele>
        <time>2025-12-22T00:07:08Z</time>
        <extensions>
          <gpxtpx:TrackPointExtension>
            <gpxtpx:hr>148</gpxtpx:hr>
          </gpxtpx:TrackPointExtension>
        </extensions>
      </trkpt>
      <trkpt lat="38.836019307767636" lon="121.51175504996046">
        <ele>5.978342472575605</ele>
        <time>2025-12-22T00:07:14Z</time>
        <extensions>
          <gpxtpx:TrackPointExtension>
            <gpxtpx:hr>150</gpxtpx:hr>
          </gpxtpx:TrackPointExtension>
        </extensions>
      </trkpt>
      <trkpt lat="38.83606113757303" lon="121.51181142776538">
        <ele>6.181833430193365</ele>
        <time>2025-12-22T00:07:17Z</time>
        <extensions>
          <gpxtpx:TrackPointExtension>
            <gpxtpx:hr>150</gpxtpx:hr>
          </gpxtpx:TrackPointExtension>
        </extensions>
      </trkpt>
      <trkpt lat="38.836087303021955" lon="121.51187951224955">
        <ele>5.8226276421919465</ele>
        <time>2025-12-22T00:07:20Z</time>
        <extensions>
          <gpxtpx:TrackPointExtension>
            <gpxtpx:hr>152</gpxtpx:hr>
          </gpxtpx:TrackPointExtension>
        </extensions>
      </trkpt>
      <trkpt lat="38.836211228115445" lon="121.51194003454508">
        <ele>6.324126817286015</ele>
        <time>2025-12-22T00:07:26Z</time>
        <extensions>
          <gpxtpx:TrackPointExtension>
            <gpxtpx:hr>150</gpxtpx:hr>
          </gpxtpx:TrackPointExtension>
        </extensions>
      </trkpt>
      <trkpt lat="38.836363780816654" lon="121.51194521461072">
        <ele>5.6527722124010324</ele>
        <time>2025-12-22T00:07:33Z</time>
        <extensions>
          <gpxtpx:TrackPointExtension>
            <gpxtpx:hr>150</gpxtpx:hr>
          </gpxtpx:TrackPointExtension>
        </extensions>
      </trkpt>
      <trkpt lat="38.8364912652882" lon="121.51190390343692">
        <ele>5.820740224793553</ele>
        <time>2025-12-22T00:07:39Z</time>
        <extensions>
          <gpxtpx:TrackPointExtension>
            <gpxtpx:hr>149</gpxtpx:hr>
          </gpxtpx:TrackPointExtension>
        </extensions>
      </trkpt>
      <trkpt lat="38.83670462701285" lon="121.51171841558781">
        <ele>5.758369883522391</ele>
        <time>2025-12-22T00:07:51Z</time>
        <extensions>
          <gpxtpx:TrackPointExtension>
            <gpxtpx:hr>148</gpxtpx:hr>
          </gpxtpx:TrackPointExtension>
        </extensions>
      </trkpt>
      <trkpt lat="38.83690679131123" lon="121.51141123033331">
        <ele>6.775900575332344</ele>
        <time>2025-12-22T00:08:06Z</time>
        <extensions>
          <gpxtpx:TrackPointExtension>
            <gpxtpx:hr>149</gpxtpx:hr>
          </gpxtpx:TrackPointExtension>
        </extensions>
      </trkpt>
      <trkpt lat="38.83701288202938" lon="121.51104610437643">
        <ele>6.680835982784629</ele>
        <time>2025-12-22T00:08:21Z</time>
        <extensions>
          <gpxtpx:TrackPointExtension>
            <gpxtpx:hr>150</gpxtpx:hr>
          </gpxtpx:TrackPointExtension>
        </extensions>
      </trkpt>
      <trkpt lat="38.837143979789744" lon="121.51068709479593">
        <ele>7.1575557086616755</ele>
        <time>2025-12-22T00:08:36Z</time>
        <extensions>
          <gpxtpx:TrackPointExtension>
            <gpxtpx:hr>149</gpxtpx:hr>
          </gpxtpx:TrackPointExtension>
        </extensions>
      </trkpt>
      <trkpt lat="38.837354308178796" lon="121.51041269675834">
        <ele>7.772913572378457</ele>
        <time>2025-12-22T00:08:51Z</time>
        <extensions>
          <gpxtpx:TrackPointExtension>
            <gpxtpx:hr>146</gpxtpx:hr>
          </gpxtpx:TrackPointExtension>
        </extensions>
      </trkpt>
      <trkpt lat="38.83759794877248" lon="121.51020349504196">
        <ele>8.371019165962934</ele>
        <time>2025-12-22T00:09:06Z</time>
        <extensions>
          <gpxtpx:TrackPointExtension>
            <gpxtpx:hr>149</gpxtpx:hr>
          </gpxtpx:TrackPointExtension>
        </extensions>
      </trkpt>
      <trkpt lat="38.83768709214183" lon="121.51009526808447">
        <ele>8.748675442300737</ele>
        <time>2025-12-22T00:09:12Z</time>
        <extensions>
          <gpxtpx:TrackPointExtension>
            <gpxtpx:hr>149</gpxtpx:hr>
          </gpxtpx:TrackPointExtension>
        </extensions>
      </trkpt>
      <trkpt lat="38.837732918488406" lon="121.50995921716289">
        <ele>9.115985717624426</ele>
        <time>2025-12-22T00:09:18Z</time>
        <extensions>
          <gpxtpx:TrackPointExtension>
            <gpxtpx:hr>149</gpxtpx:hr>
          </gpxtpx:TrackPointExtension>
        </extensions>
      </trkpt>
      <trkpt lat="38.837782082833805" lon="121.50992640281507">
        <ele>8.997043250128627</ele>
        <time>2025-12-22T00:09:21Z</time>
        <extensions>
          <gpxtpx:TrackPointExtension>
            <gpxtpx:hr>148</gpxtpx:hr>
          </gpxtpx:TrackPointExtension>
        </extensions>
      </trkpt>
      <trkpt lat="38.83783726102403" lon="121.50991986688217">
        <ele>8.477727736346424</ele>
        <time>2025-12-22T00:09:24Z</time>
        <extensions>
          <gpxtpx:TrackPointExtension>
            <gpxtpx:hr>148</gpxtpx:hr>
          </gpxtpx:TrackPointExtension>
        </extensions>
      </trkpt>
      <trkpt lat="38.83794518566485" lon="121.5096193317082">
        <ele>9.647354223765433</ele>
        <time>2025-12-22T00:09:37Z</time>
        <extensions>
          <gpxtpx:TrackPointExtension>
            <gpxtpx:hr>150</gpxtpx:hr>
          </gpxtpx:TrackPointExtension>
        </extensions>
      </trkpt>
      <trkpt lat="38.83798119203829" lon="121.50944642964014">
        <ele>9.545061795040965</ele>
        <time>2025-12-22T00:09:44Z</time>
        <extensions>
          <gpxtpx:TrackPointExtension>
            <gpxtpx:hr>149</gpxtpx:hr>
          </gpxtpx:TrackPointExtension>
        </extensions>
      </trkpt>
      <trkpt lat="38.83807378035229" lon="121.50932048633076">
        <ele>9.989473664201796</ele>
        <time>2025-12-22T00:09:51Z</time>
        <extensions>
          <gpxtpx:TrackPointExtension>
            <gpxtpx:hr>149</gpxtpx:hr>
          </gpxtpx:TrackPointExtension>
        </extensions>
      </trkpt>
      <trkpt lat="38.838265016823726" lon="121.50916693396405">
        <ele>10.165202463045716</ele>
        <time>2025-12-22T00:10:03Z</time>
        <extensions>
          <gpxtpx:TrackPointExtension>
            <gpxtpx:hr>148</gpxtpx:hr>
          </gpxtpx:TrackPointExtension>
        </extensions>
      </trkpt>
      <trkpt lat="38.83830157434961" lon="121.50910325914951">
        <ele>9.917608399875462</ele>
        <time>2025-12-22T00:10:06Z</time>
        <extensions>
          <gpxtpx:TrackPointExtension>
            <gpxtpx:hr>146</gpxtpx:hr>
          </gpxtpx:TrackPointExtension>
        </extensions>
      </trkpt>
      <trkpt lat="38.83829910410845" lon="121.50902805075233">
        <ele>10.402687582187355</ele>
        <time>2025-12-22T00:10:09Z</time>
        <extensions>
          <gpxtpx:TrackPointExtension>
            <gpxtpx:hr>146</gpxtpx:hr>
          </gpxtpx:TrackPointExtension>
        </extensions>
      </trkpt>
      <trkpt lat="38.838045053826036" lon="121.50880700162841">
        <ele>9.88517957739532</ele>
        <time>2025-12-22T00:10:24Z</time>
        <extensions>
          <gpxtpx:TrackPointExtension>
            <gpxtpx:hr>147</gpxtpx:hr>
          </gpxtpx:TrackPointExtension>
        </extensions>
      </trkpt>
      <trkpt lat="38.83793045976544" lon="121.50872248485008">
        <ele>10.405124152079225</ele>
        <time>2025-12-22T00:10:30Z</time>
        <extensions>
          <gpxtpx:TrackPointExtension>
            <gpxtpx:hr>151</gpxtpx:hr>
          </gpxtpx:TrackPointExtension>
        </extensions>
      </trkpt>
      <trkpt lat="38.837704411703676" lon="121.50846921866018">
        <ele>10.668496005237103</ele>
        <time>2025-12-22T00:10:45Z</time>
        <extensions>
          <gpxtpx:TrackPointExtension>
            <gpxtpx:hr>150</gpxtpx:hr>
          </gpxtpx:TrackPointExtension>
        </extensions>
      </trkpt>
      <trkpt lat="38.83748224092304" lon="121.5082041801292">
        <ele>12.784636945463717</ele>
        <time>2025-12-22T00:11:00Z</time>
        <extensions>
          <gpxtpx:TrackPointExtension>
            <gpxtpx:hr>150</gpxtpx:hr>
          </gpxtpx:TrackPointExtension>
        </extensions>
      </trkpt>
      <trkpt lat="38.83739479460312" lon="121.50810970258416">
        <ele>11.24849031213671</ele>
        <time>2025-12-22T00:11:06Z</time>
        <extensions>
          <gpxtpx:TrackPointExtension>
            <gpxtpx:hr>151</gpxtpx:hr>
          </gpxtpx:TrackPointExtension>
        </extensions>
      </trkpt>
      <trkpt lat="38.837281831217474" lon="121.5080561344355">
        <ele>10.926827792078257</ele>
        <time>2025-12-22T00:11:12Z</time>
        <extensions>
          <gpxtpx:TrackPointExtension>
            <gpxtpx:hr>150</gpxtpx:hr>
          </gpxtpx:TrackPointExtension>
        </extensions>
      </trkpt>
      <trkpt lat="38.83720119931782" lon="121.50796155842771">
        <ele>10.580994363874197</ele>
        <time>2025-12-22T00:11:18Z</time>
        <extensions>
          <gpxtpx:TrackPointExtension>
            <gpxtpx:hr>150</gpxtpx:hr>
          </gpxtpx:TrackPointExtension>
        </extensions>
      </trkpt>
      <trkpt lat="38.8371395479214" lon="121.507935278457">
        <ele>11.425219180062413</ele>
        <time>2025-12-22T00:11:21Z</time>
        <extensions>
          <gpxtpx:TrackPointExtension>
            <gpxtpx:hr>150</gpxtpx:hr>
          </gpxtpx:TrackPointExtension>
        </extensions>
      </trkpt>
      <trkpt lat="38.83706562633976" lon="121.50782694343845">
        <ele>10.55876912176609</ele>
        <time>2025-12-22T00:11:27Z</time>
        <extensions>
          <gpxtpx:TrackPointExtension>
            <gpxtpx:hr>149</gpxtpx:hr>
          </gpxtpx:TrackPointExtension>
        </extensions>
      </trkpt>
      <trkpt lat="38.83687689870253" lon="121.50764640849388">
        <ele>10.518532619811594</ele>
        <time>2025-12-22T00:11:39Z</time>
        <extensions>
          <gpxtpx:TrackPointExtension>
            <gpxtpx:hr>147</gpxtpx:hr>
          </gpxtpx:TrackPointExtension>
        </extensions>
      </trkpt>
      <trkpt lat="38.83674964137414" lon="121.50754876508013">
        <ele>8.988771107979119</ele>
        <time>2025-12-22T00:11:46Z</time>
        <extensions>
          <gpxtpx:TrackPointExtension>
            <gpxtpx:hr>146</gpxtpx:hr>
          </gpxtpx:TrackPointExtension>
        </extensions>
      </trkpt>
      <trkpt lat="38.83648065051406" lon="121.50729753942097">
        <ele>9.027295741252601</ele>
        <time>2025-12-22T00:12:02Z</time>
        <extensions>
          <gpxtpx:TrackPointExtension>
            <gpxtpx:hr>147</gpxtpx:hr>
          </gpxtpx:TrackPointExtension>
        </extensions>
      </trkpt>
      <trkpt lat="38.836226548845744" lon="121.50711527040686">
        <ele>8.926622764207423</ele>
        <time>2025-12-22T00:12:17Z</time>
        <extensions>
          <gpxtpx:TrackPointExtension>
            <gpxtpx:hr>148</gpxtpx:hr>
          </gpxtpx:TrackPointExtension>
        </extensions>
      </trkpt>
      <trkpt lat="38.836083926296844" lon="121.50699684725609">
        <ele>9.65591592527926</ele>
        <time>2025-12-22T00:12:29Z</time>
        <extensions>
          <gpxtpx:TrackPointExtension>
            <gpxtpx:hr>146</gpxtpx:hr>
          </gpxtpx:TrackPointExtension>
        </extensions>
      </trkpt>
      <trkpt lat="38.836083926296844" lon="121.50699684725609">
        <ele>9.65591592527926</ele>
        <time>2025-12-22T00:12:32Z</time>
        <extensions>
          <gpxtpx:TrackPointExtension>
            <gpxtpx:hr>147</gpxtpx:hr>
          </gpxtpx:TrackPointExtension>
        </extensions>
      </trkpt>
    </trkseg>
  </trk>
</gpx>