<?xml version="1.0" encoding="UTF-8"?>
<gpx xmlns="http://www.topografix.com/GPX/1/1" xmlns:gpxtpx="http://www.garmin.com/xmlschemas/TrackPointExtension/v1" xmlns:xsi="http://www.w3.org/2001/XMLSchema-instance" xsi:schemaLocation="http://www.topografix.com/GPX/1/1 http://www.topografix.com/GPX/1/1/gpx.xsd" version="1.1" creator="gpx.py -- https://github.com/tkrajina/gpxpy">
  <trk>
    <name>gpx from keep</name>
    <type>Run</type>
    <trkseg>
      <trkpt lat="38.8372165925164" lon="121.50931711190198">
        <ele>11.02117284471786</ele>
        <time>2025-11-27T23:56:04Z</time>
      </trkpt>
      <trkpt lat="38.83717185152521" lon="121.50934796001465">
        <ele>10.983633665095361</ele>
        <time>2025-11-27T23:56:11Z</time>
      </trkpt>
      <trkpt lat="38.83713274620823" lon="121.50943407367409">
        <ele>11.316174185834825</ele>
        <time>2025-11-27T23:56:19Z</time>
      </trkpt>
      <trkpt lat="38.83700378025022" lon="121.50961959754756">
        <ele>8.610666302032769</ele>
        <time>2025-11-27T23:56:35Z</time>
      </trkpt>
      <trkpt lat="38.83697003764488" lon="121.5097097461069">
        <ele>8.75297550484538</ele>
        <time>2025-11-27T23:56:47Z</time>
      </trkpt>
      <trkpt lat="38.83681652229984" lon="121.50988712573971">
        <ele>8.732466905377805</ele>
        <time>2025-11-27T23:57:03Z</time>
      </trkpt>
      <trkpt lat="38.83650945237508" lon="121.50994920960618">
        <ele>9.275663740932941</ele>
        <time>2025-11-27T23:57:25Z</time>
      </trkpt>
      <trkpt lat="38.83620540697351" lon="121.51004927088528">
        <ele>8.042057872749865</ele>
        <time>2025-11-27T23:57:46Z</time>
      </trkpt>
      <trkpt lat="38.83612218275649" lon="121.5100957909703">
        <ele>8.659256661310792</ele>
        <time>2025-11-27T23:57:52Z</time>
      </trkpt>
      <trkpt lat="38.8360845087211" lon="121.51014042903384">
        <ele>8.647195231169462</ele>
        <time>2025-11-27T23:57:55Z</time>
      </trkpt>
      <trkpt lat="38.83608245478247" lon="121.51020330568473">
        <ele>7.500187600031495</ele>
        <time>2025-11-27T23:57:58Z</time>
      </trkpt>
      <trkpt lat="38.83620561832795" lon="121.51043784351035">
        <ele>7.58856900036335</ele>
        <time>2025-11-27T23:58:11Z</time>
      </trkpt>
      <trkpt lat="38.83624105082507" lon="121.51055389151611">
        <ele>7.032963816076517</ele>
        <time>2025-11-27T23:58:17Z</time>
      </trkpt>
      <trkpt lat="38.836229367232825" lon="121.51075921764406">
        <ele>6.854143530130386</ele>
        <time>2025-11-27T23:58:26Z</time>
      </trkpt>
      <trkpt lat="38.836104553547585" lon="121.51098899131834">
        <ele>6.790966680273414</ele>
        <time>2025-11-27T23:58:38Z</time>
      </trkpt>
      <trkpt lat="38.836003154418826" lon="121.5111578001322">
        <ele>5.878536080941558</ele>
        <time>2025-11-27T23:58:47Z</time>
      </trkpt>
      <trkpt lat="38.835981150401544" lon="121.51122311318113">
        <ele>6.125003674998879</ele>
        <time>2025-11-27T23:58:50Z</time>
      </trkpt>
      <trkpt lat="38.83595804710929" lon="121.51154536368918">
        <ele>5.733582999557257</ele>
        <time>2025-11-27T23:59:05Z</time>
      </trkpt>
      <trkpt lat="38.836017273429626" lon="121.5117231315263">
        <ele>5.256658522412181</ele>
        <time>2025-11-27T23:59:14Z</time>
      </trkpt>
      <trkpt lat="38.8361125392765" lon="121.51187173328184">
        <ele>4.613702612929046</ele>
        <time>2025-11-27T23:59:23Z</time>
      </trkpt>
      <trkpt lat="38.83626310283501" lon="121.5119332864054">
        <ele>5.280345211736858</ele>
        <time>2025-11-27T23:59:32Z</time>
      </trkpt>
      <trkpt lat="38.83655672860069" lon="121.51183232170861">
        <ele>7.474571796134114</ele>
        <time>2025-11-27T23:59:50Z</time>
      </trkpt>
      <trkpt lat="38.83664206048756" lon="121.51175846207218">
        <ele>6.968025729991496</ele>
        <time>2025-11-27T23:59:56Z</time>
      </trkpt>
      <trkpt lat="38.8368237749914" lon="121.51149859303933">
        <ele>8.146485354751348</ele>
        <time>2025-11-28T00:00:11Z</time>
      </trkpt>
      <trkpt lat="38.83692760948348" lon="121.51129944647641">
        <ele>7.731330060400069</ele>
        <time>2025-11-28T00:00:22Z</time>
      </trkpt>
      <trkpt lat="38.836973582394336" lon="121.51116177576021">
        <ele>7.480503058061004</ele>
        <time>2025-11-28T00:00:29Z</time>
      </trkpt>
      <trkpt lat="38.8370616892701" lon="121.51080892394668">
        <ele>8.609316741116345</ele>
        <time>2025-11-28T00:00:46Z</time>
      </trkpt>
      <trkpt lat="38.83724376064049" lon="121.51051476302412">
        <ele>8.994595778174698</ele>
        <time>2025-11-28T00:01:04Z</time>
      </trkpt>
      <trkpt lat="38.837351094162614" lon="121.51036720924151">
        <ele>10.414459235966206</ele>
        <time>2025-11-28T00:01:13Z</time>
      </trkpt>
      <trkpt lat="38.83762419779632" lon="121.51015936374213">
        <ele>9.07822448015213</ele>
        <time>2025-11-28T00:01:31Z</time>
      </trkpt>
      <trkpt lat="38.837684016650634" lon="121.51004469215523">
        <ele>9.015713738277555</ele>
        <time>2025-11-28T00:01:37Z</time>
      </trkpt>
      <trkpt lat="38.837719542334334" lon="121.50991859790958">
        <ele>10.136728134937584</ele>
        <time>2025-11-28T00:01:43Z</time>
      </trkpt>
      <trkpt lat="38.83777662778479" lon="121.50993713218622">
        <ele>9.502968028187752</ele>
        <time>2025-11-28T00:01:46Z</time>
      </trkpt>
      <trkpt lat="38.837838600521486" lon="121.5098932171356">
        <ele>8.840404545888305</ele>
        <time>2025-11-28T00:01:49Z</time>
      </trkpt>
      <trkpt lat="38.837940309588525" lon="121.5095728871856">
        <ele>9.531209103763103</ele>
        <time>2025-11-28T00:02:04Z</time>
      </trkpt>
      <trkpt lat="38.83799711427343" lon="121.50936004969881">
        <ele>9.939258500933647</ele>
        <time>2025-11-28T00:02:16Z</time>
      </trkpt>
      <trkpt lat="38.838243093901106" lon="121.50915566235379">
        <ele>11.663878119550645</ele>
        <time>2025-11-28T00:02:38Z</time>
      </trkpt>
      <trkpt lat="38.83827224099878" lon="121.5090908951373">
        <ele>11.650818170979619</ele>
        <time>2025-11-28T00:02:41Z</time>
      </trkpt>
      <trkpt lat="38.838252898619665" lon="121.50902467923909">
        <ele>11.07722985651344</ele>
        <time>2025-11-28T00:02:44Z</time>
      </trkpt>
      <trkpt lat="38.8381974657693" lon="121.50899232803806">
        <ele>10.397578516043723</ele>
        <time>2025-11-28T00:02:47Z</time>
      </trkpt>
      <trkpt lat="38.83815721776552" lon="121.5089450672595">
        <ele>11.540831257589161</ele>
        <time>2025-11-28T00:02:50Z</time>
      </trkpt>
      <trkpt lat="38.83796903135536" lon="121.50886032775843">
        <ele>10.585375640541315</ele>
        <time>2025-11-28T00:03:02Z</time>
      </trkpt>
      <trkpt lat="38.83777129667034" lon="121.50860831562348">
        <ele>10.390962538309395</ele>
        <time>2025-11-28T00:03:17Z</time>
      </trkpt>
      <trkpt lat="38.837693449994326" lon="121.50851714031965">
        <ele>9.671110067516565</ele>
        <time>2025-11-28T00:03:23Z</time>
      </trkpt>
      <trkpt lat="38.8376472143012" lon="121.50851102962226">
        <ele>9.38215684145689</ele>
        <time>2025-11-28T00:03:26Z</time>
      </trkpt>
      <trkpt lat="38.83760454451588" lon="121.5085367582911">
        <ele>9.809099459089339</ele>
        <time>2025-11-28T00:03:29Z</time>
      </trkpt>
      <trkpt lat="38.83749520495336" lon="121.50888063912264">
        <ele>10.640681234188378</ele>
        <time>2025-11-28T00:03:44Z</time>
      </trkpt>
      <trkpt lat="38.83736466914893" lon="121.50903586862927">
        <ele>10.72170618828386</ele>
        <time>2025-11-28T00:03:53Z</time>
      </trkpt>
      <trkpt lat="38.83726908809611" lon="121.50912084963322">
        <ele>9.686742253601551</ele>
        <time>2025-11-28T00:03:59Z</time>
      </trkpt>
      <trkpt lat="38.83722126096778" lon="121.5091928886278">
        <ele>10.294475859031081</ele>
        <time>2025-11-28T00:04:02Z</time>
      </trkpt>
      <trkpt lat="38.83716899881313" lon="121.50932932189319">
        <ele>9.686524940654635</ele>
        <time>2025-11-28T00:04:08Z</time>
      </trkpt>
      <trkpt lat="38.83701795112567" lon="121.5096378311966">
        <ele>9.100843785330653</ele>
        <time>2025-11-28T00:04:23Z</time>
      </trkpt>
      <trkpt lat="38.8369435057668" lon="121.50978294704187">
        <ele>8.63502062112093</ele>
        <time>2025-11-28T00:04:30Z</time>
      </trkpt>
      <trkpt lat="38.83683298344598" lon="121.50988511362665">
        <ele>7.757979264482856</ele>
        <time>2025-11-28T00:04:37Z</time>
      </trkpt>
      <trkpt lat="38.83665151647101" lon="121.50996016995727">
        <ele>7.157899745739996</ele>
        <time>2025-11-28T00:04:47Z</time>
      </trkpt>
      <trkpt lat="38.836543912888324" lon="121.50995500614864">
        <ele>7.992795863188803</ele>
        <time>2025-11-28T00:04:53Z</time>
      </trkpt>
      <trkpt lat="38.83625891783424" lon="121.51002209051966">
        <ele>7.055674019269645</ele>
        <time>2025-11-28T00:05:08Z</time>
      </trkpt>
      <trkpt lat="38.83615352095578" lon="121.51006965456092">
        <ele>7.868395926430821</ele>
        <time>2025-11-28T00:05:14Z</time>
      </trkpt>
      <trkpt lat="38.83610325064376" lon="121.51011357556382">
        <ele>6.794057070277631</ele>
        <time>2025-11-28T00:05:17Z</time>
      </trkpt>
      <trkpt lat="38.83608839124281" lon="121.51018974327731">
        <ele>7.416537689976394</ele>
        <time>2025-11-28T00:05:20Z</time>
      </trkpt>
      <trkpt lat="38.83620723387517" lon="121.51043469297971">
        <ele>7.127064066007733</ele>
        <time>2025-11-28T00:05:32Z</time>
      </trkpt>
      <trkpt lat="38.83625173111881" lon="121.51058132142079">
        <ele>7.440258890390396</ele>
        <time>2025-11-28T00:05:38Z</time>
      </trkpt>
      <trkpt lat="38.83618154114007" lon="121.51087798863422">
        <ele>6.583199261687696</ele>
        <time>2025-11-28T00:05:50Z</time>
      </trkpt>
      <trkpt lat="38.836019032086604" lon="121.51117421523588">
        <ele>7.252919778227806</ele>
        <time>2025-11-28T00:06:05Z</time>
      </trkpt>
      <trkpt lat="38.83598324464068" lon="121.51123139244186">
        <ele>6.542774266563356</ele>
        <time>2025-11-28T00:06:08Z</time>
      </trkpt>
      <trkpt lat="38.835950788130454" lon="121.51143690992556">
        <ele>5.4405045276507735</ele>
        <time>2025-11-28T00:06:17Z</time>
      </trkpt>
      <trkpt lat="38.8359582299185" lon="121.51157185040492">
        <ele>5.288487016223371</ele>
        <time>2025-11-28T00:06:23Z</time>
      </trkpt>
      <trkpt lat="38.83603412493126" lon="121.51174510969891">
        <ele>5.622596598230302</ele>
        <time>2025-11-28T00:06:32Z</time>
      </trkpt>
      <trkpt lat="38.83608713170178" lon="121.51182750187958">
        <ele>5.874159201979637</ele>
        <time>2025-11-28T00:06:36Z</time>
      </trkpt>
      <trkpt lat="38.836143211410196" lon="121.51188132334148">
        <ele>5.038792755454779</ele>
        <time>2025-11-28T00:06:40Z</time>
      </trkpt>
      <trkpt lat="38.83628205650895" lon="121.5119395882283">
        <ele>6.192846575751901</ele>
        <time>2025-11-28T00:06:48Z</time>
      </trkpt>
      <trkpt lat="38.836540166401925" lon="121.51185275464394">
        <ele>5.321392466314137</ele>
        <time>2025-11-28T00:07:03Z</time>
      </trkpt>
      <trkpt lat="38.836575750921725" lon="121.51180091759717">
        <ele>5.7775745783001184</ele>
        <time>2025-11-28T00:07:06Z</time>
      </trkpt>
      <trkpt lat="38.836679480322566" lon="121.51171108245077">
        <ele>6.528160450048745</ele>
        <time>2025-11-28T00:07:12Z</time>
      </trkpt>
      <trkpt lat="38.836796546158006" lon="121.51152599946758">
        <ele>8.159017588943243</ele>
        <time>2025-11-28T00:07:21Z</time>
      </trkpt>
      <trkpt lat="38.83683649309349" lon="121.5114889589556">
        <ele>7.988290234468877</ele>
        <time>2025-11-28T00:07:24Z</time>
      </trkpt>
      <trkpt lat="38.83695785003789" lon="121.51122019253172">
        <ele>7.996446641162038</ele>
        <time>2025-11-28T00:07:36Z</time>
      </trkpt>
      <trkpt lat="38.83698900558353" lon="121.511017815047">
        <ele>7.328929077833891</ele>
        <time>2025-11-28T00:07:45Z</time>
      </trkpt>
      <trkpt lat="38.83703436805138" lon="121.51094950602022">
        <ele>7.418846416287124</ele>
        <time>2025-11-28T00:07:48Z</time>
      </trkpt>
      <trkpt lat="38.83709417863882" lon="121.51071977224588">
        <ele>8.173876303248107</ele>
        <time>2025-11-28T00:07:57Z</time>
      </trkpt>
      <trkpt lat="38.837124774489105" lon="121.51065562537399">
        <ele>8.859304258599877</ele>
        <time>2025-11-28T00:08:00Z</time>
      </trkpt>
      <trkpt lat="38.83730545735652" lon="121.51041704960534">
        <ele>8.9272276815027</ele>
        <time>2025-11-28T00:08:13Z</time>
      </trkpt>
      <trkpt lat="38.83755813057662" lon="121.51021646504354">
        <ele>8.978451917879283</ele>
        <time>2025-11-28T00:08:28Z</time>
      </trkpt>
      <trkpt lat="38.837601724826825" lon="121.5101826130875">
        <ele>9.23579488415271</ele>
        <time>2025-11-28T00:08:31Z</time>
      </trkpt>
      <trkpt lat="38.83766639934169" lon="121.5101241132837">
        <ele>9.71018445957452</ele>
        <time>2025-11-28T00:08:48Z</time>
      </trkpt>
      <trkpt lat="38.83772792178957" lon="121.50994217306048">
        <ele>10.041228337213397</ele>
        <time>2025-11-28T00:08:55Z</time>
      </trkpt>
      <trkpt lat="38.83784067499757" lon="121.50991116836126">
        <ele>7.48408367484808</ele>
        <time>2025-11-28T00:09:01Z</time>
      </trkpt>
      <trkpt lat="38.83791089727843" lon="121.50977267687009">
        <ele>8.98847450595349</ele>
        <time>2025-11-28T00:09:07Z</time>
      </trkpt>
      <trkpt lat="38.83794773577989" lon="121.50947080930821">
        <ele>10.381134168244898</ele>
        <time>2025-11-28T00:09:19Z</time>
      </trkpt>
      <trkpt lat="38.83796967509904" lon="121.50939609934545">
        <ele>9.186841082759202</ele>
        <time>2025-11-28T00:09:22Z</time>
      </trkpt>
      <trkpt lat="38.838108784293816" lon="121.50924347055954">
        <ele>10.736319351010025</ele>
        <time>2025-11-28T00:09:31Z</time>
      </trkpt>
      <trkpt lat="38.8382198600455" lon="121.50919218418908">
        <ele>11.204983827657998</ele>
        <time>2025-11-28T00:09:37Z</time>
      </trkpt>
      <trkpt lat="38.83825408055109" lon="121.50911934879421">
        <ele>10.874983556568623</ele>
        <time>2025-11-28T00:09:40Z</time>
      </trkpt>
      <trkpt lat="38.83825466266444" lon="121.5090366897979">
        <ele>10.55852029658854</ele>
        <time>2025-11-28T00:09:43Z</time>
      </trkpt>
      <trkpt lat="38.83816059262473" lon="121.5089479520558">
        <ele>11.553229087032378</ele>
        <time>2025-11-28T00:09:49Z</time>
      </trkpt>
      <trkpt lat="38.83794550440961" lon="121.50883654200692">
        <ele>9.9023278914392</ele>
        <time>2025-11-28T00:10:01Z</time>
      </trkpt>
      <trkpt lat="38.83785255579844" lon="121.50874419323509">
        <ele>10.140029406175017</ele>
        <time>2025-11-28T00:10:07Z</time>
      </trkpt>
      <trkpt lat="38.83770982846115" lon="121.50853185606005">
        <ele>10.376917251385748</ele>
        <time>2025-11-28T00:10:19Z</time>
      </trkpt>
      <trkpt lat="38.83765738987341" lon="121.50850414870416">
        <ele>10.20333812572062</ele>
        <time>2025-11-28T00:10:22Z</time>
      </trkpt>
      <trkpt lat="38.837605512536875" lon="121.50853546557822">
        <ele>9.010494177229702</ele>
        <time>2025-11-28T00:10:25Z</time>
      </trkpt>
      <trkpt lat="38.83757162516615" lon="121.50860564989799">
        <ele>9.228280390612781</ele>
        <time>2025-11-28T00:10:28Z</time>
      </trkpt>
      <trkpt lat="38.83756459081375" lon="121.50868548889116">
        <ele>9.537740563042462</ele>
        <time>2025-11-28T00:10:31Z</time>
      </trkpt>
      <trkpt lat="38.837492767662944" lon="121.50891297499129">
        <ele>10.315506101585925</ele>
        <time>2025-11-28T00:10:40Z</time>
      </trkpt>
      <trkpt lat="38.837240954855346" lon="121.50914469803986">
        <ele>9.118507553823292</ele>
        <time>2025-11-28T00:10:55Z</time>
      </trkpt>
      <trkpt lat="38.837092407528935" lon="121.50948657544457">
        <ele>10.07153299357742</ele>
        <time>2025-11-28T00:11:10Z</time>
      </trkpt>
      <trkpt lat="38.8369786882232" lon="121.50974424194065">
        <ele>9.064288119785488</ele>
        <time>2025-11-28T00:11:22Z</time>
      </trkpt>
      <trkpt lat="38.83683004551654" lon="121.50988656528085">
        <ele>7.497538440860808</ele>
        <time>2025-11-28T00:11:31Z</time>
      </trkpt>
      <trkpt lat="38.83655662654974" lon="121.50997514091085">
        <ele>7.482558612711728</ele>
        <time>2025-11-28T00:11:46Z</time>
      </trkpt>
      <trkpt lat="38.83639608557509" lon="121.5099893846931">
        <ele>7.794047074392438</ele>
        <time>2025-11-28T00:11:55Z</time>
      </trkpt>
      <trkpt lat="38.83611803240634" lon="121.51010063731879">
        <ele>6.582721217535436</ele>
        <time>2025-11-28T00:12:10Z</time>
      </trkpt>
      <trkpt lat="38.836077364033756" lon="121.51017580239254">
        <ele>6.921147488988936</ele>
        <time>2025-11-28T00:12:13Z</time>
      </trkpt>
      <trkpt lat="38.83622235785336" lon="121.51050134534293">
        <ele>7.62191117554903</ele>
        <time>2025-11-28T00:12:28Z</time>
      </trkpt>
      <trkpt lat="38.83624818530135" lon="121.51058400986132">
        <ele>8.045533237978816</ele>
        <time>2025-11-28T00:12:31Z</time>
      </trkpt>
      <trkpt lat="38.836252475719135" lon="121.51066325997725">
        <ele>7.70678923279047</ele>
        <time>2025-11-28T00:12:34Z</time>
      </trkpt>
      <trkpt lat="38.83618714782995" lon="121.51089423354641">
        <ele>6.834158876910806</ele>
        <time>2025-11-28T00:12:43Z</time>
      </trkpt>
      <trkpt lat="38.83602716551491" lon="121.51118726430843">
        <ele>5.788265375420451</ele>
        <time>2025-11-28T00:12:56Z</time>
      </trkpt>
      <trkpt lat="38.83598857043941" lon="121.51125939763847">
        <ele>5.187486791051924</ele>
        <time>2025-11-28T00:12:59Z</time>
      </trkpt>
      <trkpt lat="38.835931329983076" lon="121.51148235141109">
        <ele>4.888376886956394</ele>
        <time>2025-11-28T00:13:08Z</time>
      </trkpt>
      <trkpt lat="38.8360007816211" lon="121.51168124398531">
        <ele>4.385021542198956</ele>
        <time>2025-11-28T00:13:17Z</time>
      </trkpt>
      <trkpt lat="38.83609989784365" lon="121.51187456093635">
        <ele>4.980117472819984</ele>
        <time>2025-11-28T00:13:26Z</time>
      </trkpt>
      <trkpt lat="38.83627227259579" lon="121.51193062566028">
        <ele>5.5464873015880585</ele>
        <time>2025-11-28T00:13:35Z</time>
      </trkpt>
      <trkpt lat="38.836447627007324" lon="121.51189369927249">
        <ele>5.1712830904871225</ele>
        <time>2025-11-28T00:13:44Z</time>
      </trkpt>
      <trkpt lat="38.836663558162634" lon="121.51176602264727">
        <ele>5.428542613983154</ele>
        <time>2025-11-28T00:13:56Z</time>
      </trkpt>
      <trkpt lat="38.836866437737264" lon="121.5114619923152">
        <ele>6.06438428349793</ele>
        <time>2025-11-28T00:14:11Z</time>
      </trkpt>
      <trkpt lat="38.83699563119823" lon="121.51111603514416">
        <ele>6.064754015766084</ele>
        <time>2025-11-28T00:14:26Z</time>
      </trkpt>
      <trkpt lat="38.836999193328545" lon="121.51104244889704">
        <ele>6.75171803124249</ele>
        <time>2025-11-28T00:14:29Z</time>
      </trkpt>
      <trkpt lat="38.837100779774836" lon="121.51076100538796">
        <ele>7.60360505245626</ele>
        <time>2025-11-28T00:14:41Z</time>
      </trkpt>
      <trkpt lat="38.83728108476384" lon="121.51046863278367">
        <ele>8.400186655111611</ele>
        <time>2025-11-28T00:14:56Z</time>
      </trkpt>
      <trkpt lat="38.8373840058643" lon="121.5103409210421">
        <ele>7.946965471841395</ele>
        <time>2025-11-28T00:15:03Z</time>
      </trkpt>
      <trkpt lat="38.837657902612456" lon="121.51011518499935">
        <ele>9.012102771550417</ele>
        <time>2025-11-28T00:15:19Z</time>
      </trkpt>
      <trkpt lat="38.83774821153666" lon="121.5098399862442">
        <ele>8.861852325499058</ele>
        <time>2025-11-28T00:15:31Z</time>
      </trkpt>
      <trkpt lat="38.837761690180194" lon="121.50968351640454">
        <ele>8.041527155786753</ele>
        <time>2025-11-28T00:15:37Z</time>
      </trkpt>
      <trkpt lat="38.83773151865095" lon="121.50935027173705">
        <ele>8.671398278325796</ele>
        <time>2025-11-28T00:15:49Z</time>
      </trkpt>
      <trkpt lat="38.83775953684346" lon="121.50912872543063">
        <ele>10.312386373989284</ele>
        <time>2025-11-28T00:15:58Z</time>
      </trkpt>
      <trkpt lat="38.83769957136095" lon="121.50871108484834">
        <ele>10.03937824908644</ele>
        <time>2025-11-28T00:16:13Z</time>
      </trkpt>
      <trkpt lat="38.837684306101885" lon="121.50855937130942">
        <ele>10.303300033323467</ele>
        <time>2025-11-28T00:16:19Z</time>
      </trkpt>
      <trkpt lat="38.837582340137125" lon="121.50829822649585">
        <ele>9.06355432793498</ele>
        <time>2025-11-28T00:16:31Z</time>
      </trkpt>
      <trkpt lat="38.837442429257685" lon="121.5081758346033">
        <ele>9.676619263365865</ele>
        <time>2025-11-28T00:16:40Z</time>
      </trkpt>
      <trkpt lat="38.83736025915651" lon="121.50813468862584">
        <ele>9.967811479233205</ele>
        <time>2025-11-28T00:16:44Z</time>
      </trkpt>
      <trkpt lat="38.83722080778801" lon="121.50797731088905">
        <ele>11.031861995346844</ele>
        <time>2025-11-28T00:16:53Z</time>
      </trkpt>
      <trkpt lat="38.837068205913965" lon="121.50787147816283">
        <ele>10.474892650730908</ele>
        <time>2025-11-28T00:17:02Z</time>
      </trkpt>
      <trkpt lat="38.83685444381994" lon="121.50764308663895">
        <ele>10.735785243101418</ele>
        <time>2025-11-28T00:17:17Z</time>
      </trkpt>
      <trkpt lat="38.83682543694375" lon="121.50761895458213">
        <ele>11.93720212392509</ele>
        <time>2025-11-28T00:17:20Z</time>
      </trkpt>
    </trkseg>
  </trk>
</gpx>