<?xml version="1.0" encoding="UTF-8"?>
<gpx xmlns="http://www.topografix.com/GPX/1/1" xmlns:gpxtpx="http://www.garmin.com/xmlschemas/TrackPointExtension/v1" xmlns:xsi="http://www.w3.org/2001/XMLSchema-instance" xsi:schemaLocation="http://www.topografix.com/GPX/1/1 http://www.topografix.com/GPX/1/1/gpx.xsd" version="1.1" creator="gpx.py -- https://github.com/tkrajina/gpxpy">
  <trk>
    <name>gpx from keep</name>
    <type>Run</type>
    <trkseg>
      <trkpt lat="38.83625226893934" lon="121.50630665874543">
        <ele>9.141753555699697</ele>
        <time>2025-08-31T16:14:29Z</time>
        <extensions>
          <gpxtpx:TrackPointExtension>
            <gpxtpx:hr>59</gpxtpx:hr>
          </gpxtpx:TrackPointExtension>
        </extensions>
      </trkpt>
      <trkpt lat="38.83627116845179" lon="121.5061950230529">
        <ele>9.482564629315178</ele>
        <time>2025-08-31T16:14:36Z</time>
        <extensions>
          <gpxtpx:TrackPointExtension>
            <gpxtpx:hr>59</gpxtpx:hr>
          </gpxtpx:TrackPointExtension>
        </extensions>
      </trkpt>
      <trkpt lat="38.83630143171241" lon="121.50614636786167">
        <ele>9.687408057041466</ele>
        <time>2025-08-31T16:14:40Z</time>
        <extensions>
          <gpxtpx:TrackPointExtension>
            <gpxtpx:hr>59</gpxtpx:hr>
          </gpxtpx:TrackPointExtension>
        </extensions>
      </trkpt>
      <trkpt lat="38.83631968084167" lon="121.50604044883173">
        <ele>9.680915676057339</ele>
        <time>2025-08-31T16:14:44Z</time>
        <extensions>
          <gpxtpx:TrackPointExtension>
            <gpxtpx:hr>59</gpxtpx:hr>
          </gpxtpx:TrackPointExtension>
        </extensions>
      </trkpt>
      <trkpt lat="38.836425205651224" lon="121.5058553527397">
        <ele>9.161687336862087</ele>
        <time>2025-08-31T16:14:53Z</time>
        <extensions>
          <gpxtpx:TrackPointExtension>
            <gpxtpx:hr>115</gpxtpx:hr>
          </gpxtpx:TrackPointExtension>
        </extensions>
      </trkpt>
      <trkpt lat="38.836439838263786" lon="121.50577462995162">
        <ele>8.82410323061049</ele>
        <time>2025-08-31T16:14:56Z</time>
        <extensions>
          <gpxtpx:TrackPointExtension>
            <gpxtpx:hr>115</gpxtpx:hr>
          </gpxtpx:TrackPointExtension>
        </extensions>
      </trkpt>
      <trkpt lat="38.836560580543384" lon="121.50544574141695">
        <ele>8.65862250328064</ele>
        <time>2025-08-31T16:15:11Z</time>
        <extensions>
          <gpxtpx:TrackPointExtension>
            <gpxtpx:hr>116</gpxtpx:hr>
          </gpxtpx:TrackPointExtension>
        </extensions>
      </trkpt>
      <trkpt lat="38.836691821348325" lon="121.5051250147614">
        <ele>9.63263898063451</ele>
        <time>2025-08-31T16:15:26Z</time>
        <extensions>
          <gpxtpx:TrackPointExtension>
            <gpxtpx:hr>119</gpxtpx:hr>
          </gpxtpx:TrackPointExtension>
        </extensions>
      </trkpt>
      <trkpt lat="38.836762025560745" lon="121.50491797198448">
        <ele>9.506400750018656</ele>
        <time>2025-08-31T16:15:38Z</time>
        <extensions>
          <gpxtpx:TrackPointExtension>
            <gpxtpx:hr>121</gpxtpx:hr>
          </gpxtpx:TrackPointExtension>
        </extensions>
      </trkpt>
      <trkpt lat="38.836832533234784" lon="121.50464502141436">
        <ele>9.662177845835686</ele>
        <time>2025-08-31T16:15:50Z</time>
        <extensions>
          <gpxtpx:TrackPointExtension>
            <gpxtpx:hr>121</gpxtpx:hr>
          </gpxtpx:TrackPointExtension>
        </extensions>
      </trkpt>
      <trkpt lat="38.836954865262776" lon="121.50432199057613">
        <ele>8.192242557182908</ele>
        <time>2025-08-31T16:16:05Z</time>
      </trkpt>
      <trkpt lat="38.83703750898846" lon="121.50421603931723">
        <ele>7.839050124399364</ele>
        <time>2025-08-31T16:16:11Z</time>
      </trkpt>
      <trkpt lat="38.83709614586224" lon="121.50421176335823">
        <ele>7.908496285788715</ele>
        <time>2025-08-31T16:16:14Z</time>
      </trkpt>
      <trkpt lat="38.8373130791228" lon="121.5044282733158">
        <ele>7.216081635095179</ele>
        <time>2025-08-31T16:16:29Z</time>
      </trkpt>
      <trkpt lat="38.83756975076934" lon="121.50465381016171">
        <ele>7.31844512745738</ele>
        <time>2025-08-31T16:16:45Z</time>
      </trkpt>
      <trkpt lat="38.837798166148424" lon="121.50486063473379">
        <ele>7.931634358130395</ele>
        <time>2025-08-31T16:17:00Z</time>
      </trkpt>
      <trkpt lat="38.83798807455734" lon="121.50504556468574">
        <ele>8.363122699782252</ele>
        <time>2025-08-31T16:17:12Z</time>
      </trkpt>
      <trkpt lat="38.83811681387549" lon="121.5052083477581">
        <ele>9.905709178186953</ele>
        <time>2025-08-31T16:17:21Z</time>
      </trkpt>
      <trkpt lat="38.838260094709355" lon="121.50534590509669">
        <ele>9.951979486271739</ele>
        <time>2025-08-31T16:17:30Z</time>
      </trkpt>
      <trkpt lat="38.83830943736657" lon="121.50536168807548">
        <ele>9.876576985232532</ele>
        <time>2025-08-31T16:17:33Z</time>
      </trkpt>
      <trkpt lat="38.83855485257608" lon="121.50562938056134">
        <ele>10.17790867201984</ele>
        <time>2025-08-31T16:17:48Z</time>
      </trkpt>
      <trkpt lat="38.83870849277977" lon="121.50576203676937">
        <ele>10.178701824508607</ele>
        <time>2025-08-31T16:17:57Z</time>
        <extensions>
          <gpxtpx:TrackPointExtension>
            <gpxtpx:hr>122</gpxtpx:hr>
          </gpxtpx:TrackPointExtension>
        </extensions>
      </trkpt>
      <trkpt lat="38.83894266198718" lon="121.50599784096975">
        <ele>10.451787143945694</ele>
        <time>2025-08-31T16:18:12Z</time>
        <extensions>
          <gpxtpx:TrackPointExtension>
            <gpxtpx:hr>120</gpxtpx:hr>
          </gpxtpx:TrackPointExtension>
        </extensions>
      </trkpt>
      <trkpt lat="38.83902810989456" lon="121.50608008110571">
        <ele>10.661879263818264</ele>
        <time>2025-08-31T16:18:18Z</time>
        <extensions>
          <gpxtpx:TrackPointExtension>
            <gpxtpx:hr>113</gpxtpx:hr>
          </gpxtpx:TrackPointExtension>
        </extensions>
      </trkpt>
      <trkpt lat="38.8390681418103" lon="121.50615477381238">
        <ele>10.933330503292382</ele>
        <time>2025-08-31T16:18:21Z</time>
        <extensions>
          <gpxtpx:TrackPointExtension>
            <gpxtpx:hr>113</gpxtpx:hr>
          </gpxtpx:TrackPointExtension>
        </extensions>
      </trkpt>
      <trkpt lat="38.83934087457462" lon="121.506374582755">
        <ele>11.804776270873845</ele>
        <time>2025-08-31T16:18:36Z</time>
        <extensions>
          <gpxtpx:TrackPointExtension>
            <gpxtpx:hr>124</gpxtpx:hr>
          </gpxtpx:TrackPointExtension>
        </extensions>
      </trkpt>
      <trkpt lat="38.8396011268168" lon="121.50660188566467">
        <ele>13.436874877661467</ele>
        <time>2025-08-31T16:18:51Z</time>
        <extensions>
          <gpxtpx:TrackPointExtension>
            <gpxtpx:hr>126</gpxtpx:hr>
          </gpxtpx:TrackPointExtension>
        </extensions>
      </trkpt>
      <trkpt lat="38.839661232245014" lon="121.50665811617955">
        <ele>12.716222593560815</ele>
        <time>2025-08-31T16:18:54Z</time>
        <extensions>
          <gpxtpx:TrackPointExtension>
            <gpxtpx:hr>125</gpxtpx:hr>
          </gpxtpx:TrackPointExtension>
        </extensions>
      </trkpt>
      <trkpt lat="38.839695033050795" lon="121.50672726817567">
        <ele>12.527335654012859</ele>
        <time>2025-08-31T16:18:57Z</time>
        <extensions>
          <gpxtpx:TrackPointExtension>
            <gpxtpx:hr>125</gpxtpx:hr>
          </gpxtpx:TrackPointExtension>
        </extensions>
      </trkpt>
      <trkpt lat="38.839813093730896" lon="121.50666019145471">
        <ele>12.415295243263245</ele>
        <time>2025-08-31T16:19:03Z</time>
        <extensions>
          <gpxtpx:TrackPointExtension>
            <gpxtpx:hr>127</gpxtpx:hr>
          </gpxtpx:TrackPointExtension>
        </extensions>
      </trkpt>
      <trkpt lat="38.84000061496354" lon="121.50638148516865">
        <ele>14.029616108164191</ele>
        <time>2025-08-31T16:19:15Z</time>
        <extensions>
          <gpxtpx:TrackPointExtension>
            <gpxtpx:hr>128</gpxtpx:hr>
          </gpxtpx:TrackPointExtension>
        </extensions>
      </trkpt>
      <trkpt lat="38.84012021639926" lon="121.50611905721618">
        <ele>13.800589004531503</ele>
        <time>2025-08-31T16:19:27Z</time>
        <extensions>
          <gpxtpx:TrackPointExtension>
            <gpxtpx:hr>129</gpxtpx:hr>
          </gpxtpx:TrackPointExtension>
        </extensions>
      </trkpt>
      <trkpt lat="38.840181653632605" lon="121.50604871083792">
        <ele>13.93329316098243</ele>
        <time>2025-08-31T16:19:30Z</time>
        <extensions>
          <gpxtpx:TrackPointExtension>
            <gpxtpx:hr>130</gpxtpx:hr>
          </gpxtpx:TrackPointExtension>
        </extensions>
      </trkpt>
      <trkpt lat="38.84020191491129" lon="121.50597385927057">
        <ele>13.597195522859693</ele>
        <time>2025-08-31T16:19:33Z</time>
        <extensions>
          <gpxtpx:TrackPointExtension>
            <gpxtpx:hr>130</gpxtpx:hr>
          </gpxtpx:TrackPointExtension>
        </extensions>
      </trkpt>
      <trkpt lat="38.84028739844125" lon="121.50586040009532">
        <ele>13.58559359703213</ele>
        <time>2025-08-31T16:19:39Z</time>
        <extensions>
          <gpxtpx:TrackPointExtension>
            <gpxtpx:hr>129</gpxtpx:hr>
          </gpxtpx:TrackPointExtension>
        </extensions>
      </trkpt>
      <trkpt lat="38.84029615666633" lon="121.50578010226178">
        <ele>12.184033155441284</ele>
        <time>2025-08-31T16:19:42Z</time>
        <extensions>
          <gpxtpx:TrackPointExtension>
            <gpxtpx:hr>129</gpxtpx:hr>
          </gpxtpx:TrackPointExtension>
        </extensions>
      </trkpt>
      <trkpt lat="38.84028604386827" lon="121.50569148004777">
        <ele>12.0606300663203</ele>
        <time>2025-08-31T16:19:45Z</time>
        <extensions>
          <gpxtpx:TrackPointExtension>
            <gpxtpx:hr>129</gpxtpx:hr>
          </gpxtpx:TrackPointExtension>
        </extensions>
      </trkpt>
      <trkpt lat="38.84024674054012" lon="121.50560459095868">
        <ele>11.86677931714803</ele>
        <time>2025-08-31T16:19:48Z</time>
        <extensions>
          <gpxtpx:TrackPointExtension>
            <gpxtpx:hr>129</gpxtpx:hr>
          </gpxtpx:TrackPointExtension>
        </extensions>
      </trkpt>
      <trkpt lat="38.840187602376936" lon="121.50555482530258">
        <ele>11.7374253757298</ele>
        <time>2025-08-31T16:19:51Z</time>
        <extensions>
          <gpxtpx:TrackPointExtension>
            <gpxtpx:hr>128</gpxtpx:hr>
          </gpxtpx:TrackPointExtension>
        </extensions>
      </trkpt>
      <trkpt lat="38.83993192696981" lon="121.50530989702868">
        <ele>10.479673286899924</ele>
        <time>2025-08-31T16:20:06Z</time>
        <extensions>
          <gpxtpx:TrackPointExtension>
            <gpxtpx:hr>127</gpxtpx:hr>
          </gpxtpx:TrackPointExtension>
        </extensions>
      </trkpt>
      <trkpt lat="38.839719742252605" lon="121.5051219202154">
        <ele>10.364514762535691</ele>
        <time>2025-08-31T16:20:18Z</time>
        <extensions>
          <gpxtpx:TrackPointExtension>
            <gpxtpx:hr>127</gpxtpx:hr>
          </gpxtpx:TrackPointExtension>
        </extensions>
      </trkpt>
      <trkpt lat="38.83956825064157" lon="121.50496817581593">
        <ele>10.088485169224441</ele>
        <time>2025-08-31T16:20:27Z</time>
        <extensions>
          <gpxtpx:TrackPointExtension>
            <gpxtpx:hr>127</gpxtpx:hr>
          </gpxtpx:TrackPointExtension>
        </extensions>
      </trkpt>
      <trkpt lat="38.83945343670764" lon="121.50488310152852">
        <ele>10.571625845506787</ele>
        <time>2025-08-31T16:20:33Z</time>
        <extensions>
          <gpxtpx:TrackPointExtension>
            <gpxtpx:hr>127</gpxtpx:hr>
          </gpxtpx:TrackPointExtension>
        </extensions>
      </trkpt>
      <trkpt lat="38.83922331120879" lon="121.5045633906187">
        <ele>9.403486650437117</ele>
        <time>2025-08-31T16:20:49Z</time>
        <extensions>
          <gpxtpx:TrackPointExtension>
            <gpxtpx:hr>128</gpxtpx:hr>
          </gpxtpx:TrackPointExtension>
        </extensions>
      </trkpt>
      <trkpt lat="38.839021675960645" lon="121.50442171915199">
        <ele>9.97323722857982</ele>
        <time>2025-08-31T16:21:00Z</time>
        <extensions>
          <gpxtpx:TrackPointExtension>
            <gpxtpx:hr>129</gpxtpx:hr>
          </gpxtpx:TrackPointExtension>
        </extensions>
      </trkpt>
      <trkpt lat="38.838904280871176" lon="121.50427356833872">
        <ele>8.60899634193629</ele>
        <time>2025-08-31T16:21:07Z</time>
        <extensions>
          <gpxtpx:TrackPointExtension>
            <gpxtpx:hr>127</gpxtpx:hr>
          </gpxtpx:TrackPointExtension>
        </extensions>
      </trkpt>
      <trkpt lat="38.8388654576285" lon="121.50419778198037">
        <ele>8.92116461880505</ele>
        <time>2025-08-31T16:21:10Z</time>
        <extensions>
          <gpxtpx:TrackPointExtension>
            <gpxtpx:hr>127</gpxtpx:hr>
          </gpxtpx:TrackPointExtension>
        </extensions>
      </trkpt>
      <trkpt lat="38.8387960468153" lon="121.50415704945053">
        <ele>8.572464307770133</ele>
        <time>2025-08-31T16:21:13Z</time>
        <extensions>
          <gpxtpx:TrackPointExtension>
            <gpxtpx:hr>127</gpxtpx:hr>
          </gpxtpx:TrackPointExtension>
        </extensions>
      </trkpt>
      <trkpt lat="38.83869648687781" lon="121.5041447117267">
        <ele>7.846546272747219</ele>
        <time>2025-08-31T16:21:16Z</time>
        <extensions>
          <gpxtpx:TrackPointExtension>
            <gpxtpx:hr>127</gpxtpx:hr>
          </gpxtpx:TrackPointExtension>
        </extensions>
      </trkpt>
      <trkpt lat="38.83857071101945" lon="121.50425492591653">
        <ele>8.450978911481798</ele>
        <time>2025-08-31T16:21:22Z</time>
        <extensions>
          <gpxtpx:TrackPointExtension>
            <gpxtpx:hr>126</gpxtpx:hr>
          </gpxtpx:TrackPointExtension>
        </extensions>
      </trkpt>
      <trkpt lat="38.83840304406115" lon="121.5045300409657">
        <ele>9.118380372412503</ele>
        <time>2025-08-31T16:21:34Z</time>
        <extensions>
          <gpxtpx:TrackPointExtension>
            <gpxtpx:hr>128</gpxtpx:hr>
          </gpxtpx:TrackPointExtension>
        </extensions>
      </trkpt>
      <trkpt lat="38.83831245496927" lon="121.50467751450807">
        <ele>9.112866307608783</ele>
        <time>2025-08-31T16:21:40Z</time>
        <extensions>
          <gpxtpx:TrackPointExtension>
            <gpxtpx:hr>128</gpxtpx:hr>
          </gpxtpx:TrackPointExtension>
        </extensions>
      </trkpt>
      <trkpt lat="38.83814594723826" lon="121.50484659177748">
        <ele>8.78438579570502</ele>
        <time>2025-08-31T16:21:49Z</time>
        <extensions>
          <gpxtpx:TrackPointExtension>
            <gpxtpx:hr>130</gpxtpx:hr>
          </gpxtpx:TrackPointExtension>
        </extensions>
      </trkpt>
      <trkpt lat="38.83806707994188" lon="121.50498940329032">
        <ele>8.465933478437364</ele>
        <time>2025-08-31T16:21:55Z</time>
        <extensions>
          <gpxtpx:TrackPointExtension>
            <gpxtpx:hr>131</gpxtpx:hr>
          </gpxtpx:TrackPointExtension>
        </extensions>
      </trkpt>
      <trkpt lat="38.83800927618851" lon="121.50518285352084">
        <ele>8.817472783848643</ele>
        <time>2025-08-31T16:22:01Z</time>
        <extensions>
          <gpxtpx:TrackPointExtension>
            <gpxtpx:hr>132</gpxtpx:hr>
          </gpxtpx:TrackPointExtension>
        </extensions>
      </trkpt>
      <trkpt lat="38.83800641470904" lon="121.50524500869592">
        <ele>9.957212249748409</ele>
        <time>2025-08-31T16:22:04Z</time>
        <extensions>
          <gpxtpx:TrackPointExtension>
            <gpxtpx:hr>134</gpxtpx:hr>
          </gpxtpx:TrackPointExtension>
        </extensions>
      </trkpt>
      <trkpt lat="38.837816256705565" lon="121.50554773979611">
        <ele>9.671211954206228</ele>
        <time>2025-08-31T16:22:17Z</time>
        <extensions>
          <gpxtpx:TrackPointExtension>
            <gpxtpx:hr>134</gpxtpx:hr>
          </gpxtpx:TrackPointExtension>
        </extensions>
      </trkpt>
      <trkpt lat="38.83773426673964" lon="121.50566786699308">
        <ele>11.0215809000656</ele>
        <time>2025-08-31T16:22:23Z</time>
        <extensions>
          <gpxtpx:TrackPointExtension>
            <gpxtpx:hr>133</gpxtpx:hr>
          </gpxtpx:TrackPointExtension>
        </extensions>
      </trkpt>
      <trkpt lat="38.83769904988814" lon="121.50575607271259">
        <ele>11.02697949577123</ele>
        <time>2025-08-31T16:22:26Z</time>
        <extensions>
          <gpxtpx:TrackPointExtension>
            <gpxtpx:hr>133</gpxtpx:hr>
          </gpxtpx:TrackPointExtension>
        </extensions>
      </trkpt>
      <trkpt lat="38.83764057869692" lon="121.50581924449057">
        <ele>10.842794802039862</ele>
        <time>2025-08-31T16:22:29Z</time>
        <extensions>
          <gpxtpx:TrackPointExtension>
            <gpxtpx:hr>135</gpxtpx:hr>
          </gpxtpx:TrackPointExtension>
        </extensions>
      </trkpt>
      <trkpt lat="38.83748460314328" lon="121.50611271215662">
        <ele>10.202399351634085</ele>
        <time>2025-08-31T16:22:41Z</time>
        <extensions>
          <gpxtpx:TrackPointExtension>
            <gpxtpx:hr>135</gpxtpx:hr>
          </gpxtpx:TrackPointExtension>
        </extensions>
      </trkpt>
      <trkpt lat="38.837305898462205" lon="121.5063790297237">
        <ele>11.057555328123271</ele>
        <time>2025-08-31T16:22:53Z</time>
        <extensions>
          <gpxtpx:TrackPointExtension>
            <gpxtpx:hr>133</gpxtpx:hr>
          </gpxtpx:TrackPointExtension>
        </extensions>
      </trkpt>
      <trkpt lat="38.837168410352156" lon="121.50651892740703">
        <ele>9.82189922221005</ele>
        <time>2025-08-31T16:23:01Z</time>
        <extensions>
          <gpxtpx:TrackPointExtension>
            <gpxtpx:hr>135</gpxtpx:hr>
          </gpxtpx:TrackPointExtension>
        </extensions>
      </trkpt>
      <trkpt lat="38.836993269786035" lon="121.50684267965909">
        <ele>12.145916254259646</ele>
        <time>2025-08-31T16:23:15Z</time>
        <extensions>
          <gpxtpx:TrackPointExtension>
            <gpxtpx:hr>135</gpxtpx:hr>
          </gpxtpx:TrackPointExtension>
        </extensions>
      </trkpt>
      <trkpt lat="38.83685425807325" lon="121.507098513677">
        <ele>9.211741648614407</ele>
        <time>2025-08-31T16:23:27Z</time>
        <extensions>
          <gpxtpx:TrackPointExtension>
            <gpxtpx:hr>135</gpxtpx:hr>
          </gpxtpx:TrackPointExtension>
        </extensions>
      </trkpt>
      <trkpt lat="38.836799316540414" lon="121.50716546986258">
        <ele>8.839304693974555</ele>
        <time>2025-08-31T16:23:30Z</time>
        <extensions>
          <gpxtpx:TrackPointExtension>
            <gpxtpx:hr>135</gpxtpx:hr>
          </gpxtpx:TrackPointExtension>
        </extensions>
      </trkpt>
      <trkpt lat="38.83673100834456" lon="121.50716566378904">
        <ele>9.442816459573805</ele>
        <time>2025-08-31T16:23:33Z</time>
        <extensions>
          <gpxtpx:TrackPointExtension>
            <gpxtpx:hr>135</gpxtpx:hr>
          </gpxtpx:TrackPointExtension>
        </extensions>
      </trkpt>
      <trkpt lat="38.83648075526677" lon="121.50699787659063">
        <ele>8.438200579956174</ele>
        <time>2025-08-31T16:23:45Z</time>
        <extensions>
          <gpxtpx:TrackPointExtension>
            <gpxtpx:hr>134</gpxtpx:hr>
          </gpxtpx:TrackPointExtension>
        </extensions>
      </trkpt>
      <trkpt lat="38.83622488740571" lon="121.50679287082713">
        <ele>8.494923077523708</ele>
        <time>2025-08-31T16:23:57Z</time>
        <extensions>
          <gpxtpx:TrackPointExtension>
            <gpxtpx:hr>136</gpxtpx:hr>
          </gpxtpx:TrackPointExtension>
        </extensions>
      </trkpt>
      <trkpt lat="38.83616712084048" lon="121.50673190706614">
        <ele>8.777969148941338</ele>
        <time>2025-08-31T16:24:00Z</time>
        <extensions>
          <gpxtpx:TrackPointExtension>
            <gpxtpx:hr>136</gpxtpx:hr>
          </gpxtpx:TrackPointExtension>
        </extensions>
      </trkpt>
      <trkpt lat="38.836222869792564" lon="121.50646553306247">
        <ele>7.826374003663659</ele>
        <time>2025-08-31T16:24:09Z</time>
        <extensions>
          <gpxtpx:TrackPointExtension>
            <gpxtpx:hr>138</gpxtpx:hr>
          </gpxtpx:TrackPointExtension>
        </extensions>
      </trkpt>
      <trkpt lat="38.83632528779882" lon="121.5061403095006">
        <ele>9.50292643532157</ele>
        <time>2025-08-31T16:24:21Z</time>
        <extensions>
          <gpxtpx:TrackPointExtension>
            <gpxtpx:hr>139</gpxtpx:hr>
          </gpxtpx:TrackPointExtension>
        </extensions>
      </trkpt>
      <trkpt lat="38.83644158108091" lon="121.505795195097">
        <ele>10.461966085247695</ele>
        <time>2025-08-31T16:24:33Z</time>
        <extensions>
          <gpxtpx:TrackPointExtension>
            <gpxtpx:hr>140</gpxtpx:hr>
          </gpxtpx:TrackPointExtension>
        </extensions>
      </trkpt>
      <trkpt lat="38.836560390539816" lon="121.50543937148457">
        <ele>8.337211675941944</ele>
        <time>2025-08-31T16:24:45Z</time>
        <extensions>
          <gpxtpx:TrackPointExtension>
            <gpxtpx:hr>139</gpxtpx:hr>
          </gpxtpx:TrackPointExtension>
        </extensions>
      </trkpt>
      <trkpt lat="38.83659272526698" lon="121.50536200805992">
        <ele>9.277685759589076</ele>
        <time>2025-08-31T16:24:48Z</time>
        <extensions>
          <gpxtpx:TrackPointExtension>
            <gpxtpx:hr>140</gpxtpx:hr>
          </gpxtpx:TrackPointExtension>
        </extensions>
      </trkpt>
      <trkpt lat="38.836638371246096" lon="121.50530200672299">
        <ele>9.13443761691451</ele>
        <time>2025-08-31T16:24:51Z</time>
        <extensions>
          <gpxtpx:TrackPointExtension>
            <gpxtpx:hr>140</gpxtpx:hr>
          </gpxtpx:TrackPointExtension>
        </extensions>
      </trkpt>
      <trkpt lat="38.836761250747976" lon="121.50495000540988">
        <ele>8.077016266062856</ele>
        <time>2025-08-31T16:25:05Z</time>
        <extensions>
          <gpxtpx:TrackPointExtension>
            <gpxtpx:hr>141</gpxtpx:hr>
          </gpxtpx:TrackPointExtension>
        </extensions>
      </trkpt>
      <trkpt lat="38.83688146124844" lon="121.50455009927926">
        <ele>9.021995014511049</ele>
        <time>2025-08-31T16:25:19Z</time>
        <extensions>
          <gpxtpx:TrackPointExtension>
            <gpxtpx:hr>142</gpxtpx:hr>
          </gpxtpx:TrackPointExtension>
        </extensions>
      </trkpt>
      <trkpt lat="38.836975194009085" lon="121.50430511682364">
        <ele>8.547949322499335</ele>
        <time>2025-08-31T16:25:28Z</time>
        <extensions>
          <gpxtpx:TrackPointExtension>
            <gpxtpx:hr>142</gpxtpx:hr>
          </gpxtpx:TrackPointExtension>
        </extensions>
      </trkpt>
      <trkpt lat="38.83706520065799" lon="121.50421458553959">
        <ele>8.492869934998453</ele>
        <time>2025-08-31T16:25:34Z</time>
        <extensions>
          <gpxtpx:TrackPointExtension>
            <gpxtpx:hr>139</gpxtpx:hr>
          </gpxtpx:TrackPointExtension>
        </extensions>
      </trkpt>
      <trkpt lat="38.83731338792151" lon="121.50443158204628">
        <ele>7.990708412602544</ele>
        <time>2025-08-31T16:25:49Z</time>
        <extensions>
          <gpxtpx:TrackPointExtension>
            <gpxtpx:hr>142</gpxtpx:hr>
          </gpxtpx:TrackPointExtension>
        </extensions>
      </trkpt>
      <trkpt lat="38.837540462666304" lon="121.50465911168602">
        <ele>8.193288336507976</ele>
        <time>2025-08-31T16:26:01Z</time>
        <extensions>
          <gpxtpx:TrackPointExtension>
            <gpxtpx:hr>139</gpxtpx:hr>
          </gpxtpx:TrackPointExtension>
        </extensions>
      </trkpt>
      <trkpt lat="38.837657150013555" lon="121.5047461434454">
        <ele>6.762826529331505</ele>
        <time>2025-08-31T16:26:07Z</time>
        <extensions>
          <gpxtpx:TrackPointExtension>
            <gpxtpx:hr>140</gpxtpx:hr>
          </gpxtpx:TrackPointExtension>
        </extensions>
      </trkpt>
      <trkpt lat="38.837797684524205" lon="121.50491400329027">
        <ele>7.728608527220786</ele>
        <time>2025-08-31T16:26:16Z</time>
        <extensions>
          <gpxtpx:TrackPointExtension>
            <gpxtpx:hr>140</gpxtpx:hr>
          </gpxtpx:TrackPointExtension>
        </extensions>
      </trkpt>
      <trkpt lat="38.837865450012494" lon="121.50493878718139">
        <ele>8.258251168765128</ele>
        <time>2025-08-31T16:26:19Z</time>
        <extensions>
          <gpxtpx:TrackPointExtension>
            <gpxtpx:hr>140</gpxtpx:hr>
          </gpxtpx:TrackPointExtension>
        </extensions>
      </trkpt>
      <trkpt lat="38.837979737977534" lon="121.5050676959733">
        <ele>8.46815861016512</ele>
        <time>2025-08-31T16:26:25Z</time>
        <extensions>
          <gpxtpx:TrackPointExtension>
            <gpxtpx:hr>140</gpxtpx:hr>
          </gpxtpx:TrackPointExtension>
        </extensions>
      </trkpt>
      <trkpt lat="38.83801316753833" lon="121.50515999083451">
        <ele>9.241487232036889</ele>
        <time>2025-08-31T16:26:28Z</time>
        <extensions>
          <gpxtpx:TrackPointExtension>
            <gpxtpx:hr>140</gpxtpx:hr>
          </gpxtpx:TrackPointExtension>
        </extensions>
      </trkpt>
      <trkpt lat="38.83798297461697" lon="121.50525911877996">
        <ele>9.385385333560407</ele>
        <time>2025-08-31T16:26:31Z</time>
        <extensions>
          <gpxtpx:TrackPointExtension>
            <gpxtpx:hr>141</gpxtpx:hr>
          </gpxtpx:TrackPointExtension>
        </extensions>
      </trkpt>
      <trkpt lat="38.83794378082633" lon="121.50532168604838">
        <ele>9.252719977870584</ele>
        <time>2025-08-31T16:26:34Z</time>
        <extensions>
          <gpxtpx:TrackPointExtension>
            <gpxtpx:hr>141</gpxtpx:hr>
          </gpxtpx:TrackPointExtension>
        </extensions>
      </trkpt>
      <trkpt lat="38.83781664438334" lon="121.50532705013028">
        <ele>9.178272031247616</ele>
        <time>2025-08-31T16:26:40Z</time>
        <extensions>
          <gpxtpx:TrackPointExtension>
            <gpxtpx:hr>141</gpxtpx:hr>
          </gpxtpx:TrackPointExtension>
        </extensions>
      </trkpt>
      <trkpt lat="38.83762846591054" lon="121.50560618016767">
        <ele>9.799578945152462</ele>
        <time>2025-08-31T16:26:52Z</time>
        <extensions>
          <gpxtpx:TrackPointExtension>
            <gpxtpx:hr>143</gpxtpx:hr>
          </gpxtpx:TrackPointExtension>
        </extensions>
      </trkpt>
      <trkpt lat="38.83742700241998" lon="121.50594937271758">
        <ele>10.241716048680246</ele>
        <time>2025-08-31T16:27:08Z</time>
        <extensions>
          <gpxtpx:TrackPointExtension>
            <gpxtpx:hr>144</gpxtpx:hr>
          </gpxtpx:TrackPointExtension>
        </extensions>
      </trkpt>
      <trkpt lat="38.83729915711423" lon="121.50619153280063">
        <ele>10.599726487882435</ele>
        <time>2025-08-31T16:27:19Z</time>
        <extensions>
          <gpxtpx:TrackPointExtension>
            <gpxtpx:hr>137</gpxtpx:hr>
          </gpxtpx:TrackPointExtension>
        </extensions>
      </trkpt>
      <trkpt lat="38.83729915711423" lon="121.50619153280063">
        <ele>10.599726487882435</ele>
        <time>2025-08-31T16:27:24Z</time>
        <extensions>
          <gpxtpx:TrackPointExtension>
            <gpxtpx:hr>137</gpxtpx:hr>
          </gpxtpx:TrackPointExtension>
        </extensions>
      </trkpt>
    </trkseg>
  </trk>
</gpx>