<?xml version="1.0" encoding="UTF-8"?>
<gpx xmlns="http://www.topografix.com/GPX/1/1" xmlns:gpxtpx="http://www.garmin.com/xmlschemas/TrackPointExtension/v1" xmlns:xsi="http://www.w3.org/2001/XMLSchema-instance" xsi:schemaLocation="http://www.topografix.com/GPX/1/1 http://www.topografix.com/GPX/1/1/gpx.xsd" version="1.1" creator="gpx.py -- https://github.com/tkrajina/gpxpy">
  <trk>
    <name>gpx from keep</name>
    <type>Run</type>
    <trkseg>
      <trkpt lat="38.83319326529226" lon="121.50727144168013">
        <ele>4.501033108306354</ele>
        <time>2025-06-08T00:38:54Z</time>
      </trkpt>
      <trkpt lat="38.83319795306084" lon="121.50721168583077">
        <ele>3.6975100054077306</ele>
        <time>2025-06-08T00:38:57Z</time>
      </trkpt>
      <trkpt lat="38.833177993645855" lon="121.5071090284278">
        <ele>2.614696471578334</ele>
        <time>2025-06-08T00:39:01Z</time>
      </trkpt>
      <trkpt lat="38.83301579515754" lon="121.50681498798482">
        <ele>2.5138942692428827</ele>
        <time>2025-06-08T00:39:13Z</time>
      </trkpt>
      <trkpt lat="38.832873849997185" lon="121.50666092435345">
        <ele>2.1271231528371572</ele>
        <time>2025-06-08T00:39:22Z</time>
      </trkpt>
      <trkpt lat="38.83272063613989" lon="121.50656889908574">
        <ele>1.4111052304506302</ele>
        <time>2025-06-08T00:39:28Z</time>
      </trkpt>
      <trkpt lat="38.83243344099883" lon="121.50651552375982">
        <ele>2.0434061605483294</ele>
        <time>2025-06-08T00:39:40Z</time>
      </trkpt>
      <trkpt lat="38.83222041141005" lon="121.5064130789145">
        <ele>1.1785752633586526</ele>
        <time>2025-06-08T00:39:49Z</time>
      </trkpt>
      <trkpt lat="38.83206998095671" lon="121.50624891341313">
        <ele>1.7525258045643568</ele>
        <time>2025-06-08T00:39:58Z</time>
      </trkpt>
      <trkpt lat="38.83199872809332" lon="121.50609148786808">
        <ele>1.3246770733967423</ele>
        <time>2025-06-08T00:40:04Z</time>
      </trkpt>
      <trkpt lat="38.83188542934678" lon="121.5057387753803">
        <ele>1.3631202708929777</ele>
        <time>2025-06-08T00:40:16Z</time>
      </trkpt>
      <trkpt lat="38.831788530545325" lon="121.50558528849776">
        <ele>2.0635767821222544</ele>
        <time>2025-06-08T00:40:22Z</time>
      </trkpt>
      <trkpt lat="38.831608529988266" lon="121.5054129204444">
        <ele>1.9246373400092125</ele>
        <time>2025-06-08T00:40:31Z</time>
      </trkpt>
      <trkpt lat="38.83133961395078" lon="121.50530139064898">
        <ele>1.9240417396649718</ele>
        <time>2025-06-08T00:40:43Z</time>
      </trkpt>
      <trkpt lat="38.83127381671883" lon="121.50528119819879">
        <ele>1.004356182180345</ele>
        <time>2025-06-08T00:40:46Z</time>
      </trkpt>
      <trkpt lat="38.83112110025911" lon="121.50529448972175">
        <ele>2.0462623350322247</ele>
        <time>2025-06-08T00:40:52Z</time>
      </trkpt>
      <trkpt lat="38.830806832856894" lon="121.50520144700536">
        <ele>1.6029061069712043</ele>
        <time>2025-06-08T00:41:05Z</time>
      </trkpt>
      <trkpt lat="38.83063445991708" lon="121.50508879363747">
        <ele>1.229626721702516</ele>
        <time>2025-06-08T00:41:13Z</time>
      </trkpt>
      <trkpt lat="38.83046810135139" lon="121.50501723195535">
        <ele>-0.5652896054089069</ele>
        <time>2025-06-08T00:41:21Z</time>
      </trkpt>
      <trkpt lat="38.830409825462105" lon="121.5049565740835">
        <ele>-0.43586422223597765</ele>
        <time>2025-06-08T00:41:25Z</time>
      </trkpt>
      <trkpt lat="38.83012680864573" lon="121.50481020624862">
        <ele>1.3645015191286802</ele>
        <time>2025-06-08T00:41:37Z</time>
      </trkpt>
      <trkpt lat="38.82990201626364" lon="121.50465411698586">
        <ele>1.045636217109859</ele>
        <time>2025-06-08T00:41:47Z</time>
      </trkpt>
      <trkpt lat="38.82969324873433" lon="121.50438673029142">
        <ele>0.6568077793344855</ele>
        <time>2025-06-08T00:41:59Z</time>
      </trkpt>
      <trkpt lat="38.829636195600116" lon="121.50433611728684">
        <ele>0.8433065917342901</ele>
        <time>2025-06-08T00:42:02Z</time>
      </trkpt>
      <trkpt lat="38.8295756258587" lon="121.5043122549814">
        <ele>0.17263284604996443</ele>
        <time>2025-06-08T00:42:05Z</time>
      </trkpt>
      <trkpt lat="38.82944581456887" lon="121.50419193499886">
        <ele>-0.8373686941340566</ele>
        <time>2025-06-08T00:42:11Z</time>
      </trkpt>
      <trkpt lat="38.82916579950542" lon="121.50405447663515">
        <ele>1.212013111449778</ele>
        <time>2025-06-08T00:42:23Z</time>
      </trkpt>
      <trkpt lat="38.8288723322177" lon="121.5039987247091">
        <ele>2.223464757204056</ele>
        <time>2025-06-08T00:42:35Z</time>
      </trkpt>
      <trkpt lat="38.82880604174999" lon="121.5040324393159">
        <ele>2.7504317816346884</ele>
        <time>2025-06-08T00:42:38Z</time>
      </trkpt>
      <trkpt lat="38.82850619202893" lon="121.50408373714961">
        <ele>2.170496115460992</ele>
        <time>2025-06-08T00:42:50Z</time>
      </trkpt>
      <trkpt lat="38.828429323123366" lon="121.5041033120111">
        <ele>1.7406131150200963</ele>
        <time>2025-06-08T00:42:53Z</time>
      </trkpt>
      <trkpt lat="38.82819662417192" lon="121.50404825625999">
        <ele>1.8544286713004112</ele>
        <time>2025-06-08T00:43:02Z</time>
      </trkpt>
      <trkpt lat="38.828051948658185" lon="121.50394969251452">
        <ele>1.5854961555451155</ele>
        <time>2025-06-08T00:43:08Z</time>
      </trkpt>
      <trkpt lat="38.82798764724404" lon="121.50385184287">
        <ele>1.3611973151564598</ele>
        <time>2025-06-08T00:43:12Z</time>
      </trkpt>
      <trkpt lat="38.82788327985011" lon="121.50359426496031">
        <ele>1.2046539150178432</ele>
        <time>2025-06-08T00:43:21Z</time>
      </trkpt>
      <trkpt lat="38.827851730075125" lon="121.50339166208717">
        <ele>0.3096382496878505</ele>
        <time>2025-06-08T00:43:27Z</time>
      </trkpt>
      <trkpt lat="38.82776785395291" lon="121.5032487416233">
        <ele>0.426680282689631</ele>
        <time>2025-06-08T00:43:33Z</time>
      </trkpt>
      <trkpt lat="38.82767392257008" lon="121.50322063395343">
        <ele>1.1543496223166585</ele>
        <time>2025-06-08T00:43:36Z</time>
      </trkpt>
      <trkpt lat="38.8275687141179" lon="121.50305496024444">
        <ele>1.4799714358523488</ele>
        <time>2025-06-08T00:43:42Z</time>
      </trkpt>
      <trkpt lat="38.827412203005345" lon="121.50299373916604">
        <ele>1.3352679694071412</ele>
        <time>2025-06-08T00:43:48Z</time>
      </trkpt>
      <trkpt lat="38.827258038970754" lon="121.50300839090615">
        <ele>1.957663874141872</ele>
        <time>2025-06-08T00:43:54Z</time>
      </trkpt>
      <trkpt lat="38.82699121862808" lon="121.50316506281115">
        <ele>2.0104690864682198</ele>
        <time>2025-06-08T00:44:06Z</time>
      </trkpt>
      <trkpt lat="38.82693539736024" lon="121.50324588495927">
        <ele>2.2767391484230757</ele>
        <time>2025-06-08T00:44:09Z</time>
      </trkpt>
      <trkpt lat="38.8267407945379" lon="121.5034172195595">
        <ele>1.742199508473277</ele>
        <time>2025-06-08T00:44:18Z</time>
      </trkpt>
      <trkpt lat="38.82664360978641" lon="121.5035660536739">
        <ele>1.7342109847813845</ele>
        <time>2025-06-08T00:44:24Z</time>
      </trkpt>
      <trkpt lat="38.826577540695965" lon="121.50374747438063">
        <ele>1.8374670008197427</ele>
        <time>2025-06-08T00:44:30Z</time>
      </trkpt>
      <trkpt lat="38.82655534250653" lon="121.5039382868019">
        <ele>1.2870910000056028</ele>
        <time>2025-06-08T00:44:36Z</time>
      </trkpt>
      <trkpt lat="38.82655287779029" lon="121.5042845617228">
        <ele>1.7161815175786614</ele>
        <time>2025-06-08T00:44:48Z</time>
      </trkpt>
      <trkpt lat="38.82648715183378" lon="121.50458230355434">
        <ele>1.0953930914402008</ele>
        <time>2025-06-08T00:44:57Z</time>
      </trkpt>
      <trkpt lat="38.826453570535875" lon="121.50466906924372">
        <ele>0.942563658580184</ele>
        <time>2025-06-08T00:45:00Z</time>
      </trkpt>
      <trkpt lat="38.8264179527041" lon="121.5047610864399">
        <ele>1.2065257728099823</ele>
        <time>2025-06-08T00:45:03Z</time>
      </trkpt>
      <trkpt lat="38.826307614659356" lon="121.50488305973798">
        <ele>1.855201211757958</ele>
        <time>2025-06-08T00:45:09Z</time>
      </trkpt>
      <trkpt lat="38.82626349636391" lon="121.5048505294737">
        <ele>1.4326210990548134</ele>
        <time>2025-06-08T00:45:16Z</time>
      </trkpt>
      <trkpt lat="38.82635853838295" lon="121.50473441154806">
        <ele>1.7197232907637954</ele>
        <time>2025-06-08T00:45:22Z</time>
      </trkpt>
      <trkpt lat="38.826445709656966" lon="121.50453116524602">
        <ele>1.2839053068310022</ele>
        <time>2025-06-08T00:45:29Z</time>
      </trkpt>
      <trkpt lat="38.826458156761106" lon="121.50443139558362">
        <ele>1.2280514929443598</ele>
        <time>2025-06-08T00:45:32Z</time>
      </trkpt>
      <trkpt lat="38.82651696206986" lon="121.50425162073616">
        <ele>1.4853498386219144</ele>
        <time>2025-06-08T00:45:38Z</time>
      </trkpt>
      <trkpt lat="38.82652932012665" lon="121.50385462539012">
        <ele>1.3663819916546345</ele>
        <time>2025-06-08T00:45:50Z</time>
      </trkpt>
      <trkpt lat="38.826576333320006" lon="121.50377541370482">
        <ele>1.770857634022832</ele>
        <time>2025-06-08T00:45:53Z</time>
      </trkpt>
      <trkpt lat="38.82659031550507" lon="121.50367975521426">
        <ele>1.6989357462152839</ele>
        <time>2025-06-08T00:45:56Z</time>
      </trkpt>
      <trkpt lat="38.82671686273003" lon="121.50343657101058">
        <ele>1.8867190955206752</ele>
        <time>2025-06-08T00:46:05Z</time>
      </trkpt>
      <trkpt lat="38.82694845808057" lon="121.50321329857296">
        <ele>1.4492346830666065</ele>
        <time>2025-06-08T00:46:17Z</time>
      </trkpt>
      <trkpt lat="38.82699611036783" lon="121.50314057228503">
        <ele>1.7730899415910244</ele>
        <time>2025-06-08T00:46:20Z</time>
      </trkpt>
      <trkpt lat="38.8272658413332" lon="121.50298216387834">
        <ele>1.8090195832774043</ele>
        <time>2025-06-08T00:46:32Z</time>
      </trkpt>
      <trkpt lat="38.82755201609025" lon="121.50306307015167">
        <ele>2.633673978038132</ele>
        <time>2025-06-08T00:46:44Z</time>
      </trkpt>
      <trkpt lat="38.82762853467034" lon="121.50310070760408">
        <ele>2.359013721346855</ele>
        <time>2025-06-08T00:46:47Z</time>
      </trkpt>
      <trkpt lat="38.827665257203485" lon="121.50319512027048">
        <ele>1.67004575394094</ele>
        <time>2025-06-08T00:46:50Z</time>
      </trkpt>
      <trkpt lat="38.82779581988434" lon="121.50324710265933">
        <ele>2.146453395485878</ele>
        <time>2025-06-08T00:46:56Z</time>
      </trkpt>
      <trkpt lat="38.827863656883686" lon="121.50344996547965">
        <ele>2.157562304288149</ele>
        <time>2025-06-08T00:47:02Z</time>
      </trkpt>
      <trkpt lat="38.82790307818116" lon="121.50363835717108">
        <ele>2.2299088211730123</ele>
        <time>2025-06-08T00:47:08Z</time>
      </trkpt>
      <trkpt lat="38.828036126693505" lon="121.50388681983074">
        <ele>2.0799874644726515</ele>
        <time>2025-06-08T00:47:17Z</time>
      </trkpt>
      <trkpt lat="38.82809656951952" lon="121.5039575251779">
        <ele>2.0752816339954734</ele>
        <time>2025-06-08T00:47:20Z</time>
      </trkpt>
      <trkpt lat="38.82837959058775" lon="121.50411123018131">
        <ele>2.724991338327527</ele>
        <time>2025-06-08T00:47:32Z</time>
      </trkpt>
      <trkpt lat="38.82848389342202" lon="121.50410712967918">
        <ele>2.5657374085858464</ele>
        <time>2025-06-08T00:47:36Z</time>
      </trkpt>
      <trkpt lat="38.82878283427929" lon="121.50402637776966">
        <ele>1.249600663781166</ele>
        <time>2025-06-08T00:47:48Z</time>
      </trkpt>
      <trkpt lat="38.82884791909504" lon="121.50398300836564">
        <ele>1.1643973663449287</ele>
        <time>2025-06-08T00:47:51Z</time>
      </trkpt>
      <trkpt lat="38.828930367252056" lon="121.50396913866523">
        <ele>1.7599195670336485</ele>
        <time>2025-06-08T00:47:54Z</time>
      </trkpt>
      <trkpt lat="38.82922750538872" lon="121.50401791252773">
        <ele>2.412522883154452</ele>
        <time>2025-06-08T00:48:06Z</time>
      </trkpt>
      <trkpt lat="38.82936378916296" lon="121.5040779655094">
        <ele>2.9075004616752267</ele>
        <time>2025-06-08T00:48:12Z</time>
      </trkpt>
      <trkpt lat="38.82963373552314" lon="121.50429255132458">
        <ele>2.0512287374585867</ele>
        <time>2025-06-08T00:48:24Z</time>
      </trkpt>
      <trkpt lat="38.829816386410414" lon="121.50447992414432">
        <ele>2.663093033246696</ele>
        <time>2025-06-08T00:48:33Z</time>
      </trkpt>
      <trkpt lat="38.82992116869517" lon="121.50463739086388">
        <ele>2.377709577791393</ele>
        <time>2025-06-08T00:48:39Z</time>
      </trkpt>
      <trkpt lat="38.83010868961733" lon="121.50478899856964">
        <ele>2.02641405723989</ele>
        <time>2025-06-08T00:48:48Z</time>
      </trkpt>
      <trkpt lat="38.830252807249785" lon="121.5048435650968">
        <ele>2.041721135377884</ele>
        <time>2025-06-08T00:48:54Z</time>
      </trkpt>
      <trkpt lat="38.83053040982689" lon="121.50501850770222">
        <ele>3.3889136500656605</ele>
        <time>2025-06-08T00:49:06Z</time>
      </trkpt>
      <trkpt lat="38.83072516609866" lon="121.50519989734971">
        <ele>3.2150531709194183</ele>
        <time>2025-06-08T00:49:15Z</time>
      </trkpt>
      <trkpt lat="38.830780456103184" lon="121.50527481657284">
        <ele>2.4703394062817097</ele>
        <time>2025-06-08T00:49:18Z</time>
      </trkpt>
      <trkpt lat="38.83092009753632" lon="121.50533855889704">
        <ele>2.30567794572562</ele>
        <time>2025-06-08T00:49:24Z</time>
      </trkpt>
      <trkpt lat="38.831022153766234" lon="121.50534413707166">
        <ele>3.293910590931773</ele>
        <time>2025-06-08T00:49:28Z</time>
      </trkpt>
      <trkpt lat="38.831286268432905" lon="121.50528559535704">
        <ele>2.656539747491479</ele>
        <time>2025-06-08T00:49:39Z</time>
      </trkpt>
      <trkpt lat="38.8314363733833" lon="121.50530664963506">
        <ele>2.921265716664493</ele>
        <time>2025-06-08T00:49:45Z</time>
      </trkpt>
      <trkpt lat="38.83158230835313" lon="121.50538604071322">
        <ele>2.5820309603586793</ele>
        <time>2025-06-08T00:49:51Z</time>
      </trkpt>
      <trkpt lat="38.83182855862298" lon="121.50560979740257">
        <ele>2.208283760584891</ele>
        <time>2025-06-08T00:50:03Z</time>
      </trkpt>
      <trkpt lat="38.831887527152624" lon="121.50569145042725">
        <ele>2.8302631210535765</ele>
        <time>2025-06-08T00:50:06Z</time>
      </trkpt>
      <trkpt lat="38.8320086406791" lon="121.50606275616273">
        <ele>1.8965720990672708</ele>
        <time>2025-06-08T00:50:18Z</time>
      </trkpt>
      <trkpt lat="38.83207561542467" lon="121.50623632189705">
        <ele>1.7150022638961673</ele>
        <time>2025-06-08T00:50:24Z</time>
      </trkpt>
      <trkpt lat="38.83224019270827" lon="121.50642923872431">
        <ele>1.1234845016151667</ele>
        <time>2025-06-08T00:50:33Z</time>
      </trkpt>
      <trkpt lat="38.83240589618548" lon="121.50652278669595">
        <ele>1.955411878414452</ele>
        <time>2025-06-08T00:50:39Z</time>
      </trkpt>
      <trkpt lat="38.83249056687797" lon="121.50652060873557">
        <ele>1.8702969020232558</ele>
        <time>2025-06-08T00:50:42Z</time>
      </trkpt>
      <trkpt lat="38.83257623647639" lon="121.50654339373902">
        <ele>1.7814804147928953</ele>
        <time>2025-06-08T00:50:45Z</time>
      </trkpt>
      <trkpt lat="38.832657673340904" lon="121.50654068906731">
        <ele>1.1461371565237641</ele>
        <time>2025-06-08T00:50:48Z</time>
      </trkpt>
      <trkpt lat="38.832967184489185" lon="121.5067514379601">
        <ele>1.6164135681465268</ele>
        <time>2025-06-08T00:51:00Z</time>
      </trkpt>
      <trkpt lat="38.83305645736512" lon="121.5069101918118">
        <ele>1.322175114415586</ele>
        <time>2025-06-08T00:51:06Z</time>
      </trkpt>
      <trkpt lat="38.83310013991159" lon="121.50694212304502">
        <ele>3.042037176899612</ele>
        <time>2025-06-08T00:51:09Z</time>
      </trkpt>
      <trkpt lat="38.83310013991159" lon="121.50694212304502">
        <ele>3.042037176899612</ele>
        <time>2025-06-08T00:51:12Z</time>
      </trkpt>
    </trkseg>
  </trk>
</gpx>