<?xml version="1.0" encoding="UTF-8"?>
<gpx xmlns="http://www.topografix.com/GPX/1/1" xmlns:gpxtpx="http://www.garmin.com/xmlschemas/TrackPointExtension/v1" xmlns:xsi="http://www.w3.org/2001/XMLSchema-instance" xsi:schemaLocation="http://www.topografix.com/GPX/1/1 http://www.topografix.com/GPX/1/1/gpx.xsd" version="1.1" creator="gpx.py -- https://github.com/tkrajina/gpxpy">
  <trk>
    <name>gpx from keep</name>
    <type>Run</type>
    <trkseg>
      <trkpt lat="38.83864357906022" lon="121.50492430685912">
        <ele>9.765487849829032</ele>
        <time>2025-08-11T05:00:49Z</time>
      </trkpt>
      <trkpt lat="38.83870687952394" lon="121.50531843228515">
        <ele>10.894118287600577</ele>
        <time>2025-08-11T05:00:59Z</time>
      </trkpt>
      <trkpt lat="38.838644929469424" lon="121.5054188220748">
        <ele>11.004173116758466</ele>
        <time>2025-08-11T05:01:02Z</time>
      </trkpt>
      <trkpt lat="38.837952156703885" lon="121.50543540975842">
        <ele>10.311755429953337</ele>
        <time>2025-08-11T05:01:11Z</time>
      </trkpt>
      <trkpt lat="38.83782550456511" lon="121.50552252624308">
        <ele>10.544050255790353</ele>
        <time>2025-08-11T05:01:17Z</time>
      </trkpt>
      <trkpt lat="38.83770564785103" lon="121.50572639312118">
        <ele>10.742922618053854</ele>
        <time>2025-08-11T05:01:26Z</time>
      </trkpt>
      <trkpt lat="38.83750540783693" lon="121.50597758805944">
        <ele>10.818792073987424</ele>
        <time>2025-08-11T05:01:41Z</time>
      </trkpt>
      <trkpt lat="38.837455324632806" lon="121.50612029448891">
        <ele>10.84469213616103</ele>
        <time>2025-08-11T05:01:47Z</time>
      </trkpt>
      <trkpt lat="38.83749925567386" lon="121.50622210246414">
        <ele>10.78398187737912</ele>
        <time>2025-08-11T05:01:50Z</time>
      </trkpt>
      <trkpt lat="38.83749876356756" lon="121.50631950925063">
        <ele>11.053029008209705</ele>
        <time>2025-08-11T05:01:53Z</time>
      </trkpt>
      <trkpt lat="38.83737442689999" lon="121.50638930608929">
        <ele>10.626629389822483</ele>
        <time>2025-08-11T05:02:06Z</time>
      </trkpt>
      <trkpt lat="38.837260242872986" lon="121.50658471700714">
        <ele>10.025819923728704</ele>
        <time>2025-08-11T05:02:15Z</time>
      </trkpt>
      <trkpt lat="38.83719885066903" lon="121.50663615157843">
        <ele>11.026607119478285</ele>
        <time>2025-08-11T05:02:18Z</time>
      </trkpt>
      <trkpt lat="38.837060530099976" lon="121.50692945173938">
        <ele>10.173041838221252</ele>
        <time>2025-08-11T05:02:30Z</time>
      </trkpt>
      <trkpt lat="38.83700912462483" lon="121.50698901905395">
        <ele>10.738382580690086</ele>
        <time>2025-08-11T05:02:33Z</time>
      </trkpt>
      <trkpt lat="38.83699439395933" lon="121.50709011419399">
        <ele>10.754981401376426</ele>
        <time>2025-08-11T05:02:36Z</time>
      </trkpt>
      <trkpt lat="38.836962325130365" lon="121.5071812552694">
        <ele>11.03936502803117</ele>
        <time>2025-08-11T05:02:39Z</time>
      </trkpt>
      <trkpt lat="38.83696201146579" lon="121.50727920340184">
        <ele>10.842306441627443</ele>
        <time>2025-08-11T05:02:42Z</time>
      </trkpt>
      <trkpt lat="38.837005223467024" lon="121.50740326024187">
        <ele>10.481535507366061</ele>
        <time>2025-08-11T05:02:45Z</time>
      </trkpt>
      <trkpt lat="38.837117983977635" lon="121.50757137294671">
        <ele>11.556262186728418</ele>
        <time>2025-08-11T05:02:51Z</time>
      </trkpt>
      <trkpt lat="38.83738566971346" lon="121.50784089478442">
        <ele>10.980857146903872</ele>
        <time>2025-08-11T05:03:05Z</time>
      </trkpt>
      <trkpt lat="38.83752373795176" lon="121.5079757784823">
        <ele>11.4874253757298</ele>
        <time>2025-08-11T05:03:13Z</time>
      </trkpt>
      <trkpt lat="38.83769488764043" lon="121.508048125354">
        <ele>11.368561829440296</ele>
        <time>2025-08-11T05:03:21Z</time>
      </trkpt>
      <trkpt lat="38.83778412931237" lon="121.50818422689495">
        <ele>11.329955292865634</ele>
        <time>2025-08-11T05:03:33Z</time>
      </trkpt>
      <trkpt lat="38.83790546193493" lon="121.50826960693317">
        <ele>11.067561619915068</ele>
        <time>2025-08-11T05:03:41Z</time>
      </trkpt>
      <trkpt lat="38.83814595338998" lon="121.50857847180738">
        <ele>9.964537324383855</ele>
        <time>2025-08-11T05:03:53Z</time>
      </trkpt>
      <trkpt lat="38.83832553373596" lon="121.50879583266048">
        <ele>10.81987764686346</ele>
        <time>2025-08-11T05:04:02Z</time>
      </trkpt>
      <trkpt lat="38.83841869745927" lon="121.50884253090703">
        <ele>10.214351107366383</ele>
        <time>2025-08-11T05:04:05Z</time>
      </trkpt>
      <trkpt lat="38.838488340350615" lon="121.50890006713804">
        <ele>10.067780239507556</ele>
        <time>2025-08-11T05:04:08Z</time>
      </trkpt>
      <trkpt lat="38.83866174710833" lon="121.50874571582226">
        <ele>9.134543121792376</ele>
        <time>2025-08-11T05:04:20Z</time>
      </trkpt>
      <trkpt lat="38.83887557752033" lon="121.50845434651274">
        <ele>6.909109095111489</ele>
        <time>2025-08-11T05:04:32Z</time>
      </trkpt>
      <trkpt lat="38.83906419179504" lon="121.50813033169636">
        <ele>6.294934106990695</ele>
        <time>2025-08-11T05:04:44Z</time>
      </trkpt>
      <trkpt lat="38.839166476644195" lon="121.50797521737584">
        <ele>6.614132204093039</ele>
        <time>2025-08-11T05:04:50Z</time>
      </trkpt>
      <trkpt lat="38.839314260759465" lon="121.50764525875549">
        <ele>7.011460269801319</ele>
        <time>2025-08-11T05:05:02Z</time>
      </trkpt>
      <trkpt lat="38.8394951037363" lon="121.5073266105582">
        <ele>8.021314700134099</ele>
        <time>2025-08-11T05:05:17Z</time>
      </trkpt>
      <trkpt lat="38.83953113955961" lon="121.50731267206473">
        <ele>7.838506530039012</ele>
        <time>2025-08-11T05:05:21Z</time>
      </trkpt>
      <trkpt lat="38.83620756626171" lon="121.50605905569694">
        <ele>9.461255772970617</ele>
        <time>2025-08-11T05:11:36Z</time>
      </trkpt>
      <trkpt lat="38.83621732971958" lon="121.50598659608265">
        <ele>9.34792869631201</ele>
        <time>2025-08-11T05:11:40Z</time>
      </trkpt>
      <trkpt lat="38.83631787975844" lon="121.50585302756124">
        <ele>9.31506182346493</ele>
        <time>2025-08-11T05:11:48Z</time>
      </trkpt>
      <trkpt lat="38.836425440081705" lon="121.50560078560589">
        <ele>9.256451548077166</ele>
        <time>2025-08-11T05:12:00Z</time>
      </trkpt>
      <trkpt lat="38.83655585888134" lon="121.50536871387388">
        <ele>9.655098837800324</ele>
        <time>2025-08-11T05:12:12Z</time>
      </trkpt>
      <trkpt lat="38.836669381586375" lon="121.50499919903505">
        <ele>9.850160245783627</ele>
        <time>2025-08-11T05:12:24Z</time>
      </trkpt>
      <trkpt lat="38.83672802010146" lon="121.50488314219305">
        <ele>10.070576773025095</ele>
        <time>2025-08-11T05:12:28Z</time>
      </trkpt>
      <trkpt lat="38.83683388695476" lon="121.5045181423509">
        <ele>8.646656416356564</ele>
        <time>2025-08-11T05:12:40Z</time>
      </trkpt>
      <trkpt lat="38.8368900857506" lon="121.50428220513976">
        <ele>8.944068348035216</ele>
        <time>2025-08-11T05:12:48Z</time>
      </trkpt>
      <trkpt lat="38.83695042627883" lon="121.50422932411249">
        <ele>9.509647488594055</ele>
        <time>2025-08-11T05:12:52Z</time>
      </trkpt>
      <trkpt lat="38.837270917779826" lon="121.50434355868762">
        <ele>9.247791678644717</ele>
        <time>2025-08-11T05:13:04Z</time>
      </trkpt>
      <trkpt lat="38.837355518822974" lon="121.5043775921131">
        <ele>9.581698402762413</ele>
        <time>2025-08-11T05:13:08Z</time>
      </trkpt>
      <trkpt lat="38.83751850869554" lon="121.50451047810894">
        <ele>9.196627226658165</ele>
        <time>2025-08-11T05:13:16Z</time>
      </trkpt>
      <trkpt lat="38.8377502841743" lon="121.50479792655064">
        <ele>9.262689215131104</ele>
        <time>2025-08-11T05:13:28Z</time>
      </trkpt>
      <trkpt lat="38.8378790030799" lon="121.50496661588696">
        <ele>8.623974544927478</ele>
        <time>2025-08-11T05:13:36Z</time>
      </trkpt>
      <trkpt lat="38.83790102853446" lon="121.50508091597646">
        <ele>9.427032706327736</ele>
        <time>2025-08-11T05:13:40Z</time>
      </trkpt>
      <trkpt lat="38.83796098069553" lon="121.50516026217487">
        <ele>9.009574855677783</ele>
        <time>2025-08-11T05:13:44Z</time>
      </trkpt>
      <trkpt lat="38.83795929687129" lon="121.50524883662082">
        <ele>9.851386160589755</ele>
        <time>2025-08-11T05:13:48Z</time>
      </trkpt>
      <trkpt lat="38.83788383567447" lon="121.50534256060396">
        <ele>9.244577766396105</ele>
        <time>2025-08-11T05:13:52Z</time>
      </trkpt>
      <trkpt lat="38.83773769984459" lon="121.50558116300842">
        <ele>10.510242063552141</ele>
        <time>2025-08-11T05:14:00Z</time>
      </trkpt>
      <trkpt lat="38.837658934680334" lon="121.50579251255468">
        <ele>9.371337341144681</ele>
        <time>2025-08-11T05:14:08Z</time>
      </trkpt>
      <trkpt lat="38.83759346881576" lon="121.505863844821">
        <ele>11.056879785843194</ele>
        <time>2025-08-11T05:14:12Z</time>
      </trkpt>
      <trkpt lat="38.83758608210345" lon="121.50597539828443">
        <ele>10.74040708411485</ele>
        <time>2025-08-11T05:14:16Z</time>
      </trkpt>
      <trkpt lat="38.837522744795" lon="121.50604377906146">
        <ele>11.331258899532259</ele>
        <time>2025-08-11T05:14:20Z</time>
      </trkpt>
      <trkpt lat="38.837430502400615" lon="121.50624850812355">
        <ele>11.718796382658184</ele>
        <time>2025-08-11T05:14:28Z</time>
      </trkpt>
      <trkpt lat="38.83736958861368" lon="121.5063338145606">
        <ele>10.879957769066095</ele>
        <time>2025-08-11T05:14:32Z</time>
      </trkpt>
      <trkpt lat="38.83730907744765" lon="121.50654803531609">
        <ele>11.264305520802736</ele>
        <time>2025-08-11T05:14:40Z</time>
      </trkpt>
      <trkpt lat="38.837255529124256" lon="121.5066333182013">
        <ele>11.613499415107071</ele>
        <time>2025-08-11T05:14:44Z</time>
      </trkpt>
      <trkpt lat="38.837158531080405" lon="121.50697226674778">
        <ele>10.366947820410132</ele>
        <time>2025-08-11T05:14:56Z</time>
      </trkpt>
      <trkpt lat="38.83712025063506" lon="121.50707235431616">
        <ele>10.239577000960708</ele>
        <time>2025-08-11T05:15:00Z</time>
      </trkpt>
      <trkpt lat="38.83705085195594" lon="121.50713935996059">
        <ele>11.488739823922515</ele>
        <time>2025-08-11T05:15:04Z</time>
      </trkpt>
      <trkpt lat="38.83704113549763" lon="121.50724138420968">
        <ele>10.830096718855202</ele>
        <time>2025-08-11T05:15:08Z</time>
      </trkpt>
      <trkpt lat="38.837094582393696" lon="121.50733121102319">
        <ele>10.648322556167841</ele>
        <time>2025-08-11T05:15:12Z</time>
      </trkpt>
      <trkpt lat="38.83720433502572" lon="121.50742501978954">
        <ele>10.475402733311057</ele>
        <time>2025-08-11T05:15:16Z</time>
      </trkpt>
      <trkpt lat="38.83731979716579" lon="121.5074563324257">
        <ele>11.851248386316001</ele>
        <time>2025-08-11T05:15:20Z</time>
      </trkpt>
      <trkpt lat="38.837427686441714" lon="121.50739183670844">
        <ele>9.672027084976435</ele>
        <time>2025-08-11T05:15:24Z</time>
      </trkpt>
      <trkpt lat="38.83756717478994" lon="121.50736560025805">
        <ele>10.658178236335516</ele>
        <time>2025-08-11T05:15:28Z</time>
      </trkpt>
      <trkpt lat="38.8376745805361" lon="121.50729825698532">
        <ele>11.110348003916442</ele>
        <time>2025-08-11T05:15:32Z</time>
      </trkpt>
      <trkpt lat="38.83775016651811" lon="121.50717051376401">
        <ele>11.061735657043755</ele>
        <time>2025-08-11T05:15:36Z</time>
      </trkpt>
      <trkpt lat="38.83778120504138" lon="121.50688103562003">
        <ele>10.896410734392703</ele>
        <time>2025-08-11T05:15:40Z</time>
      </trkpt>
      <trkpt lat="38.83777152927858" lon="121.50599007480571">
        <ele>11.129077798686922</ele>
        <time>2025-08-11T05:15:52Z</time>
      </trkpt>
      <trkpt lat="38.837806615837465" lon="121.5056955486399">
        <ele>11.207039419561625</ele>
        <time>2025-08-11T05:16:00Z</time>
      </trkpt>
      <trkpt lat="38.83785499418353" lon="121.50557240878304">
        <ele>11.01654470898211</ele>
        <time>2025-08-11T05:16:04Z</time>
      </trkpt>
      <trkpt lat="38.837879865670715" lon="121.50543226074014">
        <ele>10.777518215589225</ele>
        <time>2025-08-11T05:16:08Z</time>
      </trkpt>
      <trkpt lat="38.83794264335956" lon="121.50529294349025">
        <ele>10.172353016212583</ele>
        <time>2025-08-11T05:16:12Z</time>
      </trkpt>
      <trkpt lat="38.83798101890884" lon="121.50504534573318">
        <ele>9.516186883673072</ele>
        <time>2025-08-11T05:16:20Z</time>
      </trkpt>
      <trkpt lat="38.838014894367234" lon="121.50494615310838">
        <ele>9.855182298459113</ele>
        <time>2025-08-11T05:16:24Z</time>
      </trkpt>
      <trkpt lat="38.83778037205817" lon="121.50489500614914">
        <ele>8.979832970537245</ele>
        <time>2025-08-11T05:16:44Z</time>
      </trkpt>
      <trkpt lat="38.837590110913055" lon="121.50472915493746">
        <ele>7.806013086810708</ele>
        <time>2025-08-11T05:16:52Z</time>
      </trkpt>
      <trkpt lat="38.83750742938337" lon="121.50462170381675">
        <ele>8.930863458663225</ele>
        <time>2025-08-11T05:16:56Z</time>
      </trkpt>
      <trkpt lat="38.83724910666285" lon="121.504404333079">
        <ele>8.483674298971891</ele>
        <time>2025-08-11T05:17:08Z</time>
      </trkpt>
      <trkpt lat="38.83723596634244" lon="121.50434305539459">
        <ele>9.133044863119721</ele>
        <time>2025-08-11T05:17:12Z</time>
      </trkpt>
      <trkpt lat="38.83746127635765" lon="121.50455801902777">
        <ele>9.725117956288159</ele>
        <time>2025-08-11T05:17:23Z</time>
      </trkpt>
      <trkpt lat="38.83767391283893" lon="121.50479834885546">
        <ele>8.88614722341299</ele>
        <time>2025-08-11T05:17:35Z</time>
      </trkpt>
      <trkpt lat="38.837898379834435" lon="121.50509334638039">
        <ele>8.983427570201457</ele>
        <time>2025-08-11T05:17:47Z</time>
      </trkpt>
      <trkpt lat="38.837963314771336" lon="121.50515866676592">
        <ele>9.19882090575993</ele>
        <time>2025-08-11T05:17:51Z</time>
      </trkpt>
      <trkpt lat="38.837855965534736" lon="121.50558660001771">
        <ele>10.405600413680077</ele>
        <time>2025-08-11T05:18:11Z</time>
      </trkpt>
      <trkpt lat="38.83783346615502" lon="121.50567096399902">
        <ele>10.790020391345024</ele>
        <time>2025-08-11T05:18:15Z</time>
      </trkpt>
      <trkpt lat="38.83765280039784" lon="121.50592370856843">
        <ele>11.656227944418788</ele>
        <time>2025-08-11T05:18:31Z</time>
      </trkpt>
      <trkpt lat="38.83762565247815" lon="121.50604496530782">
        <ele>10.62480381783098</ele>
        <time>2025-08-11T05:18:35Z</time>
      </trkpt>
      <trkpt lat="38.8375759718326" lon="121.50613113162254">
        <ele>10.00351997744292</ele>
        <time>2025-08-11T05:18:39Z</time>
      </trkpt>
      <trkpt lat="38.83747961033755" lon="121.50623666765264">
        <ele>11.254286054521799</ele>
        <time>2025-08-11T05:18:43Z</time>
      </trkpt>
      <trkpt lat="38.837274410017265" lon="121.50663523108821">
        <ele>10.307775842957199</ele>
        <time>2025-08-11T05:18:55Z</time>
      </trkpt>
      <trkpt lat="38.837174174753336" lon="121.50689023122007">
        <ele>10.467335899360478</ele>
        <time>2025-08-11T05:19:03Z</time>
      </trkpt>
      <trkpt lat="38.837122626074105" lon="121.50707273620564">
        <ele>10.829726262018085</ele>
        <time>2025-08-11T05:19:15Z</time>
      </trkpt>
      <trkpt lat="38.83718983164913" lon="121.50702536412199">
        <ele>11.087664999999106</ele>
        <time>2025-08-11T05:19:27Z</time>
      </trkpt>
      <trkpt lat="38.83723721017894" lon="121.50693160281514">
        <ele>10.911206731572747</ele>
        <time>2025-08-11T05:19:31Z</time>
      </trkpt>
      <trkpt lat="38.83726617740922" lon="121.50680301834721">
        <ele>11.15000371914357</ele>
        <time>2025-08-11T05:19:35Z</time>
      </trkpt>
      <trkpt lat="38.83742370328456" lon="121.50645468347561">
        <ele>11.188340893015265</ele>
        <time>2025-08-11T05:19:47Z</time>
      </trkpt>
      <trkpt lat="38.83757330032875" lon="121.50609671213991">
        <ele>10.594695879146457</ele>
        <time>2025-08-11T05:19:59Z</time>
      </trkpt>
      <trkpt lat="38.837641564283864" lon="121.50599452455847">
        <ele>10.586465328000486</ele>
        <time>2025-08-11T05:20:03Z</time>
      </trkpt>
      <trkpt lat="38.837660142104106" lon="121.50569978391623">
        <ele>10.61029911506921</ele>
        <time>2025-08-11T05:20:11Z</time>
      </trkpt>
      <trkpt lat="38.83770213457275" lon="121.50560170715747">
        <ele>10.633930725045502</ele>
        <time>2025-08-11T05:20:15Z</time>
      </trkpt>
      <trkpt lat="38.83781906623681" lon="121.50541039579952">
        <ele>9.680982091464102</ele>
        <time>2025-08-11T05:20:23Z</time>
      </trkpt>
      <trkpt lat="38.83790786329079" lon="121.50522957758925">
        <ele>8.301657125353813</ele>
        <time>2025-08-11T05:20:31Z</time>
      </trkpt>
    </trkseg>
  </trk>
</gpx>