<?xml version="1.0" encoding="UTF-8"?>
<gpx xmlns="http://www.topografix.com/GPX/1/1" xmlns:gpxtpx="http://www.garmin.com/xmlschemas/TrackPointExtension/v1" xmlns:xsi="http://www.w3.org/2001/XMLSchema-instance" xsi:schemaLocation="http://www.topografix.com/GPX/1/1 http://www.topografix.com/GPX/1/1/gpx.xsd" version="1.1" creator="gpx.py -- https://github.com/tkrajina/gpxpy">
  <trk>
    <name>gpx from keep</name>
    <type>Run</type>
    <trkseg>
      <trkpt lat="38.83713142604242" lon="121.5094419125819">
        <ele>10.628292829372569</ele>
        <time>2025-09-10T00:09:31Z</time>
        <extensions>
          <gpxtpx:TrackPointExtension>
            <gpxtpx:hr>77</gpxtpx:hr>
          </gpxtpx:TrackPointExtension>
        </extensions>
      </trkpt>
      <trkpt lat="38.837066482811856" lon="121.50951328635273">
        <ele>9.963298914954066</ele>
        <time>2025-09-10T00:09:37Z</time>
        <extensions>
          <gpxtpx:TrackPointExtension>
            <gpxtpx:hr>77</gpxtpx:hr>
          </gpxtpx:TrackPointExtension>
        </extensions>
      </trkpt>
      <trkpt lat="38.837024943862296" lon="121.50958783573788">
        <ele>9.599570645950735</ele>
        <time>2025-09-10T00:09:41Z</time>
        <extensions>
          <gpxtpx:TrackPointExtension>
            <gpxtpx:hr>77</gpxtpx:hr>
          </gpxtpx:TrackPointExtension>
        </extensions>
      </trkpt>
      <trkpt lat="38.83698438621315" lon="121.50977565764013">
        <ele>9.263493211008608</ele>
        <time>2025-09-10T00:09:49Z</time>
        <extensions>
          <gpxtpx:TrackPointExtension>
            <gpxtpx:hr>77</gpxtpx:hr>
          </gpxtpx:TrackPointExtension>
        </extensions>
      </trkpt>
      <trkpt lat="38.83690646247879" lon="121.50983610656318">
        <ele>8.283916032873094</ele>
        <time>2025-09-10T00:09:53Z</time>
        <extensions>
          <gpxtpx:TrackPointExtension>
            <gpxtpx:hr>77</gpxtpx:hr>
          </gpxtpx:TrackPointExtension>
        </extensions>
      </trkpt>
      <trkpt lat="38.83684947641" lon="121.50991081147333">
        <ele>8.861434812657535</ele>
        <time>2025-09-10T00:09:57Z</time>
      </trkpt>
      <trkpt lat="38.8366273419919" lon="121.50996965250681">
        <ele>7.696987855248153</ele>
        <time>2025-09-10T00:10:09Z</time>
      </trkpt>
      <trkpt lat="38.83654987987676" lon="121.50995237851205">
        <ele>7.132301662117243</ele>
        <time>2025-09-10T00:10:13Z</time>
      </trkpt>
      <trkpt lat="38.83621174110459" lon="121.51003723269112">
        <ele>6.909829386509955</ele>
        <time>2025-09-10T00:10:29Z</time>
      </trkpt>
      <trkpt lat="38.83612104122882" lon="121.5100837605842">
        <ele>7.723666711710393</ele>
        <time>2025-09-10T00:10:33Z</time>
      </trkpt>
      <trkpt lat="38.83608275785513" lon="121.51017311428541">
        <ele>7.958319274708629</ele>
        <time>2025-09-10T00:10:37Z</time>
      </trkpt>
      <trkpt lat="38.83619890788808" lon="121.51037720366857">
        <ele>7.832933246158063</ele>
        <time>2025-09-10T00:10:46Z</time>
      </trkpt>
      <trkpt lat="38.83624164880342" lon="121.51054546068276">
        <ele>7.361200675368309</ele>
        <time>2025-09-10T00:10:52Z</time>
      </trkpt>
      <trkpt lat="38.83623243811443" lon="121.51072010280816">
        <ele>7.565311871469021</ele>
        <time>2025-09-10T00:10:58Z</time>
      </trkpt>
      <trkpt lat="38.83614838658998" lon="121.51095549445388">
        <ele>7.619073139503598</ele>
        <time>2025-09-10T00:11:07Z</time>
      </trkpt>
      <trkpt lat="38.83600490214724" lon="121.51123072690098">
        <ele>6.093209355138242</ele>
        <time>2025-09-10T00:11:19Z</time>
      </trkpt>
      <trkpt lat="38.83596451109066" lon="121.5113913065968">
        <ele>5.761871493421495</ele>
        <time>2025-09-10T00:11:25Z</time>
      </trkpt>
      <trkpt lat="38.83596590755085" lon="121.51157576381269">
        <ele>6.323343724012375</ele>
        <time>2025-09-10T00:11:32Z</time>
      </trkpt>
      <trkpt lat="38.8359808032913" lon="121.51165529282851">
        <ele>6.29445643723011</ele>
        <time>2025-09-10T00:11:35Z</time>
      </trkpt>
      <trkpt lat="38.836100179982395" lon="121.51186152666155">
        <ele>5.76001940574497</ele>
        <time>2025-09-10T00:11:44Z</time>
      </trkpt>
      <trkpt lat="38.836229048451365" lon="121.51193955596119">
        <ele>6.4714437099173665</ele>
        <time>2025-09-10T00:11:50Z</time>
      </trkpt>
      <trkpt lat="38.83629054958008" lon="121.51195771126498">
        <ele>6.554974467493594</ele>
        <time>2025-09-10T00:11:53Z</time>
      </trkpt>
      <trkpt lat="38.836368662741" lon="121.51194434708759">
        <ele>6.418274653144181</ele>
        <time>2025-09-10T00:11:56Z</time>
      </trkpt>
      <trkpt lat="38.836605697386254" lon="121.51180360412852">
        <ele>5.518537650816143</ele>
        <time>2025-09-10T00:12:08Z</time>
      </trkpt>
      <trkpt lat="38.83683117895448" lon="121.51151033423561">
        <ele>5.981244741007686</ele>
        <time>2025-09-10T00:12:23Z</time>
      </trkpt>
      <trkpt lat="38.83695136273701" lon="121.51133684399608">
        <ele>6.843299390748143</ele>
        <time>2025-09-10T00:12:32Z</time>
      </trkpt>
      <trkpt lat="38.83700299686673" lon="121.51119780355712">
        <ele>7.170659778639674</ele>
        <time>2025-09-10T00:12:38Z</time>
      </trkpt>
      <trkpt lat="38.83703307262856" lon="121.51096165658981">
        <ele>7.079542086459696</ele>
        <time>2025-09-10T00:12:47Z</time>
      </trkpt>
      <trkpt lat="38.83714108220641" lon="121.51067900703784">
        <ele>7.133946088142693</ele>
        <time>2025-09-10T00:12:59Z</time>
        <extensions>
          <gpxtpx:TrackPointExtension>
            <gpxtpx:hr>115</gpxtpx:hr>
          </gpxtpx:TrackPointExtension>
        </extensions>
      </trkpt>
      <trkpt lat="38.837351665768495" lon="121.51038576658523">
        <ele>8.527334189042449</ele>
        <time>2025-09-10T00:13:14Z</time>
        <extensions>
          <gpxtpx:TrackPointExtension>
            <gpxtpx:hr>125</gpxtpx:hr>
          </gpxtpx:TrackPointExtension>
        </extensions>
      </trkpt>
      <trkpt lat="38.83747219590358" lon="121.51028924698065">
        <ele>8.903224590234458</ele>
        <time>2025-09-10T00:13:20Z</time>
        <extensions>
          <gpxtpx:TrackPointExtension>
            <gpxtpx:hr>126</gpxtpx:hr>
          </gpxtpx:TrackPointExtension>
        </extensions>
      </trkpt>
      <trkpt lat="38.83752500365168" lon="121.51027545656268">
        <ele>8.30652377102524</ele>
        <time>2025-09-10T00:13:23Z</time>
        <extensions>
          <gpxtpx:TrackPointExtension>
            <gpxtpx:hr>120</gpxtpx:hr>
          </gpxtpx:TrackPointExtension>
        </extensions>
      </trkpt>
      <trkpt lat="38.83768677847886" lon="121.510062828695">
        <ele>8.812730873003602</ele>
        <time>2025-09-10T00:13:35Z</time>
        <extensions>
          <gpxtpx:TrackPointExtension>
            <gpxtpx:hr>125</gpxtpx:hr>
          </gpxtpx:TrackPointExtension>
        </extensions>
      </trkpt>
      <trkpt lat="38.83772983602933" lon="121.50997210041271">
        <ele>9.008794656023383</ele>
        <time>2025-09-10T00:13:39Z</time>
        <extensions>
          <gpxtpx:TrackPointExtension>
            <gpxtpx:hr>125</gpxtpx:hr>
          </gpxtpx:TrackPointExtension>
        </extensions>
      </trkpt>
      <trkpt lat="38.83779311962045" lon="121.50991576452952">
        <ele>7.491269577294588</ele>
        <time>2025-09-10T00:13:43Z</time>
        <extensions>
          <gpxtpx:TrackPointExtension>
            <gpxtpx:hr>125</gpxtpx:hr>
          </gpxtpx:TrackPointExtension>
        </extensions>
      </trkpt>
      <trkpt lat="38.837854232484084" lon="121.50989876679515">
        <ele>8.221375518478453</ele>
        <time>2025-09-10T00:13:46Z</time>
        <extensions>
          <gpxtpx:TrackPointExtension>
            <gpxtpx:hr>125</gpxtpx:hr>
          </gpxtpx:TrackPointExtension>
        </extensions>
      </trkpt>
      <trkpt lat="38.8379217094191" lon="121.50975245703087">
        <ele>8.941214290447533</ele>
        <time>2025-09-10T00:13:52Z</time>
        <extensions>
          <gpxtpx:TrackPointExtension>
            <gpxtpx:hr>122</gpxtpx:hr>
          </gpxtpx:TrackPointExtension>
        </extensions>
      </trkpt>
      <trkpt lat="38.837951670523715" lon="121.5096008199705">
        <ele>9.678036664612591</ele>
        <time>2025-09-10T00:13:58Z</time>
        <extensions>
          <gpxtpx:TrackPointExtension>
            <gpxtpx:hr>126</gpxtpx:hr>
          </gpxtpx:TrackPointExtension>
        </extensions>
      </trkpt>
      <trkpt lat="38.83804827567795" lon="121.5093796904383">
        <ele>9.142218202352524</ele>
        <time>2025-09-10T00:14:07Z</time>
        <extensions>
          <gpxtpx:TrackPointExtension>
            <gpxtpx:hr>127</gpxtpx:hr>
          </gpxtpx:TrackPointExtension>
        </extensions>
      </trkpt>
      <trkpt lat="38.83827583954072" lon="121.50910990462539">
        <ele>9.566068365238607</ele>
        <time>2025-09-10T00:14:22Z</time>
        <extensions>
          <gpxtpx:TrackPointExtension>
            <gpxtpx:hr>126</gpxtpx:hr>
          </gpxtpx:TrackPointExtension>
        </extensions>
      </trkpt>
      <trkpt lat="38.83829204515984" lon="121.50904597957472">
        <ele>11.320403596386313</ele>
        <time>2025-09-10T00:14:25Z</time>
        <extensions>
          <gpxtpx:TrackPointExtension>
            <gpxtpx:hr>128</gpxtpx:hr>
          </gpxtpx:TrackPointExtension>
        </extensions>
      </trkpt>
      <trkpt lat="38.83817092264072" lon="121.50892373585616">
        <ele>10.201482290402055</ele>
        <time>2025-09-10T00:14:31Z</time>
        <extensions>
          <gpxtpx:TrackPointExtension>
            <gpxtpx:hr>128</gpxtpx:hr>
          </gpxtpx:TrackPointExtension>
        </extensions>
      </trkpt>
      <trkpt lat="38.83813762457084" lon="121.50886986742263">
        <ele>10.78139655571431</ele>
        <time>2025-09-10T00:14:34Z</time>
        <extensions>
          <gpxtpx:TrackPointExtension>
            <gpxtpx:hr>128</gpxtpx:hr>
          </gpxtpx:TrackPointExtension>
        </extensions>
      </trkpt>
      <trkpt lat="38.83791773296067" lon="121.50866726250821">
        <ele>11.196377384476364</ele>
        <time>2025-09-10T00:14:46Z</time>
        <extensions>
          <gpxtpx:TrackPointExtension>
            <gpxtpx:hr>128</gpxtpx:hr>
          </gpxtpx:TrackPointExtension>
        </extensions>
      </trkpt>
      <trkpt lat="38.83782367803412" lon="121.50857233583405">
        <ele>10.683658220805228</ele>
        <time>2025-09-10T00:14:52Z</time>
      </trkpt>
      <trkpt lat="38.83763350273016" lon="121.50849671486037">
        <ele>10.632102280855179</ele>
        <time>2025-09-10T00:15:01Z</time>
        <extensions>
          <gpxtpx:TrackPointExtension>
            <gpxtpx:hr>131</gpxtpx:hr>
          </gpxtpx:TrackPointExtension>
        </extensions>
      </trkpt>
      <trkpt lat="38.83752207255001" lon="121.50872339203619">
        <ele>10.089819092303514</ele>
        <time>2025-09-10T00:15:10Z</time>
        <extensions>
          <gpxtpx:TrackPointExtension>
            <gpxtpx:hr>130</gpxtpx:hr>
          </gpxtpx:TrackPointExtension>
        </extensions>
      </trkpt>
      <trkpt lat="38.83742825738267" lon="121.5089564141419">
        <ele>8.939270906150341</ele>
        <time>2025-09-10T00:15:19Z</time>
        <extensions>
          <gpxtpx:TrackPointExtension>
            <gpxtpx:hr>126</gpxtpx:hr>
          </gpxtpx:TrackPointExtension>
        </extensions>
      </trkpt>
      <trkpt lat="38.837237485319235" lon="121.50916018973213">
        <ele>9.954202233813703</ele>
        <time>2025-09-10T00:15:31Z</time>
        <extensions>
          <gpxtpx:TrackPointExtension>
            <gpxtpx:hr>127</gpxtpx:hr>
          </gpxtpx:TrackPointExtension>
        </extensions>
      </trkpt>
      <trkpt lat="38.8370753643141" lon="121.50945935317085">
        <ele>10.003744871355593</ele>
        <time>2025-09-10T00:15:44Z</time>
        <extensions>
          <gpxtpx:TrackPointExtension>
            <gpxtpx:hr>128</gpxtpx:hr>
          </gpxtpx:TrackPointExtension>
        </extensions>
      </trkpt>
      <trkpt lat="38.8369567671265" lon="121.50977425004808">
        <ele>8.273942817002535</ele>
        <time>2025-09-10T00:15:59Z</time>
        <extensions>
          <gpxtpx:TrackPointExtension>
            <gpxtpx:hr>129</gpxtpx:hr>
          </gpxtpx:TrackPointExtension>
        </extensions>
      </trkpt>
      <trkpt lat="38.836858717527186" lon="121.50991002613844">
        <ele>7.778934584930539</ele>
        <time>2025-09-10T00:16:08Z</time>
        <extensions>
          <gpxtpx:TrackPointExtension>
            <gpxtpx:hr>130</gpxtpx:hr>
          </gpxtpx:TrackPointExtension>
        </extensions>
      </trkpt>
      <trkpt lat="38.83675451072731" lon="121.509962606407">
        <ele>7.241546040400863</ele>
        <time>2025-09-10T00:16:14Z</time>
        <extensions>
          <gpxtpx:TrackPointExtension>
            <gpxtpx:hr>130</gpxtpx:hr>
          </gpxtpx:TrackPointExtension>
        </extensions>
      </trkpt>
      <trkpt lat="38.83644508886484" lon="121.50998617056992">
        <ele>6.637135887518525</ele>
        <time>2025-09-10T00:16:29Z</time>
        <extensions>
          <gpxtpx:TrackPointExtension>
            <gpxtpx:hr>131</gpxtpx:hr>
          </gpxtpx:TrackPointExtension>
        </extensions>
      </trkpt>
      <trkpt lat="38.836255079123866" lon="121.51002877706286">
        <ele>5.460192990489304</ele>
        <time>2025-09-10T00:16:38Z</time>
        <extensions>
          <gpxtpx:TrackPointExtension>
            <gpxtpx:hr>131</gpxtpx:hr>
          </gpxtpx:TrackPointExtension>
        </extensions>
      </trkpt>
      <trkpt lat="38.83611816162504" lon="121.51011186298196">
        <ele>6.839708164334297</ele>
        <time>2025-09-10T00:16:44Z</time>
        <extensions>
          <gpxtpx:TrackPointExtension>
            <gpxtpx:hr>131</gpxtpx:hr>
          </gpxtpx:TrackPointExtension>
        </extensions>
      </trkpt>
      <trkpt lat="38.83609046640388" lon="121.51020859880806">
        <ele>7.445021626539528</ele>
        <time>2025-09-10T00:16:47Z</time>
        <extensions>
          <gpxtpx:TrackPointExtension>
            <gpxtpx:hr>129</gpxtpx:hr>
          </gpxtpx:TrackPointExtension>
        </extensions>
      </trkpt>
      <trkpt lat="38.836200956807055" lon="121.51041198794182">
        <ele>6.260396068915725</ele>
        <time>2025-09-10T00:16:56Z</time>
        <extensions>
          <gpxtpx:TrackPointExtension>
            <gpxtpx:hr>129</gpxtpx:hr>
          </gpxtpx:TrackPointExtension>
        </extensions>
      </trkpt>
      <trkpt lat="38.83623479161645" lon="121.51058050275121">
        <ele>6.603282270953059</ele>
        <time>2025-09-10T00:17:02Z</time>
        <extensions>
          <gpxtpx:TrackPointExtension>
            <gpxtpx:hr>129</gpxtpx:hr>
          </gpxtpx:TrackPointExtension>
        </extensions>
      </trkpt>
      <trkpt lat="38.83623619128834" lon="121.51067411912081">
        <ele>6.467083376832306</ele>
        <time>2025-09-10T00:17:05Z</time>
        <extensions>
          <gpxtpx:TrackPointExtension>
            <gpxtpx:hr>129</gpxtpx:hr>
          </gpxtpx:TrackPointExtension>
        </extensions>
      </trkpt>
      <trkpt lat="38.83615689715605" lon="121.51093418303621">
        <ele>6.506183499470353</ele>
        <time>2025-09-10T00:17:14Z</time>
        <extensions>
          <gpxtpx:TrackPointExtension>
            <gpxtpx:hr>129</gpxtpx:hr>
          </gpxtpx:TrackPointExtension>
        </extensions>
      </trkpt>
      <trkpt lat="38.83598244262664" lon="121.51128472197098">
        <ele>6.270152064971626</ele>
        <time>2025-09-10T00:17:29Z</time>
        <extensions>
          <gpxtpx:TrackPointExtension>
            <gpxtpx:hr>131</gpxtpx:hr>
          </gpxtpx:TrackPointExtension>
        </extensions>
      </trkpt>
      <trkpt lat="38.835957882964216" lon="121.51144586776506">
        <ele>6.422962146811187</ele>
        <time>2025-09-10T00:17:35Z</time>
        <extensions>
          <gpxtpx:TrackPointExtension>
            <gpxtpx:hr>133</gpxtpx:hr>
          </gpxtpx:TrackPointExtension>
        </extensions>
      </trkpt>
      <trkpt lat="38.836013132552374" lon="121.51169844172932">
        <ele>5.453123998828232</ele>
        <time>2025-09-10T00:17:44Z</time>
        <extensions>
          <gpxtpx:TrackPointExtension>
            <gpxtpx:hr>133</gpxtpx:hr>
          </gpxtpx:TrackPointExtension>
        </extensions>
      </trkpt>
      <trkpt lat="38.836103402897486" lon="121.51186718749169">
        <ele>5.13964416552335</ele>
        <time>2025-09-10T00:17:51Z</time>
        <extensions>
          <gpxtpx:TrackPointExtension>
            <gpxtpx:hr>133</gpxtpx:hr>
          </gpxtpx:TrackPointExtension>
        </extensions>
      </trkpt>
      <trkpt lat="38.836180830745796" lon="121.51191990418921">
        <ele>5.269871044903994</ele>
        <time>2025-09-10T00:17:55Z</time>
        <extensions>
          <gpxtpx:TrackPointExtension>
            <gpxtpx:hr>133</gpxtpx:hr>
          </gpxtpx:TrackPointExtension>
        </extensions>
      </trkpt>
      <trkpt lat="38.83626659395012" lon="121.51194612796439">
        <ele>6.1096743838861585</ele>
        <time>2025-09-10T00:17:59Z</time>
        <extensions>
          <gpxtpx:TrackPointExtension>
            <gpxtpx:hr>133</gpxtpx:hr>
          </gpxtpx:TrackPointExtension>
        </extensions>
      </trkpt>
      <trkpt lat="38.836397419863104" lon="121.51195223345071">
        <ele>6.249625178053975</ele>
        <time>2025-09-10T00:18:03Z</time>
        <extensions>
          <gpxtpx:TrackPointExtension>
            <gpxtpx:hr>133</gpxtpx:hr>
          </gpxtpx:TrackPointExtension>
        </extensions>
      </trkpt>
      <trkpt lat="38.83644217241871" lon="121.51190249129981">
        <ele>5.838312731124461</ele>
        <time>2025-09-10T00:18:06Z</time>
        <extensions>
          <gpxtpx:TrackPointExtension>
            <gpxtpx:hr>133</gpxtpx:hr>
          </gpxtpx:TrackPointExtension>
        </extensions>
      </trkpt>
      <trkpt lat="38.83650434004185" lon="121.51188663812013">
        <ele>6.0350716430693865</ele>
        <time>2025-09-10T00:18:09Z</time>
        <extensions>
          <gpxtpx:TrackPointExtension>
            <gpxtpx:hr>134</gpxtpx:hr>
          </gpxtpx:TrackPointExtension>
        </extensions>
      </trkpt>
      <trkpt lat="38.83659455085144" lon="121.51180684069436">
        <ele>4.4357094233855605</ele>
        <time>2025-09-10T00:18:15Z</time>
        <extensions>
          <gpxtpx:TrackPointExtension>
            <gpxtpx:hr>132</gpxtpx:hr>
          </gpxtpx:TrackPointExtension>
        </extensions>
      </trkpt>
      <trkpt lat="38.83664386878891" lon="121.51173302629857">
        <ele>4.916459251195192</ele>
        <time>2025-09-10T00:18:18Z</time>
        <extensions>
          <gpxtpx:TrackPointExtension>
            <gpxtpx:hr>129</gpxtpx:hr>
          </gpxtpx:TrackPointExtension>
        </extensions>
      </trkpt>
      <trkpt lat="38.83682250749799" lon="121.5115943155323">
        <ele>6.310609955340624</ele>
        <time>2025-09-10T00:18:27Z</time>
        <extensions>
          <gpxtpx:TrackPointExtension>
            <gpxtpx:hr>129</gpxtpx:hr>
          </gpxtpx:TrackPointExtension>
        </extensions>
      </trkpt>
      <trkpt lat="38.83697922215205" lon="121.51130276083602">
        <ele>7.161635040305555</ele>
        <time>2025-09-10T00:18:39Z</time>
        <extensions>
          <gpxtpx:TrackPointExtension>
            <gpxtpx:hr>129</gpxtpx:hr>
          </gpxtpx:TrackPointExtension>
        </extensions>
      </trkpt>
      <trkpt lat="38.837024833612084" lon="121.5111431119862">
        <ele>7.278074133209884</ele>
        <time>2025-09-10T00:18:45Z</time>
        <extensions>
          <gpxtpx:TrackPointExtension>
            <gpxtpx:hr>129</gpxtpx:hr>
          </gpxtpx:TrackPointExtension>
        </extensions>
      </trkpt>
      <trkpt lat="38.83703178630324" lon="121.51096101530113">
        <ele>7.197775340639055</ele>
        <time>2025-09-10T00:18:51Z</time>
        <extensions>
          <gpxtpx:TrackPointExtension>
            <gpxtpx:hr>132</gpxtpx:hr>
          </gpxtpx:TrackPointExtension>
        </extensions>
      </trkpt>
      <trkpt lat="38.83707345229833" lon="121.5108138848233">
        <ele>7.194554289802909</ele>
        <time>2025-09-10T00:18:57Z</time>
        <extensions>
          <gpxtpx:TrackPointExtension>
            <gpxtpx:hr>135</gpxtpx:hr>
          </gpxtpx:TrackPointExtension>
        </extensions>
      </trkpt>
      <trkpt lat="38.83722290017976" lon="121.51055537254105">
        <ele>8.391192771494389</ele>
        <time>2025-09-10T00:19:09Z</time>
        <extensions>
          <gpxtpx:TrackPointExtension>
            <gpxtpx:hr>136</gpxtpx:hr>
          </gpxtpx:TrackPointExtension>
        </extensions>
      </trkpt>
      <trkpt lat="38.83747598092056" lon="121.51026395932942">
        <ele>8.240100379101932</ele>
        <time>2025-09-10T00:19:24Z</time>
        <extensions>
          <gpxtpx:TrackPointExtension>
            <gpxtpx:hr>139</gpxtpx:hr>
          </gpxtpx:TrackPointExtension>
        </extensions>
      </trkpt>
      <trkpt lat="38.83754211612157" lon="121.51023338247546">
        <ele>8.345344649627805</ele>
        <time>2025-09-10T00:19:27Z</time>
        <extensions>
          <gpxtpx:TrackPointExtension>
            <gpxtpx:hr>139</gpxtpx:hr>
          </gpxtpx:TrackPointExtension>
        </extensions>
      </trkpt>
      <trkpt lat="38.837700616210014" lon="121.51006684439601">
        <ele>9.035300061106682</ele>
        <time>2025-09-10T00:19:36Z</time>
        <extensions>
          <gpxtpx:TrackPointExtension>
            <gpxtpx:hr>139</gpxtpx:hr>
          </gpxtpx:TrackPointExtension>
        </extensions>
      </trkpt>
      <trkpt lat="38.837755890668696" lon="121.50992827241718">
        <ele>8.815515625290573</ele>
        <time>2025-09-10T00:19:42Z</time>
        <extensions>
          <gpxtpx:TrackPointExtension>
            <gpxtpx:hr>140</gpxtpx:hr>
          </gpxtpx:TrackPointExtension>
        </extensions>
      </trkpt>
      <trkpt lat="38.83784510402252" lon="121.50992560460847">
        <ele>8.17161619849503</ele>
        <time>2025-09-10T00:19:45Z</time>
        <extensions>
          <gpxtpx:TrackPointExtension>
            <gpxtpx:hr>140</gpxtpx:hr>
          </gpxtpx:TrackPointExtension>
        </extensions>
      </trkpt>
      <trkpt lat="38.83788028790799" lon="121.50983432788476">
        <ele>8.462280731648207</ele>
        <time>2025-09-10T00:19:48Z</time>
        <extensions>
          <gpxtpx:TrackPointExtension>
            <gpxtpx:hr>140</gpxtpx:hr>
          </gpxtpx:TrackPointExtension>
        </extensions>
      </trkpt>
      <trkpt lat="38.837970118410546" lon="121.50972221907216">
        <ele>9.971289766952395</ele>
        <time>2025-09-10T00:19:54Z</time>
        <extensions>
          <gpxtpx:TrackPointExtension>
            <gpxtpx:hr>140</gpxtpx:hr>
          </gpxtpx:TrackPointExtension>
        </extensions>
      </trkpt>
      <trkpt lat="38.838005073004155" lon="121.50948382429829">
        <ele>9.277575640939176</ele>
        <time>2025-09-10T00:20:02Z</time>
        <extensions>
          <gpxtpx:TrackPointExtension>
            <gpxtpx:hr>140</gpxtpx:hr>
          </gpxtpx:TrackPointExtension>
        </extensions>
      </trkpt>
      <trkpt lat="38.83817146613249" lon="121.50922848177916">
        <ele>9.161234559491277</ele>
        <time>2025-09-10T00:20:14Z</time>
        <extensions>
          <gpxtpx:TrackPointExtension>
            <gpxtpx:hr>140</gpxtpx:hr>
          </gpxtpx:TrackPointExtension>
        </extensions>
      </trkpt>
      <trkpt lat="38.83827857046662" lon="121.50914747146861">
        <ele>10.392044787295163</ele>
        <time>2025-09-10T00:20:20Z</time>
        <extensions>
          <gpxtpx:TrackPointExtension>
            <gpxtpx:hr>141</gpxtpx:hr>
          </gpxtpx:TrackPointExtension>
        </extensions>
      </trkpt>
      <trkpt lat="38.83835272095952" lon="121.50905050848803">
        <ele>11.591014004312456</ele>
        <time>2025-09-10T00:20:29Z</time>
        <extensions>
          <gpxtpx:TrackPointExtension>
            <gpxtpx:hr>140</gpxtpx:hr>
          </gpxtpx:TrackPointExtension>
        </extensions>
      </trkpt>
      <trkpt lat="38.83807357499735" lon="121.50881281814853">
        <ele>10.429529775865376</ele>
        <time>2025-09-10T00:20:54Z</time>
        <extensions>
          <gpxtpx:TrackPointExtension>
            <gpxtpx:hr>136</gpxtpx:hr>
          </gpxtpx:TrackPointExtension>
        </extensions>
      </trkpt>
      <trkpt lat="38.83787120141057" lon="121.50862134335225">
        <ele>11.191458131186664</ele>
        <time>2025-09-10T00:21:06Z</time>
        <extensions>
          <gpxtpx:TrackPointExtension>
            <gpxtpx:hr>133</gpxtpx:hr>
          </gpxtpx:TrackPointExtension>
        </extensions>
      </trkpt>
      <trkpt lat="38.83783075572429" lon="121.50854648747743">
        <ele>11.098357810638845</ele>
        <time>2025-09-10T00:21:09Z</time>
        <extensions>
          <gpxtpx:TrackPointExtension>
            <gpxtpx:hr>133</gpxtpx:hr>
          </gpxtpx:TrackPointExtension>
        </extensions>
      </trkpt>
      <trkpt lat="38.83766324236437" lon="121.50839396597922">
        <ele>11.473088288679719</ele>
        <time>2025-09-10T00:21:18Z</time>
        <extensions>
          <gpxtpx:TrackPointExtension>
            <gpxtpx:hr>132</gpxtpx:hr>
          </gpxtpx:TrackPointExtension>
        </extensions>
      </trkpt>
      <trkpt lat="38.837617436078645" lon="121.50831128738074">
        <ele>9.99103737808764</ele>
        <time>2025-09-10T00:21:21Z</time>
        <extensions>
          <gpxtpx:TrackPointExtension>
            <gpxtpx:hr>132</gpxtpx:hr>
          </gpxtpx:TrackPointExtension>
        </extensions>
      </trkpt>
      <trkpt lat="38.837500407317215" lon="121.50821066558981">
        <ele>10.155713484622538</ele>
        <time>2025-09-10T00:21:27Z</time>
        <extensions>
          <gpxtpx:TrackPointExtension>
            <gpxtpx:hr>132</gpxtpx:hr>
          </gpxtpx:TrackPointExtension>
        </extensions>
      </trkpt>
      <trkpt lat="38.83741468690308" lon="121.50806264924499">
        <ele>10.681308197788894</ele>
        <time>2025-09-10T00:21:33Z</time>
        <extensions>
          <gpxtpx:TrackPointExtension>
            <gpxtpx:hr>137</gpxtpx:hr>
          </gpxtpx:TrackPointExtension>
        </extensions>
      </trkpt>
      <trkpt lat="38.837133312598176" lon="121.50788530785297">
        <ele>10.975860466249287</ele>
        <time>2025-09-10T00:21:48Z</time>
        <extensions>
          <gpxtpx:TrackPointExtension>
            <gpxtpx:hr>138</gpxtpx:hr>
          </gpxtpx:TrackPointExtension>
        </extensions>
      </trkpt>
      <trkpt lat="38.837089652653546" lon="121.5078216654105">
        <ele>10.694932623766363</ele>
        <time>2025-09-10T00:21:51Z</time>
        <extensions>
          <gpxtpx:TrackPointExtension>
            <gpxtpx:hr>138</gpxtpx:hr>
          </gpxtpx:TrackPointExtension>
        </extensions>
      </trkpt>
      <trkpt lat="38.83687121524588" lon="121.50761328631884">
        <ele>10.674503963440657</ele>
        <time>2025-09-10T00:22:04Z</time>
        <extensions>
          <gpxtpx:TrackPointExtension>
            <gpxtpx:hr>138</gpxtpx:hr>
          </gpxtpx:TrackPointExtension>
        </extensions>
      </trkpt>
      <trkpt lat="38.8367131829654" lon="121.50744038460914">
        <ele>11.369931158609688</ele>
        <time>2025-09-10T00:22:19Z</time>
        <extensions>
          <gpxtpx:TrackPointExtension>
            <gpxtpx:hr>140</gpxtpx:hr>
          </gpxtpx:TrackPointExtension>
        </extensions>
      </trkpt>
      <trkpt lat="38.83661537333729" lon="121.5074020660732">
        <ele>10.767946429550648</ele>
        <time>2025-09-10T00:22:46Z</time>
        <extensions>
          <gpxtpx:TrackPointExtension>
            <gpxtpx:hr>132</gpxtpx:hr>
          </gpxtpx:TrackPointExtension>
        </extensions>
      </trkpt>
      <trkpt lat="38.836383725211014" lon="121.50721186382546">
        <ele>9.644749137572944</ele>
        <time>2025-09-10T00:22:58Z</time>
        <extensions>
          <gpxtpx:TrackPointExtension>
            <gpxtpx:hr>132</gpxtpx:hr>
          </gpxtpx:TrackPointExtension>
        </extensions>
      </trkpt>
      <trkpt lat="38.8362610757676" lon="121.507134469391">
        <ele>10.330047528259456</ele>
        <time>2025-09-10T00:23:04Z</time>
        <extensions>
          <gpxtpx:TrackPointExtension>
            <gpxtpx:hr>132</gpxtpx:hr>
          </gpxtpx:TrackPointExtension>
        </extensions>
      </trkpt>
      <trkpt lat="38.83613515644118" lon="121.50698833690258">
        <ele>9.875324457883835</ele>
        <time>2025-09-10T00:23:10Z</time>
        <extensions>
          <gpxtpx:TrackPointExtension>
            <gpxtpx:hr>132</gpxtpx:hr>
          </gpxtpx:TrackPointExtension>
        </extensions>
      </trkpt>
      <trkpt lat="38.83608730155871" lon="121.5069640327096">
        <ele>9.542530535720289</ele>
        <time>2025-09-10T00:23:13Z</time>
        <extensions>
          <gpxtpx:TrackPointExtension>
            <gpxtpx:hr>132</gpxtpx:hr>
          </gpxtpx:TrackPointExtension>
        </extensions>
      </trkpt>
      <trkpt lat="38.83614003861595" lon="121.50690441678435">
        <ele>9.555030320771039</ele>
        <time>2025-09-10T00:23:28Z</time>
      </trkpt>
      <trkpt lat="38.83618116675046" lon="121.5067716246587">
        <ele>9.369255688041449</ele>
        <time>2025-09-10T00:23:37Z</time>
      </trkpt>
      <trkpt lat="38.83626370975368" lon="121.5068574488966">
        <ele>9.579527352005243</ele>
        <time>2025-09-10T00:23:49Z</time>
        <extensions>
          <gpxtpx:TrackPointExtension>
            <gpxtpx:hr>128</gpxtpx:hr>
          </gpxtpx:TrackPointExtension>
        </extensions>
      </trkpt>
      <trkpt lat="38.83651365097265" lon="121.50704151428958">
        <ele>9.192166280932724</ele>
        <time>2025-09-10T00:24:01Z</time>
        <extensions>
          <gpxtpx:TrackPointExtension>
            <gpxtpx:hr>127</gpxtpx:hr>
          </gpxtpx:TrackPointExtension>
        </extensions>
      </trkpt>
      <trkpt lat="38.836572437422625" lon="121.50707869082846">
        <ele>10.138433835469186</ele>
        <time>2025-09-10T00:24:04Z</time>
        <extensions>
          <gpxtpx:TrackPointExtension>
            <gpxtpx:hr>127</gpxtpx:hr>
          </gpxtpx:TrackPointExtension>
        </extensions>
      </trkpt>
      <trkpt lat="38.836666070044096" lon="121.50718869547906">
        <ele>9.619527488015592</ele>
        <time>2025-09-10T00:24:08Z</time>
        <extensions>
          <gpxtpx:TrackPointExtension>
            <gpxtpx:hr>129</gpxtpx:hr>
          </gpxtpx:TrackPointExtension>
        </extensions>
      </trkpt>
      <trkpt lat="38.83671851914847" lon="121.50719840280684">
        <ele>10.190124997869134</ele>
        <time>2025-09-10T00:24:11Z</time>
        <extensions>
          <gpxtpx:TrackPointExtension>
            <gpxtpx:hr>129</gpxtpx:hr>
          </gpxtpx:TrackPointExtension>
        </extensions>
      </trkpt>
      <trkpt lat="38.83679584027233" lon="121.50716686851581">
        <ele>10.014700726605952</ele>
        <time>2025-09-10T00:24:14Z</time>
        <extensions>
          <gpxtpx:TrackPointExtension>
            <gpxtpx:hr>131</gpxtpx:hr>
          </gpxtpx:TrackPointExtension>
        </extensions>
      </trkpt>
      <trkpt lat="38.836842651444556" lon="121.50707428170836">
        <ele>9.20836293976754</ele>
        <time>2025-09-10T00:24:17Z</time>
        <extensions>
          <gpxtpx:TrackPointExtension>
            <gpxtpx:hr>132</gpxtpx:hr>
          </gpxtpx:TrackPointExtension>
        </extensions>
      </trkpt>
      <trkpt lat="38.836906453092574" lon="121.50699162046567">
        <ele>10.753786285407841</ele>
        <time>2025-09-10T00:24:23Z</time>
        <extensions>
          <gpxtpx:TrackPointExtension>
            <gpxtpx:hr>134</gpxtpx:hr>
          </gpxtpx:TrackPointExtension>
        </extensions>
      </trkpt>
      <trkpt lat="38.83708283346875" lon="121.50665919212507">
        <ele>10.783487865701318</ele>
        <time>2025-09-10T00:24:35Z</time>
        <extensions>
          <gpxtpx:TrackPointExtension>
            <gpxtpx:hr>135</gpxtpx:hr>
          </gpxtpx:TrackPointExtension>
        </extensions>
      </trkpt>
      <trkpt lat="38.83723574865385" lon="121.50648181071358">
        <ele>10.239564111456275</ele>
        <time>2025-09-10T00:24:44Z</time>
        <extensions>
          <gpxtpx:TrackPointExtension>
            <gpxtpx:hr>137</gpxtpx:hr>
          </gpxtpx:TrackPointExtension>
        </extensions>
      </trkpt>
      <trkpt lat="38.83726078932979" lon="121.50639346398626">
        <ele>10.345546061173081</ele>
        <time>2025-09-10T00:24:47Z</time>
        <extensions>
          <gpxtpx:TrackPointExtension>
            <gpxtpx:hr>137</gpxtpx:hr>
          </gpxtpx:TrackPointExtension>
        </extensions>
      </trkpt>
      <trkpt lat="38.83726078932979" lon="121.50639346398626">
        <ele>10.345546061173081</ele>
        <time>2025-09-10T00:24:53Z</time>
        <extensions>
          <gpxtpx:TrackPointExtension>
            <gpxtpx:hr>137</gpxtpx:hr>
          </gpxtpx:TrackPointExtension>
        </extensions>
      </trkpt>
    </trkseg>
  </trk>
</gpx>