<?xml version="1.0" encoding="UTF-8"?>
<gpx xmlns="http://www.topografix.com/GPX/1/1" xmlns:gpxtpx="http://www.garmin.com/xmlschemas/TrackPointExtension/v1" xmlns:xsi="http://www.w3.org/2001/XMLSchema-instance" xsi:schemaLocation="http://www.topografix.com/GPX/1/1 http://www.topografix.com/GPX/1/1/gpx.xsd" version="1.1" creator="gpx.py -- https://github.com/tkrajina/gpxpy">
  <trk>
    <name>gpx from keep</name>
    <type>Run</type>
    <trkseg>
      <trkpt lat="38.83567361629961" lon="121.50822676661143">
        <ele>9.864719809032977</ele>
        <time>2026-08-24T00:00:15Z</time>
      </trkpt>
      <trkpt lat="38.835617568368995" lon="121.50838592579294">
        <ele>9.798279764130712</ele>
        <time>2026-08-24T00:00:27Z</time>
      </trkpt>
      <trkpt lat="38.83562017925471" lon="121.50844586961067">
        <ele>9.67304761800915</ele>
        <time>2026-08-24T00:00:31Z</time>
      </trkpt>
      <trkpt lat="38.835519740050735" lon="121.50871325532968">
        <ele>9.591961251571774</ele>
        <time>2026-08-24T00:00:43Z</time>
      </trkpt>
      <trkpt lat="38.835448739695664" lon="121.5088060364691">
        <ele>9.941969851963222</ele>
        <time>2026-08-24T00:00:47Z</time>
      </trkpt>
      <trkpt lat="38.835408679600675" lon="121.50889371054565">
        <ele>10.649861971847713</ele>
        <time>2026-08-24T00:00:51Z</time>
      </trkpt>
      <trkpt lat="38.835388985620924" lon="121.50905423661956">
        <ele>8.842064914293587</ele>
        <time>2026-08-24T00:00:59Z</time>
      </trkpt>
      <trkpt lat="38.835292381794524" lon="121.50923257427586">
        <ele>10.491707437671721</ele>
        <time>2026-08-24T00:01:06Z</time>
      </trkpt>
      <trkpt lat="38.83525791035481" lon="121.50932741797371">
        <ele>9.170749466866255</ele>
        <time>2026-08-24T00:01:10Z</time>
      </trkpt>
      <trkpt lat="38.83517055073241" lon="121.5095105704951">
        <ele>10.421522956341505</ele>
        <time>2026-08-24T00:01:25Z</time>
      </trkpt>
      <trkpt lat="38.83514827381048" lon="121.50959877282253">
        <ele>9.900991371832788</ele>
        <time>2026-08-24T00:01:28Z</time>
      </trkpt>
      <trkpt lat="38.8351186552514" lon="121.50964719707926">
        <ele>8.933536792173982</ele>
        <time>2026-08-24T00:01:31Z</time>
      </trkpt>
      <trkpt lat="38.83510186651172" lon="121.50972565374894">
        <ele>9.024891276843846</ele>
        <time>2026-08-24T00:01:34Z</time>
      </trkpt>
      <trkpt lat="38.8350491147314" lon="121.50986122713537">
        <ele>8.694227595813572</ele>
        <time>2026-08-24T00:01:40Z</time>
      </trkpt>
      <trkpt lat="38.835036210943784" lon="121.50994810013957">
        <ele>8.401740369386971</ele>
        <time>2026-08-24T00:01:43Z</time>
      </trkpt>
      <trkpt lat="38.834965896086196" lon="121.51013557217867">
        <ele>8.415722735226154</ele>
        <time>2026-08-24T00:01:52Z</time>
      </trkpt>
      <trkpt lat="38.83496116407891" lon="121.5102793815036">
        <ele>9.06199187040329</ele>
        <time>2026-08-24T00:01:58Z</time>
      </trkpt>
      <trkpt lat="38.834835919759634" lon="121.51062419839673">
        <ele>9.164249897003174</ele>
        <time>2026-08-24T00:02:14Z</time>
      </trkpt>
      <trkpt lat="38.83476248346902" lon="121.5108348181279">
        <ele>8.64671393390745</ele>
        <time>2026-08-24T00:02:23Z</time>
      </trkpt>
      <trkpt lat="38.834753849583414" lon="121.5109129607204">
        <ele>8.544959323480725</ele>
        <time>2026-08-24T00:02:26Z</time>
      </trkpt>
      <trkpt lat="38.83462205181733" lon="121.51129012312867">
        <ele>7.782091004773974</ele>
        <time>2026-08-24T00:02:41Z</time>
      </trkpt>
      <trkpt lat="38.83450394667902" lon="121.51166638785132">
        <ele>7.877530662342906</ele>
        <time>2026-08-24T00:02:56Z</time>
      </trkpt>
      <trkpt lat="38.83437548506019" lon="121.51204216120082">
        <ele>8.183653836138546</ele>
        <time>2026-08-24T00:03:11Z</time>
      </trkpt>
      <trkpt lat="38.83435967349973" lon="121.512115146367">
        <ele>7.438126497901976</ele>
        <time>2026-08-24T00:03:14Z</time>
      </trkpt>
      <trkpt lat="38.83432705727064" lon="121.51217225784964">
        <ele>8.325210404582322</ele>
        <time>2026-08-24T00:03:17Z</time>
      </trkpt>
      <trkpt lat="38.83429529659214" lon="121.51232217839292">
        <ele>7.825221367180347</ele>
        <time>2026-08-24T00:03:23Z</time>
      </trkpt>
      <trkpt lat="38.83429977170258" lon="121.51238647597137">
        <ele>7.270260539837182</ele>
        <time>2026-08-24T00:03:26Z</time>
      </trkpt>
      <trkpt lat="38.834257738454774" lon="121.5124438293284">
        <ele>8.64243698399514</ele>
        <time>2026-08-24T00:03:29Z</time>
      </trkpt>
      <trkpt lat="38.834109149580144" lon="121.5127917309201">
        <ele>8.117754776030779</ele>
        <time>2026-08-24T00:03:44Z</time>
      </trkpt>
      <trkpt lat="38.83406664740265" lon="121.51300557562172">
        <ele>8.082757274620235</ele>
        <time>2026-08-24T00:03:53Z</time>
      </trkpt>
      <trkpt lat="38.833992178823635" lon="121.51314980103929">
        <ele>8.346056276932359</ele>
        <time>2026-08-24T00:03:59Z</time>
      </trkpt>
      <trkpt lat="38.83388358665883" lon="121.51351845378534">
        <ele>8.009859736077487</ele>
        <time>2026-08-24T00:04:14Z</time>
      </trkpt>
      <trkpt lat="38.83380748947323" lon="121.51377397628912">
        <ele>7.4800110356882215</ele>
        <time>2026-08-24T00:04:24Z</time>
      </trkpt>
      <trkpt lat="38.83376142335575" lon="121.51382679029417">
        <ele>7.629118469543755</ele>
        <time>2026-08-24T00:04:27Z</time>
      </trkpt>
      <trkpt lat="38.83372116556656" lon="121.51398665828451">
        <ele>6.810770468786359</ele>
        <time>2026-08-24T00:04:33Z</time>
      </trkpt>
      <trkpt lat="38.83358482801458" lon="121.51435463295842">
        <ele>5.571191294118762</ele>
        <time>2026-08-24T00:04:48Z</time>
      </trkpt>
      <trkpt lat="38.833570514067354" lon="121.51443860839736">
        <ele>5.63071698602289</ele>
        <time>2026-08-24T00:04:51Z</time>
      </trkpt>
      <trkpt lat="38.83353502965461" lon="121.5145225452382">
        <ele>6.312742846086621</ele>
        <time>2026-08-24T00:04:54Z</time>
      </trkpt>
      <trkpt lat="38.83352516142547" lon="121.51461369264692">
        <ele>6.498500019311905</ele>
        <time>2026-08-24T00:04:57Z</time>
      </trkpt>
      <trkpt lat="38.83340970818005" lon="121.51492001030435">
        <ele>5.798289252445102</ele>
        <time>2026-08-24T00:05:10Z</time>
      </trkpt>
      <trkpt lat="38.833372991635656" lon="121.51498255765645">
        <ele>6.384167411364615</ele>
        <time>2026-08-24T00:05:13Z</time>
      </trkpt>
      <trkpt lat="38.83325099681484" lon="121.51535192423934">
        <ele>6.021285149268806</ele>
        <time>2026-08-24T00:05:28Z</time>
      </trkpt>
      <trkpt lat="38.833213453490686" lon="121.51542515803331">
        <ele>6.1719640316441655</ele>
        <time>2026-08-24T00:05:31Z</time>
      </trkpt>
      <trkpt lat="38.8332107740536" lon="121.51548775319756">
        <ele>4.488075450062752</ele>
        <time>2026-08-24T00:05:34Z</time>
      </trkpt>
      <trkpt lat="38.8331217623686" lon="121.51575960565444">
        <ele>6.226051749661565</ele>
        <time>2026-08-24T00:05:46Z</time>
      </trkpt>
      <trkpt lat="38.83306316926263" lon="121.51590275671137">
        <ele>7.809498713351786</ele>
        <time>2026-08-24T00:05:52Z</time>
      </trkpt>
      <trkpt lat="38.83302310366313" lon="121.51595417607207">
        <ele>8.227278131991625</ele>
        <time>2026-08-24T00:05:55Z</time>
      </trkpt>
      <trkpt lat="38.83290712862348" lon="121.5162865149506">
        <ele>6.1330417869612575</ele>
        <time>2026-08-24T00:06:10Z</time>
      </trkpt>
      <trkpt lat="38.832830286995474" lon="121.51648009435142">
        <ele>5.913318469189107</ele>
        <time>2026-08-24T00:06:19Z</time>
      </trkpt>
      <trkpt lat="38.83281587438837" lon="121.51655345019189">
        <ele>6.804514988325536</ele>
        <time>2026-08-24T00:06:22Z</time>
      </trkpt>
      <trkpt lat="38.83271140757625" lon="121.5166888649179">
        <ele>6.179575791582465</ele>
        <time>2026-08-24T00:06:30Z</time>
      </trkpt>
      <trkpt lat="38.83239916599394" lon="121.51673074676751">
        <ele>6.175872950814664</ele>
        <time>2026-08-24T00:06:45Z</time>
      </trkpt>
      <trkpt lat="38.832121753773734" lon="121.51672867698085">
        <ele>5.580760473385453</ele>
        <time>2026-08-24T00:07:00Z</time>
      </trkpt>
      <trkpt lat="38.83200144388148" lon="121.51670255164075">
        <ele>7.532712041400373</ele>
        <time>2026-08-24T00:07:06Z</time>
      </trkpt>
      <trkpt lat="38.83195143514438" lon="121.51671076712466">
        <ele>5.459336212836206</ele>
        <time>2026-08-24T00:07:09Z</time>
      </trkpt>
      <trkpt lat="38.831734490356105" lon="121.51660780948268">
        <ele>5.797112682834268</ele>
        <time>2026-08-24T00:07:21Z</time>
      </trkpt>
      <trkpt lat="38.831685096836885" lon="121.51655216977845">
        <ele>5.796186389401555</ele>
        <time>2026-08-24T00:07:24Z</time>
      </trkpt>
      <trkpt lat="38.83154928418016" lon="121.51646583135017">
        <ele>5.722632905468345</ele>
        <time>2026-08-24T00:07:30Z</time>
      </trkpt>
      <trkpt lat="38.831294801414096" lon="121.51620889388235">
        <ele>5.633049421943724</ele>
        <time>2026-08-24T00:07:45Z</time>
      </trkpt>
      <trkpt lat="38.83104321694912" lon="121.51598644883124">
        <ele>5.947461321949959</ele>
        <time>2026-08-24T00:08:00Z</time>
      </trkpt>
      <trkpt lat="38.83076955675889" lon="121.51581271023542">
        <ele>5.665437341667712</ele>
        <time>2026-08-24T00:08:15Z</time>
      </trkpt>
      <trkpt lat="38.83054259318811" lon="121.51567794757726">
        <ele>6.23172424081713</ele>
        <time>2026-08-24T00:08:27Z</time>
      </trkpt>
      <trkpt lat="38.830414487009236" lon="121.51563994976654">
        <ele>6.013478487730026</ele>
        <time>2026-08-24T00:08:34Z</time>
      </trkpt>
      <trkpt lat="38.83033940958261" lon="121.51559414876277">
        <ele>5.730960579589009</ele>
        <time>2026-08-24T00:08:38Z</time>
      </trkpt>
      <trkpt lat="38.830038577832845" lon="121.5154884672967">
        <ele>6.3302370039746165</ele>
        <time>2026-08-24T00:08:53Z</time>
      </trkpt>
      <trkpt lat="38.82999663233757" lon="121.51541982009844">
        <ele>6.093335768207908</ele>
        <time>2026-08-24T00:08:56Z</time>
      </trkpt>
      <trkpt lat="38.83000544019073" lon="121.51533167418384">
        <ele>6.106183600611985</ele>
        <time>2026-08-24T00:08:59Z</time>
      </trkpt>
      <trkpt lat="38.83012688473245" lon="121.5151345062085">
        <ele>6.059466431848705</ele>
        <time>2026-08-24T00:09:08Z</time>
      </trkpt>
      <trkpt lat="38.83034054155965" lon="121.51507197791373">
        <ele>6.662834989838302</ele>
        <time>2026-08-24T00:09:17Z</time>
      </trkpt>
      <trkpt lat="38.83063661499788" lon="121.51525887345986">
        <ele>6.258330995216966</ele>
        <time>2026-08-24T00:09:32Z</time>
      </trkpt>
      <trkpt lat="38.830691140806465" lon="121.51528965444568">
        <ele>6.20552443433553</ele>
        <time>2026-08-24T00:09:35Z</time>
      </trkpt>
      <trkpt lat="38.83075123035752" lon="121.51526309236313">
        <ele>5.754624899476767</ele>
        <time>2026-08-24T00:09:38Z</time>
      </trkpt>
      <trkpt lat="38.830852815090694" lon="121.51536190249792">
        <ele>4.938729152083397</ele>
        <time>2026-08-24T00:09:44Z</time>
      </trkpt>
      <trkpt lat="38.83095998555501" lon="121.51549634556736">
        <ele>5.007575025781989</ele>
        <time>2026-08-24T00:09:50Z</time>
      </trkpt>
      <trkpt lat="38.83125313305838" lon="121.51570276794408">
        <ele>6.095017964951694</ele>
        <time>2026-08-24T00:10:05Z</time>
      </trkpt>
      <trkpt lat="38.831517762551556" lon="121.51591064272637">
        <ele>6.383137656375766</ele>
        <time>2026-08-24T00:10:20Z</time>
      </trkpt>
      <trkpt lat="38.831674789111524" lon="121.51602190177216">
        <ele>6.228121883235872</ele>
        <time>2026-08-24T00:10:29Z</time>
      </trkpt>
      <trkpt lat="38.831725081498895" lon="121.51607825714629">
        <ele>6.5183993726968765</ele>
        <time>2026-08-24T00:10:32Z</time>
      </trkpt>
      <trkpt lat="38.83189051490062" lon="121.51616742613034">
        <ele>5.526636080816388</ele>
        <time>2026-08-24T00:10:40Z</time>
      </trkpt>
      <trkpt lat="38.83209856991084" lon="121.5162158497853">
        <ele>7.334026983007789</ele>
        <time>2026-08-24T00:10:50Z</time>
      </trkpt>
      <trkpt lat="38.83228538991537" lon="121.5161854078613">
        <ele>7.957386113703251</ele>
        <time>2026-08-24T00:10:59Z</time>
      </trkpt>
      <trkpt lat="38.83253850267594" lon="121.5160481263362">
        <ele>9.184733252041042</ele>
        <time>2026-08-24T00:11:11Z</time>
      </trkpt>
      <trkpt lat="38.83270455143324" lon="121.5159171651319">
        <ele>9.640633056871593</ele>
        <time>2026-08-24T00:11:20Z</time>
      </trkpt>
      <trkpt lat="38.83291761380841" lon="121.51570119071083">
        <ele>8.884514379315078</ele>
        <time>2026-08-24T00:11:32Z</time>
      </trkpt>
      <trkpt lat="38.83303405979085" lon="121.51537755149904">
        <ele>8.079121586866677</ele>
        <time>2026-08-24T00:11:44Z</time>
      </trkpt>
      <trkpt lat="38.83307711473263" lon="121.51520915626533">
        <ele>7.805925998836756</ele>
        <time>2026-08-24T00:11:50Z</time>
      </trkpt>
      <trkpt lat="38.833145225061536" lon="121.51506278541758">
        <ele>7.357655158266425</ele>
        <time>2026-08-24T00:11:56Z</time>
      </trkpt>
      <trkpt lat="38.83318535301663" lon="121.51491220271576">
        <ele>7.989299135282636</ele>
        <time>2026-08-24T00:12:02Z</time>
      </trkpt>
      <trkpt lat="38.83318044512145" lon="121.51484353374485">
        <ele>7.255370071157813</ele>
        <time>2026-08-24T00:12:05Z</time>
      </trkpt>
      <trkpt lat="38.8333076001951" lon="121.51446919614715">
        <ele>5.661321012303233</ele>
        <time>2026-08-24T00:12:20Z</time>
      </trkpt>
      <trkpt lat="38.833444543336405" lon="121.5141030671763">
        <ele>8.442008600570261</ele>
        <time>2026-08-24T00:12:35Z</time>
      </trkpt>
      <trkpt lat="38.833558654595166" lon="121.51377695728648">
        <ele>8.511828592978418</ele>
        <time>2026-08-24T00:12:48Z</time>
      </trkpt>
      <trkpt lat="38.83368852049493" lon="121.51341264095272">
        <ele>8.515614103525877</ele>
        <time>2026-08-24T00:13:03Z</time>
      </trkpt>
      <trkpt lat="38.833753678843024" lon="121.51327005273399">
        <ele>9.92930026166141</ele>
        <time>2026-08-24T00:13:09Z</time>
      </trkpt>
      <trkpt lat="38.8337645288547" lon="121.51310323237124">
        <ele>7.556040037423372</ele>
        <time>2026-08-24T00:13:15Z</time>
      </trkpt>
      <trkpt lat="38.83388275543752" lon="121.512784637541">
        <ele>8.820062328130007</ele>
        <time>2026-08-24T00:13:27Z</time>
      </trkpt>
      <trkpt lat="38.83398802543891" lon="121.51246086566564">
        <ele>8.19299469422549</ele>
        <time>2026-08-24T00:13:39Z</time>
      </trkpt>
      <trkpt lat="38.834034740797094" lon="121.5123926667817">
        <ele>8.623266528360546</ele>
        <time>2026-08-24T00:13:42Z</time>
      </trkpt>
      <trkpt lat="38.83406140672288" lon="121.5123079785004">
        <ele>8.580388155765831</ele>
        <time>2026-08-24T00:13:45Z</time>
      </trkpt>
      <trkpt lat="38.83406276845323" lon="121.51222198233627">
        <ele>8.812877628020942</ele>
        <time>2026-08-24T00:13:48Z</time>
      </trkpt>
      <trkpt lat="38.834114656037194" lon="121.51205464127534">
        <ele>9.723791541531682</ele>
        <time>2026-08-24T00:13:54Z</time>
      </trkpt>
      <trkpt lat="38.83409294638306" lon="121.51196973939295">
        <ele>9.999578104354441</ele>
        <time>2026-08-24T00:13:57Z</time>
      </trkpt>
      <trkpt lat="38.83413709186549" lon="121.51190637100646">
        <ele>9.0828208476305</ele>
        <time>2026-08-24T00:14:00Z</time>
      </trkpt>
      <trkpt lat="38.8342147496389" lon="121.51166768491683">
        <ele>8.368679588660598</ele>
        <time>2026-08-24T00:14:09Z</time>
      </trkpt>
      <trkpt lat="38.83439778793942" lon="121.51129554509117">
        <ele>8.304219028912485</ele>
        <time>2026-08-24T00:14:24Z</time>
      </trkpt>
      <trkpt lat="38.83443988033486" lon="121.51107019579872">
        <ele>6.5473552932962775</ele>
        <time>2026-08-24T00:14:33Z</time>
      </trkpt>
      <trkpt lat="38.83453496241041" lon="121.51090409342903">
        <ele>8.983047713525593</ele>
        <time>2026-08-24T00:14:39Z</time>
      </trkpt>
      <trkpt lat="38.834639320398495" lon="121.51063924497834">
        <ele>8.72018669731915</ele>
        <time>2026-08-24T00:14:49Z</time>
      </trkpt>
      <trkpt lat="38.83462004383231" lon="121.51055053829981">
        <ele>9.307213344611228</ele>
        <time>2026-08-24T00:14:53Z</time>
      </trkpt>
      <trkpt lat="38.834763041578455" lon="121.51021194968139">
        <ele>11.350954997353256</ele>
        <time>2026-08-24T00:15:07Z</time>
      </trkpt>
      <trkpt lat="38.83477756371117" lon="121.51013136797559">
        <ele>10.480063800700009</ele>
        <time>2026-08-24T00:15:10Z</time>
      </trkpt>
      <trkpt lat="38.83480979137517" lon="121.51007041759213">
        <ele>9.817442724481225</ele>
        <time>2026-08-24T00:15:13Z</time>
      </trkpt>
      <trkpt lat="38.83480979137517" lon="121.51007041759213">
        <ele>9.817442724481225</ele>
        <time>2026-08-24T00:15:18Z</time>
      </trkpt>
    </trkseg>
  </trk>
</gpx>