<?xml version="1.0" encoding="UTF-8"?>
<gpx xmlns="http://www.topografix.com/GPX/1/1" xmlns:gpxtpx="http://www.garmin.com/xmlschemas/TrackPointExtension/v1" xmlns:xsi="http://www.w3.org/2001/XMLSchema-instance" xsi:schemaLocation="http://www.topografix.com/GPX/1/1 http://www.topografix.com/GPX/1/1/gpx.xsd" version="1.1" creator="gpx.py -- https://github.com/tkrajina/gpxpy">
  <trk>
    <name>gpx from keep</name>
    <type>Run</type>
    <trkseg>
      <trkpt lat="38.83307406741682" lon="121.50787373637354">
        <ele>-0.9219746589660645</ele>
        <time>2024-12-16T01:19:18Z</time>
      </trkpt>
      <trkpt lat="38.83301204721285" lon="121.50813432457909">
        <ele>-0.9007034096866846</ele>
        <time>2024-12-16T01:19:29Z</time>
      </trkpt>
      <trkpt lat="38.832973070296916" lon="121.50823667016874">
        <ele>-0.3921585362404585</ele>
        <time>2024-12-16T01:19:33Z</time>
      </trkpt>
      <trkpt lat="38.832726630428226" lon="121.5085584526241">
        <ele>2.479015693999827</ele>
        <time>2024-12-16T01:19:49Z</time>
      </trkpt>
      <trkpt lat="38.832642590559345" lon="121.5086221686542">
        <ele>2.0939897056668997</ele>
        <time>2024-12-16T01:19:53Z</time>
      </trkpt>
      <trkpt lat="38.83246573155514" lon="121.5086683719714">
        <ele>2.0773142483085394</ele>
        <time>2024-12-16T01:20:01Z</time>
      </trkpt>
      <trkpt lat="38.83227598899037" lon="121.50863954044883">
        <ele>3.0754700507968664</ele>
        <time>2024-12-16T01:20:09Z</time>
      </trkpt>
      <trkpt lat="38.83202628096566" lon="121.50851447581292">
        <ele>1.3966290252283216</ele>
        <time>2024-12-16T01:20:21Z</time>
      </trkpt>
      <trkpt lat="38.83188598466163" lon="121.50835142327347">
        <ele>1.4547222210094333</ele>
        <time>2024-12-16T01:20:29Z</time>
      </trkpt>
      <trkpt lat="38.83175466787268" lon="121.50805258462572">
        <ele>1.8909078845754266</ele>
        <time>2024-12-16T01:20:41Z</time>
      </trkpt>
      <trkpt lat="38.83169326997394" lon="121.50796854276496">
        <ele>1.150577574968338</ele>
        <time>2024-12-16T01:20:45Z</time>
      </trkpt>
      <trkpt lat="38.8314551614214" lon="121.50778020152057">
        <ele>2.2963493848219514</ele>
        <time>2024-12-16T01:20:57Z</time>
      </trkpt>
      <trkpt lat="38.83136813190232" lon="121.50774768166121">
        <ele>1.6576848644763231</ele>
        <time>2024-12-16T01:21:01Z</time>
      </trkpt>
      <trkpt lat="38.83127428607171" lon="121.50774227754071">
        <ele>2.12873200699687</ele>
        <time>2024-12-16T01:21:05Z</time>
      </trkpt>
      <trkpt lat="38.83108711973352" lon="121.50778736990473">
        <ele>2.9399238973855972</ele>
        <time>2024-12-16T01:21:13Z</time>
      </trkpt>
      <trkpt lat="38.83090537730857" lon="121.50776274535183">
        <ele>1.7077541491016746</ele>
        <time>2024-12-16T01:21:21Z</time>
      </trkpt>
      <trkpt lat="38.83061923043056" lon="121.50762207141847">
        <ele>2.007475786842406</ele>
        <time>2024-12-16T01:21:34Z</time>
      </trkpt>
      <trkpt lat="38.8304133806612" lon="121.50741955977459">
        <ele>2.232482286170125</ele>
        <time>2024-12-16T01:21:45Z</time>
      </trkpt>
      <trkpt lat="38.83035156333638" lon="121.5073315524407">
        <ele>2.0678487410768867</ele>
        <time>2024-12-16T01:21:49Z</time>
      </trkpt>
      <trkpt lat="38.83030921571068" lon="121.50721478678814">
        <ele>2.3039407478645444</ele>
        <time>2024-12-16T01:21:53Z</time>
      </trkpt>
      <trkpt lat="38.830297115200764" lon="121.50711360197387">
        <ele>1.4335363442078233</ele>
        <time>2024-12-16T01:21:57Z</time>
      </trkpt>
      <trkpt lat="38.83018826169048" lon="121.50680039353396">
        <ele>1.3627185355871916</ele>
        <time>2024-12-16T01:22:09Z</time>
      </trkpt>
      <trkpt lat="38.83011554190325" lon="121.50672761675953">
        <ele>2.1448091082274914</ele>
        <time>2024-12-16T01:22:13Z</time>
      </trkpt>
      <trkpt lat="38.83003245787607" lon="121.50670579956115">
        <ele>2.5999961122870445</ele>
        <time>2024-12-16T01:22:17Z</time>
      </trkpt>
      <trkpt lat="38.82988231278883" lon="121.50658942771712">
        <ele>2.138885896652937</ele>
        <time>2024-12-16T01:22:25Z</time>
      </trkpt>
      <trkpt lat="38.82966512890611" lon="121.50643592117045">
        <ele>2.193939226679504</ele>
        <time>2024-12-16T01:22:49Z</time>
      </trkpt>
      <trkpt lat="38.82940537822259" lon="121.50612556533315">
        <ele>2.217392568476498</ele>
        <time>2024-12-16T01:23:05Z</time>
      </trkpt>
      <trkpt lat="38.82924843157178" lon="121.50601949101753">
        <ele>2.009957562200725</ele>
        <time>2024-12-16T01:23:13Z</time>
      </trkpt>
      <trkpt lat="38.82906455451061" lon="121.50597736505868">
        <ele>3.287392937578261</ele>
        <time>2024-12-16T01:23:21Z</time>
      </trkpt>
      <trkpt lat="38.82897293475209" lon="121.50598083171514">
        <ele>2.1157641215249896</ele>
        <time>2024-12-16T01:23:25Z</time>
      </trkpt>
      <trkpt lat="38.82874776908022" lon="121.50606521677797">
        <ele>2.1155499294400215</ele>
        <time>2024-12-16T01:23:35Z</time>
      </trkpt>
      <trkpt lat="38.82859258703486" lon="121.50619207907786">
        <ele>1.7563654212281108</ele>
        <time>2024-12-16T01:23:43Z</time>
      </trkpt>
      <trkpt lat="38.82847191811836" lon="121.50636943560913">
        <ele>1.3508361065760255</ele>
        <time>2024-12-16T01:23:51Z</time>
      </trkpt>
      <trkpt lat="38.82841870959814" lon="121.50647656973175">
        <ele>1.4602154800668359</ele>
        <time>2024-12-16T01:23:55Z</time>
      </trkpt>
      <trkpt lat="38.828376119016085" lon="121.5067015464673">
        <ele>1.3440296780318022</ele>
        <time>2024-12-16T01:24:03Z</time>
      </trkpt>
      <trkpt lat="38.82836923538403" lon="121.50705750028396">
        <ele>1.6832958748564124</ele>
        <time>2024-12-16T01:24:15Z</time>
      </trkpt>
      <trkpt lat="38.828278705353625" lon="121.5073875518046">
        <ele>1.3403223045170307</ele>
        <time>2024-12-16T01:24:27Z</time>
      </trkpt>
      <trkpt lat="38.82812275319691" lon="121.50768742506811">
        <ele>1.657556044869125</ele>
        <time>2024-12-16T01:24:39Z</time>
      </trkpt>
      <trkpt lat="38.82791447052848" lon="121.50791678823875">
        <ele>2.9010635251179338</ele>
        <time>2024-12-16T01:24:51Z</time>
      </trkpt>
      <trkpt lat="38.827658921680516" lon="121.50807704422513">
        <ele>2.469373465515673</ele>
        <time>2024-12-16T01:25:03Z</time>
      </trkpt>
      <trkpt lat="38.82756857769272" lon="121.5081017042681">
        <ele>2.2560241762548685</ele>
        <time>2024-12-16T01:25:07Z</time>
      </trkpt>
      <trkpt lat="38.8272973203029" lon="121.50812058151693">
        <ele>2.0955028999596834</ele>
        <time>2024-12-16T01:25:19Z</time>
      </trkpt>
      <trkpt lat="38.82721539988517" lon="121.50818434122975">
        <ele>2.5231397226452827</ele>
        <time>2024-12-16T01:25:23Z</time>
      </trkpt>
      <trkpt lat="38.82711718953714" lon="121.50820974607844">
        <ele>2.3353475574404</ele>
        <time>2024-12-16T01:25:27Z</time>
      </trkpt>
      <trkpt lat="38.82697157662958" lon="121.50833441626648">
        <ele>1.7815922740846872</ele>
        <time>2024-12-16T01:25:35Z</time>
      </trkpt>
      <trkpt lat="38.82688160632045" lon="121.5084868302522">
        <ele>1.8571977596729994</ele>
        <time>2024-12-16T01:25:41Z</time>
      </trkpt>
      <trkpt lat="38.82687514015246" lon="121.50857482378093">
        <ele>2.3649434046819806</ele>
        <time>2024-12-16T01:25:44Z</time>
      </trkpt>
      <trkpt lat="38.826819059172685" lon="121.50866067043465">
        <ele>1.1560523975640535</ele>
        <time>2024-12-16T01:25:48Z</time>
      </trkpt>
      <trkpt lat="38.826800432492085" lon="121.50878373039441">
        <ele>1.5511110238730907</ele>
        <time>2024-12-16T01:25:52Z</time>
      </trkpt>
      <trkpt lat="38.82680577746048" lon="121.5090167482863">
        <ele>1.57928906660527</ele>
        <time>2024-12-16T01:26:00Z</time>
      </trkpt>
      <trkpt lat="38.82684819199808" lon="121.50924705137943">
        <ele>1.427517299540341</ele>
        <time>2024-12-16T01:26:08Z</time>
      </trkpt>
      <trkpt lat="38.82685321351978" lon="121.50959696545912">
        <ele>1.510979451239109</ele>
        <time>2024-12-16T01:26:20Z</time>
      </trkpt>
      <trkpt lat="38.82676649950033" lon="121.50991880410794">
        <ele>1.7969324523583055</ele>
        <time>2024-12-16T01:26:32Z</time>
      </trkpt>
      <trkpt lat="38.82671725963509" lon="121.51002717000775">
        <ele>1.6987302107736468</ele>
        <time>2024-12-16T01:26:36Z</time>
      </trkpt>
      <trkpt lat="38.82667614569225" lon="121.5100769426551">
        <ele>3.236956810578704</ele>
        <time>2024-12-16T01:26:48Z</time>
      </trkpt>
      <trkpt lat="38.82679373451784" lon="121.50975685521945">
        <ele>3.3325591003522277</ele>
        <time>2024-12-16T01:27:00Z</time>
      </trkpt>
      <trkpt lat="38.826846945364885" lon="121.50943192507313">
        <ele>2.184947384521365</ele>
        <time>2024-12-16T01:27:12Z</time>
      </trkpt>
      <trkpt lat="38.82683182801019" lon="121.50919315758965">
        <ele>4.686256528832018</ele>
        <time>2024-12-16T01:27:20Z</time>
      </trkpt>
      <trkpt lat="38.82679217475599" lon="121.5089744661571">
        <ele>3.9993256172165275</ele>
        <time>2024-12-16T01:27:28Z</time>
      </trkpt>
      <trkpt lat="38.826799135093076" lon="121.50873270263446">
        <ele>3.2975362883880734</ele>
        <time>2024-12-16T01:27:36Z</time>
      </trkpt>
      <trkpt lat="38.826816476289075" lon="121.50862108701047">
        <ele>3.310485410504043</ele>
        <time>2024-12-16T01:27:40Z</time>
      </trkpt>
      <trkpt lat="38.82696819873075" lon="121.5083115375688">
        <ele>3.4536495190113783</ele>
        <time>2024-12-16T01:27:52Z</time>
      </trkpt>
      <trkpt lat="38.82703917575344" lon="121.50823476399411">
        <ele>2.5433288291096687</ele>
        <time>2024-12-16T01:27:56Z</time>
      </trkpt>
      <trkpt lat="38.82729290113582" lon="121.50810481830861">
        <ele>3.136527532711625</ele>
        <time>2024-12-16T01:28:08Z</time>
      </trkpt>
      <trkpt lat="38.827558565091884" lon="121.50806584535593">
        <ele>3.5387858897447586</ele>
        <time>2024-12-16T01:28:20Z</time>
      </trkpt>
      <trkpt lat="38.82773073677271" lon="121.50800546600684">
        <ele>2.6874125469475985</ele>
        <time>2024-12-16T01:28:28Z</time>
      </trkpt>
      <trkpt lat="38.82796263915353" lon="121.50783132050728">
        <ele>3.337823106907308</ele>
        <time>2024-12-16T01:28:40Z</time>
      </trkpt>
      <trkpt lat="38.82816168625255" lon="121.50756942979623">
        <ele>3.1715905191376805</ele>
        <time>2024-12-16T01:28:52Z</time>
      </trkpt>
      <trkpt lat="38.82829692627271" lon="121.50729248460658">
        <ele>3.94742994569242</ele>
        <time>2024-12-16T01:29:04Z</time>
      </trkpt>
      <trkpt lat="38.828345158444364" lon="121.50707375016704">
        <ele>2.908991241827607</ele>
        <time>2024-12-16T01:29:12Z</time>
      </trkpt>
      <trkpt lat="38.82835127920312" lon="121.50670149634352">
        <ele>3.971233883872628</ele>
        <time>2024-12-16T01:29:24Z</time>
      </trkpt>
      <trkpt lat="38.82836491369805" lon="121.50660051457518">
        <ele>2.7645417526364326</ele>
        <time>2024-12-16T01:29:28Z</time>
      </trkpt>
      <trkpt lat="38.828425351522526" lon="121.50637976336667">
        <ele>3.8465555952861905</ele>
        <time>2024-12-16T01:29:36Z</time>
      </trkpt>
      <trkpt lat="38.8285344467325" lon="121.50619341479563">
        <ele>3.703420135192573</ele>
        <time>2024-12-16T01:29:44Z</time>
      </trkpt>
      <trkpt lat="38.82878840514008" lon="121.5059691360209">
        <ele>4.010678796097636</ele>
        <time>2024-12-16T01:29:58Z</time>
      </trkpt>
      <trkpt lat="38.828972294632315" lon="121.50594561530869">
        <ele>2.803377976641059</ele>
        <time>2024-12-16T01:30:06Z</time>
      </trkpt>
      <trkpt lat="38.829159744106974" lon="121.50597120390678">
        <ele>2.8416963163763285</ele>
        <time>2024-12-16T01:30:14Z</time>
      </trkpt>
      <trkpt lat="38.82934816452296" lon="121.50603577665898">
        <ele>3.158853114582598</ele>
        <time>2024-12-16T01:30:22Z</time>
      </trkpt>
      <trkpt lat="38.829562569411735" lon="121.5062503364596">
        <ele>3.1247058818116784</ele>
        <time>2024-12-16T01:30:34Z</time>
      </trkpt>
      <trkpt lat="38.82984797576242" lon="121.50655641442296">
        <ele>2.8179336162284017</ele>
        <time>2024-12-16T01:30:50Z</time>
      </trkpt>
      <trkpt lat="38.829925236837056" lon="121.50660282372002">
        <ele>3.1584290452301502</ele>
        <time>2024-12-16T01:30:54Z</time>
      </trkpt>
      <trkpt lat="38.830001919432796" lon="121.50667682896352">
        <ele>2.361759058199823</ele>
        <time>2024-12-16T01:30:58Z</time>
      </trkpt>
      <trkpt lat="38.830164289016366" lon="121.50675195040367">
        <ele>2.587242561392486</ele>
        <time>2024-12-16T01:31:06Z</time>
      </trkpt>
      <trkpt lat="38.83022978752702" lon="121.50684255649622">
        <ele>2.423336774110794</ele>
        <time>2024-12-16T01:31:10Z</time>
      </trkpt>
      <trkpt lat="38.830271997821285" lon="121.50694680402195">
        <ele>3.591641843318939</ele>
        <time>2024-12-16T01:31:14Z</time>
      </trkpt>
      <trkpt lat="38.830348635852424" lon="121.50728173109997">
        <ele>3.1426790468394756</ele>
        <time>2024-12-16T01:31:26Z</time>
      </trkpt>
      <trkpt lat="38.83054270550892" lon="121.50752357331541">
        <ele>3.039747233502567</ele>
        <time>2024-12-16T01:31:38Z</time>
      </trkpt>
      <trkpt lat="38.83068502907724" lon="121.50764166137479">
        <ele>3.025259139947593</ele>
        <time>2024-12-16T01:31:46Z</time>
      </trkpt>
      <trkpt lat="38.83085623070662" lon="121.50772696507106">
        <ele>3.064605043269694</ele>
        <time>2024-12-16T01:31:54Z</time>
      </trkpt>
      <trkpt lat="38.83110464512398" lon="121.50774400295599">
        <ele>2.6106556160375476</ele>
        <time>2024-12-16T01:32:05Z</time>
      </trkpt>
      <trkpt lat="38.831284477045884" lon="121.50771214381008">
        <ele>3.275442278943956</ele>
        <time>2024-12-16T01:32:13Z</time>
      </trkpt>
      <trkpt lat="38.83146827958844" lon="121.50775828041971">
        <ele>2.4683832731097937</ele>
        <time>2024-12-16T01:32:21Z</time>
      </trkpt>
      <trkpt lat="38.83169239716919" lon="121.50795908605825">
        <ele>2.903956484980881</ele>
        <time>2024-12-16T01:32:33Z</time>
      </trkpt>
      <trkpt lat="38.831760602496516" lon="121.50803621538869">
        <ele>2.3176404861733317</ele>
        <time>2024-12-16T01:32:37Z</time>
      </trkpt>
      <trkpt lat="38.83186437375586" lon="121.50823934231587">
        <ele>2.4746236177161336</ele>
        <time>2024-12-16T01:32:45Z</time>
      </trkpt>
      <trkpt lat="38.83197995647814" lon="121.50837103447802">
        <ele>3.654102547094226</ele>
        <time>2024-12-16T01:33:01Z</time>
      </trkpt>
    </trkseg>
  </trk>
</gpx>