<?xml version="1.0" encoding="UTF-8"?>
<gpx xmlns="http://www.topografix.com/GPX/1/1" xmlns:gpxtpx="http://www.garmin.com/xmlschemas/TrackPointExtension/v1" xmlns:xsi="http://www.w3.org/2001/XMLSchema-instance" xsi:schemaLocation="http://www.topografix.com/GPX/1/1 http://www.topografix.com/GPX/1/1/gpx.xsd" version="1.1" creator="gpx.py -- https://github.com/tkrajina/gpxpy">
  <trk>
    <name>gpx from keep</name>
    <type>Run</type>
    <trkseg>
      <trkpt lat="38.83738870859947" lon="121.50469415681867">
        <ele>7.661642911118983</ele>
        <time>2026-03-19T02:42:02Z</time>
      </trkpt>
      <trkpt lat="38.83750785302817" lon="121.50452886271763">
        <ele>7.949779573695624</ele>
        <time>2026-03-19T02:42:05Z</time>
      </trkpt>
      <trkpt lat="38.83754270471829" lon="121.50443828949953">
        <ele>8.419896403421541</ele>
        <time>2026-03-19T02:42:11Z</time>
      </trkpt>
      <trkpt lat="38.83771696686083" lon="121.50436163479908">
        <ele>8.680667579174042</ele>
        <time>2026-03-19T02:42:23Z</time>
      </trkpt>
      <trkpt lat="38.83784992591546" lon="121.50434249802103">
        <ele>10.98894573468715</ele>
        <time>2026-03-19T02:42:33Z</time>
      </trkpt>
      <trkpt lat="38.83798028887452" lon="121.50425183438365">
        <ele>9.37843111436814</ele>
        <time>2026-03-19T02:42:48Z</time>
      </trkpt>
      <trkpt lat="38.83805920001718" lon="121.50421854738936">
        <ele>10.455954325385392</ele>
        <time>2026-03-19T02:42:54Z</time>
      </trkpt>
      <trkpt lat="38.83811549475448" lon="121.50422641010105">
        <ele>9.293259625323117</ele>
        <time>2026-03-19T02:42:57Z</time>
      </trkpt>
      <trkpt lat="38.83815766084421" lon="121.50431511292616">
        <ele>11.11790880933404</ele>
        <time>2026-03-19T02:43:03Z</time>
      </trkpt>
    </trkseg>
  </trk>
</gpx>