<?xml version="1.0" encoding="UTF-8"?>
<gpx xmlns="http://www.topografix.com/GPX/1/1" xmlns:gpxtpx="http://www.garmin.com/xmlschemas/TrackPointExtension/v1" xmlns:xsi="http://www.w3.org/2001/XMLSchema-instance" xsi:schemaLocation="http://www.topografix.com/GPX/1/1 http://www.topografix.com/GPX/1/1/gpx.xsd" version="1.1" creator="gpx.py -- https://github.com/tkrajina/gpxpy">
  <trk>
    <name>gpx from keep</name>
    <type>Run</type>
    <trkseg>
      <trkpt lat="38.83286089152265" lon="121.5066790274752">
        <ele>2.748142012842715</ele>
        <time>2025-08-11T23:48:25Z</time>
      </trkpt>
      <trkpt lat="38.83281890804165" lon="121.50661724005771">
        <ele>2.75024608359376</ele>
        <time>2025-08-11T23:48:28Z</time>
      </trkpt>
      <trkpt lat="38.83256404633471" lon="121.50653557946089">
        <ele>2.698686304502189</ele>
        <time>2025-08-11T23:48:40Z</time>
      </trkpt>
      <trkpt lat="38.83240769468811" lon="121.506510941795">
        <ele>2.744049952365458</ele>
        <time>2025-08-11T23:48:48Z</time>
      </trkpt>
      <trkpt lat="38.83221156605428" lon="121.50635497390232">
        <ele>2.6681474028155208</ele>
        <time>2025-08-11T23:49:00Z</time>
      </trkpt>
      <trkpt lat="38.8320771592767" lon="121.50614674987025">
        <ele>2.5611929232254624</ele>
        <time>2025-08-11T23:49:12Z</time>
      </trkpt>
      <trkpt lat="38.83194783012035" lon="121.50576475802507">
        <ele>3.291924722492695</ele>
        <time>2025-08-11T23:49:36Z</time>
      </trkpt>
      <trkpt lat="38.83181828562808" lon="121.50556836628563">
        <ele>4.186990310437977</ele>
        <time>2025-08-11T23:49:48Z</time>
      </trkpt>
      <trkpt lat="38.83162166139946" lon="121.50540822197986">
        <ele>3.5890731289982796</ele>
        <time>2025-08-11T23:50:00Z</time>
      </trkpt>
      <trkpt lat="38.831382278961605" lon="121.5053257092781">
        <ele>3.358878863044083</ele>
        <time>2025-08-11T23:50:12Z</time>
      </trkpt>
      <trkpt lat="38.83105666616938" lon="121.5053126251534">
        <ele>3.3234104802832007</ele>
        <time>2025-08-11T23:50:28Z</time>
      </trkpt>
      <trkpt lat="38.83092286321457" lon="121.50532023955245">
        <ele>3.3397213285788894</ele>
        <time>2025-08-11T23:50:34Z</time>
      </trkpt>
      <trkpt lat="38.83083810445934" lon="121.50529798231976">
        <ele>2.885885801166296</ele>
        <time>2025-08-11T23:50:38Z</time>
      </trkpt>
      <trkpt lat="38.83076529737431" lon="121.50524835616201">
        <ele>3.3857949003577232</ele>
        <time>2025-08-11T23:50:42Z</time>
      </trkpt>
      <trkpt lat="38.8305688859046" lon="121.50504544784584">
        <ele>4.340049899183214</ele>
        <time>2025-08-11T23:50:54Z</time>
      </trkpt>
      <trkpt lat="38.83026315398748" lon="121.50485273347893">
        <ele>3.3119136840105057</ele>
        <time>2025-08-11T23:51:10Z</time>
      </trkpt>
      <trkpt lat="38.8301015438777" lon="121.50478836469051">
        <ele>2.03364288341254</ele>
        <time>2025-08-11T23:51:18Z</time>
      </trkpt>
      <trkpt lat="38.829898421884195" lon="121.50460585204118">
        <ele>1.9489646926522255</ele>
        <time>2025-08-11T23:51:30Z</time>
      </trkpt>
      <trkpt lat="38.829633132536856" lon="121.5043070680526">
        <ele>1.8278961554169655</ele>
        <time>2025-08-11T23:51:46Z</time>
      </trkpt>
      <trkpt lat="38.82933559837512" lon="121.50411912068795">
        <ele>1.937648749910295</ele>
        <time>2025-08-11T23:52:01Z</time>
      </trkpt>
      <trkpt lat="38.82907913695326" lon="121.50403489120039">
        <ele>3.2527712201699615</ele>
        <time>2025-08-11T23:52:13Z</time>
      </trkpt>
      <trkpt lat="38.829024830766876" lon="121.50408334992778">
        <ele>3.105727636255324</ele>
        <time>2025-08-11T23:52:17Z</time>
      </trkpt>
      <trkpt lat="38.828796077691045" lon="121.50403906407632">
        <ele>2.10997652169317</ele>
        <time>2025-08-11T23:52:29Z</time>
      </trkpt>
      <trkpt lat="38.82864029839643" lon="121.50404293515427">
        <ele>0.9997477056458592</ele>
        <time>2025-08-11T23:52:37Z</time>
      </trkpt>
      <trkpt lat="38.828567453101506" lon="121.50407485828411">
        <ele>1.635581472888589</ele>
        <time>2025-08-11T23:52:41Z</time>
      </trkpt>
      <trkpt lat="38.82841569793563" lon="121.50408222325635">
        <ele>0.9005093453451991</ele>
        <time>2025-08-11T23:52:49Z</time>
      </trkpt>
      <trkpt lat="38.828258346220764" lon="121.50404171678585">
        <ele>0.8185725975781679</ele>
        <time>2025-08-11T23:52:57Z</time>
      </trkpt>
      <trkpt lat="38.82812734536682" lon="121.50394975263252">
        <ele>1.7010960821062326</ele>
        <time>2025-08-11T23:53:05Z</time>
      </trkpt>
      <trkpt lat="38.828011858252225" lon="121.50381153305969">
        <ele>3.0277433646842837</ele>
        <time>2025-08-11T23:53:13Z</time>
      </trkpt>
      <trkpt lat="38.82793483748805" lon="121.50364945333949">
        <ele>2.293787084519863</ele>
        <time>2025-08-11T23:53:21Z</time>
      </trkpt>
      <trkpt lat="38.82787975048494" lon="121.50339152063498">
        <ele>3.7099190168082714</ele>
        <time>2025-08-11T23:53:33Z</time>
      </trkpt>
      <trkpt lat="38.827843410515214" lon="121.50330971007321">
        <ele>3.295830210670829</ele>
        <time>2025-08-11T23:53:37Z</time>
      </trkpt>
      <trkpt lat="38.8277847705413" lon="121.50325064862525">
        <ele>3.0893462244421244</ele>
        <time>2025-08-11T23:53:41Z</time>
      </trkpt>
      <trkpt lat="38.827646222887445" lon="121.50315579205716">
        <ele>3.1021653143689036</ele>
        <time>2025-08-11T23:53:49Z</time>
      </trkpt>
      <trkpt lat="38.8275947000201" lon="121.50306830936306">
        <ele>3.2000335659831762</ele>
        <time>2025-08-11T23:53:53Z</time>
      </trkpt>
      <trkpt lat="38.82744083978144" lon="121.50301552838945">
        <ele>3.0573991294950247</ele>
        <time>2025-08-11T23:54:01Z</time>
      </trkpt>
      <trkpt lat="38.82728662878934" lon="121.50300621879802">
        <ele>3.1434454964473844</ele>
        <time>2025-08-11T23:54:09Z</time>
      </trkpt>
      <trkpt lat="38.827128915514834" lon="121.50306327440904">
        <ele>3.3165278136730194</ele>
        <time>2025-08-11T23:54:17Z</time>
      </trkpt>
      <trkpt lat="38.82699309384335" lon="121.50317260547816">
        <ele>3.829129997640848</ele>
        <time>2025-08-11T23:54:25Z</time>
      </trkpt>
      <trkpt lat="38.82688620758574" lon="121.50331615537648">
        <ele>2.659786052070558</ele>
        <time>2025-08-11T23:54:33Z</time>
      </trkpt>
      <trkpt lat="38.826759073264704" lon="121.50343197118781">
        <ele>2.7611243510618806</ele>
        <time>2025-08-11T23:54:41Z</time>
      </trkpt>
      <trkpt lat="38.82668741792703" lon="121.50354921860108">
        <ele>2.719339130446315</ele>
        <time>2025-08-11T23:54:47Z</time>
      </trkpt>
      <trkpt lat="38.826612994907414" lon="121.50373947684598">
        <ele>2.9534640228375793</ele>
        <time>2025-08-11T23:54:55Z</time>
      </trkpt>
      <trkpt lat="38.82659846410902" lon="121.50382853082746">
        <ele>2.347410272806883</ele>
        <time>2025-08-11T23:54:59Z</time>
      </trkpt>
      <trkpt lat="38.826608949886314" lon="121.50393127399063">
        <ele>2.2707232236862183</ele>
        <time>2025-08-11T23:55:03Z</time>
      </trkpt>
      <trkpt lat="38.826591951514075" lon="121.50402362380161">
        <ele>2.8912524757906795</ele>
        <time>2025-08-11T23:55:07Z</time>
      </trkpt>
      <trkpt lat="38.826601151128386" lon="121.50411717125434">
        <ele>2.7071905797347426</ele>
        <time>2025-08-11T23:55:11Z</time>
      </trkpt>
      <trkpt lat="38.82656931775472" lon="121.50439388746354">
        <ele>2.4273509783670306</ele>
        <time>2025-08-11T23:55:23Z</time>
      </trkpt>
      <trkpt lat="38.82643789268523" lon="121.50472988780876">
        <ele>2.265110985375941</ele>
        <time>2025-08-11T23:55:39Z</time>
      </trkpt>
      <trkpt lat="38.82639631514865" lon="121.50481775668199">
        <ele>1.7189014740288258</ele>
        <time>2025-08-11T23:55:43Z</time>
      </trkpt>
      <trkpt lat="38.82627944851304" lon="121.50493860393149">
        <ele>2.481009260751307</ele>
        <time>2025-08-11T23:55:51Z</time>
      </trkpt>
      <trkpt lat="38.82596099145562" lon="121.5049287634373">
        <ele>2.612348709255457</ele>
        <time>2025-08-11T23:56:07Z</time>
      </trkpt>
      <trkpt lat="38.82566437536893" lon="121.50494739130669">
        <ele>2.3611136032268405</ele>
        <time>2025-08-11T23:56:23Z</time>
      </trkpt>
      <trkpt lat="38.8254965858375" lon="121.50495052971849">
        <ele>2.535289019346237</ele>
        <time>2025-08-11T23:56:31Z</time>
      </trkpt>
      <trkpt lat="38.825438270879" lon="121.50489777817245">
        <ele>2.3359994515776634</ele>
        <time>2025-08-11T23:56:35Z</time>
      </trkpt>
      <trkpt lat="38.82544569637665" lon="121.50480886145866">
        <ele>1.7354218140244484</ele>
        <time>2025-08-11T23:56:39Z</time>
      </trkpt>
      <trkpt lat="38.82556637423998" lon="121.5046954286121">
        <ele>2.4267847947776318</ele>
        <time>2025-08-11T23:56:47Z</time>
      </trkpt>
      <trkpt lat="38.82571889418409" lon="121.50464779788057">
        <ele>2.7211496233940125</ele>
        <time>2025-08-11T23:56:55Z</time>
      </trkpt>
      <trkpt lat="38.82579982152015" lon="121.50464381439933">
        <ele>2.973567388020456</ele>
        <time>2025-08-11T23:57:15Z</time>
      </trkpt>
      <trkpt lat="38.82588575387749" lon="121.50468232117444">
        <ele>3.045595941133797</ele>
        <time>2025-08-11T23:57:19Z</time>
      </trkpt>
      <trkpt lat="38.826231493566574" lon="121.50472946893547">
        <ele>2.67544246930629</ele>
        <time>2025-08-11T23:57:35Z</time>
      </trkpt>
      <trkpt lat="38.826318683252836" lon="121.50469627406474">
        <ele>1.953691614791751</ele>
        <time>2025-08-11T23:57:39Z</time>
      </trkpt>
      <trkpt lat="38.82638265399167" lon="121.50463133795559">
        <ele>1.6000134944915771</ele>
        <time>2025-08-11T23:57:43Z</time>
      </trkpt>
      <trkpt lat="38.826515318400276" lon="121.50422840430588">
        <ele>1.8103363262489438</ele>
        <time>2025-08-11T23:57:59Z</time>
      </trkpt>
      <trkpt lat="38.826538662093995" lon="121.50411411160295">
        <ele>3.112639546394348</ele>
        <time>2025-08-11T23:58:03Z</time>
      </trkpt>
      <trkpt lat="38.82655330023886" lon="121.50388391492862">
        <ele>3.195507487282157</ele>
        <time>2025-08-11T23:58:11Z</time>
      </trkpt>
      <trkpt lat="38.82660956444843" lon="121.50366845827982">
        <ele>3.1746897026896477</ele>
        <time>2025-08-11T23:58:19Z</time>
      </trkpt>
      <trkpt lat="38.826707580579274" lon="121.50348977312282">
        <ele>2.45669530890882</ele>
        <time>2025-08-11T23:58:27Z</time>
      </trkpt>
      <trkpt lat="38.82697280753472" lon="121.5031880004994">
        <ele>3.076167684979737</ele>
        <time>2025-08-11T23:58:43Z</time>
      </trkpt>
      <trkpt lat="38.82716475680736" lon="121.50303026977953">
        <ele>1.1879965513944626</ele>
        <time>2025-08-11T23:58:55Z</time>
      </trkpt>
      <trkpt lat="38.827345368616605" lon="121.50302137669867">
        <ele>1.0555586721748114</ele>
        <time>2025-08-11T23:59:03Z</time>
      </trkpt>
      <trkpt lat="38.82744005956744" lon="121.50304048233065">
        <ele>1.6899411045014858</ele>
        <time>2025-08-11T23:59:07Z</time>
      </trkpt>
      <trkpt lat="38.82751982091736" lon="121.50307910224583">
        <ele>0.19094331096857786</ele>
        <time>2025-08-11T23:59:11Z</time>
      </trkpt>
      <trkpt lat="38.8275998017918" lon="121.50316304393651">
        <ele>0.15925626177340746</ele>
        <time>2025-08-11T23:59:15Z</time>
      </trkpt>
      <trkpt lat="38.82777760434343" lon="121.5032496066713">
        <ele>1.0188288884237409</ele>
        <time>2025-08-11T23:59:23Z</time>
      </trkpt>
      <trkpt lat="38.827885557824445" lon="121.50355654580237">
        <ele>0.1125534800812602</ele>
        <time>2025-08-11T23:59:35Z</time>
      </trkpt>
      <trkpt lat="38.82803198976488" lon="121.50386474512533">
        <ele>0.6268756799399853</ele>
        <time>2025-08-11T23:59:47Z</time>
      </trkpt>
      <trkpt lat="38.82810009770491" lon="121.50390600242243">
        <ele>0.5003245510160923</ele>
        <time>2025-08-11T23:59:51Z</time>
      </trkpt>
      <trkpt lat="38.82814744276193" lon="121.50395978763041">
        <ele>0.13543380238115788</ele>
        <time>2025-08-11T23:59:55Z</time>
      </trkpt>
      <trkpt lat="38.828172810237874" lon="121.50402168706782">
        <ele>0.43443050794303417</ele>
        <time>2025-08-11T23:59:59Z</time>
      </trkpt>
      <trkpt lat="38.82831629619258" lon="121.50407582776782">
        <ele>0.9476388953626156</ele>
        <time>2025-08-12T00:00:10Z</time>
      </trkpt>
      <trkpt lat="38.82867025219784" lon="121.50403729090523">
        <ele>1.6179642928764224</ele>
        <time>2025-08-12T00:00:26Z</time>
      </trkpt>
      <trkpt lat="38.828863020246594" lon="121.50398247922573">
        <ele>1.9579083696007729</ele>
        <time>2025-08-12T00:00:34Z</time>
      </trkpt>
      <trkpt lat="38.82912867813641" lon="121.50405967878093">
        <ele>2.490063963457942</ele>
        <time>2025-08-12T00:00:46Z</time>
      </trkpt>
      <trkpt lat="38.82933186060374" lon="121.5041351974237">
        <ele>2.7321214210242033</ele>
        <time>2025-08-12T00:00:54Z</time>
      </trkpt>
      <trkpt lat="38.829502405280394" lon="121.50422564177538">
        <ele>2.1448863577097654</ele>
        <time>2025-08-12T00:01:02Z</time>
      </trkpt>
      <trkpt lat="38.829720155193996" lon="121.50443959830682">
        <ele>0.6774006504565477</ele>
        <time>2025-08-12T00:01:14Z</time>
      </trkpt>
      <trkpt lat="38.82985637922016" lon="121.50460989323379">
        <ele>1.7654072949662805</ele>
        <time>2025-08-12T00:01:22Z</time>
      </trkpt>
      <trkpt lat="38.8300060518575" lon="121.50474689568738">
        <ele>1.4969582166522741</ele>
        <time>2025-08-12T00:01:30Z</time>
      </trkpt>
      <trkpt lat="38.83027230592736" lon="121.50489116934718">
        <ele>2.4863493582233787</ele>
        <time>2025-08-12T00:01:42Z</time>
      </trkpt>
      <trkpt lat="38.83053296204589" lon="121.50507499344052">
        <ele>2.7815176928415895</ele>
        <time>2025-08-12T00:01:54Z</time>
      </trkpt>
      <trkpt lat="38.830682991227164" lon="121.50522798261075">
        <ele>2.8917810302227736</ele>
        <time>2025-08-12T00:02:02Z</time>
      </trkpt>
      <trkpt lat="38.83087804975776" lon="121.50531380647834">
        <ele>2.3860080912709236</ele>
        <time>2025-08-12T00:02:10Z</time>
      </trkpt>
      <trkpt lat="38.831054489113754" lon="121.50532249439713">
        <ele>2.0786341121420264</ele>
        <time>2025-08-12T00:02:18Z</time>
      </trkpt>
      <trkpt lat="38.83124244718077" lon="121.50530472778694">
        <ele>3.108874464407563</ele>
        <time>2025-08-12T00:02:26Z</time>
      </trkpt>
      <trkpt lat="38.83143198955094" lon="121.50534602783353">
        <ele>2.6140255061909556</ele>
        <time>2025-08-12T00:02:34Z</time>
      </trkpt>
      <trkpt lat="38.83160494183289" lon="121.50545694386818">
        <ele>1.8324275938794017</ele>
        <time>2025-08-12T00:02:42Z</time>
      </trkpt>
      <trkpt lat="38.83174726303523" lon="121.50561037686069">
        <ele>2.130816320888698</ele>
        <time>2025-08-12T00:02:50Z</time>
      </trkpt>
      <trkpt lat="38.83186521555045" lon="121.50580408737267">
        <ele>2.9922477854415774</ele>
        <time>2025-08-12T00:02:58Z</time>
      </trkpt>
      <trkpt lat="38.83194336788332" lon="121.5060341258836">
        <ele>2.6745400177314878</ele>
        <time>2025-08-12T00:03:06Z</time>
      </trkpt>
      <trkpt lat="38.83206111557191" lon="121.5062459960152">
        <ele>2.6584800742566586</ele>
        <time>2025-08-12T00:03:14Z</time>
      </trkpt>
      <trkpt lat="38.83226876504038" lon="121.50646119839546">
        <ele>2.1754809198901057</ele>
        <time>2025-08-12T00:03:26Z</time>
      </trkpt>
      <trkpt lat="38.83234170588405" lon="121.50649356715759">
        <ele>1.721118150278926</ele>
        <time>2025-08-12T00:03:34Z</time>
      </trkpt>
    </trkseg>
  </trk>
</gpx>