<?xml version="1.0" encoding="UTF-8"?>
<gpx xmlns="http://www.topografix.com/GPX/1/1" xmlns:gpxtpx="http://www.garmin.com/xmlschemas/TrackPointExtension/v1" xmlns:xsi="http://www.w3.org/2001/XMLSchema-instance" xsi:schemaLocation="http://www.topografix.com/GPX/1/1 http://www.topografix.com/GPX/1/1/gpx.xsd" version="1.1" creator="gpx.py -- https://github.com/tkrajina/gpxpy">
  <trk>
    <name>gpx from keep</name>
    <type>Run</type>
    <trkseg>
      <trkpt lat="38.83321536722554" lon="121.50731025210192">
        <ele>5.041727975010872</ele>
        <time>2025-07-04T06:33:47Z</time>
      </trkpt>
      <trkpt lat="38.83321608467793" lon="121.50719425887334">
        <ele>4.8341095903888345</ele>
        <time>2025-07-04T06:33:51Z</time>
      </trkpt>
      <trkpt lat="38.83316111071551" lon="121.5070220422553">
        <ele>5.05419937428087</ele>
        <time>2025-07-04T06:33:58Z</time>
      </trkpt>
      <trkpt lat="38.833056884484435" lon="121.50688307889288">
        <ele>3.7188719492405653</ele>
        <time>2025-07-04T06:34:04Z</time>
      </trkpt>
      <trkpt lat="38.832960479227964" lon="121.50673058100733">
        <ele>3.91580131649971</ele>
        <time>2025-07-04T06:34:10Z</time>
      </trkpt>
      <trkpt lat="38.832785181319146" lon="121.50659557987201">
        <ele>3.4072959991171956</ele>
        <time>2025-07-04T06:34:19Z</time>
      </trkpt>
      <trkpt lat="38.83265251493758" lon="121.50655756795882">
        <ele>3.6803542487323284</ele>
        <time>2025-07-04T06:34:25Z</time>
      </trkpt>
      <trkpt lat="38.83238129633363" lon="121.50650677617818">
        <ele>3.5095166750252247</ele>
        <time>2025-07-04T06:34:37Z</time>
        <extensions>
          <gpxtpx:TrackPointExtension>
            <gpxtpx:hr>141</gpxtpx:hr>
          </gpxtpx:TrackPointExtension>
        </extensions>
      </trkpt>
      <trkpt lat="38.832128124912245" lon="121.5063032925506">
        <ele>3.6788369631394744</ele>
        <time>2025-07-04T06:34:49Z</time>
        <extensions>
          <gpxtpx:TrackPointExtension>
            <gpxtpx:hr>140</gpxtpx:hr>
          </gpxtpx:TrackPointExtension>
        </extensions>
      </trkpt>
      <trkpt lat="38.83207434364813" lon="121.5062339718661">
        <ele>4.3053266098722816</ele>
        <time>2025-07-04T06:34:52Z</time>
        <extensions>
          <gpxtpx:TrackPointExtension>
            <gpxtpx:hr>140</gpxtpx:hr>
          </gpxtpx:TrackPointExtension>
        </extensions>
      </trkpt>
      <trkpt lat="38.831938099735574" lon="121.50588659087136">
        <ele>4.948498661629856</ele>
        <time>2025-07-04T06:35:04Z</time>
        <extensions>
          <gpxtpx:TrackPointExtension>
            <gpxtpx:hr>140</gpxtpx:hr>
          </gpxtpx:TrackPointExtension>
        </extensions>
      </trkpt>
      <trkpt lat="38.8319256550178" lon="121.50581105212453">
        <ele>4.383707908913493</ele>
        <time>2025-07-04T06:35:07Z</time>
        <extensions>
          <gpxtpx:TrackPointExtension>
            <gpxtpx:hr>140</gpxtpx:hr>
          </gpxtpx:TrackPointExtension>
        </extensions>
      </trkpt>
      <trkpt lat="38.83175923901476" lon="121.50553411541478">
        <ele>4.92813091352582</ele>
        <time>2025-07-04T06:35:19Z</time>
      </trkpt>
      <trkpt lat="38.831650569222326" lon="121.50542565067855">
        <ele>5.554823258891702</ele>
        <time>2025-07-04T06:35:25Z</time>
      </trkpt>
      <trkpt lat="38.83152757094788" lon="121.50534783196669">
        <ele>4.12925755046308</ele>
        <time>2025-07-04T06:35:31Z</time>
      </trkpt>
      <trkpt lat="38.831464937578296" lon="121.5053475976502">
        <ele>4.72047889791429</ele>
        <time>2025-07-04T06:35:34Z</time>
      </trkpt>
      <trkpt lat="38.831397046910986" lon="121.50530833090417">
        <ele>4.00860480684787</ele>
        <time>2025-07-04T06:35:37Z</time>
      </trkpt>
      <trkpt lat="38.83133911607643" lon="121.50521351494375">
        <ele>3.684728062711656</ele>
        <time>2025-07-04T06:35:41Z</time>
      </trkpt>
      <trkpt lat="38.831203056033" lon="121.50513530983415">
        <ele>5.509128075093031</ele>
        <time>2025-07-04T06:35:47Z</time>
      </trkpt>
      <trkpt lat="38.830928337784925" lon="121.50508919956114">
        <ele>4.372796460986137</ele>
        <time>2025-07-04T06:35:59Z</time>
      </trkpt>
      <trkpt lat="38.830730446543704" lon="121.50499002988859">
        <ele>5.153372961096466</ele>
        <time>2025-07-04T06:36:08Z</time>
      </trkpt>
      <trkpt lat="38.830550239138745" lon="121.50486087013925">
        <ele>5.432948080822825</ele>
        <time>2025-07-04T06:36:17Z</time>
      </trkpt>
      <trkpt lat="38.830422658185825" lon="121.50493287808355">
        <ele>6.218718674965203</ele>
        <time>2025-07-04T06:36:23Z</time>
      </trkpt>
      <trkpt lat="38.830171984684135" lon="121.50480178908994">
        <ele>6.306799229234457</ele>
        <time>2025-07-04T06:36:35Z</time>
        <extensions>
          <gpxtpx:TrackPointExtension>
            <gpxtpx:hr>135</gpxtpx:hr>
          </gpxtpx:TrackPointExtension>
        </extensions>
      </trkpt>
      <trkpt lat="38.82996013138226" lon="121.50467273088843">
        <ele>4.511206133291125</ele>
        <time>2025-07-04T06:36:44Z</time>
        <extensions>
          <gpxtpx:TrackPointExtension>
            <gpxtpx:hr>135</gpxtpx:hr>
          </gpxtpx:TrackPointExtension>
        </extensions>
      </trkpt>
      <trkpt lat="38.829742743829335" lon="121.50440020844864">
        <ele>4.950632052496076</ele>
        <time>2025-07-04T06:36:56Z</time>
        <extensions>
          <gpxtpx:TrackPointExtension>
            <gpxtpx:hr>134</gpxtpx:hr>
          </gpxtpx:TrackPointExtension>
        </extensions>
      </trkpt>
      <trkpt lat="38.82945881985619" lon="121.50416625179932">
        <ele>4.31427463516593</ele>
        <time>2025-07-04T06:37:11Z</time>
        <extensions>
          <gpxtpx:TrackPointExtension>
            <gpxtpx:hr>135</gpxtpx:hr>
          </gpxtpx:TrackPointExtension>
        </extensions>
      </trkpt>
      <trkpt lat="38.82918052792516" lon="121.50403422643564">
        <ele>4.132169391959906</ele>
        <time>2025-07-04T06:37:24Z</time>
        <extensions>
          <gpxtpx:TrackPointExtension>
            <gpxtpx:hr>137</gpxtpx:hr>
          </gpxtpx:TrackPointExtension>
        </extensions>
      </trkpt>
      <trkpt lat="38.829043161729864" lon="121.50403076490964">
        <ele>4.939535385929048</ele>
        <time>2025-07-04T06:37:30Z</time>
        <extensions>
          <gpxtpx:TrackPointExtension>
            <gpxtpx:hr>136</gpxtpx:hr>
          </gpxtpx:TrackPointExtension>
        </extensions>
      </trkpt>
      <trkpt lat="38.82896311360392" lon="121.50408033521919">
        <ele>5.2663588263094425</ele>
        <time>2025-07-04T06:37:33Z</time>
        <extensions>
          <gpxtpx:TrackPointExtension>
            <gpxtpx:hr>134</gpxtpx:hr>
          </gpxtpx:TrackPointExtension>
        </extensions>
      </trkpt>
      <trkpt lat="38.828814439583276" lon="121.50401028937276">
        <ele>5.06624745298177</ele>
        <time>2025-07-04T06:37:39Z</time>
        <extensions>
          <gpxtpx:TrackPointExtension>
            <gpxtpx:hr>134</gpxtpx:hr>
          </gpxtpx:TrackPointExtension>
        </extensions>
      </trkpt>
      <trkpt lat="38.82857032722028" lon="121.50407921836192">
        <ele>3.696145166642964</ele>
        <time>2025-07-04T06:37:49Z</time>
        <extensions>
          <gpxtpx:TrackPointExtension>
            <gpxtpx:hr>136</gpxtpx:hr>
          </gpxtpx:TrackPointExtension>
        </extensions>
      </trkpt>
      <trkpt lat="38.82835635338791" lon="121.50408812616895">
        <ele>3.8524074172601104</ele>
        <time>2025-07-04T06:37:58Z</time>
        <extensions>
          <gpxtpx:TrackPointExtension>
            <gpxtpx:hr>138</gpxtpx:hr>
          </gpxtpx:TrackPointExtension>
        </extensions>
      </trkpt>
      <trkpt lat="38.82820107252934" lon="121.50403765124851">
        <ele>4.4391208020970225</ele>
        <time>2025-07-04T06:38:04Z</time>
        <extensions>
          <gpxtpx:TrackPointExtension>
            <gpxtpx:hr>138</gpxtpx:hr>
          </gpxtpx:TrackPointExtension>
        </extensions>
      </trkpt>
      <trkpt lat="38.82807440829095" lon="121.50391310663015">
        <ele>3.5323477890342474</ele>
        <time>2025-07-04T06:38:10Z</time>
        <extensions>
          <gpxtpx:TrackPointExtension>
            <gpxtpx:hr>139</gpxtpx:hr>
          </gpxtpx:TrackPointExtension>
        </extensions>
      </trkpt>
      <trkpt lat="38.82802821453386" lon="121.5038265421836">
        <ele>3.514607375487685</ele>
        <time>2025-07-04T06:38:13Z</time>
        <extensions>
          <gpxtpx:TrackPointExtension>
            <gpxtpx:hr>139</gpxtpx:hr>
          </gpxtpx:TrackPointExtension>
        </extensions>
      </trkpt>
      <trkpt lat="38.82797806936688" lon="121.5037827769075">
        <ele>3.6746930964291096</ele>
        <time>2025-07-04T06:38:19Z</time>
        <extensions>
          <gpxtpx:TrackPointExtension>
            <gpxtpx:hr>139</gpxtpx:hr>
          </gpxtpx:TrackPointExtension>
        </extensions>
      </trkpt>
      <trkpt lat="38.82788435526663" lon="121.50350429604691">
        <ele>4.192914884537458</ele>
        <time>2025-07-04T06:38:28Z</time>
        <extensions>
          <gpxtpx:TrackPointExtension>
            <gpxtpx:hr>139</gpxtpx:hr>
          </gpxtpx:TrackPointExtension>
        </extensions>
      </trkpt>
      <trkpt lat="38.82785083339864" lon="121.50334772906415">
        <ele>4.61788294557482</ele>
        <time>2025-07-04T06:38:34Z</time>
        <extensions>
          <gpxtpx:TrackPointExtension>
            <gpxtpx:hr>138</gpxtpx:hr>
          </gpxtpx:TrackPointExtension>
        </extensions>
      </trkpt>
      <trkpt lat="38.827815850575135" lon="121.50327655374903">
        <ele>4.036587478592992</ele>
        <time>2025-07-04T06:38:37Z</time>
        <extensions>
          <gpxtpx:TrackPointExtension>
            <gpxtpx:hr>136</gpxtpx:hr>
          </gpxtpx:TrackPointExtension>
        </extensions>
      </trkpt>
      <trkpt lat="38.827753558169576" lon="121.50320715597903">
        <ele>4.2766667027026415</ele>
        <time>2025-07-04T06:38:40Z</time>
        <extensions>
          <gpxtpx:TrackPointExtension>
            <gpxtpx:hr>136</gpxtpx:hr>
          </gpxtpx:TrackPointExtension>
        </extensions>
      </trkpt>
      <trkpt lat="38.82768057935033" lon="121.50320032649354">
        <ele>5.085140802897513</ele>
        <time>2025-07-04T06:38:43Z</time>
        <extensions>
          <gpxtpx:TrackPointExtension>
            <gpxtpx:hr>136</gpxtpx:hr>
          </gpxtpx:TrackPointExtension>
        </extensions>
      </trkpt>
      <trkpt lat="38.82763082608402" lon="121.50311437206226">
        <ele>4.708459852263331</ele>
        <time>2025-07-04T06:38:46Z</time>
        <extensions>
          <gpxtpx:TrackPointExtension>
            <gpxtpx:hr>136</gpxtpx:hr>
          </gpxtpx:TrackPointExtension>
        </extensions>
      </trkpt>
      <trkpt lat="38.82757579720277" lon="121.50305702467683">
        <ele>5.2023812076076865</ele>
        <time>2025-07-04T06:38:49Z</time>
        <extensions>
          <gpxtpx:TrackPointExtension>
            <gpxtpx:hr>138</gpxtpx:hr>
          </gpxtpx:TrackPointExtension>
        </extensions>
      </trkpt>
      <trkpt lat="38.82743699053007" lon="121.50300735157236">
        <ele>4.16456026956439</ele>
        <time>2025-07-04T06:38:55Z</time>
        <extensions>
          <gpxtpx:TrackPointExtension>
            <gpxtpx:hr>139</gpxtpx:hr>
          </gpxtpx:TrackPointExtension>
        </extensions>
      </trkpt>
      <trkpt lat="38.82722748983538" lon="121.5030252256825">
        <ele>4.943380975164473</ele>
        <time>2025-07-04T06:39:04Z</time>
        <extensions>
          <gpxtpx:TrackPointExtension>
            <gpxtpx:hr>141</gpxtpx:hr>
          </gpxtpx:TrackPointExtension>
        </extensions>
      </trkpt>
      <trkpt lat="38.82703719799495" lon="121.50311575869883">
        <ele>4.282067474909127</ele>
        <time>2025-07-04T06:39:13Z</time>
        <extensions>
          <gpxtpx:TrackPointExtension>
            <gpxtpx:hr>141</gpxtpx:hr>
          </gpxtpx:TrackPointExtension>
        </extensions>
      </trkpt>
      <trkpt lat="38.826815845464445" lon="121.50334790535572">
        <ele>5.160262877121568</ele>
        <time>2025-07-04T06:39:25Z</time>
        <extensions>
          <gpxtpx:TrackPointExtension>
            <gpxtpx:hr>142</gpxtpx:hr>
          </gpxtpx:TrackPointExtension>
        </extensions>
      </trkpt>
      <trkpt lat="38.826755510774866" lon="121.50341489035964">
        <ele>4.718379662372172</ele>
        <time>2025-07-04T06:39:28Z</time>
        <extensions>
          <gpxtpx:TrackPointExtension>
            <gpxtpx:hr>138</gpxtpx:hr>
          </gpxtpx:TrackPointExtension>
        </extensions>
      </trkpt>
      <trkpt lat="38.826623640700745" lon="121.50366759474407">
        <ele>4.22107466775924</ele>
        <time>2025-07-04T06:39:37Z</time>
        <extensions>
          <gpxtpx:TrackPointExtension>
            <gpxtpx:hr>138</gpxtpx:hr>
          </gpxtpx:TrackPointExtension>
        </extensions>
      </trkpt>
      <trkpt lat="38.82658761458487" lon="121.50402538190717">
        <ele>4.555290930904448</ele>
        <time>2025-07-04T06:39:49Z</time>
        <extensions>
          <gpxtpx:TrackPointExtension>
            <gpxtpx:hr>143</gpxtpx:hr>
          </gpxtpx:TrackPointExtension>
        </extensions>
      </trkpt>
      <trkpt lat="38.826569142207994" lon="121.5043731665869">
        <ele>4.153117883950472</ele>
        <time>2025-07-04T06:40:00Z</time>
        <extensions>
          <gpxtpx:TrackPointExtension>
            <gpxtpx:hr>144</gpxtpx:hr>
          </gpxtpx:TrackPointExtension>
        </extensions>
      </trkpt>
      <trkpt lat="38.82652211253585" lon="121.50453812962847">
        <ele>3.974899126216769</ele>
        <time>2025-07-04T06:40:06Z</time>
        <extensions>
          <gpxtpx:TrackPointExtension>
            <gpxtpx:hr>144</gpxtpx:hr>
          </gpxtpx:TrackPointExtension>
        </extensions>
      </trkpt>
      <trkpt lat="38.82658050903594" lon="121.5042473589864">
        <ele>3.63634882774204</ele>
        <time>2025-07-04T06:40:18Z</time>
        <extensions>
          <gpxtpx:TrackPointExtension>
            <gpxtpx:hr>144</gpxtpx:hr>
          </gpxtpx:TrackPointExtension>
        </extensions>
      </trkpt>
      <trkpt lat="38.82657138273609" lon="121.50387232966965">
        <ele>4.590001664124429</ele>
        <time>2025-07-04T06:40:30Z</time>
        <extensions>
          <gpxtpx:TrackPointExtension>
            <gpxtpx:hr>145</gpxtpx:hr>
          </gpxtpx:TrackPointExtension>
        </extensions>
      </trkpt>
      <trkpt lat="38.82658122434285" lon="121.50377439503308">
        <ele>4.309854053892195</ele>
        <time>2025-07-04T06:40:33Z</time>
        <extensions>
          <gpxtpx:TrackPointExtension>
            <gpxtpx:hr>145</gpxtpx:hr>
          </gpxtpx:TrackPointExtension>
        </extensions>
      </trkpt>
      <trkpt lat="38.82662759665017" lon="121.50370242616185">
        <ele>3.658269841223955</ele>
        <time>2025-07-04T06:40:36Z</time>
        <extensions>
          <gpxtpx:TrackPointExtension>
            <gpxtpx:hr>145</gpxtpx:hr>
          </gpxtpx:TrackPointExtension>
        </extensions>
      </trkpt>
      <trkpt lat="38.8266823874692" lon="121.50353484532938">
        <ele>3.2239962657913566</ele>
        <time>2025-07-04T06:40:42Z</time>
        <extensions>
          <gpxtpx:TrackPointExtension>
            <gpxtpx:hr>146</gpxtpx:hr>
          </gpxtpx:TrackPointExtension>
        </extensions>
      </trkpt>
      <trkpt lat="38.8267724582245" lon="121.50338094087586">
        <ele>3.649352534674108</ele>
        <time>2025-07-04T06:40:48Z</time>
        <extensions>
          <gpxtpx:TrackPointExtension>
            <gpxtpx:hr>148</gpxtpx:hr>
          </gpxtpx:TrackPointExtension>
        </extensions>
      </trkpt>
      <trkpt lat="38.82696543281006" lon="121.50320438037058">
        <ele>3.273561437614262</ele>
        <time>2025-07-04T06:40:57Z</time>
        <extensions>
          <gpxtpx:TrackPointExtension>
            <gpxtpx:hr>149</gpxtpx:hr>
          </gpxtpx:TrackPointExtension>
        </extensions>
      </trkpt>
      <trkpt lat="38.82708224272439" lon="121.50308077388367">
        <ele>3.8873350769281387</ele>
        <time>2025-07-04T06:41:03Z</time>
        <extensions>
          <gpxtpx:TrackPointExtension>
            <gpxtpx:hr>150</gpxtpx:hr>
          </gpxtpx:TrackPointExtension>
        </extensions>
      </trkpt>
      <trkpt lat="38.82721115087897" lon="121.50300081051556">
        <ele>3.697252716869116</ele>
        <time>2025-07-04T06:41:09Z</time>
        <extensions>
          <gpxtpx:TrackPointExtension>
            <gpxtpx:hr>151</gpxtpx:hr>
          </gpxtpx:TrackPointExtension>
        </extensions>
      </trkpt>
      <trkpt lat="38.82729257721953" lon="121.50297081645448">
        <ele>4.550222612917423</ele>
        <time>2025-07-04T06:41:12Z</time>
        <extensions>
          <gpxtpx:TrackPointExtension>
            <gpxtpx:hr>151</gpxtpx:hr>
          </gpxtpx:TrackPointExtension>
        </extensions>
      </trkpt>
      <trkpt lat="38.82752573252366" lon="121.50302662516633">
        <ele>4.111011005006731</ele>
        <time>2025-07-04T06:41:21Z</time>
        <extensions>
          <gpxtpx:TrackPointExtension>
            <gpxtpx:hr>151</gpxtpx:hr>
          </gpxtpx:TrackPointExtension>
        </extensions>
      </trkpt>
      <trkpt lat="38.827593069396805" lon="121.50306668120498">
        <ele>4.191269828937948</ele>
        <time>2025-07-04T06:41:24Z</time>
        <extensions>
          <gpxtpx:TrackPointExtension>
            <gpxtpx:hr>151</gpxtpx:hr>
          </gpxtpx:TrackPointExtension>
        </extensions>
      </trkpt>
      <trkpt lat="38.82763807278934" lon="121.5031443256881">
        <ele>3.8783011427149177</ele>
        <time>2025-07-04T06:41:27Z</time>
        <extensions>
          <gpxtpx:TrackPointExtension>
            <gpxtpx:hr>151</gpxtpx:hr>
          </gpxtpx:TrackPointExtension>
        </extensions>
      </trkpt>
      <trkpt lat="38.827708794991615" lon="121.50320049442742">
        <ele>4.104431831277907</ele>
        <time>2025-07-04T06:41:30Z</time>
        <extensions>
          <gpxtpx:TrackPointExtension>
            <gpxtpx:hr>151</gpxtpx:hr>
          </gpxtpx:TrackPointExtension>
        </extensions>
      </trkpt>
      <trkpt lat="38.827784951320666" lon="121.50322447632541">
        <ele>4.766115820035338</ele>
        <time>2025-07-04T06:41:33Z</time>
        <extensions>
          <gpxtpx:TrackPointExtension>
            <gpxtpx:hr>151</gpxtpx:hr>
          </gpxtpx:TrackPointExtension>
        </extensions>
      </trkpt>
      <trkpt lat="38.82784037980216" lon="121.50330954098847">
        <ele>5.207862384617329</ele>
        <time>2025-07-04T06:41:36Z</time>
        <extensions>
          <gpxtpx:TrackPointExtension>
            <gpxtpx:hr>151</gpxtpx:hr>
          </gpxtpx:TrackPointExtension>
        </extensions>
      </trkpt>
      <trkpt lat="38.827945787103666" lon="121.5036702953851">
        <ele>3.7082251962274313</ele>
        <time>2025-07-04T06:41:48Z</time>
        <extensions>
          <gpxtpx:TrackPointExtension>
            <gpxtpx:hr>159</gpxtpx:hr>
          </gpxtpx:TrackPointExtension>
        </extensions>
      </trkpt>
      <trkpt lat="38.82798149546415" lon="121.50376258273191">
        <ele>3.0574154118075967</ele>
        <time>2025-07-04T06:41:51Z</time>
        <extensions>
          <gpxtpx:TrackPointExtension>
            <gpxtpx:hr>159</gpxtpx:hr>
          </gpxtpx:TrackPointExtension>
        </extensions>
      </trkpt>
      <trkpt lat="38.828186903534636" lon="121.50401196501555">
        <ele>4.803700701333582</ele>
        <time>2025-07-04T06:42:02Z</time>
        <extensions>
          <gpxtpx:TrackPointExtension>
            <gpxtpx:hr>159</gpxtpx:hr>
          </gpxtpx:TrackPointExtension>
        </extensions>
      </trkpt>
      <trkpt lat="38.82835110934026" lon="121.50407128634014">
        <ele>4.144422619603574</ele>
        <time>2025-07-04T06:42:09Z</time>
        <extensions>
          <gpxtpx:TrackPointExtension>
            <gpxtpx:hr>158</gpxtpx:hr>
          </gpxtpx:TrackPointExtension>
        </extensions>
      </trkpt>
      <trkpt lat="38.828570789643834" lon="121.5040698450029">
        <ele>4.359594536013901</ele>
        <time>2025-07-04T06:42:18Z</time>
        <extensions>
          <gpxtpx:TrackPointExtension>
            <gpxtpx:hr>157</gpxtpx:hr>
          </gpxtpx:TrackPointExtension>
        </extensions>
      </trkpt>
      <trkpt lat="38.82872959266351" lon="121.50402376428421">
        <ele>3.708826840855181</ele>
        <time>2025-07-04T06:42:24Z</time>
        <extensions>
          <gpxtpx:TrackPointExtension>
            <gpxtpx:hr>158</gpxtpx:hr>
          </gpxtpx:TrackPointExtension>
        </extensions>
      </trkpt>
      <trkpt lat="38.82887262536004" lon="121.50401021857087">
        <ele>4.112812040373683</ele>
        <time>2025-07-04T06:42:30Z</time>
        <extensions>
          <gpxtpx:TrackPointExtension>
            <gpxtpx:hr>158</gpxtpx:hr>
          </gpxtpx:TrackPointExtension>
        </extensions>
      </trkpt>
      <trkpt lat="38.82893107667211" lon="121.50408060850019">
        <ele>4.966706896200776</ele>
        <time>2025-07-04T06:42:33Z</time>
        <extensions>
          <gpxtpx:TrackPointExtension>
            <gpxtpx:hr>158</gpxtpx:hr>
          </gpxtpx:TrackPointExtension>
        </extensions>
      </trkpt>
      <trkpt lat="38.829005601178665" lon="121.50404613621706">
        <ele>5.0591166242957115</ele>
        <time>2025-07-04T06:42:36Z</time>
        <extensions>
          <gpxtpx:TrackPointExtension>
            <gpxtpx:hr>158</gpxtpx:hr>
          </gpxtpx:TrackPointExtension>
        </extensions>
      </trkpt>
      <trkpt lat="38.82913385165617" lon="121.50402729228414">
        <ele>4.207630786113441</ele>
        <time>2025-07-04T06:42:42Z</time>
        <extensions>
          <gpxtpx:TrackPointExtension>
            <gpxtpx:hr>157</gpxtpx:hr>
          </gpxtpx:TrackPointExtension>
        </extensions>
      </trkpt>
      <trkpt lat="38.82929112084651" lon="121.50405934909584">
        <ele>4.029284691438079</ele>
        <time>2025-07-04T06:42:48Z</time>
        <extensions>
          <gpxtpx:TrackPointExtension>
            <gpxtpx:hr>158</gpxtpx:hr>
          </gpxtpx:TrackPointExtension>
        </extensions>
      </trkpt>
      <trkpt lat="38.82947771926853" lon="121.50415226001793">
        <ele>4.185357769019902</ele>
        <time>2025-07-04T06:42:57Z</time>
        <extensions>
          <gpxtpx:TrackPointExtension>
            <gpxtpx:hr>158</gpxtpx:hr>
          </gpxtpx:TrackPointExtension>
        </extensions>
      </trkpt>
      <trkpt lat="38.82972961702703" lon="121.50436956945744">
        <ele>4.631385345943272</ele>
        <time>2025-07-04T06:43:09Z</time>
        <extensions>
          <gpxtpx:TrackPointExtension>
            <gpxtpx:hr>158</gpxtpx:hr>
          </gpxtpx:TrackPointExtension>
        </extensions>
      </trkpt>
      <trkpt lat="38.82985437678785" lon="121.50451680657828">
        <ele>4.577331901527941</ele>
        <time>2025-07-04T06:43:15Z</time>
        <extensions>
          <gpxtpx:TrackPointExtension>
            <gpxtpx:hr>156</gpxtpx:hr>
          </gpxtpx:TrackPointExtension>
        </extensions>
      </trkpt>
      <trkpt lat="38.829946856005755" lon="121.50465425916101">
        <ele>3.5520364101976156</ele>
        <time>2025-07-04T06:43:21Z</time>
        <extensions>
          <gpxtpx:TrackPointExtension>
            <gpxtpx:hr>157</gpxtpx:hr>
          </gpxtpx:TrackPointExtension>
        </extensions>
      </trkpt>
      <trkpt lat="38.830072160760295" lon="121.50477620070853">
        <ele>3.5607243329286575</ele>
        <time>2025-07-04T06:43:27Z</time>
        <extensions>
          <gpxtpx:TrackPointExtension>
            <gpxtpx:hr>159</gpxtpx:hr>
          </gpxtpx:TrackPointExtension>
        </extensions>
      </trkpt>
      <trkpt lat="38.830229453037255" lon="121.50481762202968">
        <ele>5.205656925216317</ele>
        <time>2025-07-04T06:43:33Z</time>
        <extensions>
          <gpxtpx:TrackPointExtension>
            <gpxtpx:hr>159</gpxtpx:hr>
          </gpxtpx:TrackPointExtension>
        </extensions>
      </trkpt>
      <trkpt lat="38.830373939285344" lon="121.50488844247671">
        <ele>4.357176313176751</ele>
        <time>2025-07-04T06:43:39Z</time>
        <extensions>
          <gpxtpx:TrackPointExtension>
            <gpxtpx:hr>160</gpxtpx:hr>
          </gpxtpx:TrackPointExtension>
        </extensions>
      </trkpt>
      <trkpt lat="38.830435480944104" lon="121.50488845096365">
        <ele>4.391825819388032</ele>
        <time>2025-07-04T06:43:42Z</time>
        <extensions>
          <gpxtpx:TrackPointExtension>
            <gpxtpx:hr>161</gpxtpx:hr>
          </gpxtpx:TrackPointExtension>
        </extensions>
      </trkpt>
      <trkpt lat="38.830508404252264" lon="121.50485456725384">
        <ele>5.680041161365807</ele>
        <time>2025-07-04T06:43:45Z</time>
        <extensions>
          <gpxtpx:TrackPointExtension>
            <gpxtpx:hr>161</gpxtpx:hr>
          </gpxtpx:TrackPointExtension>
        </extensions>
      </trkpt>
      <trkpt lat="38.83058458547691" lon="121.50485114249155">
        <ele>6.3041155729442835</ele>
        <time>2025-07-04T06:43:48Z</time>
        <extensions>
          <gpxtpx:TrackPointExtension>
            <gpxtpx:hr>161</gpxtpx:hr>
          </gpxtpx:TrackPointExtension>
        </extensions>
      </trkpt>
      <trkpt lat="38.83067439310776" lon="121.50489037157219">
        <ele>5.207272472791374</ele>
        <time>2025-07-04T06:43:51Z</time>
        <extensions>
          <gpxtpx:TrackPointExtension>
            <gpxtpx:hr>161</gpxtpx:hr>
          </gpxtpx:TrackPointExtension>
        </extensions>
      </trkpt>
      <trkpt lat="38.83072393783186" lon="121.50497530640556">
        <ele>6.574647696688771</ele>
        <time>2025-07-04T06:43:54Z</time>
        <extensions>
          <gpxtpx:TrackPointExtension>
            <gpxtpx:hr>161</gpxtpx:hr>
          </gpxtpx:TrackPointExtension>
        </extensions>
      </trkpt>
      <trkpt lat="38.8309703633226" lon="121.50509667592877">
        <ele>6.077499167062342</ele>
        <time>2025-07-04T06:44:04Z</time>
        <extensions>
          <gpxtpx:TrackPointExtension>
            <gpxtpx:hr>160</gpxtpx:hr>
          </gpxtpx:TrackPointExtension>
        </extensions>
      </trkpt>
      <trkpt lat="38.83101922825785" lon="121.50514217478306">
        <ele>5.962367188185453</ele>
        <time>2025-07-04T06:44:07Z</time>
        <extensions>
          <gpxtpx:TrackPointExtension>
            <gpxtpx:hr>160</gpxtpx:hr>
          </gpxtpx:TrackPointExtension>
        </extensions>
      </trkpt>
      <trkpt lat="38.831076008522615" lon="121.50524962897667">
        <ele>4.67450933624059</ele>
        <time>2025-07-04T06:44:10Z</time>
        <extensions>
          <gpxtpx:TrackPointExtension>
            <gpxtpx:hr>160</gpxtpx:hr>
          </gpxtpx:TrackPointExtension>
        </extensions>
      </trkpt>
      <trkpt lat="38.831161677413654" lon="121.50529000894916">
        <ele>5.256536020897329</ele>
        <time>2025-07-04T06:44:14Z</time>
        <extensions>
          <gpxtpx:TrackPointExtension>
            <gpxtpx:hr>160</gpxtpx:hr>
          </gpxtpx:TrackPointExtension>
        </extensions>
      </trkpt>
      <trkpt lat="38.83142723478613" lon="121.50530374804144">
        <ele>5.110942387953401</ele>
        <time>2025-07-04T06:44:24Z</time>
        <extensions>
          <gpxtpx:TrackPointExtension>
            <gpxtpx:hr>160</gpxtpx:hr>
          </gpxtpx:TrackPointExtension>
        </extensions>
      </trkpt>
      <trkpt lat="38.8317155672229" lon="121.5054801000133">
        <ele>5.156033111736178</ele>
        <time>2025-07-04T06:44:36Z</time>
        <extensions>
          <gpxtpx:TrackPointExtension>
            <gpxtpx:hr>163</gpxtpx:hr>
          </gpxtpx:TrackPointExtension>
        </extensions>
      </trkpt>
      <trkpt lat="38.831834908257505" lon="121.50559711149924">
        <ele>5.940748077817261</ele>
        <time>2025-07-04T06:44:42Z</time>
        <extensions>
          <gpxtpx:TrackPointExtension>
            <gpxtpx:hr>163</gpxtpx:hr>
          </gpxtpx:TrackPointExtension>
        </extensions>
      </trkpt>
      <trkpt lat="38.83192530426142" lon="121.50576719508747">
        <ele>4.581821096129715</ele>
        <time>2025-07-04T06:44:48Z</time>
        <extensions>
          <gpxtpx:TrackPointExtension>
            <gpxtpx:hr>163</gpxtpx:hr>
          </gpxtpx:TrackPointExtension>
        </extensions>
      </trkpt>
      <trkpt lat="38.83204877733038" lon="121.50615351942403">
        <ele>4.2001230185851455</ele>
        <time>2025-07-04T06:45:00Z</time>
        <extensions>
          <gpxtpx:TrackPointExtension>
            <gpxtpx:hr>163</gpxtpx:hr>
          </gpxtpx:TrackPointExtension>
        </extensions>
      </trkpt>
      <trkpt lat="38.83214156186073" lon="121.50629715747807">
        <ele>5.1362412460148335</ele>
        <time>2025-07-04T06:45:06Z</time>
        <extensions>
          <gpxtpx:TrackPointExtension>
            <gpxtpx:hr>163</gpxtpx:hr>
          </gpxtpx:TrackPointExtension>
        </extensions>
      </trkpt>
      <trkpt lat="38.8323555495712" lon="121.50646696394404">
        <ele>4.826928845606744</ele>
        <time>2025-07-04T06:45:15Z</time>
        <extensions>
          <gpxtpx:TrackPointExtension>
            <gpxtpx:hr>163</gpxtpx:hr>
          </gpxtpx:TrackPointExtension>
        </extensions>
      </trkpt>
      <trkpt lat="38.83266257590177" lon="121.50653521597239">
        <ele>4.840386610478163</ele>
        <time>2025-07-04T06:45:27Z</time>
      </trkpt>
      <trkpt lat="38.83283513583867" lon="121.50658422286773">
        <ele>4.077064763754606</ele>
        <time>2025-07-04T06:45:33Z</time>
      </trkpt>
      <trkpt lat="38.833011001762756" lon="121.50678958413921">
        <ele>4.333063095808029</ele>
        <time>2025-07-04T06:45:42Z</time>
        <extensions>
          <gpxtpx:TrackPointExtension>
            <gpxtpx:hr>165</gpxtpx:hr>
          </gpxtpx:TrackPointExtension>
        </extensions>
      </trkpt>
      <trkpt lat="38.833155641995944" lon="121.50704485752166">
        <ele>5.764691716060042</ele>
        <time>2025-07-04T06:45:51Z</time>
        <extensions>
          <gpxtpx:TrackPointExtension>
            <gpxtpx:hr>165</gpxtpx:hr>
          </gpxtpx:TrackPointExtension>
        </extensions>
      </trkpt>
      <trkpt lat="38.83321343771081" lon="121.50724401020265">
        <ele>5.8237136118113995</ele>
        <time>2025-07-04T06:45:57Z</time>
        <extensions>
          <gpxtpx:TrackPointExtension>
            <gpxtpx:hr>166</gpxtpx:hr>
          </gpxtpx:TrackPointExtension>
        </extensions>
      </trkpt>
      <trkpt lat="38.8332175953653" lon="121.50744240331953">
        <ele>6.2666369788348675</ele>
        <time>2025-07-04T06:46:03Z</time>
        <extensions>
          <gpxtpx:TrackPointExtension>
            <gpxtpx:hr>166</gpxtpx:hr>
          </gpxtpx:TrackPointExtension>
        </extensions>
      </trkpt>
      <trkpt lat="38.83312785067461" lon="121.50764101207979">
        <ele>5.497869580984116</ele>
        <time>2025-07-04T06:46:10Z</time>
        <extensions>
          <gpxtpx:TrackPointExtension>
            <gpxtpx:hr>166</gpxtpx:hr>
          </gpxtpx:TrackPointExtension>
        </extensions>
      </trkpt>
      <trkpt lat="38.83312785067461" lon="121.50764101207979">
        <ele>5.497869580984116</ele>
        <time>2025-07-04T06:46:15Z</time>
        <extensions>
          <gpxtpx:TrackPointExtension>
            <gpxtpx:hr>165</gpxtpx:hr>
          </gpxtpx:TrackPointExtension>
        </extensions>
      </trkpt>
    </trkseg>
  </trk>
</gpx>