<?xml version="1.0" encoding="UTF-8"?>
<gpx xmlns="http://www.topografix.com/GPX/1/1" xmlns:gpxtpx="http://www.garmin.com/xmlschemas/TrackPointExtension/v1" xmlns:xsi="http://www.w3.org/2001/XMLSchema-instance" xsi:schemaLocation="http://www.topografix.com/GPX/1/1 http://www.topografix.com/GPX/1/1/gpx.xsd" version="1.1" creator="gpx.py -- https://github.com/tkrajina/gpxpy">
  <trk>
    <name>gpx from keep</name>
    <type>Run</type>
    <trkseg>
      <trkpt lat="38.874038867132484" lon="121.59026392264703">
        <ele>9.21007502824068</ele>
        <time>2024-10-06T02:48:33Z</time>
        <extensions>
          <gpxtpx:TrackPointExtension>
            <gpxtpx:hr>56</gpxtpx:hr>
          </gpxtpx:TrackPointExtension>
        </extensions>
      </trkpt>
      <trkpt lat="38.874096599199426" lon="121.59031147921861">
        <ele>8.527214008383453</ele>
        <time>2024-10-06T02:48:36Z</time>
        <extensions>
          <gpxtpx:TrackPointExtension>
            <gpxtpx:hr>56</gpxtpx:hr>
          </gpxtpx:TrackPointExtension>
        </extensions>
      </trkpt>
      <trkpt lat="38.874161475649586" lon="121.59030814171369">
        <ele>8.343742325901985</ele>
        <time>2024-10-06T02:48:39Z</time>
        <extensions>
          <gpxtpx:TrackPointExtension>
            <gpxtpx:hr>56</gpxtpx:hr>
          </gpxtpx:TrackPointExtension>
        </extensions>
      </trkpt>
      <trkpt lat="38.874255308112936" lon="121.59017940029943">
        <ele>8.3710250062868</ele>
        <time>2024-10-06T02:48:45Z</time>
        <extensions>
          <gpxtpx:TrackPointExtension>
            <gpxtpx:hr>56</gpxtpx:hr>
          </gpxtpx:TrackPointExtension>
        </extensions>
      </trkpt>
      <trkpt lat="38.87436722719035" lon="121.59035758784063">
        <ele>6.666354510001838</ele>
        <time>2024-10-06T02:48:52Z</time>
        <extensions>
          <gpxtpx:TrackPointExtension>
            <gpxtpx:hr>56</gpxtpx:hr>
          </gpxtpx:TrackPointExtension>
        </extensions>
      </trkpt>
      <trkpt lat="38.87443838453138" lon="121.59042544795777">
        <ele>6.5059536062181</ele>
        <time>2024-10-06T02:48:56Z</time>
        <extensions>
          <gpxtpx:TrackPointExtension>
            <gpxtpx:hr>111</gpxtpx:hr>
          </gpxtpx:TrackPointExtension>
        </extensions>
      </trkpt>
      <trkpt lat="38.87457235790433" lon="121.59063486482815">
        <ele>5.606462855823338</ele>
        <time>2024-10-06T02:49:04Z</time>
        <extensions>
          <gpxtpx:TrackPointExtension>
            <gpxtpx:hr>111</gpxtpx:hr>
          </gpxtpx:TrackPointExtension>
        </extensions>
      </trkpt>
      <trkpt lat="38.874638725533565" lon="121.59082901909876">
        <ele>7.134939736686647</ele>
        <time>2024-10-06T02:49:12Z</time>
        <extensions>
          <gpxtpx:TrackPointExtension>
            <gpxtpx:hr>104</gpxtpx:hr>
          </gpxtpx:TrackPointExtension>
        </extensions>
      </trkpt>
      <trkpt lat="38.87468852621352" lon="121.59118431040591">
        <ele>7.732538091018796</ele>
        <time>2024-10-06T02:49:24Z</time>
        <extensions>
          <gpxtpx:TrackPointExtension>
            <gpxtpx:hr>109</gpxtpx:hr>
          </gpxtpx:TrackPointExtension>
        </extensions>
      </trkpt>
      <trkpt lat="38.87465320018144" lon="121.59150913384207">
        <ele>7.3916788306087255</ele>
        <time>2024-10-06T02:49:35Z</time>
        <extensions>
          <gpxtpx:TrackPointExtension>
            <gpxtpx:hr>112</gpxtpx:hr>
          </gpxtpx:TrackPointExtension>
        </extensions>
      </trkpt>
      <trkpt lat="38.87458242834806" lon="121.59172112429829">
        <ele>8.765447165817022</ele>
        <time>2024-10-06T02:49:43Z</time>
        <extensions>
          <gpxtpx:TrackPointExtension>
            <gpxtpx:hr>114</gpxtpx:hr>
          </gpxtpx:TrackPointExtension>
        </extensions>
      </trkpt>
      <trkpt lat="38.87440557729256" lon="121.59200343466121">
        <ele>6.601966360583901</ele>
        <time>2024-10-06T02:49:55Z</time>
        <extensions>
          <gpxtpx:TrackPointExtension>
            <gpxtpx:hr>122</gpxtpx:hr>
          </gpxtpx:TrackPointExtension>
        </extensions>
      </trkpt>
      <trkpt lat="38.87422614498556" lon="121.5920568272747">
        <ele>6.537891253829002</ele>
        <time>2024-10-06T02:50:03Z</time>
        <extensions>
          <gpxtpx:TrackPointExtension>
            <gpxtpx:hr>122</gpxtpx:hr>
          </gpxtpx:TrackPointExtension>
        </extensions>
      </trkpt>
      <trkpt lat="38.87414381341251" lon="121.59203820094066">
        <ele>4.78317307587713</ele>
        <time>2024-10-06T02:50:07Z</time>
        <extensions>
          <gpxtpx:TrackPointExtension>
            <gpxtpx:hr>119</gpxtpx:hr>
          </gpxtpx:TrackPointExtension>
        </extensions>
      </trkpt>
      <trkpt lat="38.87398412493173" lon="121.59207966549351">
        <ele>5.4877008209005</ele>
        <time>2024-10-06T02:50:15Z</time>
        <extensions>
          <gpxtpx:TrackPointExtension>
            <gpxtpx:hr>112</gpxtpx:hr>
          </gpxtpx:TrackPointExtension>
        </extensions>
      </trkpt>
      <trkpt lat="38.8739239579097" lon="121.59215036335698">
        <ele>4.252019987441599</ele>
        <time>2024-10-06T02:50:19Z</time>
        <extensions>
          <gpxtpx:TrackPointExtension>
            <gpxtpx:hr>116</gpxtpx:hr>
          </gpxtpx:TrackPointExtension>
        </extensions>
      </trkpt>
      <trkpt lat="38.87384448051579" lon="121.59217361281158">
        <ele>5.213759547099471</ele>
        <time>2024-10-06T02:50:23Z</time>
        <extensions>
          <gpxtpx:TrackPointExtension>
            <gpxtpx:hr>116</gpxtpx:hr>
          </gpxtpx:TrackPointExtension>
        </extensions>
      </trkpt>
      <trkpt lat="38.87378309210119" lon="121.59221980724075">
        <ele>5.190828361548483</ele>
        <time>2024-10-06T02:50:26Z</time>
        <extensions>
          <gpxtpx:TrackPointExtension>
            <gpxtpx:hr>120</gpxtpx:hr>
          </gpxtpx:TrackPointExtension>
        </extensions>
      </trkpt>
      <trkpt lat="38.87375589432335" lon="121.59231974215781">
        <ele>5.75514777097851</ele>
        <time>2024-10-06T02:50:30Z</time>
        <extensions>
          <gpxtpx:TrackPointExtension>
            <gpxtpx:hr>124</gpxtpx:hr>
          </gpxtpx:TrackPointExtension>
        </extensions>
      </trkpt>
      <trkpt lat="38.87375420768766" lon="121.59241931315206">
        <ele>4.343362447805703</ele>
        <time>2024-10-06T02:50:33Z</time>
        <extensions>
          <gpxtpx:TrackPointExtension>
            <gpxtpx:hr>124</gpxtpx:hr>
          </gpxtpx:TrackPointExtension>
        </extensions>
      </trkpt>
      <trkpt lat="38.873690650910646" lon="121.59248671860331">
        <ele>5.4480181792750955</ele>
        <time>2024-10-06T02:50:39Z</time>
        <extensions>
          <gpxtpx:TrackPointExtension>
            <gpxtpx:hr>125</gpxtpx:hr>
          </gpxtpx:TrackPointExtension>
        </extensions>
      </trkpt>
      <trkpt lat="38.87365715098347" lon="121.59284765094233">
        <ele>6.366525207646191</ele>
        <time>2024-10-06T02:50:56Z</time>
        <extensions>
          <gpxtpx:TrackPointExtension>
            <gpxtpx:hr>121</gpxtpx:hr>
          </gpxtpx:TrackPointExtension>
        </extensions>
      </trkpt>
      <trkpt lat="38.87364457887583" lon="121.59295101522456">
        <ele>5.632647044956684</ele>
        <time>2024-10-06T02:51:07Z</time>
        <extensions>
          <gpxtpx:TrackPointExtension>
            <gpxtpx:hr>126</gpxtpx:hr>
          </gpxtpx:TrackPointExtension>
        </extensions>
      </trkpt>
      <trkpt lat="38.873673356794605" lon="121.59287752889725">
        <ele>6.479681392200291</ele>
        <time>2024-10-06T02:51:19Z</time>
        <extensions>
          <gpxtpx:TrackPointExtension>
            <gpxtpx:hr>116</gpxtpx:hr>
          </gpxtpx:TrackPointExtension>
        </extensions>
      </trkpt>
      <trkpt lat="38.87367902214304" lon="121.59279043057096">
        <ele>4.6179274478927255</ele>
        <time>2024-10-06T02:51:23Z</time>
        <extensions>
          <gpxtpx:TrackPointExtension>
            <gpxtpx:hr>116</gpxtpx:hr>
          </gpxtpx:TrackPointExtension>
        </extensions>
      </trkpt>
      <trkpt lat="38.873772604926025" lon="121.59247093963515">
        <ele>5.005100505426526</ele>
        <time>2024-10-06T02:51:35Z</time>
        <extensions>
          <gpxtpx:TrackPointExtension>
            <gpxtpx:hr>114</gpxtpx:hr>
          </gpxtpx:TrackPointExtension>
        </extensions>
      </trkpt>
      <trkpt lat="38.873785539668845" lon="121.59228272978636">
        <ele>5.1146491300314665</ele>
        <time>2024-10-06T02:51:43Z</time>
        <extensions>
          <gpxtpx:TrackPointExtension>
            <gpxtpx:hr>121</gpxtpx:hr>
          </gpxtpx:TrackPointExtension>
        </extensions>
      </trkpt>
      <trkpt lat="38.873855668512256" lon="121.592239005725">
        <ele>3.937048887833953</ele>
        <time>2024-10-06T02:51:47Z</time>
        <extensions>
          <gpxtpx:TrackPointExtension>
            <gpxtpx:hr>121</gpxtpx:hr>
          </gpxtpx:TrackPointExtension>
        </extensions>
      </trkpt>
      <trkpt lat="38.87404200733304" lon="121.59216522837407">
        <ele>4.133171417750418</ele>
        <time>2024-10-06T02:51:55Z</time>
        <extensions>
          <gpxtpx:TrackPointExtension>
            <gpxtpx:hr>120</gpxtpx:hr>
          </gpxtpx:TrackPointExtension>
        </extensions>
      </trkpt>
      <trkpt lat="38.87412417578614" lon="121.59210368368983">
        <ele>4.963985826820135</ele>
        <time>2024-10-06T02:51:59Z</time>
        <extensions>
          <gpxtpx:TrackPointExtension>
            <gpxtpx:hr>122</gpxtpx:hr>
          </gpxtpx:TrackPointExtension>
        </extensions>
      </trkpt>
      <trkpt lat="38.874201239144796" lon="121.59207647072914">
        <ele>4.3181079141795635</ele>
        <time>2024-10-06T02:52:03Z</time>
        <extensions>
          <gpxtpx:TrackPointExtension>
            <gpxtpx:hr>122</gpxtpx:hr>
          </gpxtpx:TrackPointExtension>
        </extensions>
      </trkpt>
      <trkpt lat="38.87429171129452" lon="121.59207060569162">
        <ele>3.8887827834114432</ele>
        <time>2024-10-06T02:52:07Z</time>
        <extensions>
          <gpxtpx:TrackPointExtension>
            <gpxtpx:hr>126</gpxtpx:hr>
          </gpxtpx:TrackPointExtension>
        </extensions>
      </trkpt>
      <trkpt lat="38.87437646070098" lon="121.5920362605127">
        <ele>6.750079211778939</ele>
        <time>2024-10-06T02:52:11Z</time>
        <extensions>
          <gpxtpx:TrackPointExtension>
            <gpxtpx:hr>126</gpxtpx:hr>
          </gpxtpx:TrackPointExtension>
        </extensions>
      </trkpt>
      <trkpt lat="38.874582233347674" lon="121.59179323083563">
        <ele>7.505587586201727</ele>
        <time>2024-10-06T02:52:23Z</time>
        <extensions>
          <gpxtpx:TrackPointExtension>
            <gpxtpx:hr>130</gpxtpx:hr>
          </gpxtpx:TrackPointExtension>
        </extensions>
      </trkpt>
      <trkpt lat="38.874625342940924" lon="121.59169761975582">
        <ele>7.501520705409348</ele>
        <time>2024-10-06T02:52:27Z</time>
        <extensions>
          <gpxtpx:TrackPointExtension>
            <gpxtpx:hr>131</gpxtpx:hr>
          </gpxtpx:TrackPointExtension>
        </extensions>
      </trkpt>
      <trkpt lat="38.874702368356374" lon="121.59140593082836">
        <ele>7.228648274205625</ele>
        <time>2024-10-06T02:52:37Z</time>
        <extensions>
          <gpxtpx:TrackPointExtension>
            <gpxtpx:hr>132</gpxtpx:hr>
          </gpxtpx:TrackPointExtension>
        </extensions>
      </trkpt>
      <trkpt lat="38.8746825744319" lon="121.59103910146605">
        <ele>7.178415563888848</ele>
        <time>2024-10-06T02:52:49Z</time>
        <extensions>
          <gpxtpx:TrackPointExtension>
            <gpxtpx:hr>134</gpxtpx:hr>
          </gpxtpx:TrackPointExtension>
        </extensions>
      </trkpt>
      <trkpt lat="38.87464069741566" lon="121.59080095336856">
        <ele>6.15984673332423</ele>
        <time>2024-10-06T02:52:57Z</time>
        <extensions>
          <gpxtpx:TrackPointExtension>
            <gpxtpx:hr>135</gpxtpx:hr>
          </gpxtpx:TrackPointExtension>
        </extensions>
      </trkpt>
      <trkpt lat="38.874561865714256" lon="121.59059836549365">
        <ele>6.253872173838317</ele>
        <time>2024-10-06T02:53:05Z</time>
        <extensions>
          <gpxtpx:TrackPointExtension>
            <gpxtpx:hr>138</gpxtpx:hr>
          </gpxtpx:TrackPointExtension>
        </extensions>
      </trkpt>
      <trkpt lat="38.874495584819236" lon="121.59047915044927">
        <ele>5.336245373822749</ele>
        <time>2024-10-06T02:53:09Z</time>
        <extensions>
          <gpxtpx:TrackPointExtension>
            <gpxtpx:hr>138</gpxtpx:hr>
          </gpxtpx:TrackPointExtension>
        </extensions>
      </trkpt>
      <trkpt lat="38.87423663767258" lon="121.5902186485319">
        <ele>5.268032771535218</ele>
        <time>2024-10-06T02:53:25Z</time>
        <extensions>
          <gpxtpx:TrackPointExtension>
            <gpxtpx:hr>141</gpxtpx:hr>
          </gpxtpx:TrackPointExtension>
        </extensions>
      </trkpt>
      <trkpt lat="38.87403143763956" lon="121.59033623698596">
        <ele>7.08066595159471</ele>
        <time>2024-10-06T02:53:37Z</time>
        <extensions>
          <gpxtpx:TrackPointExtension>
            <gpxtpx:hr>141</gpxtpx:hr>
          </gpxtpx:TrackPointExtension>
        </extensions>
      </trkpt>
      <trkpt lat="38.87400435544033" lon="121.59022280266356">
        <ele>5.197193494997919</ele>
        <time>2024-10-06T02:53:41Z</time>
        <extensions>
          <gpxtpx:TrackPointExtension>
            <gpxtpx:hr>140</gpxtpx:hr>
          </gpxtpx:TrackPointExtension>
        </extensions>
      </trkpt>
      <trkpt lat="38.87405934236745" lon="121.58987648816776">
        <ele>4.744667839258909</ele>
        <time>2024-10-06T02:53:53Z</time>
        <extensions>
          <gpxtpx:TrackPointExtension>
            <gpxtpx:hr>136</gpxtpx:hr>
          </gpxtpx:TrackPointExtension>
        </extensions>
      </trkpt>
      <trkpt lat="38.874038887670245" lon="121.58962854690753">
        <ele>5.745910567231476</ele>
        <time>2024-10-06T02:54:01Z</time>
        <extensions>
          <gpxtpx:TrackPointExtension>
            <gpxtpx:hr>139</gpxtpx:hr>
          </gpxtpx:TrackPointExtension>
        </extensions>
      </trkpt>
      <trkpt lat="38.874060985897344" lon="121.58936518489095">
        <ele>6.105059781111777</ele>
        <time>2024-10-06T02:54:09Z</time>
        <extensions>
          <gpxtpx:TrackPointExtension>
            <gpxtpx:hr>140</gpxtpx:hr>
          </gpxtpx:TrackPointExtension>
        </extensions>
      </trkpt>
      <trkpt lat="38.87404990222889" lon="121.58910980000846">
        <ele>6.272222603671253</ele>
        <time>2024-10-06T02:54:17Z</time>
        <extensions>
          <gpxtpx:TrackPointExtension>
            <gpxtpx:hr>140</gpxtpx:hr>
          </gpxtpx:TrackPointExtension>
        </extensions>
      </trkpt>
      <trkpt lat="38.874080060961255" lon="121.58874813804934">
        <ele>5.149582403711975</ele>
        <time>2024-10-06T02:54:29Z</time>
        <extensions>
          <gpxtpx:TrackPointExtension>
            <gpxtpx:hr>142</gpxtpx:hr>
          </gpxtpx:TrackPointExtension>
        </extensions>
      </trkpt>
      <trkpt lat="38.874094627610965" lon="121.58861598496384">
        <ele>5.93757039308548</ele>
        <time>2024-10-06T02:54:33Z</time>
        <extensions>
          <gpxtpx:TrackPointExtension>
            <gpxtpx:hr>142</gpxtpx:hr>
          </gpxtpx:TrackPointExtension>
        </extensions>
      </trkpt>
      <trkpt lat="38.874095856737554" lon="121.58822777914365">
        <ele>6.397716152481735</ele>
        <time>2024-10-06T02:54:46Z</time>
        <extensions>
          <gpxtpx:TrackPointExtension>
            <gpxtpx:hr>144</gpxtpx:hr>
          </gpxtpx:TrackPointExtension>
        </extensions>
      </trkpt>
      <trkpt lat="38.87408814661494" lon="121.58798187212895">
        <ele>6.4529155706986785</ele>
        <time>2024-10-06T02:54:54Z</time>
        <extensions>
          <gpxtpx:TrackPointExtension>
            <gpxtpx:hr>144</gpxtpx:hr>
          </gpxtpx:TrackPointExtension>
        </extensions>
      </trkpt>
      <trkpt lat="38.87412410144437" lon="121.58785645957774">
        <ele>6.353822990320623</ele>
        <time>2024-10-06T02:54:58Z</time>
        <extensions>
          <gpxtpx:TrackPointExtension>
            <gpxtpx:hr>143</gpxtpx:hr>
          </gpxtpx:TrackPointExtension>
        </extensions>
      </trkpt>
      <trkpt lat="38.87412397166516" lon="121.58736795064922">
        <ele>5.664481559768319</ele>
        <time>2024-10-06T02:55:14Z</time>
        <extensions>
          <gpxtpx:TrackPointExtension>
            <gpxtpx:hr>144</gpxtpx:hr>
          </gpxtpx:TrackPointExtension>
        </extensions>
      </trkpt>
      <trkpt lat="38.874130398558044" lon="121.58713861903158">
        <ele>5.3009537775069475</ele>
        <time>2024-10-06T02:55:22Z</time>
        <extensions>
          <gpxtpx:TrackPointExtension>
            <gpxtpx:hr>145</gpxtpx:hr>
          </gpxtpx:TrackPointExtension>
        </extensions>
      </trkpt>
      <trkpt lat="38.874150590996614" lon="121.58703582952454">
        <ele>5.002843446098268</ele>
        <time>2024-10-06T02:55:26Z</time>
        <extensions>
          <gpxtpx:TrackPointExtension>
            <gpxtpx:hr>146</gpxtpx:hr>
          </gpxtpx:TrackPointExtension>
        </extensions>
      </trkpt>
      <trkpt lat="38.87427917780549" lon="121.58670793702917">
        <ele>4.98659978993237</ele>
        <time>2024-10-06T02:55:38Z</time>
        <extensions>
          <gpxtpx:TrackPointExtension>
            <gpxtpx:hr>145</gpxtpx:hr>
          </gpxtpx:TrackPointExtension>
        </extensions>
      </trkpt>
      <trkpt lat="38.87448114861591" lon="121.58647014118827">
        <ele>4.763336818665266</ele>
        <time>2024-10-06T02:55:50Z</time>
        <extensions>
          <gpxtpx:TrackPointExtension>
            <gpxtpx:hr>147</gpxtpx:hr>
          </gpxtpx:TrackPointExtension>
        </extensions>
      </trkpt>
      <trkpt lat="38.874646570508425" lon="121.58639039240933">
        <ele>2.903562305495143</ele>
        <time>2024-10-06T02:55:58Z</time>
        <extensions>
          <gpxtpx:TrackPointExtension>
            <gpxtpx:hr>147</gpxtpx:hr>
          </gpxtpx:TrackPointExtension>
        </extensions>
      </trkpt>
      <trkpt lat="38.87474818000019" lon="121.58636705324841">
        <ele>4.1866824850440025</ele>
        <time>2024-10-06T02:56:02Z</time>
        <extensions>
          <gpxtpx:TrackPointExtension>
            <gpxtpx:hr>147</gpxtpx:hr>
          </gpxtpx:TrackPointExtension>
        </extensions>
      </trkpt>
      <trkpt lat="38.8748587210771" lon="121.58637625951579">
        <ele>3.525322104804218</ele>
        <time>2024-10-06T02:56:06Z</time>
        <extensions>
          <gpxtpx:TrackPointExtension>
            <gpxtpx:hr>147</gpxtpx:hr>
          </gpxtpx:TrackPointExtension>
        </extensions>
      </trkpt>
      <trkpt lat="38.87494827265525" lon="121.5863598772848">
        <ele>3.973407288081944</ele>
        <time>2024-10-06T02:56:10Z</time>
        <extensions>
          <gpxtpx:TrackPointExtension>
            <gpxtpx:hr>148</gpxtpx:hr>
          </gpxtpx:TrackPointExtension>
        </extensions>
      </trkpt>
      <trkpt lat="38.875040424666764" lon="121.58636920615996">
        <ele>4.132400103844702</ele>
        <time>2024-10-06T02:56:14Z</time>
        <extensions>
          <gpxtpx:TrackPointExtension>
            <gpxtpx:hr>148</gpxtpx:hr>
          </gpxtpx:TrackPointExtension>
        </extensions>
      </trkpt>
      <trkpt lat="38.87522667776131" lon="121.58645114667362">
        <ele>3.9398851078003645</ele>
        <time>2024-10-06T02:56:22Z</time>
        <extensions>
          <gpxtpx:TrackPointExtension>
            <gpxtpx:hr>148</gpxtpx:hr>
          </gpxtpx:TrackPointExtension>
        </extensions>
      </trkpt>
      <trkpt lat="38.875300159856195" lon="121.58650856810547">
        <ele>1.6927750399336219</ele>
        <time>2024-10-06T02:56:26Z</time>
        <extensions>
          <gpxtpx:TrackPointExtension>
            <gpxtpx:hr>149</gpxtpx:hr>
          </gpxtpx:TrackPointExtension>
        </extensions>
      </trkpt>
      <trkpt lat="38.87539492259624" lon="121.58654922040546">
        <ele>2.51172864343971</ele>
        <time>2024-10-06T02:56:30Z</time>
        <extensions>
          <gpxtpx:TrackPointExtension>
            <gpxtpx:hr>149</gpxtpx:hr>
          </gpxtpx:TrackPointExtension>
        </extensions>
      </trkpt>
      <trkpt lat="38.87556332066037" lon="121.58658563345631">
        <ele>3.605209806933999</ele>
        <time>2024-10-06T02:56:38Z</time>
        <extensions>
          <gpxtpx:TrackPointExtension>
            <gpxtpx:hr>148</gpxtpx:hr>
          </gpxtpx:TrackPointExtension>
        </extensions>
      </trkpt>
      <trkpt lat="38.87588279874801" lon="121.58672551824426">
        <ele>4.4597013508901</ele>
        <time>2024-10-06T02:56:52Z</time>
        <extensions>
          <gpxtpx:TrackPointExtension>
            <gpxtpx:hr>151</gpxtpx:hr>
          </gpxtpx:TrackPointExtension>
        </extensions>
      </trkpt>
      <trkpt lat="38.876055467606975" lon="121.5868038788699">
        <ele>4.036503202281892</ele>
        <time>2024-10-06T02:57:00Z</time>
        <extensions>
          <gpxtpx:TrackPointExtension>
            <gpxtpx:hr>151</gpxtpx:hr>
          </gpxtpx:TrackPointExtension>
        </extensions>
      </trkpt>
      <trkpt lat="38.87633841305393" lon="121.58691502534154">
        <ele>4.085178100503981</ele>
        <time>2024-10-06T02:57:12Z</time>
        <extensions>
          <gpxtpx:TrackPointExtension>
            <gpxtpx:hr>151</gpxtpx:hr>
          </gpxtpx:TrackPointExtension>
        </extensions>
      </trkpt>
      <trkpt lat="38.87659387889749" lon="121.58703852682628">
        <ele>4.554612343199551</ele>
        <time>2024-10-06T02:57:24Z</time>
        <extensions>
          <gpxtpx:TrackPointExtension>
            <gpxtpx:hr>152</gpxtpx:hr>
          </gpxtpx:TrackPointExtension>
        </extensions>
      </trkpt>
      <trkpt lat="38.876910655300875" lon="121.58717332518123">
        <ele>4.441507418639958</ele>
        <time>2024-10-06T02:57:40Z</time>
        <extensions>
          <gpxtpx:TrackPointExtension>
            <gpxtpx:hr>151</gpxtpx:hr>
          </gpxtpx:TrackPointExtension>
        </extensions>
      </trkpt>
      <trkpt lat="38.877173713974294" lon="121.58727232514276">
        <ele>5.391863605938852</ele>
        <time>2024-10-06T02:57:52Z</time>
        <extensions>
          <gpxtpx:TrackPointExtension>
            <gpxtpx:hr>151</gpxtpx:hr>
          </gpxtpx:TrackPointExtension>
        </extensions>
      </trkpt>
      <trkpt lat="38.87750390380092" lon="121.58745537812159">
        <ele>4.974030482582748</ele>
        <time>2024-10-06T02:58:08Z</time>
        <extensions>
          <gpxtpx:TrackPointExtension>
            <gpxtpx:hr>151</gpxtpx:hr>
          </gpxtpx:TrackPointExtension>
        </extensions>
      </trkpt>
      <trkpt lat="38.87743031957629" lon="121.58738385520147">
        <ele>3.7196776550263166</ele>
        <time>2024-10-06T02:58:12Z</time>
        <extensions>
          <gpxtpx:TrackPointExtension>
            <gpxtpx:hr>153</gpxtpx:hr>
          </gpxtpx:TrackPointExtension>
        </extensions>
      </trkpt>
      <trkpt lat="38.877150295947835" lon="121.58728010069915">
        <ele>4.6585633447393775</ele>
        <time>2024-10-06T02:58:24Z</time>
        <extensions>
          <gpxtpx:TrackPointExtension>
            <gpxtpx:hr>152</gpxtpx:hr>
          </gpxtpx:TrackPointExtension>
        </extensions>
      </trkpt>
      <trkpt lat="38.876895795428396" lon="121.58714682373477">
        <ele>4.615542184561491</ele>
        <time>2024-10-06T02:58:36Z</time>
        <extensions>
          <gpxtpx:TrackPointExtension>
            <gpxtpx:hr>150</gpxtpx:hr>
          </gpxtpx:TrackPointExtension>
        </extensions>
      </trkpt>
      <trkpt lat="38.87657518512947" lon="121.58704089015606">
        <ele>3.0011772140860558</ele>
        <time>2024-10-06T02:58:51Z</time>
        <extensions>
          <gpxtpx:TrackPointExtension>
            <gpxtpx:hr>149</gpxtpx:hr>
          </gpxtpx:TrackPointExtension>
        </extensions>
      </trkpt>
      <trkpt lat="38.87623107013037" lon="121.586883059556">
        <ele>2.5633090510964394</ele>
        <time>2024-10-06T02:59:06Z</time>
        <extensions>
          <gpxtpx:TrackPointExtension>
            <gpxtpx:hr>149</gpxtpx:hr>
          </gpxtpx:TrackPointExtension>
        </extensions>
      </trkpt>
      <trkpt lat="38.8759650971909" lon="121.58676681077934">
        <ele>2.720363926142454</ele>
        <time>2024-10-06T02:59:18Z</time>
        <extensions>
          <gpxtpx:TrackPointExtension>
            <gpxtpx:hr>150</gpxtpx:hr>
          </gpxtpx:TrackPointExtension>
        </extensions>
      </trkpt>
      <trkpt lat="38.875698405117916" lon="121.58664359510634">
        <ele>3.1197834024205804</ele>
        <time>2024-10-06T02:59:30Z</time>
        <extensions>
          <gpxtpx:TrackPointExtension>
            <gpxtpx:hr>151</gpxtpx:hr>
          </gpxtpx:TrackPointExtension>
        </extensions>
      </trkpt>
      <trkpt lat="38.875371945969164" lon="121.5865518809395">
        <ele>3.0228111622855067</ele>
        <time>2024-10-06T02:59:46Z</time>
        <extensions>
          <gpxtpx:TrackPointExtension>
            <gpxtpx:hr>147</gpxtpx:hr>
          </gpxtpx:TrackPointExtension>
        </extensions>
      </trkpt>
      <trkpt lat="38.87520839256513" lon="121.58647706623161">
        <ele>1.807888763025403</ele>
        <time>2024-10-06T02:59:58Z</time>
        <extensions>
          <gpxtpx:TrackPointExtension>
            <gpxtpx:hr>151</gpxtpx:hr>
          </gpxtpx:TrackPointExtension>
        </extensions>
      </trkpt>
      <trkpt lat="38.87508365609099" lon="121.58635118255013">
        <ele>3.3939018277451396</ele>
        <time>2024-10-06T03:00:10Z</time>
        <extensions>
          <gpxtpx:TrackPointExtension>
            <gpxtpx:hr>140</gpxtpx:hr>
          </gpxtpx:TrackPointExtension>
        </extensions>
      </trkpt>
      <trkpt lat="38.87490478888063" lon="121.58633112169318">
        <ele>4.303330611437559</ele>
        <time>2024-10-06T03:00:18Z</time>
        <extensions>
          <gpxtpx:TrackPointExtension>
            <gpxtpx:hr>139</gpxtpx:hr>
          </gpxtpx:TrackPointExtension>
        </extensions>
      </trkpt>
      <trkpt lat="38.87463539529874" lon="121.58637064293353">
        <ele>4.880722119472921</ele>
        <time>2024-10-06T03:00:30Z</time>
        <extensions>
          <gpxtpx:TrackPointExtension>
            <gpxtpx:hr>141</gpxtpx:hr>
          </gpxtpx:TrackPointExtension>
        </extensions>
      </trkpt>
      <trkpt lat="38.87440550368404" lon="121.58653346819611">
        <ele>5.2357239397242665</ele>
        <time>2024-10-06T03:00:42Z</time>
        <extensions>
          <gpxtpx:TrackPointExtension>
            <gpxtpx:hr>142</gpxtpx:hr>
          </gpxtpx:TrackPointExtension>
        </extensions>
      </trkpt>
      <trkpt lat="38.87429115557216" lon="121.58669597927785">
        <ele>5.905360629782081</ele>
        <time>2024-10-06T03:00:50Z</time>
        <extensions>
          <gpxtpx:TrackPointExtension>
            <gpxtpx:hr>143</gpxtpx:hr>
          </gpxtpx:TrackPointExtension>
        </extensions>
      </trkpt>
      <trkpt lat="38.87417891150256" lon="121.58697412743778">
        <ele>5.8338750107213855</ele>
        <time>2024-10-06T03:01:01Z</time>
        <extensions>
          <gpxtpx:TrackPointExtension>
            <gpxtpx:hr>142</gpxtpx:hr>
          </gpxtpx:TrackPointExtension>
        </extensions>
      </trkpt>
      <trkpt lat="38.8741278203228" lon="121.58732525579019">
        <ele>5.4609584948048</ele>
        <time>2024-10-06T03:01:13Z</time>
        <extensions>
          <gpxtpx:TrackPointExtension>
            <gpxtpx:hr>143</gpxtpx:hr>
          </gpxtpx:TrackPointExtension>
        </extensions>
      </trkpt>
      <trkpt lat="38.874127564277984" lon="121.58769351761879">
        <ele>6.184384474530816</ele>
        <time>2024-10-06T03:01:25Z</time>
        <extensions>
          <gpxtpx:TrackPointExtension>
            <gpxtpx:hr>146</gpxtpx:hr>
          </gpxtpx:TrackPointExtension>
        </extensions>
      </trkpt>
      <trkpt lat="38.8741409213071" lon="121.58783591445672">
        <ele>5.247889663092792</ele>
        <time>2024-10-06T03:01:29Z</time>
        <extensions>
          <gpxtpx:TrackPointExtension>
            <gpxtpx:hr>146</gpxtpx:hr>
          </gpxtpx:TrackPointExtension>
        </extensions>
      </trkpt>
      <trkpt lat="38.87410591494027" lon="121.58820740173583">
        <ele>6.619692468084395</ele>
        <time>2024-10-06T03:01:41Z</time>
        <extensions>
          <gpxtpx:TrackPointExtension>
            <gpxtpx:hr>147</gpxtpx:hr>
          </gpxtpx:TrackPointExtension>
        </extensions>
      </trkpt>
      <trkpt lat="38.87410290077208" lon="121.58858459238256">
        <ele>5.710916706360877</ele>
        <time>2024-10-06T03:01:53Z</time>
        <extensions>
          <gpxtpx:TrackPointExtension>
            <gpxtpx:hr>148</gpxtpx:hr>
          </gpxtpx:TrackPointExtension>
        </extensions>
      </trkpt>
      <trkpt lat="38.87409300982107" lon="121.58882719389591">
        <ele>5.906078181229532</ele>
        <time>2024-10-06T03:02:01Z</time>
        <extensions>
          <gpxtpx:TrackPointExtension>
            <gpxtpx:hr>150</gpxtpx:hr>
          </gpxtpx:TrackPointExtension>
        </extensions>
      </trkpt>
      <trkpt lat="38.87405705774459" lon="121.58919886211609">
        <ele>6.464651321992278</ele>
        <time>2024-10-06T03:02:13Z</time>
        <extensions>
          <gpxtpx:TrackPointExtension>
            <gpxtpx:hr>150</gpxtpx:hr>
          </gpxtpx:TrackPointExtension>
        </extensions>
      </trkpt>
      <trkpt lat="38.874057615792594" lon="121.58945356928615">
        <ele>7.62711638957262</ele>
        <time>2024-10-06T03:02:21Z</time>
        <extensions>
          <gpxtpx:TrackPointExtension>
            <gpxtpx:hr>151</gpxtpx:hr>
          </gpxtpx:TrackPointExtension>
        </extensions>
      </trkpt>
      <trkpt lat="38.874057615792594" lon="121.58945356928615">
        <ele>7.62711638957262</ele>
        <time>2024-10-06T03:02:26Z</time>
        <extensions>
          <gpxtpx:TrackPointExtension>
            <gpxtpx:hr>152</gpxtpx:hr>
          </gpxtpx:TrackPointExtension>
        </extensions>
      </trkpt>
    </trkseg>
  </trk>
</gpx>