<?xml version="1.0" encoding="UTF-8"?>
<gpx xmlns="http://www.topografix.com/GPX/1/1" xmlns:gpxtpx="http://www.garmin.com/xmlschemas/TrackPointExtension/v1" xmlns:xsi="http://www.w3.org/2001/XMLSchema-instance" xsi:schemaLocation="http://www.topografix.com/GPX/1/1 http://www.topografix.com/GPX/1/1/gpx.xsd" version="1.1" creator="gpx.py -- https://github.com/tkrajina/gpxpy">
  <trk>
    <name>gpx from keep</name>
    <type>Run</type>
    <trkseg>
      <trkpt lat="38.83798677126338" lon="121.50492411408686">
        <ele>9.715118378420257</ele>
        <time>2025-08-12T15:13:32Z</time>
      </trkpt>
      <trkpt lat="38.83807343802736" lon="121.50488935728193">
        <ele>9.75261219901435</ele>
        <time>2025-08-12T15:13:35Z</time>
      </trkpt>
      <trkpt lat="38.83813600883769" lon="121.50492264726601">
        <ele>9.818909767814397</ele>
        <time>2025-08-12T15:13:39Z</time>
      </trkpt>
      <trkpt lat="38.8381241129557" lon="121.50503157082557">
        <ele>9.941398588940501</ele>
        <time>2025-08-12T15:13:43Z</time>
      </trkpt>
      <trkpt lat="38.83813161972151" lon="121.5051946966671">
        <ele>10.090046416036785</ele>
        <time>2025-08-12T15:13:49Z</time>
      </trkpt>
      <trkpt lat="38.83798526782393" lon="121.50531604535402">
        <ele>10.210890487767756</ele>
        <time>2025-08-12T15:13:55Z</time>
      </trkpt>
      <trkpt lat="38.83793742079641" lon="121.50538314117155">
        <ele>10.164011960849166</ele>
        <time>2025-08-12T15:13:58Z</time>
      </trkpt>
      <trkpt lat="38.83791348433697" lon="121.50546009423451">
        <ele>10.719732214696705</ele>
        <time>2025-08-12T15:14:04Z</time>
      </trkpt>
      <trkpt lat="38.83771660033475" lon="121.50576516599423">
        <ele>11.420834343880415</ele>
        <time>2025-08-12T15:14:19Z</time>
      </trkpt>
      <trkpt lat="38.83752597591127" lon="121.50603686848297">
        <ele>11.30107559915632</ele>
        <time>2025-08-12T15:14:34Z</time>
      </trkpt>
      <trkpt lat="38.83747730465161" lon="121.50616753076545">
        <ele>11.297204977832735</ele>
        <time>2025-08-12T15:14:40Z</time>
      </trkpt>
      <trkpt lat="38.837404360053604" lon="121.50619774102816">
        <ele>10.326385367661715</ele>
        <time>2025-08-12T15:14:43Z</time>
      </trkpt>
      <trkpt lat="38.83732294661769" lon="121.50640823375964">
        <ele>11.190810848027468</ele>
        <time>2025-08-12T15:14:52Z</time>
      </trkpt>
      <trkpt lat="38.837279250635504" lon="121.50644656949052">
        <ele>11.363386103883386</ele>
        <time>2025-08-12T15:14:55Z</time>
      </trkpt>
      <trkpt lat="38.83721136067005" lon="121.50657651589736">
        <ele>11.622641905210912</ele>
        <time>2025-08-12T15:15:01Z</time>
      </trkpt>
      <trkpt lat="38.83712943167046" lon="121.50667460270321">
        <ele>11.420759502798319</ele>
        <time>2025-08-12T15:15:07Z</time>
      </trkpt>
      <trkpt lat="38.83698336836451" lon="121.50698434997402">
        <ele>10.84884767793119</ele>
        <time>2025-08-12T15:15:22Z</time>
      </trkpt>
      <trkpt lat="38.83691465982668" lon="121.50711934143148">
        <ele>10.60129368212074</ele>
        <time>2025-08-12T15:15:28Z</time>
      </trkpt>
      <trkpt lat="38.83684463543307" lon="121.5071516586713">
        <ele>10.124574169516563</ele>
        <time>2025-08-12T15:15:31Z</time>
      </trkpt>
      <trkpt lat="38.83676077298484" lon="121.50727692713976">
        <ele>10.351791957393289</ele>
        <time>2025-08-12T15:15:37Z</time>
      </trkpt>
      <trkpt lat="38.836766161550784" lon="121.50735555919587">
        <ele>10.924106949009001</ele>
        <time>2025-08-12T15:15:40Z</time>
      </trkpt>
      <trkpt lat="38.83683701948204" lon="121.50751197221173">
        <ele>10.972263648174703</ele>
        <time>2025-08-12T15:15:48Z</time>
      </trkpt>
      <trkpt lat="38.83708427528002" lon="121.50777624768332">
        <ele>11.123991491273046</ele>
        <time>2025-08-12T15:16:04Z</time>
      </trkpt>
      <trkpt lat="38.837274817717905" lon="121.50798978996916">
        <ele>11.264590094797313</ele>
        <time>2025-08-12T15:16:16Z</time>
      </trkpt>
      <trkpt lat="38.83752645456834" lon="121.50820844650815">
        <ele>11.662033755332232</ele>
        <time>2025-08-12T15:16:31Z</time>
      </trkpt>
      <trkpt lat="38.83762000848658" lon="121.50828729993536">
        <ele>11.599394322372973</ele>
        <time>2025-08-12T15:16:37Z</time>
      </trkpt>
      <trkpt lat="38.8376444089153" lon="121.50835330874186">
        <ele>12.057003791444004</ele>
        <time>2025-08-12T15:16:40Z</time>
      </trkpt>
      <trkpt lat="38.83756301732269" lon="121.50864536073384">
        <ele>11.069034459069371</ele>
        <time>2025-08-12T15:16:52Z</time>
      </trkpt>
      <trkpt lat="38.837492228521434" lon="121.50886436640474">
        <ele>11.12100983131677</ele>
        <time>2025-08-12T15:17:01Z</time>
      </trkpt>
      <trkpt lat="38.83745035666035" lon="121.50893569070354">
        <ele>11.326367232948542</ele>
        <time>2025-08-12T15:17:04Z</time>
      </trkpt>
      <trkpt lat="38.8372912339318" lon="121.50908760924797">
        <ele>11.232546385377645</ele>
        <time>2025-08-12T15:17:13Z</time>
      </trkpt>
      <trkpt lat="38.83721764798283" lon="121.50911589204912">
        <ele>10.92636486981064</ele>
        <time>2025-08-12T15:17:16Z</time>
      </trkpt>
      <trkpt lat="38.83707247149815" lon="121.5092761712726">
        <ele>11.517177302390337</ele>
        <time>2025-08-12T15:17:25Z</time>
      </trkpt>
      <trkpt lat="38.836987064956446" lon="121.5095875144398">
        <ele>9.86980938538909</ele>
        <time>2025-08-12T15:17:37Z</time>
      </trkpt>
      <trkpt lat="38.83689925029728" lon="121.50971203318633">
        <ele>9.807072762399912</ele>
        <time>2025-08-12T15:17:43Z</time>
      </trkpt>
      <trkpt lat="38.83691117851928" lon="121.50977821040523">
        <ele>9.74613696988672</ele>
        <time>2025-08-12T15:17:50Z</time>
      </trkpt>
      <trkpt lat="38.83685745524453" lon="121.50984895483427">
        <ele>9.5798394177109</ele>
        <time>2025-08-12T15:17:54Z</time>
      </trkpt>
      <trkpt lat="38.83669860792988" lon="121.50992444817184">
        <ele>9.065491238608956</ele>
        <time>2025-08-12T15:18:02Z</time>
      </trkpt>
      <trkpt lat="38.83644100660253" lon="121.50994314999386">
        <ele>8.44819793663919</ele>
        <time>2025-08-12T15:18:14Z</time>
      </trkpt>
      <trkpt lat="38.836201272121464" lon="121.51002468838219">
        <ele>8.930947256274521</ele>
        <time>2025-08-12T15:18:30Z</time>
      </trkpt>
      <trkpt lat="38.83612658202019" lon="121.51006974991822">
        <ele>8.642163128592074</ele>
        <time>2025-08-12T15:18:34Z</time>
      </trkpt>
      <trkpt lat="38.83608253672176" lon="121.51016232395853">
        <ele>9.066278906539083</ele>
        <time>2025-08-12T15:18:38Z</time>
      </trkpt>
      <trkpt lat="38.8362198777232" lon="121.51044610620237">
        <ele>7.87631072755903</ele>
        <time>2025-08-12T15:18:50Z</time>
      </trkpt>
      <trkpt lat="38.836250104281405" lon="121.5105577026358">
        <ele>8.614292270503938</ele>
        <time>2025-08-12T15:18:54Z</time>
      </trkpt>
      <trkpt lat="38.836234542210676" lon="121.51077856138714">
        <ele>8.78749091271311</ele>
        <time>2025-08-12T15:19:02Z</time>
      </trkpt>
      <trkpt lat="38.83619666151418" lon="121.51088679231886">
        <ele>7.792085659690201</ele>
        <time>2025-08-12T15:19:06Z</time>
      </trkpt>
      <trkpt lat="38.83606290060606" lon="121.51112680576023">
        <ele>7.387392615899444</ele>
        <time>2025-08-12T15:19:16Z</time>
      </trkpt>
      <trkpt lat="38.83599372361981" lon="121.51131841697739">
        <ele>6.6561603946611285</ele>
        <time>2025-08-12T15:19:23Z</time>
      </trkpt>
      <trkpt lat="38.835986632933334" lon="121.51149437942857">
        <ele>6.413342103362083</ele>
        <time>2025-08-12T15:19:29Z</time>
      </trkpt>
      <trkpt lat="38.83605263253857" lon="121.5117398985901">
        <ele>5.460946844890714</ele>
        <time>2025-08-12T15:19:38Z</time>
      </trkpt>
      <trkpt lat="38.83616783086674" lon="121.51186954852373">
        <ele>5.0480323769152164</ele>
        <time>2025-08-12T15:19:45Z</time>
      </trkpt>
      <trkpt lat="38.83629469425942" lon="121.51192719447663">
        <ele>5.042704877443612</ele>
        <time>2025-08-12T15:19:51Z</time>
      </trkpt>
      <trkpt lat="38.83645344813753" lon="121.51190624349996">
        <ele>5.372659219428897</ele>
        <time>2025-08-12T15:19:58Z</time>
      </trkpt>
      <trkpt lat="38.83672007684946" lon="121.51179126668885">
        <ele>6.148134174756706</ele>
        <time>2025-08-12T15:20:10Z</time>
      </trkpt>
      <trkpt lat="38.83679943335967" lon="121.51173092916183">
        <ele>7.057644912973046</ele>
        <time>2025-08-12T15:20:14Z</time>
      </trkpt>
      <trkpt lat="38.83702059205752" lon="121.51139540267904">
        <ele>7.578808905556798</ele>
        <time>2025-08-12T15:20:30Z</time>
      </trkpt>
      <trkpt lat="38.837081111855596" lon="121.5113146537169">
        <ele>7.572110331617296</ele>
        <time>2025-08-12T15:20:34Z</time>
      </trkpt>
      <trkpt lat="38.837126146316976" lon="121.51098932641405">
        <ele>7.178079848177731</ele>
        <time>2025-08-12T15:20:46Z</time>
      </trkpt>
      <trkpt lat="38.837201996567764" lon="121.51078359803638">
        <ele>8.80382668133825</ele>
        <time>2025-08-12T15:20:54Z</time>
      </trkpt>
      <trkpt lat="38.83730837967812" lon="121.51061040608714">
        <ele>8.235242741182446</ele>
        <time>2025-08-12T15:21:02Z</time>
      </trkpt>
      <trkpt lat="38.8375057479802" lon="121.51040347224945">
        <ele>9.690343662165105</ele>
        <time>2025-08-12T15:21:14Z</time>
      </trkpt>
      <trkpt lat="38.8377332431003" lon="121.51021509861458">
        <ele>9.990788524970412</ele>
        <time>2025-08-12T15:21:26Z</time>
      </trkpt>
      <trkpt lat="38.83779731604542" lon="121.51011880182784">
        <ele>9.706702281720936</ele>
        <time>2025-08-12T15:21:30Z</time>
      </trkpt>
      <trkpt lat="38.83780811277894" lon="121.51001200077016">
        <ele>10.201535894535482</ele>
        <time>2025-08-12T15:21:34Z</time>
      </trkpt>
      <trkpt lat="38.83784611372438" lon="121.50993831060775">
        <ele>9.825344303622842</ele>
        <time>2025-08-12T15:21:38Z</time>
      </trkpt>
      <trkpt lat="38.8379210038493" lon="121.50988922067945">
        <ele>9.882208456285298</ele>
        <time>2025-08-12T15:21:42Z</time>
      </trkpt>
      <trkpt lat="38.83810742834974" lon="121.50953038514884">
        <ele>10.896019728854299</ele>
        <time>2025-08-12T15:21:58Z</time>
      </trkpt>
      <trkpt lat="38.838300040099355" lon="121.50932820618611">
        <ele>11.85337483882904</ele>
        <time>2025-08-12T15:22:09Z</time>
      </trkpt>
      <trkpt lat="38.83847497340112" lon="121.50924119418262">
        <ele>11.000396519899368</ele>
        <time>2025-08-12T15:22:17Z</time>
      </trkpt>
      <trkpt lat="38.83843657569638" lon="121.50913021124312">
        <ele>10.717966778203845</ele>
        <time>2025-08-12T15:22:21Z</time>
      </trkpt>
      <trkpt lat="38.838140834669346" lon="121.50880114596478">
        <ele>10.579461311921477</ele>
        <time>2025-08-12T15:22:33Z</time>
      </trkpt>
      <trkpt lat="38.83787999808752" lon="121.50855484201277">
        <ele>11.138503995724022</ele>
        <time>2025-08-12T15:22:45Z</time>
      </trkpt>
      <trkpt lat="38.837794829886136" lon="121.5084894741862">
        <ele>11.544466817751527</ele>
        <time>2025-08-12T15:22:49Z</time>
      </trkpt>
      <trkpt lat="38.837702002948966" lon="121.5084572544442">
        <ele>11.361207644455135</ele>
        <time>2025-08-12T15:22:53Z</time>
      </trkpt>
      <trkpt lat="38.83762423831984" lon="121.50852167901913">
        <ele>11.542530795559287</ele>
        <time>2025-08-12T15:22:57Z</time>
      </trkpt>
      <trkpt lat="38.83758974236619" lon="121.50863721370234">
        <ele>11.146386777982116</ele>
        <time>2025-08-12T15:23:01Z</time>
      </trkpt>
      <trkpt lat="38.83748390491558" lon="121.50882957393885">
        <ele>10.562637813389301</ele>
        <time>2025-08-12T15:23:09Z</time>
      </trkpt>
      <trkpt lat="38.837407552239405" lon="121.50892192446442">
        <ele>10.120986189693213</ele>
        <time>2025-08-12T15:23:13Z</time>
      </trkpt>
      <trkpt lat="38.83717569137323" lon="121.50913290963359">
        <ele>10.487187669612467</ele>
        <time>2025-08-12T15:23:25Z</time>
      </trkpt>
      <trkpt lat="38.83710478190299" lon="121.50922924863276">
        <ele>10.250676012597978</ele>
        <time>2025-08-12T15:23:29Z</time>
      </trkpt>
      <trkpt lat="38.83697882159796" lon="121.50954216417644">
        <ele>9.745419052429497</ele>
        <time>2025-08-12T15:23:41Z</time>
      </trkpt>
      <trkpt lat="38.836832254201724" lon="121.50981586464322">
        <ele>9.844742516055703</ele>
        <time>2025-08-12T15:23:53Z</time>
      </trkpt>
      <trkpt lat="38.83674568150703" lon="121.509867266063">
        <ele>9.110655128955841</ele>
        <time>2025-08-12T15:23:57Z</time>
      </trkpt>
      <trkpt lat="38.83641093983284" lon="121.50992587903058">
        <ele>8.8637320343405</ele>
        <time>2025-08-12T15:24:12Z</time>
      </trkpt>
      <trkpt lat="38.83614779096788" lon="121.51004310312052">
        <ele>8.513845779933035</ele>
        <time>2025-08-12T15:24:24Z</time>
      </trkpt>
      <trkpt lat="38.8360791866818" lon="121.51012175782729">
        <ele>8.413804901763797</ele>
        <time>2025-08-12T15:24:28Z</time>
      </trkpt>
      <trkpt lat="38.8362261835927" lon="121.51043682465746">
        <ele>8.549639677628875</ele>
        <time>2025-08-12T15:24:40Z</time>
      </trkpt>
      <trkpt lat="38.83625354666836" lon="121.51054768993896">
        <ele>8.781839785166085</ele>
        <time>2025-08-12T15:24:44Z</time>
      </trkpt>
      <trkpt lat="38.83621751046556" lon="121.51077792017504">
        <ele>8.696078139357269</ele>
        <time>2025-08-12T15:24:52Z</time>
      </trkpt>
      <trkpt lat="38.836063651023146" lon="121.51112743426464">
        <ele>6.734352736733854</ele>
        <time>2025-08-12T15:25:04Z</time>
      </trkpt>
      <trkpt lat="38.835993464164495" lon="121.51135163021782">
        <ele>6.80302457138896</ele>
        <time>2025-08-12T15:25:12Z</time>
      </trkpt>
      <trkpt lat="38.83598776877276" lon="121.511474284219">
        <ele>6.3788967579603195</ele>
        <time>2025-08-12T15:25:16Z</time>
      </trkpt>
      <trkpt lat="38.8360413320835" lon="121.51170413022447">
        <ele>5.523173567838967</ele>
        <time>2025-08-12T15:25:24Z</time>
      </trkpt>
      <trkpt lat="38.83609459741004" lon="121.51180291334906">
        <ele>5.301487944088876</ele>
        <time>2025-08-12T15:25:28Z</time>
      </trkpt>
      <trkpt lat="38.836177812030364" lon="121.51187523475184">
        <ele>5.353018080815673</ele>
        <time>2025-08-12T15:25:32Z</time>
      </trkpt>
      <trkpt lat="38.83637031572705" lon="121.5119037179188">
        <ele>5.044722066260874</ele>
        <time>2025-08-12T15:25:40Z</time>
      </trkpt>
      <trkpt lat="38.836628551410904" lon="121.5117958008633">
        <ele>5.228362019173801</ele>
        <time>2025-08-12T15:25:52Z</time>
      </trkpt>
      <trkpt lat="38.836872610496314" lon="121.51156654463621">
        <ele>6.9863402005285025</ele>
        <time>2025-08-12T15:26:04Z</time>
      </trkpt>
      <trkpt lat="38.83707962563139" lon="121.51124152293986">
        <ele>7.669220097362995</ele>
        <time>2025-08-12T15:26:19Z</time>
      </trkpt>
      <trkpt lat="38.83711742585799" lon="121.51098458900178">
        <ele>7.6574693731963634</ele>
        <time>2025-08-12T15:26:27Z</time>
      </trkpt>
      <trkpt lat="38.837213777094895" lon="121.51077553792008">
        <ele>7.858208185061812</ele>
        <time>2025-08-12T15:26:35Z</time>
      </trkpt>
      <trkpt lat="38.83732430666721" lon="121.5106139466177">
        <ele>7.835421012714505</ele>
        <time>2025-08-12T15:26:43Z</time>
      </trkpt>
      <trkpt lat="38.83746028617847" lon="121.51047153149756">
        <ele>8.827489929273725</ele>
        <time>2025-08-12T15:26:51Z</time>
      </trkpt>
      <trkpt lat="38.837610661010224" lon="121.5103395520527">
        <ele>9.538068430498242</ele>
        <time>2025-08-12T15:26:59Z</time>
      </trkpt>
      <trkpt lat="38.83770141330076" lon="121.51028789797154">
        <ele>9.191538216546178</ele>
        <time>2025-08-12T15:27:03Z</time>
      </trkpt>
      <trkpt lat="38.83780782404636" lon="121.51009030255355">
        <ele>10.534014259465039</ele>
        <time>2025-08-12T15:27:11Z</time>
      </trkpt>
      <trkpt lat="38.837827431346106" lon="121.50998846019067">
        <ele>9.859325825236738</ele>
        <time>2025-08-12T15:27:15Z</time>
      </trkpt>
      <trkpt lat="38.8379068685545" lon="121.50993595220247">
        <ele>9.709948400966823</ele>
        <time>2025-08-12T15:27:19Z</time>
      </trkpt>
      <trkpt lat="38.83796263273065" lon="121.50985282437544">
        <ele>10.033241144381464</ele>
        <time>2025-08-12T15:27:23Z</time>
      </trkpt>
      <trkpt lat="38.83800182571569" lon="121.50960749708189">
        <ele>10.7614506483078</ele>
        <time>2025-08-12T15:27:35Z</time>
      </trkpt>
    </trkseg>
  </trk>
</gpx>