<?xml version="1.0" encoding="UTF-8"?>
<gpx xmlns="http://www.topografix.com/GPX/1/1" xmlns:gpxtpx="http://www.garmin.com/xmlschemas/TrackPointExtension/v1" xmlns:xsi="http://www.w3.org/2001/XMLSchema-instance" xsi:schemaLocation="http://www.topografix.com/GPX/1/1 http://www.topografix.com/GPX/1/1/gpx.xsd" version="1.1" creator="gpx.py -- https://github.com/tkrajina/gpxpy">
  <trk>
    <name>gpx from keep</name>
    <type>Run</type>
    <trkseg>
      <trkpt lat="38.837911605234055" lon="121.50471880395288">
        <ele>8.99803876876831</ele>
        <time>2024-12-15T15:35:29Z</time>
        <extensions>
          <gpxtpx:TrackPointExtension>
            <gpxtpx:hr>70</gpxtpx:hr>
          </gpxtpx:TrackPointExtension>
        </extensions>
      </trkpt>
      <trkpt lat="38.837968395006904" lon="121.50485739781001">
        <ele>12.89586591720581</ele>
        <time>2024-12-15T15:35:35Z</time>
        <extensions>
          <gpxtpx:TrackPointExtension>
            <gpxtpx:hr>70</gpxtpx:hr>
          </gpxtpx:TrackPointExtension>
        </extensions>
      </trkpt>
      <trkpt lat="38.83782865053848" lon="121.50488366581455">
        <ele>6.948051490820944</ele>
        <time>2024-12-15T15:35:39Z</time>
        <extensions>
          <gpxtpx:TrackPointExtension>
            <gpxtpx:hr>70</gpxtpx:hr>
          </gpxtpx:TrackPointExtension>
        </extensions>
      </trkpt>
      <trkpt lat="38.837916422649926" lon="121.50508745478407">
        <ele>10.847953812219203</ele>
        <time>2024-12-15T15:35:47Z</time>
        <extensions>
          <gpxtpx:TrackPointExtension>
            <gpxtpx:hr>70</gpxtpx:hr>
          </gpxtpx:TrackPointExtension>
        </extensions>
      </trkpt>
      <trkpt lat="38.83801476995092" lon="121.50520379903047">
        <ele>11.240287785418332</ele>
        <time>2024-12-15T15:35:53Z</time>
      </trkpt>
      <trkpt lat="38.838113133292076" lon="121.5052777306313">
        <ele>10.969435622915626</ele>
        <time>2024-12-15T15:35:57Z</time>
      </trkpt>
      <trkpt lat="38.83832677991705" lon="121.50550089849175">
        <ele>11.621788525953889</ele>
        <time>2024-12-15T15:36:08Z</time>
        <extensions>
          <gpxtpx:TrackPointExtension>
            <gpxtpx:hr>125</gpxtpx:hr>
          </gpxtpx:TrackPointExtension>
        </extensions>
      </trkpt>
      <trkpt lat="38.83845482046907" lon="121.5055951519537">
        <ele>11.940464810468256</ele>
        <time>2024-12-15T15:36:15Z</time>
        <extensions>
          <gpxtpx:TrackPointExtension>
            <gpxtpx:hr>125</gpxtpx:hr>
          </gpxtpx:TrackPointExtension>
        </extensions>
      </trkpt>
      <trkpt lat="38.838491494788755" lon="121.50567460510324">
        <ele>11.332436040975153</ele>
        <time>2024-12-15T15:36:18Z</time>
        <extensions>
          <gpxtpx:TrackPointExtension>
            <gpxtpx:hr>124</gpxtpx:hr>
          </gpxtpx:TrackPointExtension>
        </extensions>
      </trkpt>
      <trkpt lat="38.83865234918439" lon="121.50583171649018">
        <ele>12.519053207710385</ele>
        <time>2024-12-15T15:36:26Z</time>
        <extensions>
          <gpxtpx:TrackPointExtension>
            <gpxtpx:hr>125</gpxtpx:hr>
          </gpxtpx:TrackPointExtension>
        </extensions>
      </trkpt>
      <trkpt lat="38.83871401341751" lon="121.505864860552">
        <ele>11.379483764991164</ele>
        <time>2024-12-15T15:36:29Z</time>
        <extensions>
          <gpxtpx:TrackPointExtension>
            <gpxtpx:hr>122</gpxtpx:hr>
          </gpxtpx:TrackPointExtension>
        </extensions>
      </trkpt>
      <trkpt lat="38.83879614645836" lon="121.50596145716266">
        <ele>12.514072354882956</ele>
        <time>2024-12-15T15:36:33Z</time>
        <extensions>
          <gpxtpx:TrackPointExtension>
            <gpxtpx:hr>122</gpxtpx:hr>
          </gpxtpx:TrackPointExtension>
        </extensions>
      </trkpt>
      <trkpt lat="38.83884556765499" lon="121.50604726777253">
        <ele>13.046076000668108</ele>
        <time>2024-12-15T15:36:37Z</time>
        <extensions>
          <gpxtpx:TrackPointExtension>
            <gpxtpx:hr>122</gpxtpx:hr>
          </gpxtpx:TrackPointExtension>
        </extensions>
      </trkpt>
      <trkpt lat="38.838587049080935" lon="121.50629067384418">
        <ele>13.36906864773482</ele>
        <time>2024-12-15T15:36:51Z</time>
        <extensions>
          <gpxtpx:TrackPointExtension>
            <gpxtpx:hr>125</gpxtpx:hr>
          </gpxtpx:TrackPointExtension>
        </extensions>
      </trkpt>
      <trkpt lat="38.838440145838526" lon="121.50647166269765">
        <ele>13.159581752493978</ele>
        <time>2024-12-15T15:36:59Z</time>
        <extensions>
          <gpxtpx:TrackPointExtension>
            <gpxtpx:hr>125</gpxtpx:hr>
          </gpxtpx:TrackPointExtension>
        </extensions>
      </trkpt>
      <trkpt lat="38.838400563846186" lon="121.50672846931236">
        <ele>12.328670273534954</ele>
        <time>2024-12-15T15:37:07Z</time>
        <extensions>
          <gpxtpx:TrackPointExtension>
            <gpxtpx:hr>122</gpxtpx:hr>
          </gpxtpx:TrackPointExtension>
        </extensions>
      </trkpt>
      <trkpt lat="38.83827155433667" lon="121.50694722315178">
        <ele>11.322740509174764</ele>
        <time>2024-12-15T15:37:15Z</time>
        <extensions>
          <gpxtpx:TrackPointExtension>
            <gpxtpx:hr>122</gpxtpx:hr>
          </gpxtpx:TrackPointExtension>
        </extensions>
      </trkpt>
      <trkpt lat="38.83825601640772" lon="121.50703545502857">
        <ele>11.009276060387492</ele>
        <time>2024-12-15T15:37:19Z</time>
        <extensions>
          <gpxtpx:TrackPointExtension>
            <gpxtpx:hr>122</gpxtpx:hr>
          </gpxtpx:TrackPointExtension>
        </extensions>
      </trkpt>
      <trkpt lat="38.838061772537515" lon="121.50734879091787">
        <ele>11.40664952993393</ele>
        <time>2024-12-15T15:37:31Z</time>
      </trkpt>
      <trkpt lat="38.83801004170294" lon="121.50746772555729">
        <ele>10.107055190950632</ele>
        <time>2024-12-15T15:37:35Z</time>
      </trkpt>
      <trkpt lat="38.83783273463259" lon="121.50775220868323">
        <ele>10.407772877253592</ele>
        <time>2024-12-15T15:37:47Z</time>
      </trkpt>
      <trkpt lat="38.83778612947908" lon="121.50784464711703">
        <ele>11.32198120560497</ele>
        <time>2024-12-15T15:37:50Z</time>
      </trkpt>
      <trkpt lat="38.83772379838051" lon="121.50792473910705">
        <ele>10.817353918217123</ele>
        <time>2024-12-15T15:37:53Z</time>
      </trkpt>
      <trkpt lat="38.8376954695067" lon="121.5079970867962">
        <ele>10.595692575909197</ele>
        <time>2024-12-15T15:37:56Z</time>
        <extensions>
          <gpxtpx:TrackPointExtension>
            <gpxtpx:hr>130</gpxtpx:hr>
          </gpxtpx:TrackPointExtension>
        </extensions>
      </trkpt>
      <trkpt lat="38.8376329271639" lon="121.5080200701896">
        <ele>12.759988086298108</ele>
        <time>2024-12-15T15:37:59Z</time>
        <extensions>
          <gpxtpx:TrackPointExtension>
            <gpxtpx:hr>130</gpxtpx:hr>
          </gpxtpx:TrackPointExtension>
        </extensions>
      </trkpt>
      <trkpt lat="38.837590952033395" lon="121.508091698739">
        <ele>11.143872349523008</ele>
        <time>2024-12-15T15:38:05Z</time>
        <extensions>
          <gpxtpx:TrackPointExtension>
            <gpxtpx:hr>130</gpxtpx:hr>
          </gpxtpx:TrackPointExtension>
        </extensions>
      </trkpt>
      <trkpt lat="38.83757684703319" lon="121.50820377595754">
        <ele>9.823548786342144</ele>
        <time>2024-12-15T15:38:08Z</time>
        <extensions>
          <gpxtpx:TrackPointExtension>
            <gpxtpx:hr>130</gpxtpx:hr>
          </gpxtpx:TrackPointExtension>
        </extensions>
      </trkpt>
      <trkpt lat="38.837601326172404" lon="121.50830089347383">
        <ele>12.15200818516314</ele>
        <time>2024-12-15T15:38:11Z</time>
        <extensions>
          <gpxtpx:TrackPointExtension>
            <gpxtpx:hr>135</gpxtpx:hr>
          </gpxtpx:TrackPointExtension>
        </extensions>
      </trkpt>
      <trkpt lat="38.83764474527546" lon="121.5083732940032">
        <ele>13.291331804357469</ele>
        <time>2024-12-15T15:38:14Z</time>
        <extensions>
          <gpxtpx:TrackPointExtension>
            <gpxtpx:hr>135</gpxtpx:hr>
          </gpxtpx:TrackPointExtension>
        </extensions>
      </trkpt>
      <trkpt lat="38.83758293734885" lon="121.50855061650545">
        <ele>11.001179742626846</ele>
        <time>2024-12-15T15:38:20Z</time>
        <extensions>
          <gpxtpx:TrackPointExtension>
            <gpxtpx:hr>135</gpxtpx:hr>
          </gpxtpx:TrackPointExtension>
        </extensions>
      </trkpt>
      <trkpt lat="38.837528839596885" lon="121.50863636882563">
        <ele>11.402202954515815</ele>
        <time>2024-12-15T15:38:23Z</time>
        <extensions>
          <gpxtpx:TrackPointExtension>
            <gpxtpx:hr>128</gpxtpx:hr>
          </gpxtpx:TrackPointExtension>
        </extensions>
      </trkpt>
      <trkpt lat="38.83743784852558" lon="121.50889411129026">
        <ele>10.807016808539629</ele>
        <time>2024-12-15T15:38:32Z</time>
        <extensions>
          <gpxtpx:TrackPointExtension>
            <gpxtpx:hr>125</gpxtpx:hr>
          </gpxtpx:TrackPointExtension>
        </extensions>
      </trkpt>
      <trkpt lat="38.83735779615072" lon="121.50903596539544">
        <ele>10.052936618216336</ele>
        <time>2024-12-15T15:38:38Z</time>
        <extensions>
          <gpxtpx:TrackPointExtension>
            <gpxtpx:hr>125</gpxtpx:hr>
          </gpxtpx:TrackPointExtension>
        </extensions>
      </trkpt>
      <trkpt lat="38.83722106553408" lon="121.5091170935867">
        <ele>9.090097253210843</ele>
        <time>2024-12-15T15:38:44Z</time>
        <extensions>
          <gpxtpx:TrackPointExtension>
            <gpxtpx:hr>136</gpxtpx:hr>
          </gpxtpx:TrackPointExtension>
        </extensions>
      </trkpt>
      <trkpt lat="38.83715588689496" lon="121.50918692378158">
        <ele>9.341004117392004</ele>
        <time>2024-12-15T15:38:47Z</time>
        <extensions>
          <gpxtpx:TrackPointExtension>
            <gpxtpx:hr>136</gpxtpx:hr>
          </gpxtpx:TrackPointExtension>
        </extensions>
      </trkpt>
      <trkpt lat="38.83705800033749" lon="121.50936571500004">
        <ele>10.506165134720504</ele>
        <time>2024-12-15T15:38:53Z</time>
        <extensions>
          <gpxtpx:TrackPointExtension>
            <gpxtpx:hr>136</gpxtpx:hr>
          </gpxtpx:TrackPointExtension>
        </extensions>
      </trkpt>
      <trkpt lat="38.83703218704668" lon="121.50958533251286">
        <ele>10.553893722593784</ele>
        <time>2024-12-15T15:38:59Z</time>
        <extensions>
          <gpxtpx:TrackPointExtension>
            <gpxtpx:hr>132</gpxtpx:hr>
          </gpxtpx:TrackPointExtension>
        </extensions>
      </trkpt>
      <trkpt lat="38.836989719395575" lon="121.50966733857123">
        <ele>9.045226475223899</ele>
        <time>2024-12-15T15:39:02Z</time>
        <extensions>
          <gpxtpx:TrackPointExtension>
            <gpxtpx:hr>130</gpxtpx:hr>
          </gpxtpx:TrackPointExtension>
        </extensions>
      </trkpt>
      <trkpt lat="38.836818296669236" lon="121.50987104552378">
        <ele>9.696235606446862</ele>
        <time>2024-12-15T15:39:11Z</time>
        <extensions>
          <gpxtpx:TrackPointExtension>
            <gpxtpx:hr>130</gpxtpx:hr>
          </gpxtpx:TrackPointExtension>
        </extensions>
      </trkpt>
      <trkpt lat="38.836674835975586" lon="121.50992609216978">
        <ele>8.001663415692747</ele>
        <time>2024-12-15T15:39:17Z</time>
        <extensions>
          <gpxtpx:TrackPointExtension>
            <gpxtpx:hr>130</gpxtpx:hr>
          </gpxtpx:TrackPointExtension>
        </extensions>
      </trkpt>
      <trkpt lat="38.83659330825452" lon="121.50992907430337">
        <ele>8.17400153260678</ele>
        <time>2024-12-15T15:39:20Z</time>
        <extensions>
          <gpxtpx:TrackPointExtension>
            <gpxtpx:hr>128</gpxtpx:hr>
          </gpxtpx:TrackPointExtension>
        </extensions>
      </trkpt>
      <trkpt lat="38.83652282156079" lon="121.50996542621161">
        <ele>8.357067744247615</ele>
        <time>2024-12-15T15:39:23Z</time>
        <extensions>
          <gpxtpx:TrackPointExtension>
            <gpxtpx:hr>128</gpxtpx:hr>
          </gpxtpx:TrackPointExtension>
        </extensions>
      </trkpt>
      <trkpt lat="38.83648671045578" lon="121.51003966791265">
        <ele>8.366233148612082</ele>
        <time>2024-12-15T15:39:26Z</time>
        <extensions>
          <gpxtpx:TrackPointExtension>
            <gpxtpx:hr>128</gpxtpx:hr>
          </gpxtpx:TrackPointExtension>
        </extensions>
      </trkpt>
      <trkpt lat="38.83648844555032" lon="121.51017546939177">
        <ele>9.125730028375983</ele>
        <time>2024-12-15T15:39:29Z</time>
        <extensions>
          <gpxtpx:TrackPointExtension>
            <gpxtpx:hr>128</gpxtpx:hr>
          </gpxtpx:TrackPointExtension>
        </extensions>
      </trkpt>
      <trkpt lat="38.83650871963209" lon="121.51028369005988">
        <ele>9.989745128899813</ele>
        <time>2024-12-15T15:39:32Z</time>
        <extensions>
          <gpxtpx:TrackPointExtension>
            <gpxtpx:hr>128</gpxtpx:hr>
          </gpxtpx:TrackPointExtension>
        </extensions>
      </trkpt>
      <trkpt lat="38.83655338256208" lon="121.51036741700743">
        <ele>10.038682672195137</ele>
        <time>2024-12-15T15:39:35Z</time>
        <extensions>
          <gpxtpx:TrackPointExtension>
            <gpxtpx:hr>128</gpxtpx:hr>
          </gpxtpx:TrackPointExtension>
        </extensions>
      </trkpt>
      <trkpt lat="38.83675600151791" lon="121.51051752468334">
        <ele>9.816756173968315</ele>
        <time>2024-12-15T15:39:44Z</time>
        <extensions>
          <gpxtpx:TrackPointExtension>
            <gpxtpx:hr>128</gpxtpx:hr>
          </gpxtpx:TrackPointExtension>
        </extensions>
      </trkpt>
      <trkpt lat="38.836881339144604" lon="121.51070864201351">
        <ele>10.031709164381027</ele>
        <time>2024-12-15T15:39:52Z</time>
      </trkpt>
      <trkpt lat="38.83692102131903" lon="121.51081497654947">
        <ele>9.82979519944638</ele>
        <time>2024-12-15T15:39:56Z</time>
      </trkpt>
      <trkpt lat="38.837008349059644" lon="121.51088383815618">
        <ele>9.990251206792891</ele>
        <time>2024-12-15T15:40:00Z</time>
      </trkpt>
      <trkpt lat="38.837087106246955" lon="121.51078977676407">
        <ele>10.095965509302914</ele>
        <time>2024-12-15T15:40:04Z</time>
      </trkpt>
      <trkpt lat="38.83731100108178" lon="121.5104539403276">
        <ele>9.68369447439909</ele>
        <time>2024-12-15T15:40:28Z</time>
        <extensions>
          <gpxtpx:TrackPointExtension>
            <gpxtpx:hr>135</gpxtpx:hr>
          </gpxtpx:TrackPointExtension>
        </extensions>
      </trkpt>
      <trkpt lat="38.837536854131784" lon="121.51022089678565">
        <ele>10.107314562425017</ele>
        <time>2024-12-15T15:40:40Z</time>
        <extensions>
          <gpxtpx:TrackPointExtension>
            <gpxtpx:hr>132</gpxtpx:hr>
          </gpxtpx:TrackPointExtension>
        </extensions>
      </trkpt>
      <trkpt lat="38.8376336596207" lon="121.51016947808266">
        <ele>10.169370049610734</ele>
        <time>2024-12-15T15:40:44Z</time>
        <extensions>
          <gpxtpx:TrackPointExtension>
            <gpxtpx:hr>135</gpxtpx:hr>
          </gpxtpx:TrackPointExtension>
        </extensions>
      </trkpt>
      <trkpt lat="38.83769461064684" lon="121.51008346061784">
        <ele>10.574484921060503</ele>
        <time>2024-12-15T15:40:48Z</time>
        <extensions>
          <gpxtpx:TrackPointExtension>
            <gpxtpx:hr>135</gpxtpx:hr>
          </gpxtpx:TrackPointExtension>
        </extensions>
      </trkpt>
      <trkpt lat="38.83772291266789" lon="121.50995315347775">
        <ele>10.931263959035277</ele>
        <time>2024-12-15T15:40:52Z</time>
        <extensions>
          <gpxtpx:TrackPointExtension>
            <gpxtpx:hr>135</gpxtpx:hr>
          </gpxtpx:TrackPointExtension>
        </extensions>
      </trkpt>
      <trkpt lat="38.83779991812703" lon="121.50987633324539">
        <ele>9.873266218230128</ele>
        <time>2024-12-15T15:40:56Z</time>
        <extensions>
          <gpxtpx:TrackPointExtension>
            <gpxtpx:hr>135</gpxtpx:hr>
          </gpxtpx:TrackPointExtension>
        </extensions>
      </trkpt>
      <trkpt lat="38.83788898809583" lon="121.50981831597257">
        <ele>10.49786080326885</ele>
        <time>2024-12-15T15:41:00Z</time>
        <extensions>
          <gpxtpx:TrackPointExtension>
            <gpxtpx:hr>137</gpxtpx:hr>
          </gpxtpx:TrackPointExtension>
        </extensions>
      </trkpt>
      <trkpt lat="38.837954544725314" lon="121.50972794495598">
        <ele>10.923234061338007</ele>
        <time>2024-12-15T15:41:04Z</time>
        <extensions>
          <gpxtpx:TrackPointExtension>
            <gpxtpx:hr>138</gpxtpx:hr>
          </gpxtpx:TrackPointExtension>
        </extensions>
      </trkpt>
      <trkpt lat="38.83802991333989" lon="121.50950352092931">
        <ele>11.661412495188415</ele>
        <time>2024-12-15T15:41:12Z</time>
        <extensions>
          <gpxtpx:TrackPointExtension>
            <gpxtpx:hr>140</gpxtpx:hr>
          </gpxtpx:TrackPointExtension>
        </extensions>
      </trkpt>
      <trkpt lat="38.83815148505446" lon="121.50931567168502">
        <ele>11.261463900096714</ele>
        <time>2024-12-15T15:41:20Z</time>
        <extensions>
          <gpxtpx:TrackPointExtension>
            <gpxtpx:hr>140</gpxtpx:hr>
          </gpxtpx:TrackPointExtension>
        </extensions>
      </trkpt>
      <trkpt lat="38.838312162317436" lon="121.50919229699514">
        <ele>11.821729751303792</ele>
        <time>2024-12-15T15:41:28Z</time>
        <extensions>
          <gpxtpx:TrackPointExtension>
            <gpxtpx:hr>135</gpxtpx:hr>
          </gpxtpx:TrackPointExtension>
        </extensions>
      </trkpt>
      <trkpt lat="38.838336042295325" lon="121.50908066159006">
        <ele>11.739898663014174</ele>
        <time>2024-12-15T15:41:32Z</time>
        <extensions>
          <gpxtpx:TrackPointExtension>
            <gpxtpx:hr>139</gpxtpx:hr>
          </gpxtpx:TrackPointExtension>
        </extensions>
      </trkpt>
      <trkpt lat="38.8383830638594" lon="121.50902928997618">
        <ele>11.459524671547115</ele>
        <time>2024-12-15T15:41:40Z</time>
        <extensions>
          <gpxtpx:TrackPointExtension>
            <gpxtpx:hr>143</gpxtpx:hr>
          </gpxtpx:TrackPointExtension>
        </extensions>
      </trkpt>
      <trkpt lat="38.8384511918449" lon="121.50887882259525">
        <ele>11.816797991283238</ele>
        <time>2024-12-15T15:41:48Z</time>
        <extensions>
          <gpxtpx:TrackPointExtension>
            <gpxtpx:hr>144</gpxtpx:hr>
          </gpxtpx:TrackPointExtension>
        </extensions>
      </trkpt>
      <trkpt lat="38.83858747756411" lon="121.50873346538638">
        <ele>8.950390459038317</ele>
        <time>2024-12-15T15:41:56Z</time>
        <extensions>
          <gpxtpx:TrackPointExtension>
            <gpxtpx:hr>138</gpxtpx:hr>
          </gpxtpx:TrackPointExtension>
        </extensions>
      </trkpt>
      <trkpt lat="38.83869177005933" lon="121.50866810915737">
        <ele>9.940212548710406</ele>
        <time>2024-12-15T15:42:04Z</time>
        <extensions>
          <gpxtpx:TrackPointExtension>
            <gpxtpx:hr>138</gpxtpx:hr>
          </gpxtpx:TrackPointExtension>
        </extensions>
      </trkpt>
      <trkpt lat="38.838762667885135" lon="121.50855482237918">
        <ele>8.678938600234687</ele>
        <time>2024-12-15T15:42:08Z</time>
        <extensions>
          <gpxtpx:TrackPointExtension>
            <gpxtpx:hr>137</gpxtpx:hr>
          </gpxtpx:TrackPointExtension>
        </extensions>
      </trkpt>
      <trkpt lat="38.839000503942295" lon="121.5082842019871">
        <ele>7.876460857689381</ele>
        <time>2024-12-15T15:42:20Z</time>
        <extensions>
          <gpxtpx:TrackPointExtension>
            <gpxtpx:hr>140</gpxtpx:hr>
          </gpxtpx:TrackPointExtension>
        </extensions>
      </trkpt>
      <trkpt lat="38.83919992212983" lon="121.5079578200509">
        <ele>8.666228888556361</ele>
        <time>2024-12-15T15:42:32Z</time>
        <extensions>
          <gpxtpx:TrackPointExtension>
            <gpxtpx:hr>140</gpxtpx:hr>
          </gpxtpx:TrackPointExtension>
        </extensions>
      </trkpt>
      <trkpt lat="38.83933509731272" lon="121.50760748239652">
        <ele>8.701773698441684</ele>
        <time>2024-12-15T15:42:44Z</time>
        <extensions>
          <gpxtpx:TrackPointExtension>
            <gpxtpx:hr>139</gpxtpx:hr>
          </gpxtpx:TrackPointExtension>
        </extensions>
      </trkpt>
      <trkpt lat="38.83937576519226" lon="121.5075072490283">
        <ele>8.178651086054742</ele>
        <time>2024-12-15T15:42:48Z</time>
        <extensions>
          <gpxtpx:TrackPointExtension>
            <gpxtpx:hr>139</gpxtpx:hr>
          </gpxtpx:TrackPointExtension>
        </extensions>
      </trkpt>
      <trkpt lat="38.839528781380196" lon="121.507325922979">
        <ele>8.554912663064897</ele>
        <time>2024-12-15T15:42:56Z</time>
        <extensions>
          <gpxtpx:TrackPointExtension>
            <gpxtpx:hr>141</gpxtpx:hr>
          </gpxtpx:TrackPointExtension>
        </extensions>
      </trkpt>
      <trkpt lat="38.839690778988455" lon="121.50698815696363">
        <ele>10.835587152279913</ele>
        <time>2024-12-15T15:43:08Z</time>
        <extensions>
          <gpxtpx:TrackPointExtension>
            <gpxtpx:hr>141</gpxtpx:hr>
          </gpxtpx:TrackPointExtension>
        </extensions>
      </trkpt>
      <trkpt lat="38.839705924829175" lon="121.5068402759989">
        <ele>11.393424649722874</ele>
        <time>2024-12-15T15:43:16Z</time>
        <extensions>
          <gpxtpx:TrackPointExtension>
            <gpxtpx:hr>141</gpxtpx:hr>
          </gpxtpx:TrackPointExtension>
        </extensions>
      </trkpt>
      <trkpt lat="38.83967858927125" lon="121.50669941621614">
        <ele>12.270781553350389</ele>
        <time>2024-12-15T15:43:24Z</time>
        <extensions>
          <gpxtpx:TrackPointExtension>
            <gpxtpx:hr>142</gpxtpx:hr>
          </gpxtpx:TrackPointExtension>
        </extensions>
      </trkpt>
      <trkpt lat="38.83947997767641" lon="121.50640235187768">
        <ele>13.113045952282846</ele>
        <time>2024-12-15T15:43:36Z</time>
        <extensions>
          <gpxtpx:TrackPointExtension>
            <gpxtpx:hr>138</gpxtpx:hr>
          </gpxtpx:TrackPointExtension>
        </extensions>
      </trkpt>
      <trkpt lat="38.83921711174716" lon="121.50615036986409">
        <ele>14.264237005263567</ele>
        <time>2024-12-15T15:43:48Z</time>
        <extensions>
          <gpxtpx:TrackPointExtension>
            <gpxtpx:hr>141</gpxtpx:hr>
          </gpxtpx:TrackPointExtension>
        </extensions>
      </trkpt>
      <trkpt lat="38.83895293461308" lon="121.50594247049743">
        <ele>12.694195847958326</ele>
        <time>2024-12-15T15:44:07Z</time>
        <extensions>
          <gpxtpx:TrackPointExtension>
            <gpxtpx:hr>138</gpxtpx:hr>
          </gpxtpx:TrackPointExtension>
        </extensions>
      </trkpt>
      <trkpt lat="38.83888315146746" lon="121.5058679022817">
        <ele>11.993851906619966</ele>
        <time>2024-12-15T15:44:15Z</time>
        <extensions>
          <gpxtpx:TrackPointExtension>
            <gpxtpx:hr>137</gpxtpx:hr>
          </gpxtpx:TrackPointExtension>
        </extensions>
      </trkpt>
      <trkpt lat="38.838781872105166" lon="121.50580147274589">
        <ele>10.429920135997236</ele>
        <time>2024-12-15T15:44:19Z</time>
        <extensions>
          <gpxtpx:TrackPointExtension>
            <gpxtpx:hr>131</gpxtpx:hr>
          </gpxtpx:TrackPointExtension>
        </extensions>
      </trkpt>
      <trkpt lat="38.83870578127627" lon="121.50570522250791">
        <ele>11.982856594957411</ele>
        <time>2024-12-15T15:44:23Z</time>
        <extensions>
          <gpxtpx:TrackPointExtension>
            <gpxtpx:hr>131</gpxtpx:hr>
          </gpxtpx:TrackPointExtension>
        </extensions>
      </trkpt>
      <trkpt lat="38.83843998072318" lon="121.50545259994313">
        <ele>12.077896655537188</ele>
        <time>2024-12-15T15:44:35Z</time>
        <extensions>
          <gpxtpx:TrackPointExtension>
            <gpxtpx:hr>130</gpxtpx:hr>
          </gpxtpx:TrackPointExtension>
        </extensions>
      </trkpt>
      <trkpt lat="38.8381978042702" lon="121.50520116661691">
        <ele>12.10088163614273</ele>
        <time>2024-12-15T15:44:47Z</time>
        <extensions>
          <gpxtpx:TrackPointExtension>
            <gpxtpx:hr>135</gpxtpx:hr>
          </gpxtpx:TrackPointExtension>
        </extensions>
      </trkpt>
      <trkpt lat="38.83797215272345" lon="121.50503983279388">
        <ele>10.546278696507215</ele>
        <time>2024-12-15T15:44:59Z</time>
        <extensions>
          <gpxtpx:TrackPointExtension>
            <gpxtpx:hr>136</gpxtpx:hr>
          </gpxtpx:TrackPointExtension>
        </extensions>
      </trkpt>
      <trkpt lat="38.83786475885218" lon="121.50484412441646">
        <ele>11.727692442014813</ele>
        <time>2024-12-15T15:45:23Z</time>
        <extensions>
          <gpxtpx:TrackPointExtension>
            <gpxtpx:hr>120</gpxtpx:hr>
          </gpxtpx:TrackPointExtension>
        </extensions>
      </trkpt>
      <trkpt lat="38.83768066151848" lon="121.50468365779331">
        <ele>8.932575858198106</ele>
        <time>2024-12-15T15:45:39Z</time>
        <extensions>
          <gpxtpx:TrackPointExtension>
            <gpxtpx:hr>111</gpxtpx:hr>
          </gpxtpx:TrackPointExtension>
        </extensions>
      </trkpt>
      <trkpt lat="38.8376376002744" lon="121.50457887624339">
        <ele>8.871775187551975</ele>
        <time>2024-12-15T15:45:47Z</time>
        <extensions>
          <gpxtpx:TrackPointExtension>
            <gpxtpx:hr>111</gpxtpx:hr>
          </gpxtpx:TrackPointExtension>
        </extensions>
      </trkpt>
      <trkpt lat="38.83759273538263" lon="121.50453077132008">
        <ele>9.156356767751276</ele>
        <time>2024-12-15T15:45:51Z</time>
        <extensions>
          <gpxtpx:TrackPointExtension>
            <gpxtpx:hr>111</gpxtpx:hr>
          </gpxtpx:TrackPointExtension>
        </extensions>
      </trkpt>
      <trkpt lat="38.837543609754945" lon="121.5044388077109">
        <ele>9.568024227395654</ele>
        <time>2024-12-15T15:46:06Z</time>
      </trkpt>
      <trkpt lat="38.837657320797575" lon="121.50435109244555">
        <ele>10.406062142923474</ele>
        <time>2024-12-15T15:46:18Z</time>
        <extensions>
          <gpxtpx:TrackPointExtension>
            <gpxtpx:hr>101</gpxtpx:hr>
          </gpxtpx:TrackPointExtension>
        </extensions>
      </trkpt>
      <trkpt lat="38.837747689784635" lon="121.50434517137633">
        <ele>9.54304523486644</ele>
        <time>2024-12-15T15:46:26Z</time>
        <extensions>
          <gpxtpx:TrackPointExtension>
            <gpxtpx:hr>99</gpxtpx:hr>
          </gpxtpx:TrackPointExtension>
        </extensions>
      </trkpt>
      <trkpt lat="38.83787634331621" lon="121.50426632986982">
        <ele>9.430937828496099</ele>
        <time>2024-12-15T15:46:38Z</time>
        <extensions>
          <gpxtpx:TrackPointExtension>
            <gpxtpx:hr>100</gpxtpx:hr>
          </gpxtpx:TrackPointExtension>
        </extensions>
      </trkpt>
      <trkpt lat="38.837931224838606" lon="121.50420121034156">
        <ele>9.57444860227406</ele>
        <time>2024-12-15T15:46:46Z</time>
        <extensions>
          <gpxtpx:TrackPointExtension>
            <gpxtpx:hr>100</gpxtpx:hr>
          </gpxtpx:TrackPointExtension>
        </extensions>
      </trkpt>
      <trkpt lat="38.8380472266023" lon="121.50417094652364">
        <ele>10.283780503086746</ele>
        <time>2024-12-15T15:46:58Z</time>
        <extensions>
          <gpxtpx:TrackPointExtension>
            <gpxtpx:hr>99</gpxtpx:hr>
          </gpxtpx:TrackPointExtension>
        </extensions>
      </trkpt>
      <trkpt lat="38.83810185224979" lon="121.50423068219906">
        <ele>9.837408982217312</ele>
        <time>2024-12-15T15:47:02Z</time>
        <extensions>
          <gpxtpx:TrackPointExtension>
            <gpxtpx:hr>99</gpxtpx:hr>
          </gpxtpx:TrackPointExtension>
        </extensions>
      </trkpt>
    </trkseg>
  </trk>
</gpx>