<?xml version="1.0" encoding="UTF-8"?>
<gpx xmlns="http://www.topografix.com/GPX/1/1" xmlns:gpxtpx="http://www.garmin.com/xmlschemas/TrackPointExtension/v1" xmlns:xsi="http://www.w3.org/2001/XMLSchema-instance" xsi:schemaLocation="http://www.topografix.com/GPX/1/1 http://www.topografix.com/GPX/1/1/gpx.xsd" version="1.1" creator="gpx.py -- https://github.com/tkrajina/gpxpy">
  <trk>
    <name>gpx from keep</name>
    <type>Run</type>
    <trkseg>
      <trkpt lat="38.83726487267428" lon="121.50915225685938">
        <ele>12.33318281173706</ele>
        <time>2024-10-03T00:24:41Z</time>
        <extensions>
          <gpxtpx:TrackPointExtension>
            <gpxtpx:hr>78</gpxtpx:hr>
          </gpxtpx:TrackPointExtension>
        </extensions>
      </trkpt>
      <trkpt lat="38.83716098560682" lon="121.50929519561276">
        <ele>11.663261596113443</ele>
        <time>2024-10-03T00:24:47Z</time>
        <extensions>
          <gpxtpx:TrackPointExtension>
            <gpxtpx:hr>78</gpxtpx:hr>
          </gpxtpx:TrackPointExtension>
        </extensions>
      </trkpt>
      <trkpt lat="38.83703622663512" lon="121.50964529993986">
        <ele>11.180595710873604</ele>
        <time>2024-10-03T00:24:58Z</time>
        <extensions>
          <gpxtpx:TrackPointExtension>
            <gpxtpx:hr>78</gpxtpx:hr>
          </gpxtpx:TrackPointExtension>
        </extensions>
      </trkpt>
      <trkpt lat="38.83698819182689" lon="121.50976572688002">
        <ele>12.024223681539297</ele>
        <time>2024-10-03T00:25:02Z</time>
        <extensions>
          <gpxtpx:TrackPointExtension>
            <gpxtpx:hr>78</gpxtpx:hr>
          </gpxtpx:TrackPointExtension>
        </extensions>
      </trkpt>
      <trkpt lat="38.83692472722008" lon="121.50979357003823">
        <ele>11.693784253671765</ele>
        <time>2024-10-03T00:25:06Z</time>
        <extensions>
          <gpxtpx:TrackPointExtension>
            <gpxtpx:hr>78</gpxtpx:hr>
          </gpxtpx:TrackPointExtension>
        </extensions>
      </trkpt>
      <trkpt lat="38.83676696919648" lon="121.50991340947783">
        <ele>11.08795843552798</ele>
        <time>2024-10-03T00:25:14Z</time>
        <extensions>
          <gpxtpx:TrackPointExtension>
            <gpxtpx:hr>152</gpxtpx:hr>
          </gpxtpx:TrackPointExtension>
        </extensions>
      </trkpt>
      <trkpt lat="38.83659077224369" lon="121.50994232896517">
        <ele>10.95228463690728</ele>
        <time>2024-10-03T00:25:22Z</time>
        <extensions>
          <gpxtpx:TrackPointExtension>
            <gpxtpx:hr>152</gpxtpx:hr>
          </gpxtpx:TrackPointExtension>
        </extensions>
      </trkpt>
      <trkpt lat="38.836511969802665" lon="121.5100097318558">
        <ele>10.159717426635325</ele>
        <time>2024-10-03T00:25:26Z</time>
        <extensions>
          <gpxtpx:TrackPointExtension>
            <gpxtpx:hr>148</gpxtpx:hr>
          </gpxtpx:TrackPointExtension>
        </extensions>
      </trkpt>
      <trkpt lat="38.83649400708051" lon="121.51012132098039">
        <ele>10.615310019813478</ele>
        <time>2024-10-03T00:25:30Z</time>
        <extensions>
          <gpxtpx:TrackPointExtension>
            <gpxtpx:hr>148</gpxtpx:hr>
          </gpxtpx:TrackPointExtension>
        </extensions>
      </trkpt>
      <trkpt lat="38.83652096421597" lon="121.51024364452034">
        <ele>10.310925829224288</ele>
        <time>2024-10-03T00:25:34Z</time>
        <extensions>
          <gpxtpx:TrackPointExtension>
            <gpxtpx:hr>148</gpxtpx:hr>
          </gpxtpx:TrackPointExtension>
        </extensions>
      </trkpt>
      <trkpt lat="38.836565557403674" lon="121.51034575085185">
        <ele>10.574307741597295</ele>
        <time>2024-10-03T00:25:38Z</time>
        <extensions>
          <gpxtpx:TrackPointExtension>
            <gpxtpx:hr>148</gpxtpx:hr>
          </gpxtpx:TrackPointExtension>
        </extensions>
      </trkpt>
      <trkpt lat="38.836723468038464" lon="121.51045378935954">
        <ele>11.02418161276728</ele>
        <time>2024-10-03T00:25:46Z</time>
        <extensions>
          <gpxtpx:TrackPointExtension>
            <gpxtpx:hr>148</gpxtpx:hr>
          </gpxtpx:TrackPointExtension>
        </extensions>
      </trkpt>
      <trkpt lat="38.83687434118637" lon="121.51061536051577">
        <ele>10.876510088331997</ele>
        <time>2024-10-03T00:25:54Z</time>
      </trkpt>
      <trkpt lat="38.83697785145582" lon="121.51082177676233">
        <ele>11.649613834917545</ele>
        <time>2024-10-03T00:26:02Z</time>
      </trkpt>
      <trkpt lat="38.83705657068061" lon="121.51086791562095">
        <ele>10.972449292428792</ele>
        <time>2024-10-03T00:26:06Z</time>
      </trkpt>
      <trkpt lat="38.83729010047173" lon="121.51053071966567">
        <ele>10.733710614033043</ele>
        <time>2024-10-03T00:26:22Z</time>
        <extensions>
          <gpxtpx:TrackPointExtension>
            <gpxtpx:hr>133</gpxtpx:hr>
          </gpxtpx:TrackPointExtension>
        </extensions>
      </trkpt>
      <trkpt lat="38.83739801374662" lon="121.51037107269555">
        <ele>10.283224046230316</ele>
        <time>2024-10-03T00:26:30Z</time>
        <extensions>
          <gpxtpx:TrackPointExtension>
            <gpxtpx:hr>131</gpxtpx:hr>
          </gpxtpx:TrackPointExtension>
        </extensions>
      </trkpt>
      <trkpt lat="38.83767529172482" lon="121.51015491738427">
        <ele>11.140420009382069</ele>
        <time>2024-10-03T00:26:45Z</time>
        <extensions>
          <gpxtpx:TrackPointExtension>
            <gpxtpx:hr>128</gpxtpx:hr>
          </gpxtpx:TrackPointExtension>
        </extensions>
      </trkpt>
      <trkpt lat="38.837723972245676" lon="121.51009413048511">
        <ele>10.93428021017462</ele>
        <time>2024-10-03T00:26:48Z</time>
        <extensions>
          <gpxtpx:TrackPointExtension>
            <gpxtpx:hr>128</gpxtpx:hr>
          </gpxtpx:TrackPointExtension>
        </extensions>
      </trkpt>
      <trkpt lat="38.83775425409697" lon="121.51001222194863">
        <ele>11.891227276064456</ele>
        <time>2024-10-03T00:26:51Z</time>
        <extensions>
          <gpxtpx:TrackPointExtension>
            <gpxtpx:hr>130</gpxtpx:hr>
          </gpxtpx:TrackPointExtension>
        </extensions>
      </trkpt>
      <trkpt lat="38.837706749509174" lon="121.50983790417553">
        <ele>11.925566241145134</ele>
        <time>2024-10-03T00:26:57Z</time>
        <extensions>
          <gpxtpx:TrackPointExtension>
            <gpxtpx:hr>131</gpxtpx:hr>
          </gpxtpx:TrackPointExtension>
        </extensions>
      </trkpt>
      <trkpt lat="38.837635240679354" lon="121.50975576960442">
        <ele>11.701529396697879</ele>
        <time>2024-10-03T00:27:01Z</time>
        <extensions>
          <gpxtpx:TrackPointExtension>
            <gpxtpx:hr>136</gpxtpx:hr>
          </gpxtpx:TrackPointExtension>
        </extensions>
      </trkpt>
      <trkpt lat="38.83753783048337" lon="121.50973652158083">
        <ele>12.1471191868186</ele>
        <time>2024-10-03T00:27:05Z</time>
        <extensions>
          <gpxtpx:TrackPointExtension>
            <gpxtpx:hr>132</gpxtpx:hr>
          </gpxtpx:TrackPointExtension>
        </extensions>
      </trkpt>
      <trkpt lat="38.83745473275378" lon="121.50969597338445">
        <ele>12.046921238303185</ele>
        <time>2024-10-03T00:27:09Z</time>
        <extensions>
          <gpxtpx:TrackPointExtension>
            <gpxtpx:hr>132</gpxtpx:hr>
          </gpxtpx:TrackPointExtension>
        </extensions>
      </trkpt>
      <trkpt lat="38.837281924934665" lon="121.50942374493309">
        <ele>11.599910226650536</ele>
        <time>2024-10-03T00:27:21Z</time>
        <extensions>
          <gpxtpx:TrackPointExtension>
            <gpxtpx:hr>131</gpxtpx:hr>
          </gpxtpx:TrackPointExtension>
        </extensions>
      </trkpt>
      <trkpt lat="38.83721054945748" lon="121.50934580867279">
        <ele>10.642774671316147</ele>
        <time>2024-10-03T00:27:25Z</time>
        <extensions>
          <gpxtpx:TrackPointExtension>
            <gpxtpx:hr>132</gpxtpx:hr>
          </gpxtpx:TrackPointExtension>
        </extensions>
      </trkpt>
      <trkpt lat="38.83726697428169" lon="121.50909345274276">
        <ele>11.222541130147874</ele>
        <time>2024-10-03T00:27:33Z</time>
        <extensions>
          <gpxtpx:TrackPointExtension>
            <gpxtpx:hr>132</gpxtpx:hr>
          </gpxtpx:TrackPointExtension>
        </extensions>
      </trkpt>
      <trkpt lat="38.8374256525292" lon="121.50897455530425">
        <ele>11.708000492304564</ele>
        <time>2024-10-03T00:27:41Z</time>
        <extensions>
          <gpxtpx:TrackPointExtension>
            <gpxtpx:hr>135</gpxtpx:hr>
          </gpxtpx:TrackPointExtension>
        </extensions>
      </trkpt>
      <trkpt lat="38.837490226823306" lon="121.5088976295452">
        <ele>11.69817566126585</ele>
        <time>2024-10-03T00:27:45Z</time>
        <extensions>
          <gpxtpx:TrackPointExtension>
            <gpxtpx:hr>134</gpxtpx:hr>
          </gpxtpx:TrackPointExtension>
        </extensions>
      </trkpt>
      <trkpt lat="38.83758547487025" lon="121.50856500763176">
        <ele>12.63731025904417</ele>
        <time>2024-10-03T00:27:57Z</time>
        <extensions>
          <gpxtpx:TrackPointExtension>
            <gpxtpx:hr>134</gpxtpx:hr>
          </gpxtpx:TrackPointExtension>
        </extensions>
      </trkpt>
      <trkpt lat="38.83762186129588" lon="121.50846942506973">
        <ele>12.214824229478836</ele>
        <time>2024-10-03T00:28:01Z</time>
        <extensions>
          <gpxtpx:TrackPointExtension>
            <gpxtpx:hr>134</gpxtpx:hr>
          </gpxtpx:TrackPointExtension>
        </extensions>
      </trkpt>
      <trkpt lat="38.83772114518629" lon="121.50849105108959">
        <ele>11.672804438509047</ele>
        <time>2024-10-03T00:28:05Z</time>
        <extensions>
          <gpxtpx:TrackPointExtension>
            <gpxtpx:hr>134</gpxtpx:hr>
          </gpxtpx:TrackPointExtension>
        </extensions>
      </trkpt>
      <trkpt lat="38.83781825363383" lon="121.50856941552006">
        <ele>13.15304815210402</ele>
        <time>2024-10-03T00:28:09Z</time>
        <extensions>
          <gpxtpx:TrackPointExtension>
            <gpxtpx:hr>134</gpxtpx:hr>
          </gpxtpx:TrackPointExtension>
        </extensions>
      </trkpt>
      <trkpt lat="38.837866906374394" lon="121.50867402887113">
        <ele>12.069679201580584</ele>
        <time>2024-10-03T00:28:13Z</time>
        <extensions>
          <gpxtpx:TrackPointExtension>
            <gpxtpx:hr>136</gpxtpx:hr>
          </gpxtpx:TrackPointExtension>
        </extensions>
      </trkpt>
      <trkpt lat="38.83800429569847" lon="121.50884040595383">
        <ele>11.511514219455421</ele>
        <time>2024-10-03T00:28:21Z</time>
        <extensions>
          <gpxtpx:TrackPointExtension>
            <gpxtpx:hr>134</gpxtpx:hr>
          </gpxtpx:TrackPointExtension>
        </extensions>
      </trkpt>
      <trkpt lat="38.83817032131715" lon="121.50892430798113">
        <ele>11.630201179534197</ele>
        <time>2024-10-03T00:28:29Z</time>
        <extensions>
          <gpxtpx:TrackPointExtension>
            <gpxtpx:hr>134</gpxtpx:hr>
          </gpxtpx:TrackPointExtension>
        </extensions>
      </trkpt>
      <trkpt lat="38.83826099321988" lon="121.50900271933371">
        <ele>11.212051533162594</ele>
        <time>2024-10-03T00:28:33Z</time>
        <extensions>
          <gpxtpx:TrackPointExtension>
            <gpxtpx:hr>134</gpxtpx:hr>
          </gpxtpx:TrackPointExtension>
        </extensions>
      </trkpt>
      <trkpt lat="38.83829282212911" lon="121.5090734566598">
        <ele>10.8333705579862</ele>
        <time>2024-10-03T00:28:37Z</time>
        <extensions>
          <gpxtpx:TrackPointExtension>
            <gpxtpx:hr>134</gpxtpx:hr>
          </gpxtpx:TrackPointExtension>
        </extensions>
      </trkpt>
      <trkpt lat="38.83824607420517" lon="121.5091889802478">
        <ele>11.16477625258267</ele>
        <time>2024-10-03T00:28:41Z</time>
      </trkpt>
      <trkpt lat="38.838036943006095" lon="121.50939670556434">
        <ele>10.657955397851765</ele>
        <time>2024-10-03T00:28:52Z</time>
      </trkpt>
      <trkpt lat="38.837918666383516" lon="121.50979754257963">
        <ele>11.295980694703758</ele>
        <time>2024-10-03T00:29:07Z</time>
      </trkpt>
      <trkpt lat="38.8378187846503" lon="121.50980875648881">
        <ele>11.013786375522614</ele>
        <time>2024-10-03T00:29:11Z</time>
      </trkpt>
      <trkpt lat="38.837736614437596" lon="121.50972330965318">
        <ele>11.397440783679485</ele>
        <time>2024-10-03T00:29:15Z</time>
      </trkpt>
      <trkpt lat="38.83757751970416" lon="121.50944101026867">
        <ele>11.207928809337318</ele>
        <time>2024-10-03T00:29:27Z</time>
      </trkpt>
      <trkpt lat="38.837221238169576" lon="121.50930458213818">
        <ele>9.974740905687213</ele>
        <time>2024-10-03T00:29:43Z</time>
      </trkpt>
      <trkpt lat="38.837136778171136" lon="121.50938277486769">
        <ele>9.630901214666665</ele>
        <time>2024-10-03T00:29:47Z</time>
      </trkpt>
      <trkpt lat="38.836988204537356" lon="121.50972500214978">
        <ele>9.988496297039092</ele>
        <time>2024-10-03T00:29:59Z</time>
      </trkpt>
      <trkpt lat="38.836923596918474" lon="121.5098217894288">
        <ele>9.598698063753545</ele>
        <time>2024-10-03T00:30:03Z</time>
      </trkpt>
      <trkpt lat="38.83675473534146" lon="121.50994088101345">
        <ele>9.563399508595467</ele>
        <time>2024-10-03T00:30:11Z</time>
        <extensions>
          <gpxtpx:TrackPointExtension>
            <gpxtpx:hr>144</gpxtpx:hr>
          </gpxtpx:TrackPointExtension>
        </extensions>
      </trkpt>
      <trkpt lat="38.836576521799536" lon="121.50994117555541">
        <ele>8.472389564849436</ele>
        <time>2024-10-03T00:30:19Z</time>
        <extensions>
          <gpxtpx:TrackPointExtension>
            <gpxtpx:hr>144</gpxtpx:hr>
          </gpxtpx:TrackPointExtension>
        </extensions>
      </trkpt>
      <trkpt lat="38.83650264414151" lon="121.51002943897134">
        <ele>9.19776851683855</ele>
        <time>2024-10-03T00:30:23Z</time>
        <extensions>
          <gpxtpx:TrackPointExtension>
            <gpxtpx:hr>144</gpxtpx:hr>
          </gpxtpx:TrackPointExtension>
        </extensions>
      </trkpt>
      <trkpt lat="38.8364861151876" lon="121.51015351393036">
        <ele>8.53876378107816</ele>
        <time>2024-10-03T00:30:27Z</time>
        <extensions>
          <gpxtpx:TrackPointExtension>
            <gpxtpx:hr>144</gpxtpx:hr>
          </gpxtpx:TrackPointExtension>
        </extensions>
      </trkpt>
      <trkpt lat="38.83651168980616" lon="121.51026696062911">
        <ele>9.11819923762232</ele>
        <time>2024-10-03T00:30:31Z</time>
        <extensions>
          <gpxtpx:TrackPointExtension>
            <gpxtpx:hr>144</gpxtpx:hr>
          </gpxtpx:TrackPointExtension>
        </extensions>
      </trkpt>
      <trkpt lat="38.836557625233034" lon="121.51036646247069">
        <ele>9.198922665789723</ele>
        <time>2024-10-03T00:30:35Z</time>
        <extensions>
          <gpxtpx:TrackPointExtension>
            <gpxtpx:hr>146</gpxtpx:hr>
          </gpxtpx:TrackPointExtension>
        </extensions>
      </trkpt>
      <trkpt lat="38.8367330092781" lon="121.51047568205577">
        <ele>8.83307760860771</ele>
        <time>2024-10-03T00:30:43Z</time>
        <extensions>
          <gpxtpx:TrackPointExtension>
            <gpxtpx:hr>145</gpxtpx:hr>
          </gpxtpx:TrackPointExtension>
        </extensions>
      </trkpt>
      <trkpt lat="38.8368770540315" lon="121.51064614039593">
        <ele>9.317850987426937</ele>
        <time>2024-10-03T00:30:51Z</time>
        <extensions>
          <gpxtpx:TrackPointExtension>
            <gpxtpx:hr>145</gpxtpx:hr>
          </gpxtpx:TrackPointExtension>
        </extensions>
      </trkpt>
      <trkpt lat="38.836967602699396" lon="121.5108589273457">
        <ele>9.172676675952971</ele>
        <time>2024-10-03T00:30:59Z</time>
        <extensions>
          <gpxtpx:TrackPointExtension>
            <gpxtpx:hr>145</gpxtpx:hr>
          </gpxtpx:TrackPointExtension>
        </extensions>
      </trkpt>
      <trkpt lat="38.83705330792495" lon="121.5108840688509">
        <ele>8.300660359673202</ele>
        <time>2024-10-03T00:31:03Z</time>
        <extensions>
          <gpxtpx:TrackPointExtension>
            <gpxtpx:hr>146</gpxtpx:hr>
          </gpxtpx:TrackPointExtension>
        </extensions>
      </trkpt>
      <trkpt lat="38.837124002464236" lon="121.51080775031333">
        <ele>9.430498943664134</ele>
        <time>2024-10-03T00:31:07Z</time>
        <extensions>
          <gpxtpx:TrackPointExtension>
            <gpxtpx:hr>146</gpxtpx:hr>
          </gpxtpx:TrackPointExtension>
        </extensions>
      </trkpt>
      <trkpt lat="38.837224837915414" lon="121.51061729974654">
        <ele>9.62051338981837</ele>
        <time>2024-10-03T00:31:15Z</time>
        <extensions>
          <gpxtpx:TrackPointExtension>
            <gpxtpx:hr>144</gpxtpx:hr>
          </gpxtpx:TrackPointExtension>
        </extensions>
      </trkpt>
      <trkpt lat="38.837360622785845" lon="121.51046038758781">
        <ele>9.767709693871439</ele>
        <time>2024-10-03T00:31:23Z</time>
        <extensions>
          <gpxtpx:TrackPointExtension>
            <gpxtpx:hr>144</gpxtpx:hr>
          </gpxtpx:TrackPointExtension>
        </extensions>
      </trkpt>
      <trkpt lat="38.83758958830721" lon="121.51024037231893">
        <ele>10.676667679101229</ele>
        <time>2024-10-03T00:31:35Z</time>
        <extensions>
          <gpxtpx:TrackPointExtension>
            <gpxtpx:hr>145</gpxtpx:hr>
          </gpxtpx:TrackPointExtension>
        </extensions>
      </trkpt>
      <trkpt lat="38.837670175233775" lon="121.51017310105007">
        <ele>10.034827649593353</ele>
        <time>2024-10-03T00:31:39Z</time>
        <extensions>
          <gpxtpx:TrackPointExtension>
            <gpxtpx:hr>145</gpxtpx:hr>
          </gpxtpx:TrackPointExtension>
        </extensions>
      </trkpt>
      <trkpt lat="38.83773763437726" lon="121.51008008199294">
        <ele>10.258299113251269</ele>
        <time>2024-10-03T00:31:43Z</time>
        <extensions>
          <gpxtpx:TrackPointExtension>
            <gpxtpx:hr>145</gpxtpx:hr>
          </gpxtpx:TrackPointExtension>
        </extensions>
      </trkpt>
      <trkpt lat="38.83774875230565" lon="121.50994987534118">
        <ele>10.801190616562963</ele>
        <time>2024-10-03T00:31:47Z</time>
        <extensions>
          <gpxtpx:TrackPointExtension>
            <gpxtpx:hr>145</gpxtpx:hr>
          </gpxtpx:TrackPointExtension>
        </extensions>
      </trkpt>
      <trkpt lat="38.83770601275701" lon="121.50984203886873">
        <ele>10.015289418399334</ele>
        <time>2024-10-03T00:31:51Z</time>
        <extensions>
          <gpxtpx:TrackPointExtension>
            <gpxtpx:hr>144</gpxtpx:hr>
          </gpxtpx:TrackPointExtension>
        </extensions>
      </trkpt>
      <trkpt lat="38.83762159437901" lon="121.50977539298033">
        <ele>10.114338490180671</ele>
        <time>2024-10-03T00:31:55Z</time>
        <extensions>
          <gpxtpx:TrackPointExtension>
            <gpxtpx:hr>143</gpxtpx:hr>
          </gpxtpx:TrackPointExtension>
        </extensions>
      </trkpt>
      <trkpt lat="38.8375177553847" lon="121.50975415772717">
        <ele>10.297964917495847</ele>
        <time>2024-10-03T00:31:59Z</time>
        <extensions>
          <gpxtpx:TrackPointExtension>
            <gpxtpx:hr>143</gpxtpx:hr>
          </gpxtpx:TrackPointExtension>
        </extensions>
      </trkpt>
      <trkpt lat="38.8374368193062" lon="121.50968989083124">
        <ele>10.904349436052144</ele>
        <time>2024-10-03T00:32:03Z</time>
        <extensions>
          <gpxtpx:TrackPointExtension>
            <gpxtpx:hr>143</gpxtpx:hr>
          </gpxtpx:TrackPointExtension>
        </extensions>
      </trkpt>
      <trkpt lat="38.83725838231121" lon="121.50941935497855">
        <ele>10.570699971169233</ele>
        <time>2024-10-03T00:32:15Z</time>
        <extensions>
          <gpxtpx:TrackPointExtension>
            <gpxtpx:hr>145</gpxtpx:hr>
          </gpxtpx:TrackPointExtension>
        </extensions>
      </trkpt>
      <trkpt lat="38.83721102683822" lon="121.50933751792077">
        <ele>10.207972086966038</ele>
        <time>2024-10-03T00:32:19Z</time>
        <extensions>
          <gpxtpx:TrackPointExtension>
            <gpxtpx:hr>145</gpxtpx:hr>
          </gpxtpx:TrackPointExtension>
        </extensions>
      </trkpt>
      <trkpt lat="38.83723610442876" lon="121.50919458066915">
        <ele>10.451384642161429</ele>
        <time>2024-10-03T00:32:23Z</time>
        <extensions>
          <gpxtpx:TrackPointExtension>
            <gpxtpx:hr>146</gpxtpx:hr>
          </gpxtpx:TrackPointExtension>
        </extensions>
      </trkpt>
      <trkpt lat="38.83727853669161" lon="121.50909355197736">
        <ele>10.481654096394777</ele>
        <time>2024-10-03T00:32:27Z</time>
        <extensions>
          <gpxtpx:TrackPointExtension>
            <gpxtpx:hr>146</gpxtpx:hr>
          </gpxtpx:TrackPointExtension>
        </extensions>
      </trkpt>
      <trkpt lat="38.83741690075551" lon="121.50894804628024">
        <ele>10.699836157262325</ele>
        <time>2024-10-03T00:32:35Z</time>
        <extensions>
          <gpxtpx:TrackPointExtension>
            <gpxtpx:hr>149</gpxtpx:hr>
          </gpxtpx:TrackPointExtension>
        </extensions>
      </trkpt>
      <trkpt lat="38.83747805437783" lon="121.50885735701287">
        <ele>11.744767608121037</ele>
        <time>2024-10-03T00:32:39Z</time>
        <extensions>
          <gpxtpx:TrackPointExtension>
            <gpxtpx:hr>149</gpxtpx:hr>
          </gpxtpx:TrackPointExtension>
        </extensions>
      </trkpt>
      <trkpt lat="38.83750146345081" lon="121.50874215628168">
        <ele>11.613987490534782</ele>
        <time>2024-10-03T00:32:43Z</time>
        <extensions>
          <gpxtpx:TrackPointExtension>
            <gpxtpx:hr>149</gpxtpx:hr>
          </gpxtpx:TrackPointExtension>
        </extensions>
      </trkpt>
      <trkpt lat="38.83758529571868" lon="121.50853652713948">
        <ele>12.174380093812943</ele>
        <time>2024-10-03T00:32:51Z</time>
        <extensions>
          <gpxtpx:TrackPointExtension>
            <gpxtpx:hr>148</gpxtpx:hr>
          </gpxtpx:TrackPointExtension>
        </extensions>
      </trkpt>
      <trkpt lat="38.837664651267744" lon="121.50846968111364">
        <ele>12.252698911353946</ele>
        <time>2024-10-03T00:32:55Z</time>
        <extensions>
          <gpxtpx:TrackPointExtension>
            <gpxtpx:hr>149</gpxtpx:hr>
          </gpxtpx:TrackPointExtension>
        </extensions>
      </trkpt>
      <trkpt lat="38.8377635756003" lon="121.50852563054653">
        <ele>12.444375065155327</ele>
        <time>2024-10-03T00:32:59Z</time>
        <extensions>
          <gpxtpx:TrackPointExtension>
            <gpxtpx:hr>149</gpxtpx:hr>
          </gpxtpx:TrackPointExtension>
        </extensions>
      </trkpt>
      <trkpt lat="38.837940395456286" lon="121.50877997015482">
        <ele>11.501170247793198</ele>
        <time>2024-10-03T00:33:10Z</time>
        <extensions>
          <gpxtpx:TrackPointExtension>
            <gpxtpx:hr>150</gpxtpx:hr>
          </gpxtpx:TrackPointExtension>
        </extensions>
      </trkpt>
      <trkpt lat="38.83800885764124" lon="121.5088485575466">
        <ele>12.044235603883862</ele>
        <time>2024-10-03T00:33:14Z</time>
        <extensions>
          <gpxtpx:TrackPointExtension>
            <gpxtpx:hr>150</gpxtpx:hr>
          </gpxtpx:TrackPointExtension>
        </extensions>
      </trkpt>
      <trkpt lat="38.838093905972286" lon="121.50889760298402">
        <ele>11.126338811591268</ele>
        <time>2024-10-03T00:33:18Z</time>
        <extensions>
          <gpxtpx:TrackPointExtension>
            <gpxtpx:hr>151</gpxtpx:hr>
          </gpxtpx:TrackPointExtension>
        </extensions>
      </trkpt>
      <trkpt lat="38.83818786555982" lon="121.50892353638699">
        <ele>11.440409724600613</ele>
        <time>2024-10-03T00:33:22Z</time>
        <extensions>
          <gpxtpx:TrackPointExtension>
            <gpxtpx:hr>151</gpxtpx:hr>
          </gpxtpx:TrackPointExtension>
        </extensions>
      </trkpt>
      <trkpt lat="38.83828556992259" lon="121.5090795824927">
        <ele>11.665837992914021</ele>
        <time>2024-10-03T00:33:30Z</time>
        <extensions>
          <gpxtpx:TrackPointExtension>
            <gpxtpx:hr>151</gpxtpx:hr>
          </gpxtpx:TrackPointExtension>
        </extensions>
      </trkpt>
      <trkpt lat="38.83823429329034" lon="121.50921610423586">
        <ele>10.872214928269386</ele>
        <time>2024-10-03T00:33:34Z</time>
        <extensions>
          <gpxtpx:TrackPointExtension>
            <gpxtpx:hr>151</gpxtpx:hr>
          </gpxtpx:TrackPointExtension>
        </extensions>
      </trkpt>
      <trkpt lat="38.83808451664878" lon="121.50935273276707">
        <ele>10.874926867894828</ele>
        <time>2024-10-03T00:33:42Z</time>
        <extensions>
          <gpxtpx:TrackPointExtension>
            <gpxtpx:hr>151</gpxtpx:hr>
          </gpxtpx:TrackPointExtension>
        </extensions>
      </trkpt>
      <trkpt lat="38.837967539242605" lon="121.50956788855204">
        <ele>10.846725120209157</ele>
        <time>2024-10-03T00:33:50Z</time>
        <extensions>
          <gpxtpx:TrackPointExtension>
            <gpxtpx:hr>151</gpxtpx:hr>
          </gpxtpx:TrackPointExtension>
        </extensions>
      </trkpt>
      <trkpt lat="38.8379484821864" lon="121.50969375205116">
        <ele>11.225420305505395</ele>
        <time>2024-10-03T00:33:54Z</time>
        <extensions>
          <gpxtpx:TrackPointExtension>
            <gpxtpx:hr>151</gpxtpx:hr>
          </gpxtpx:TrackPointExtension>
        </extensions>
      </trkpt>
      <trkpt lat="38.83790246971862" lon="121.50979555593572">
        <ele>10.820443510077894</ele>
        <time>2024-10-03T00:33:58Z</time>
        <extensions>
          <gpxtpx:TrackPointExtension>
            <gpxtpx:hr>151</gpxtpx:hr>
          </gpxtpx:TrackPointExtension>
        </extensions>
      </trkpt>
      <trkpt lat="38.83778796854932" lon="121.50975700587857">
        <ele>11.38504222035408</ele>
        <time>2024-10-03T00:34:02Z</time>
        <extensions>
          <gpxtpx:TrackPointExtension>
            <gpxtpx:hr>153</gpxtpx:hr>
          </gpxtpx:TrackPointExtension>
        </extensions>
      </trkpt>
      <trkpt lat="38.83771187683813" lon="121.50967528941979">
        <ele>9.91463487315923</ele>
        <time>2024-10-03T00:34:06Z</time>
        <extensions>
          <gpxtpx:TrackPointExtension>
            <gpxtpx:hr>153</gpxtpx:hr>
          </gpxtpx:TrackPointExtension>
        </extensions>
      </trkpt>
      <trkpt lat="38.83759060230281" lon="121.50945692289262">
        <ele>10.394001978449523</ele>
        <time>2024-10-03T00:34:14Z</time>
        <extensions>
          <gpxtpx:TrackPointExtension>
            <gpxtpx:hr>153</gpxtpx:hr>
          </gpxtpx:TrackPointExtension>
        </extensions>
      </trkpt>
      <trkpt lat="38.837500679091676" lon="121.50939479344514">
        <ele>10.345834474079311</ele>
        <time>2024-10-03T00:34:18Z</time>
        <extensions>
          <gpxtpx:TrackPointExtension>
            <gpxtpx:hr>153</gpxtpx:hr>
          </gpxtpx:TrackPointExtension>
        </extensions>
      </trkpt>
      <trkpt lat="38.83720380073479" lon="121.50928290123736">
        <ele>9.902462833561003</ele>
        <time>2024-10-03T00:34:30Z</time>
        <extensions>
          <gpxtpx:TrackPointExtension>
            <gpxtpx:hr>156</gpxtpx:hr>
          </gpxtpx:TrackPointExtension>
        </extensions>
      </trkpt>
      <trkpt lat="38.83712762255397" lon="121.50940181916648">
        <ele>11.321663298644125</ele>
        <time>2024-10-03T00:34:34Z</time>
        <extensions>
          <gpxtpx:TrackPointExtension>
            <gpxtpx:hr>156</gpxtpx:hr>
          </gpxtpx:TrackPointExtension>
        </extensions>
      </trkpt>
      <trkpt lat="38.83697178748855" lon="121.50973007212252">
        <ele>10.41387854423374</ele>
        <time>2024-10-03T00:34:46Z</time>
        <extensions>
          <gpxtpx:TrackPointExtension>
            <gpxtpx:hr>156</gpxtpx:hr>
          </gpxtpx:TrackPointExtension>
        </extensions>
      </trkpt>
      <trkpt lat="38.83689279332817" lon="121.50983935955547">
        <ele>10.611219764687121</ele>
        <time>2024-10-03T00:34:50Z</time>
        <extensions>
          <gpxtpx:TrackPointExtension>
            <gpxtpx:hr>156</gpxtpx:hr>
          </gpxtpx:TrackPointExtension>
        </extensions>
      </trkpt>
      <trkpt lat="38.83681590129452" lon="121.50989947152328">
        <ele>9.919580384157598</ele>
        <time>2024-10-03T00:34:54Z</time>
        <extensions>
          <gpxtpx:TrackPointExtension>
            <gpxtpx:hr>158</gpxtpx:hr>
          </gpxtpx:TrackPointExtension>
        </extensions>
      </trkpt>
      <trkpt lat="38.83652803708386" lon="121.50997913297051">
        <ele>8.515070452354848</ele>
        <time>2024-10-03T00:35:06Z</time>
        <extensions>
          <gpxtpx:TrackPointExtension>
            <gpxtpx:hr>158</gpxtpx:hr>
          </gpxtpx:TrackPointExtension>
        </extensions>
      </trkpt>
      <trkpt lat="38.83648072435992" lon="121.51006813505283">
        <ele>9.689129689708352</ele>
        <time>2024-10-03T00:35:09Z</time>
        <extensions>
          <gpxtpx:TrackPointExtension>
            <gpxtpx:hr>158</gpxtpx:hr>
          </gpxtpx:TrackPointExtension>
        </extensions>
      </trkpt>
      <trkpt lat="38.836481852372934" lon="121.51015527273816">
        <ele>9.59089934732765</ele>
        <time>2024-10-03T00:35:12Z</time>
        <extensions>
          <gpxtpx:TrackPointExtension>
            <gpxtpx:hr>158</gpxtpx:hr>
          </gpxtpx:TrackPointExtension>
        </extensions>
      </trkpt>
      <trkpt lat="38.83654498160779" lon="121.51035488239697">
        <ele>9.425283408723772</ele>
        <time>2024-10-03T00:35:19Z</time>
        <extensions>
          <gpxtpx:TrackPointExtension>
            <gpxtpx:hr>158</gpxtpx:hr>
          </gpxtpx:TrackPointExtension>
        </extensions>
      </trkpt>
      <trkpt lat="38.83680441142148" lon="121.51055374686327">
        <ele>9.10554918833077</ele>
        <time>2024-10-03T00:35:31Z</time>
        <extensions>
          <gpxtpx:TrackPointExtension>
            <gpxtpx:hr>158</gpxtpx:hr>
          </gpxtpx:TrackPointExtension>
        </extensions>
      </trkpt>
      <trkpt lat="38.83700249005545" lon="121.51087353410284">
        <ele>8.685894656926394</ele>
        <time>2024-10-03T00:35:43Z</time>
        <extensions>
          <gpxtpx:TrackPointExtension>
            <gpxtpx:hr>158</gpxtpx:hr>
          </gpxtpx:TrackPointExtension>
        </extensions>
      </trkpt>
      <trkpt lat="38.83710385038461" lon="121.51082897994819">
        <ele>8.797746794298291</ele>
        <time>2024-10-03T00:35:47Z</time>
        <extensions>
          <gpxtpx:TrackPointExtension>
            <gpxtpx:hr>158</gpxtpx:hr>
          </gpxtpx:TrackPointExtension>
        </extensions>
      </trkpt>
      <trkpt lat="38.83715566485594" lon="121.51071493570839">
        <ele>8.808454935438931</ele>
        <time>2024-10-03T00:35:51Z</time>
        <extensions>
          <gpxtpx:TrackPointExtension>
            <gpxtpx:hr>159</gpxtpx:hr>
          </gpxtpx:TrackPointExtension>
        </extensions>
      </trkpt>
      <trkpt lat="38.837288938533874" lon="121.51052954688396">
        <ele>9.467753084376454</ele>
        <time>2024-10-03T00:35:59Z</time>
        <extensions>
          <gpxtpx:TrackPointExtension>
            <gpxtpx:hr>159</gpxtpx:hr>
          </gpxtpx:TrackPointExtension>
        </extensions>
      </trkpt>
      <trkpt lat="38.83756999296381" lon="121.51024994551827">
        <ele>9.816144646145403</ele>
        <time>2024-10-03T00:36:15Z</time>
        <extensions>
          <gpxtpx:TrackPointExtension>
            <gpxtpx:hr>160</gpxtpx:hr>
          </gpxtpx:TrackPointExtension>
        </extensions>
      </trkpt>
      <trkpt lat="38.837730478156026" lon="121.51010821216619">
        <ele>10.449407959356904</ele>
        <time>2024-10-03T00:36:23Z</time>
        <extensions>
          <gpxtpx:TrackPointExtension>
            <gpxtpx:hr>160</gpxtpx:hr>
          </gpxtpx:TrackPointExtension>
        </extensions>
      </trkpt>
      <trkpt lat="38.837777678701485" lon="121.50999356310902">
        <ele>10.023735407739878</ele>
        <time>2024-10-03T00:36:27Z</time>
        <extensions>
          <gpxtpx:TrackPointExtension>
            <gpxtpx:hr>160</gpxtpx:hr>
          </gpxtpx:TrackPointExtension>
        </extensions>
      </trkpt>
      <trkpt lat="38.83773223887077" lon="121.5098607678549">
        <ele>10.941923374310136</ele>
        <time>2024-10-03T00:36:31Z</time>
        <extensions>
          <gpxtpx:TrackPointExtension>
            <gpxtpx:hr>161</gpxtpx:hr>
          </gpxtpx:TrackPointExtension>
        </extensions>
      </trkpt>
      <trkpt lat="38.83757686574415" lon="121.50964448292028">
        <ele>10.67163154296577</ele>
        <time>2024-10-03T00:36:39Z</time>
        <extensions>
          <gpxtpx:TrackPointExtension>
            <gpxtpx:hr>161</gpxtpx:hr>
          </gpxtpx:TrackPointExtension>
        </extensions>
      </trkpt>
      <trkpt lat="38.837496848412584" lon="121.5095617199146">
        <ele>10.50666962377727</ele>
        <time>2024-10-03T00:36:43Z</time>
        <extensions>
          <gpxtpx:TrackPointExtension>
            <gpxtpx:hr>161</gpxtpx:hr>
          </gpxtpx:TrackPointExtension>
        </extensions>
      </trkpt>
      <trkpt lat="38.83721852636356" lon="121.50935967007906">
        <ele>11.188143284060061</ele>
        <time>2024-10-03T00:36:55Z</time>
        <extensions>
          <gpxtpx:TrackPointExtension>
            <gpxtpx:hr>162</gpxtpx:hr>
          </gpxtpx:TrackPointExtension>
        </extensions>
      </trkpt>
      <trkpt lat="38.83721756629746" lon="121.50922151537955">
        <ele>9.962508509866893</ele>
        <time>2024-10-03T00:36:59Z</time>
        <extensions>
          <gpxtpx:TrackPointExtension>
            <gpxtpx:hr>162</gpxtpx:hr>
          </gpxtpx:TrackPointExtension>
        </extensions>
      </trkpt>
      <trkpt lat="38.837267936754714" lon="121.50909419835412">
        <ele>11.269587413407862</ele>
        <time>2024-10-03T00:37:03Z</time>
        <extensions>
          <gpxtpx:TrackPointExtension>
            <gpxtpx:hr>161</gpxtpx:hr>
          </gpxtpx:TrackPointExtension>
        </extensions>
      </trkpt>
      <trkpt lat="38.837352597646316" lon="121.5090216648057">
        <ele>10.80248695332557</ele>
        <time>2024-10-03T00:37:07Z</time>
        <extensions>
          <gpxtpx:TrackPointExtension>
            <gpxtpx:hr>162</gpxtpx:hr>
          </gpxtpx:TrackPointExtension>
        </extensions>
      </trkpt>
      <trkpt lat="38.837464804315545" lon="121.50886456542034">
        <ele>10.86511925328523</ele>
        <time>2024-10-03T00:37:14Z</time>
        <extensions>
          <gpxtpx:TrackPointExtension>
            <gpxtpx:hr>162</gpxtpx:hr>
          </gpxtpx:TrackPointExtension>
        </extensions>
      </trkpt>
      <trkpt lat="38.837547028415436" lon="121.5086110335927">
        <ele>10.94327641185373</ele>
        <time>2024-10-03T00:37:25Z</time>
        <extensions>
          <gpxtpx:TrackPointExtension>
            <gpxtpx:hr>162</gpxtpx:hr>
          </gpxtpx:TrackPointExtension>
        </extensions>
      </trkpt>
    </trkseg>
  </trk>
</gpx>