<?xml version="1.0" encoding="UTF-8"?>
<gpx xmlns="http://www.topografix.com/GPX/1/1" xmlns:gpxtpx="http://www.garmin.com/xmlschemas/TrackPointExtension/v1" xmlns:xsi="http://www.w3.org/2001/XMLSchema-instance" xsi:schemaLocation="http://www.topografix.com/GPX/1/1 http://www.topografix.com/GPX/1/1/gpx.xsd" version="1.1" creator="gpx.py -- https://github.com/tkrajina/gpxpy">
  <trk>
    <name>gpx from keep</name>
    <type>Run</type>
    <trkseg>
      <trkpt lat="38.837196287889896" lon="121.5042115162494">
        <ele>8.749890095477973</ele>
        <time>2025-08-26T15:17:20Z</time>
      </trkpt>
      <trkpt lat="38.837208948227214" lon="121.50433618788271">
        <ele>7.947483801566403</ele>
        <time>2025-08-26T15:17:27Z</time>
      </trkpt>
      <trkpt lat="38.83731375590112" lon="121.50449121987353">
        <ele>8.1107337186113</ele>
        <time>2025-08-26T15:17:39Z</time>
      </trkpt>
      <trkpt lat="38.837560254323456" lon="121.50473973368003">
        <ele>8.882257771678269</ele>
        <time>2025-08-26T15:18:03Z</time>
      </trkpt>
      <trkpt lat="38.83782117443277" lon="121.50495088201465">
        <ele>8.901568530127406</ele>
        <time>2025-08-26T15:18:21Z</time>
      </trkpt>
      <trkpt lat="38.83800656173658" lon="121.50511602566237">
        <ele>10.573303833603859</ele>
        <time>2025-08-26T15:18:33Z</time>
      </trkpt>
      <trkpt lat="38.83804118447522" lon="121.50517764971543">
        <ele>10.341030870564282</ele>
        <time>2025-08-26T15:18:36Z</time>
      </trkpt>
      <trkpt lat="38.83796725429472" lon="121.50530235998687">
        <ele>10.97169358190149</ele>
        <time>2025-08-26T15:18:42Z</time>
      </trkpt>
      <trkpt lat="38.83791881026087" lon="121.50535088571604">
        <ele>10.383128286339343</ele>
        <time>2025-08-26T15:18:45Z</time>
      </trkpt>
      <trkpt lat="38.837869479641284" lon="121.50529004128116">
        <ele>9.769932512193918</ele>
        <time>2025-08-26T15:18:48Z</time>
      </trkpt>
      <trkpt lat="38.837812282094205" lon="121.50529809750323">
        <ele>9.806985038332641</ele>
        <time>2025-08-26T15:18:51Z</time>
      </trkpt>
      <trkpt lat="38.83776033042117" lon="121.5054190656311">
        <ele>9.590026069432497</ele>
        <time>2025-08-26T15:18:57Z</time>
      </trkpt>
      <trkpt lat="38.83771543063481" lon="121.5054415714564">
        <ele>9.692494623363018</ele>
        <time>2025-08-26T15:19:00Z</time>
      </trkpt>
      <trkpt lat="38.83754869752569" lon="121.50571905402163">
        <ele>9.604455621913075</ele>
        <time>2025-08-26T15:19:15Z</time>
      </trkpt>
      <trkpt lat="38.83738971534993" lon="121.50601541421014">
        <ele>9.940766332671046</ele>
        <time>2025-08-26T15:19:31Z</time>
      </trkpt>
      <trkpt lat="38.837260304060784" lon="121.50624671936315">
        <ele>10.764956799335778</ele>
        <time>2025-08-26T15:19:43Z</time>
      </trkpt>
      <trkpt lat="38.83725544149793" lon="121.5063163771">
        <ele>10.766279784962535</ele>
        <time>2025-08-26T15:19:46Z</time>
      </trkpt>
      <trkpt lat="38.837288385089586" lon="121.50637127153834">
        <ele>10.938606973737478</ele>
        <time>2025-08-26T15:19:49Z</time>
      </trkpt>
      <trkpt lat="38.83733468235073" lon="121.50636143461807">
        <ele>10.343450663611293</ele>
        <time>2025-08-26T15:19:52Z</time>
      </trkpt>
      <trkpt lat="38.83752926690881" lon="121.50606864258701">
        <ele>10.832787549123168</ele>
        <time>2025-08-26T15:20:11Z</time>
      </trkpt>
      <trkpt lat="38.837590646011165" lon="121.50592099790752">
        <ele>9.51733263861388</ele>
        <time>2025-08-26T15:20:17Z</time>
      </trkpt>
      <trkpt lat="38.8375852933405" lon="121.50584927731877">
        <ele>10.365269439294934</ele>
        <time>2025-08-26T15:20:20Z</time>
      </trkpt>
      <trkpt lat="38.837660307050676" lon="121.50572979878606">
        <ele>9.92957565560937</ele>
        <time>2025-08-26T15:20:26Z</time>
      </trkpt>
      <trkpt lat="38.83770721873136" lon="121.5056999287587">
        <ele>10.600697414949536</ele>
        <time>2025-08-26T15:20:29Z</time>
      </trkpt>
      <trkpt lat="38.837812257460854" lon="121.50551461296065">
        <ele>9.846817289479077</ele>
        <time>2025-08-26T15:20:38Z</time>
      </trkpt>
      <trkpt lat="38.837931988373406" lon="121.50536968264107">
        <ele>8.475913782604039</ele>
        <time>2025-08-26T15:20:47Z</time>
      </trkpt>
      <trkpt lat="38.837971235905236" lon="121.50522548452712">
        <ele>8.342162845656276</ele>
        <time>2025-08-26T15:20:53Z</time>
      </trkpt>
      <trkpt lat="38.83800664127771" lon="121.50515118691946">
        <ele>9.983006216585636</ele>
        <time>2025-08-26T15:20:56Z</time>
      </trkpt>
      <trkpt lat="38.838152834836826" lon="121.50497784217185">
        <ele>10.422646859660745</ele>
        <time>2025-08-26T15:21:05Z</time>
      </trkpt>
      <trkpt lat="38.83828198068762" lon="121.5047006558595">
        <ele>10.399817432276905</ele>
        <time>2025-08-26T15:21:17Z</time>
      </trkpt>
      <trkpt lat="38.83832884755754" lon="121.50465408953788">
        <ele>10.51206573098898</ele>
        <time>2025-08-26T15:21:20Z</time>
      </trkpt>
      <trkpt lat="38.838521555066805" lon="121.5043398445097">
        <ele>10.634531167335808</ele>
        <time>2025-08-26T15:21:36Z</time>
      </trkpt>
      <trkpt lat="38.83854810001615" lon="121.50426443753244">
        <ele>9.367602507583797</ele>
        <time>2025-08-26T15:21:39Z</time>
      </trkpt>
      <trkpt lat="38.83860616265092" lon="121.50420002456617">
        <ele>9.03863876964897</ele>
        <time>2025-08-26T15:21:42Z</time>
      </trkpt>
      <trkpt lat="38.83856187553536" lon="121.50385644452302">
        <ele>9.560507325455546</ele>
        <time>2025-08-26T15:21:56Z</time>
      </trkpt>
      <trkpt lat="38.838544284200346" lon="121.50369106926861">
        <ele>9.139594066888094</ele>
        <time>2025-08-26T15:22:02Z</time>
      </trkpt>
      <trkpt lat="38.83855043916951" lon="121.50355985878261">
        <ele>9.283711036667228</ele>
        <time>2025-08-26T15:22:08Z</time>
      </trkpt>
      <trkpt lat="38.838531109596516" lon="121.50347675884079">
        <ele>7.737100907601416</ele>
        <time>2025-08-26T15:22:11Z</time>
      </trkpt>
      <trkpt lat="38.83853647669273" lon="121.50339707468424">
        <ele>7.378259977325797</ele>
        <time>2025-08-26T15:22:14Z</time>
      </trkpt>
      <trkpt lat="38.8384891016855" lon="121.50333987979563">
        <ele>7.8691631611436605</ele>
        <time>2025-08-26T15:22:17Z</time>
      </trkpt>
      <trkpt lat="38.83843336692806" lon="121.50332587265453">
        <ele>8.804984324611723</ele>
        <time>2025-08-26T15:22:20Z</time>
      </trkpt>
      <trkpt lat="38.838133090881676" lon="121.50337481858018">
        <ele>7.57754279114306</ele>
        <time>2025-08-26T15:22:35Z</time>
      </trkpt>
      <trkpt lat="38.837995497077024" lon="121.50340203165123">
        <ele>7.410444804467261</ele>
        <time>2025-08-26T15:22:41Z</time>
      </trkpt>
      <trkpt lat="38.83779757701995" lon="121.50337094613161">
        <ele>8.365358794108033</ele>
        <time>2025-08-26T15:22:50Z</time>
      </trkpt>
      <trkpt lat="38.837500372355755" lon="121.50346679978273">
        <ele>8.063764428719878</ele>
        <time>2025-08-26T15:23:05Z</time>
      </trkpt>
      <trkpt lat="38.83724897996875" lon="121.50347640206121">
        <ele>7.159676183015108</ele>
        <time>2025-08-26T15:23:17Z</time>
      </trkpt>
      <trkpt lat="38.83712720217498" lon="121.50377034810157">
        <ele>8.911463471129537</ele>
        <time>2025-08-26T15:23:29Z</time>
      </trkpt>
      <trkpt lat="38.83711549359241" lon="121.503844253973">
        <ele>9.310748006217182</ele>
        <time>2025-08-26T15:23:32Z</time>
      </trkpt>
      <trkpt lat="38.83707723660507" lon="121.50392720446172">
        <ele>9.945450500585139</ele>
        <time>2025-08-26T15:23:35Z</time>
      </trkpt>
      <trkpt lat="38.83703578365868" lon="121.50411518722915">
        <ele>8.750859109684825</ele>
        <time>2025-08-26T15:23:42Z</time>
      </trkpt>
      <trkpt lat="38.83708282467024" lon="121.5041820647003">
        <ele>9.052745276130736</ele>
        <time>2025-08-26T15:23:45Z</time>
      </trkpt>
      <trkpt lat="38.83709871795007" lon="121.50428256573144">
        <ele>8.91173142939806</ele>
        <time>2025-08-26T15:23:49Z</time>
      </trkpt>
      <trkpt lat="38.83718473453653" lon="121.50431936976742">
        <ele>9.634566862136126</ele>
        <time>2025-08-26T15:23:53Z</time>
      </trkpt>
      <trkpt lat="38.83730388987475" lon="121.50446315444468">
        <ele>7.556715240702033</ele>
        <time>2025-08-26T15:24:02Z</time>
      </trkpt>
      <trkpt lat="38.83756636160805" lon="121.50470233605613">
        <ele>8.77343519590795</ele>
        <time>2025-08-26T15:24:17Z</time>
      </trkpt>
      <trkpt lat="38.83781243657987" lon="121.50490511829969">
        <ele>8.14571131579578</ele>
        <time>2025-08-26T15:24:32Z</time>
      </trkpt>
      <trkpt lat="38.83801052148299" lon="121.50509173951875">
        <ele>10.078469911590219</ele>
        <time>2025-08-26T15:24:44Z</time>
      </trkpt>
      <trkpt lat="38.83800997935542" lon="121.50518463420983">
        <ele>10.32375362329185</ele>
        <time>2025-08-26T15:24:47Z</time>
      </trkpt>
      <trkpt lat="38.83798155281604" lon="121.50527583377209">
        <ele>10.96668569650501</ele>
        <time>2025-08-26T15:24:50Z</time>
      </trkpt>
      <trkpt lat="38.837941576996855" lon="121.5053361321999">
        <ele>9.902727851644158</ele>
        <time>2025-08-26T15:24:53Z</time>
      </trkpt>
      <trkpt lat="38.83789658788925" lon="121.50535273641674">
        <ele>9.578845359385014</ele>
        <time>2025-08-26T15:24:56Z</time>
      </trkpt>
      <trkpt lat="38.837861744340756" lon="121.50525632086199">
        <ele>9.680142005905509</ele>
        <time>2025-08-26T15:24:59Z</time>
      </trkpt>
      <trkpt lat="38.83779420701711" lon="121.50533074701316">
        <ele>10.201432203873992</ele>
        <time>2025-08-26T15:25:02Z</time>
      </trkpt>
      <trkpt lat="38.83760069954797" lon="121.50565633030918">
        <ele>10.360524730756879</ele>
        <time>2025-08-26T15:25:17Z</time>
      </trkpt>
      <trkpt lat="38.83741596158921" lon="121.50595901762613">
        <ele>10.099774829111993</ele>
        <time>2025-08-26T15:25:32Z</time>
      </trkpt>
      <trkpt lat="38.83739565068572" lon="121.50604616411599">
        <ele>10.401937428861856</ele>
        <time>2025-08-26T15:25:35Z</time>
      </trkpt>
      <trkpt lat="38.83728615225759" lon="121.50622657408468">
        <ele>10.148354102857411</ele>
        <time>2025-08-26T15:25:44Z</time>
      </trkpt>
      <trkpt lat="38.837265562706264" lon="121.50641107445007">
        <ele>10.99758349917829</ele>
        <time>2025-08-26T15:25:52Z</time>
      </trkpt>
      <trkpt lat="38.837204889476915" lon="121.5064951802982">
        <ele>10.569209559820592</ele>
        <time>2025-08-26T15:25:56Z</time>
      </trkpt>
      <trkpt lat="38.83729875961374" lon="121.50645332309114">
        <ele>10.398888853378594</ele>
        <time>2025-08-26T15:26:00Z</time>
      </trkpt>
      <trkpt lat="38.837391701106206" lon="121.50621408568541">
        <ele>10.956788186915219</ele>
        <time>2025-08-26T15:26:10Z</time>
      </trkpt>
      <trkpt lat="38.837526991688804" lon="121.50602209151951">
        <ele>10.578825186006725</ele>
        <time>2025-08-26T15:26:19Z</time>
      </trkpt>
      <trkpt lat="38.83770686144736" lon="121.50573499814911">
        <ele>10.897464387118816</ele>
        <time>2025-08-26T15:26:31Z</time>
      </trkpt>
      <trkpt lat="38.8377277302164" lon="121.50566795902138">
        <ele>10.397739608772099</ele>
        <time>2025-08-26T15:26:34Z</time>
      </trkpt>
      <trkpt lat="38.837895425638884" lon="121.50539038455031">
        <ele>10.50103008095175</ele>
        <time>2025-08-26T15:26:46Z</time>
      </trkpt>
      <trkpt lat="38.837945249789925" lon="121.50515879778963">
        <ele>10.326718119904399</ele>
        <time>2025-08-26T15:26:55Z</time>
      </trkpt>
      <trkpt lat="38.83784404910521" lon="121.50505602250001">
        <ele>9.921232162974775</ele>
        <time>2025-08-26T15:27:01Z</time>
      </trkpt>
      <trkpt lat="38.837866108420776" lon="121.50499817797612">
        <ele>9.760665213689208</ele>
        <time>2025-08-26T15:27:04Z</time>
      </trkpt>
      <trkpt lat="38.8375753436566" lon="121.50473950773478">
        <ele>8.816327628679574</ele>
        <time>2025-08-26T15:27:19Z</time>
      </trkpt>
      <trkpt lat="38.83731573714909" lon="121.50446794228613">
        <ele>7.627248900942504</ele>
        <time>2025-08-26T15:27:34Z</time>
      </trkpt>
      <trkpt lat="38.83717583691361" lon="121.50435508483272">
        <ele>7.569028027355671</ele>
        <time>2025-08-26T15:27:43Z</time>
      </trkpt>
      <trkpt lat="38.83714424553232" lon="121.50430487650256">
        <ele>7.130887885577977</ele>
        <time>2025-08-26T15:27:46Z</time>
      </trkpt>
      <trkpt lat="38.8370490179715" lon="121.50423868805917">
        <ele>7.184150801040232</ele>
        <time>2025-08-26T15:27:53Z</time>
      </trkpt>
      <trkpt lat="38.837003762865955" lon="121.50425099355823">
        <ele>7.226816995069385</ele>
        <time>2025-08-26T15:27:56Z</time>
      </trkpt>
      <trkpt lat="38.836998320599264" lon="121.50431532667236">
        <ele>7.105376718565822</ele>
        <time>2025-08-26T15:28:00Z</time>
      </trkpt>
      <trkpt lat="38.83696009766153" lon="121.50437362283877">
        <ele>7.302842555567622</ele>
        <time>2025-08-26T15:28:04Z</time>
      </trkpt>
      <trkpt lat="38.83693908054976" lon="121.50445817020291">
        <ele>8.816635867580771</ele>
        <time>2025-08-26T15:28:08Z</time>
      </trkpt>
      <trkpt lat="38.836805202810396" lon="121.50475850998542">
        <ele>9.271836394444108</ele>
        <time>2025-08-26T15:28:23Z</time>
      </trkpt>
      <trkpt lat="38.83679794596674" lon="121.50483088036471">
        <ele>8.86245039012283</ele>
        <time>2025-08-26T15:28:26Z</time>
      </trkpt>
      <trkpt lat="38.836731523704394" lon="121.5049696368363">
        <ele>9.720215843059123</ele>
        <time>2025-08-26T15:28:32Z</time>
      </trkpt>
      <trkpt lat="38.83662079623113" lon="121.50535907280513">
        <ele>9.3600749168545</ele>
        <time>2025-08-26T15:28:47Z</time>
      </trkpt>
      <trkpt lat="38.836501112098404" lon="121.50567382959251">
        <ele>8.638436202891171</ele>
        <time>2025-08-26T15:28:59Z</time>
      </trkpt>
      <trkpt lat="38.83639547939888" lon="121.50600390777129">
        <ele>9.960434724576771</ele>
        <time>2025-08-26T15:29:11Z</time>
      </trkpt>
      <trkpt lat="38.83627909657527" lon="121.50639171460212">
        <ele>7.721747714094818</ele>
        <time>2025-08-26T15:29:26Z</time>
      </trkpt>
      <trkpt lat="38.83617216782287" lon="121.50670994249946">
        <ele>7.618046714924276</ele>
        <time>2025-08-26T15:29:38Z</time>
      </trkpt>
      <trkpt lat="38.83619077742236" lon="121.5067866766387">
        <ele>8.323981055989861</ele>
        <time>2025-08-26T15:29:41Z</time>
      </trkpt>
      <trkpt lat="38.83642550600093" lon="121.50697259315133">
        <ele>8.975749781355262</ele>
        <time>2025-08-26T15:29:53Z</time>
      </trkpt>
      <trkpt lat="38.83670050813082" lon="121.50718217497992">
        <ele>10.705116460099816</ele>
        <time>2025-08-26T15:30:07Z</time>
      </trkpt>
      <trkpt lat="38.83676539886535" lon="121.50718849736775">
        <ele>10.035310729406774</ele>
        <time>2025-08-26T15:30:10Z</time>
      </trkpt>
      <trkpt lat="38.83682723951053" lon="121.50715941915331">
        <ele>10.395750688388944</ele>
        <time>2025-08-26T15:30:13Z</time>
      </trkpt>
      <trkpt lat="38.837029117379124" lon="121.50686683943543">
        <ele>9.6616543950513</ele>
        <time>2025-08-26T15:30:28Z</time>
      </trkpt>
      <trkpt lat="38.837191534510474" lon="121.50653621424406">
        <ele>9.98880953155458</ele>
        <time>2025-08-26T15:30:40Z</time>
      </trkpt>
      <trkpt lat="38.83738634783533" lon="121.5061978795903">
        <ele>10.730164712294936</ele>
        <time>2025-08-26T15:30:55Z</time>
      </trkpt>
      <trkpt lat="38.83755157202867" lon="121.50591713644303">
        <ele>8.990237537771463</ele>
        <time>2025-08-26T15:31:07Z</time>
      </trkpt>
      <trkpt lat="38.8377290690642" lon="121.50558868809766">
        <ele>10.049641508609056</ele>
        <time>2025-08-26T15:31:22Z</time>
      </trkpt>
      <trkpt lat="38.837922697729994" lon="121.50527656409024">
        <ele>9.994085929356515</ele>
        <time>2025-08-26T15:31:43Z</time>
      </trkpt>
      <trkpt lat="38.83795117932492" lon="121.50519523901595">
        <ele>9.979849459603429</ele>
        <time>2025-08-26T15:31:46Z</time>
      </trkpt>
      <trkpt lat="38.83774776419835" lon="121.50495196763491">
        <ele>9.11905170045793</ele>
        <time>2025-08-26T15:31:58Z</time>
      </trkpt>
      <trkpt lat="38.837645754216936" lon="121.50477397765609">
        <ele>8.881098987534642</ele>
        <time>2025-08-26T15:32:05Z</time>
      </trkpt>
      <trkpt lat="38.83750260269814" lon="121.50465995412918">
        <ele>7.786759867332876</ele>
        <time>2025-08-26T15:32:11Z</time>
      </trkpt>
      <trkpt lat="38.837331991489556" lon="121.50448194229566">
        <ele>8.67154491506517</ele>
        <time>2025-08-26T15:32:20Z</time>
      </trkpt>
      <trkpt lat="38.837331991489556" lon="121.50448194229566">
        <ele>8.67154491506517</ele>
        <time>2025-08-26T15:32:23Z</time>
      </trkpt>
    </trkseg>
  </trk>
</gpx>