<?xml version="1.0" encoding="UTF-8"?>
<gpx xmlns="http://www.topografix.com/GPX/1/1" xmlns:gpxtpx="http://www.garmin.com/xmlschemas/TrackPointExtension/v1" xmlns:xsi="http://www.w3.org/2001/XMLSchema-instance" xsi:schemaLocation="http://www.topografix.com/GPX/1/1 http://www.topografix.com/GPX/1/1/gpx.xsd" version="1.1" creator="gpx.py -- https://github.com/tkrajina/gpxpy">
  <trk>
    <name>gpx from keep</name>
    <type>Run</type>
    <trkseg>
      <trkpt lat="38.836998991996055" lon="121.50447503280215">
        <ele>9.662085782567132</ele>
        <time>2025-11-20T15:47:02Z</time>
      </trkpt>
      <trkpt lat="38.83694693782288" lon="121.50446899654784">
        <ele>9.694286954407758</ele>
        <time>2025-11-20T15:47:06Z</time>
      </trkpt>
      <trkpt lat="38.836871299042265" lon="121.50459640285872">
        <ele>8.958231709897518</ele>
        <time>2025-11-20T15:47:15Z</time>
      </trkpt>
      <trkpt lat="38.836761697665665" lon="121.50492502822252">
        <ele>9.730723197571933</ele>
        <time>2025-11-20T15:47:30Z</time>
      </trkpt>
      <trkpt lat="38.83665421924278" lon="121.50531319430857">
        <ele>11.400778555311263</ele>
        <time>2025-11-20T15:47:48Z</time>
      </trkpt>
      <trkpt lat="38.836532975832135" lon="121.50562486719667">
        <ele>10.6555388700217</ele>
        <time>2025-11-20T15:48:03Z</time>
      </trkpt>
      <trkpt lat="38.83641799137564" lon="121.50595866608336">
        <ele>10.519374705851078</ele>
        <time>2025-11-20T15:48:18Z</time>
      </trkpt>
      <trkpt lat="38.83632814294965" lon="121.50631492909697">
        <ele>10.395807392895222</ele>
        <time>2025-11-20T15:48:33Z</time>
      </trkpt>
      <trkpt lat="38.83629739315981" lon="121.50638711676376">
        <ele>10.194785250350833</ele>
        <time>2025-11-20T15:48:36Z</time>
      </trkpt>
      <trkpt lat="38.83628966399142" lon="121.50646141674763">
        <ele>10.586034699343145</ele>
        <time>2025-11-20T15:48:39Z</time>
      </trkpt>
      <trkpt lat="38.836225344321754" lon="121.5065822389879">
        <ele>11.455161165446043</ele>
        <time>2025-11-20T15:48:45Z</time>
      </trkpt>
      <trkpt lat="38.83612751755701" lon="121.50691969753912">
        <ele>10.373383126221597</ele>
        <time>2025-11-20T15:49:03Z</time>
        <extensions>
          <gpxtpx:TrackPointExtension>
            <gpxtpx:hr>115</gpxtpx:hr>
          </gpxtpx:TrackPointExtension>
        </extensions>
      </trkpt>
      <trkpt lat="38.83614544678607" lon="121.50698690731045">
        <ele>10.141706597059965</ele>
        <time>2025-11-20T15:49:06Z</time>
        <extensions>
          <gpxtpx:TrackPointExtension>
            <gpxtpx:hr>115</gpxtpx:hr>
          </gpxtpx:TrackPointExtension>
        </extensions>
      </trkpt>
      <trkpt lat="38.83625035704178" lon="121.50708369836343">
        <ele>8.40383696835488</ele>
        <time>2025-11-20T15:49:13Z</time>
        <extensions>
          <gpxtpx:TrackPointExtension>
            <gpxtpx:hr>115</gpxtpx:hr>
          </gpxtpx:TrackPointExtension>
        </extensions>
      </trkpt>
      <trkpt lat="38.83631652396971" lon="121.50712174134343">
        <ele>9.574625830166042</ele>
        <time>2025-11-20T15:49:24Z</time>
        <extensions>
          <gpxtpx:TrackPointExtension>
            <gpxtpx:hr>115</gpxtpx:hr>
          </gpxtpx:TrackPointExtension>
        </extensions>
      </trkpt>
      <trkpt lat="38.83635875483752" lon="121.50718120187841">
        <ele>10.225566271692514</ele>
        <time>2025-11-20T15:49:28Z</time>
      </trkpt>
      <trkpt lat="38.83659614125097" lon="121.50738070630113">
        <ele>9.505384849384427</ele>
        <time>2025-11-20T15:49:42Z</time>
      </trkpt>
      <trkpt lat="38.83677455702183" lon="121.50752073999617">
        <ele>10.722890676930547</ele>
        <time>2025-11-20T15:49:51Z</time>
      </trkpt>
      <trkpt lat="38.837016946894124" lon="121.50776833352415">
        <ele>10.299837730824947</ele>
        <time>2025-11-20T15:50:06Z</time>
      </trkpt>
      <trkpt lat="38.8372388400407" lon="121.50794425703081">
        <ele>11.60606587678194</ele>
        <time>2025-11-20T15:50:18Z</time>
      </trkpt>
      <trkpt lat="38.837322130066696" lon="121.50807147895675">
        <ele>12.070891408249736</ele>
        <time>2025-11-20T15:50:24Z</time>
        <extensions>
          <gpxtpx:TrackPointExtension>
            <gpxtpx:hr>119</gpxtpx:hr>
          </gpxtpx:TrackPointExtension>
        </extensions>
      </trkpt>
      <trkpt lat="38.83755035542182" lon="121.50823467747627">
        <ele>12.427600597031415</ele>
        <time>2025-11-20T15:50:36Z</time>
        <extensions>
          <gpxtpx:TrackPointExtension>
            <gpxtpx:hr>118</gpxtpx:hr>
          </gpxtpx:TrackPointExtension>
        </extensions>
      </trkpt>
      <trkpt lat="38.83765621265826" lon="121.50833948892137">
        <ele>11.801835162565112</ele>
        <time>2025-11-20T15:50:42Z</time>
        <extensions>
          <gpxtpx:TrackPointExtension>
            <gpxtpx:hr>122</gpxtpx:hr>
          </gpxtpx:TrackPointExtension>
        </extensions>
      </trkpt>
      <trkpt lat="38.83754272060519" lon="121.50872574919737">
        <ele>10.623586473986506</ele>
        <time>2025-11-20T15:50:57Z</time>
        <extensions>
          <gpxtpx:TrackPointExtension>
            <gpxtpx:hr>122</gpxtpx:hr>
          </gpxtpx:TrackPointExtension>
        </extensions>
      </trkpt>
      <trkpt lat="38.83746259984608" lon="121.50894686006933">
        <ele>11.02354236971587</ele>
        <time>2025-11-20T15:51:06Z</time>
        <extensions>
          <gpxtpx:TrackPointExtension>
            <gpxtpx:hr>123</gpxtpx:hr>
          </gpxtpx:TrackPointExtension>
        </extensions>
      </trkpt>
      <trkpt lat="38.83723417358146" lon="121.50918046309368">
        <ele>11.6655648406595</ele>
        <time>2025-11-20T15:51:19Z</time>
        <extensions>
          <gpxtpx:TrackPointExtension>
            <gpxtpx:hr>126</gpxtpx:hr>
          </gpxtpx:TrackPointExtension>
        </extensions>
      </trkpt>
      <trkpt lat="38.83706420923152" lon="121.50956304433409">
        <ele>11.247307077050209</ele>
        <time>2025-11-20T15:51:35Z</time>
        <extensions>
          <gpxtpx:TrackPointExtension>
            <gpxtpx:hr>128</gpxtpx:hr>
          </gpxtpx:TrackPointExtension>
        </extensions>
      </trkpt>
      <trkpt lat="38.8370233730856" lon="121.50966252576474">
        <ele>10.520704237744212</ele>
        <time>2025-11-20T15:51:39Z</time>
        <extensions>
          <gpxtpx:TrackPointExtension>
            <gpxtpx:hr>127</gpxtpx:hr>
          </gpxtpx:TrackPointExtension>
        </extensions>
      </trkpt>
      <trkpt lat="38.83684680647995" lon="121.50986629278817">
        <ele>9.125990877859294</ele>
        <time>2025-11-20T15:51:50Z</time>
        <extensions>
          <gpxtpx:TrackPointExtension>
            <gpxtpx:hr>127</gpxtpx:hr>
          </gpxtpx:TrackPointExtension>
        </extensions>
      </trkpt>
      <trkpt lat="38.83666159775729" lon="121.50994766551422">
        <ele>8.582026597112417</ele>
        <time>2025-11-20T15:51:59Z</time>
        <extensions>
          <gpxtpx:TrackPointExtension>
            <gpxtpx:hr>127</gpxtpx:hr>
          </gpxtpx:TrackPointExtension>
        </extensions>
      </trkpt>
      <trkpt lat="38.83635320428255" lon="121.5099658362831">
        <ele>7.859377020038664</ele>
        <time>2025-11-20T15:52:14Z</time>
        <extensions>
          <gpxtpx:TrackPointExtension>
            <gpxtpx:hr>126</gpxtpx:hr>
          </gpxtpx:TrackPointExtension>
        </extensions>
      </trkpt>
      <trkpt lat="38.83629503388013" lon="121.50998253961883">
        <ele>7.5090214079245925</ele>
        <time>2025-11-20T15:52:17Z</time>
        <extensions>
          <gpxtpx:TrackPointExtension>
            <gpxtpx:hr>126</gpxtpx:hr>
          </gpxtpx:TrackPointExtension>
        </extensions>
      </trkpt>
      <trkpt lat="38.83612680766197" lon="121.51009389970213">
        <ele>8.616547528654337</ele>
        <time>2025-11-20T15:52:26Z</time>
        <extensions>
          <gpxtpx:TrackPointExtension>
            <gpxtpx:hr>126</gpxtpx:hr>
          </gpxtpx:TrackPointExtension>
        </extensions>
      </trkpt>
      <trkpt lat="38.83610040097078" lon="121.51016833507838">
        <ele>8.049360170029104</ele>
        <time>2025-11-20T15:52:29Z</time>
        <extensions>
          <gpxtpx:TrackPointExtension>
            <gpxtpx:hr>126</gpxtpx:hr>
          </gpxtpx:TrackPointExtension>
        </extensions>
      </trkpt>
      <trkpt lat="38.836233861691966" lon="121.51047233749476">
        <ele>8.97396900691092</ele>
        <time>2025-11-20T15:52:41Z</time>
        <extensions>
          <gpxtpx:TrackPointExtension>
            <gpxtpx:hr>127</gpxtpx:hr>
          </gpxtpx:TrackPointExtension>
        </extensions>
      </trkpt>
      <trkpt lat="38.836255257767526" lon="121.51054722572826">
        <ele>8.531084495596588</ele>
        <time>2025-11-20T15:52:44Z</time>
        <extensions>
          <gpxtpx:TrackPointExtension>
            <gpxtpx:hr>127</gpxtpx:hr>
          </gpxtpx:TrackPointExtension>
        </extensions>
      </trkpt>
      <trkpt lat="38.83622496524745" lon="121.51079847145722">
        <ele>8.446520484983921</ele>
        <time>2025-11-20T15:52:53Z</time>
        <extensions>
          <gpxtpx:TrackPointExtension>
            <gpxtpx:hr>127</gpxtpx:hr>
          </gpxtpx:TrackPointExtension>
        </extensions>
      </trkpt>
      <trkpt lat="38.83604983333613" lon="121.51113996030521">
        <ele>7.102226318791509</ele>
        <time>2025-11-20T15:53:08Z</time>
        <extensions>
          <gpxtpx:TrackPointExtension>
            <gpxtpx:hr>130</gpxtpx:hr>
          </gpxtpx:TrackPointExtension>
        </extensions>
      </trkpt>
      <trkpt lat="38.83599235724446" lon="121.51128735319148">
        <ele>7.0084781823679805</ele>
        <time>2025-11-20T15:53:14Z</time>
        <extensions>
          <gpxtpx:TrackPointExtension>
            <gpxtpx:hr>130</gpxtpx:hr>
          </gpxtpx:TrackPointExtension>
        </extensions>
      </trkpt>
      <trkpt lat="38.83597042192707" lon="121.51147439254025">
        <ele>6.853444064967334</ele>
        <time>2025-11-20T15:53:21Z</time>
        <extensions>
          <gpxtpx:TrackPointExtension>
            <gpxtpx:hr>129</gpxtpx:hr>
          </gpxtpx:TrackPointExtension>
        </extensions>
      </trkpt>
      <trkpt lat="38.83599040747682" lon="121.51158171674948">
        <ele>7.179188389331102</ele>
        <time>2025-11-20T15:53:25Z</time>
        <extensions>
          <gpxtpx:TrackPointExtension>
            <gpxtpx:hr>129</gpxtpx:hr>
          </gpxtpx:TrackPointExtension>
        </extensions>
      </trkpt>
      <trkpt lat="38.83607055041976" lon="121.5117849016444">
        <ele>7.027799946255982</ele>
        <time>2025-11-20T15:53:33Z</time>
        <extensions>
          <gpxtpx:TrackPointExtension>
            <gpxtpx:hr>130</gpxtpx:hr>
          </gpxtpx:TrackPointExtension>
        </extensions>
      </trkpt>
      <trkpt lat="38.83613984889359" lon="121.51186108194979">
        <ele>6.420667574740946</ele>
        <time>2025-11-20T15:53:37Z</time>
        <extensions>
          <gpxtpx:TrackPointExtension>
            <gpxtpx:hr>131</gpxtpx:hr>
          </gpxtpx:TrackPointExtension>
        </extensions>
      </trkpt>
      <trkpt lat="38.83622106979456" lon="121.51191104689532">
        <ele>6.223924417048693</ele>
        <time>2025-11-20T15:53:41Z</time>
        <extensions>
          <gpxtpx:TrackPointExtension>
            <gpxtpx:hr>131</gpxtpx:hr>
          </gpxtpx:TrackPointExtension>
        </extensions>
      </trkpt>
      <trkpt lat="38.83631260819491" lon="121.51192994230716">
        <ele>6.183953256346285</ele>
        <time>2025-11-20T15:53:45Z</time>
        <extensions>
          <gpxtpx:TrackPointExtension>
            <gpxtpx:hr>131</gpxtpx:hr>
          </gpxtpx:TrackPointExtension>
        </extensions>
      </trkpt>
      <trkpt lat="38.836404031022234" lon="121.51191871049325">
        <ele>6.311045783571899</ele>
        <time>2025-11-20T15:53:49Z</time>
        <extensions>
          <gpxtpx:TrackPointExtension>
            <gpxtpx:hr>131</gpxtpx:hr>
          </gpxtpx:TrackPointExtension>
        </extensions>
      </trkpt>
      <trkpt lat="38.83660086188219" lon="121.51182745531226">
        <ele>6.336353687569499</ele>
        <time>2025-11-20T15:53:58Z</time>
        <extensions>
          <gpxtpx:TrackPointExtension>
            <gpxtpx:hr>131</gpxtpx:hr>
          </gpxtpx:TrackPointExtension>
        </extensions>
      </trkpt>
      <trkpt lat="38.836800199850785" lon="121.51159407720078">
        <ele>6.6740958001464605</ele>
        <time>2025-11-20T15:54:10Z</time>
        <extensions>
          <gpxtpx:TrackPointExtension>
            <gpxtpx:hr>131</gpxtpx:hr>
          </gpxtpx:TrackPointExtension>
        </extensions>
      </trkpt>
      <trkpt lat="38.83689935059859" lon="121.51146431111508">
        <ele>6.424668933264911</ele>
        <time>2025-11-20T15:54:16Z</time>
        <extensions>
          <gpxtpx:TrackPointExtension>
            <gpxtpx:hr>131</gpxtpx:hr>
          </gpxtpx:TrackPointExtension>
        </extensions>
      </trkpt>
      <trkpt lat="38.83699558423035" lon="121.51124366931882">
        <ele>7.365790854208171</ele>
        <time>2025-11-20T15:54:25Z</time>
        <extensions>
          <gpxtpx:TrackPointExtension>
            <gpxtpx:hr>131</gpxtpx:hr>
          </gpxtpx:TrackPointExtension>
        </extensions>
      </trkpt>
      <trkpt lat="38.837021973675334" lon="121.51098235798761">
        <ele>8.567877687513828</ele>
        <time>2025-11-20T15:54:34Z</time>
        <extensions>
          <gpxtpx:TrackPointExtension>
            <gpxtpx:hr>130</gpxtpx:hr>
          </gpxtpx:TrackPointExtension>
        </extensions>
      </trkpt>
      <trkpt lat="38.83715388258258" lon="121.51068258152327">
        <ele>8.045639595016837</ele>
        <time>2025-11-20T15:54:46Z</time>
        <extensions>
          <gpxtpx:TrackPointExtension>
            <gpxtpx:hr>129</gpxtpx:hr>
          </gpxtpx:TrackPointExtension>
        </extensions>
      </trkpt>
      <trkpt lat="38.83738395194154" lon="121.51038597802048">
        <ele>8.429839327000082</ele>
        <time>2025-11-20T15:55:01Z</time>
        <extensions>
          <gpxtpx:TrackPointExtension>
            <gpxtpx:hr>134</gpxtpx:hr>
          </gpxtpx:TrackPointExtension>
        </extensions>
      </trkpt>
      <trkpt lat="38.837613978298386" lon="121.5101966366815">
        <ele>9.513797297142446</ele>
        <time>2025-11-20T15:55:13Z</time>
        <extensions>
          <gpxtpx:TrackPointExtension>
            <gpxtpx:hr>136</gpxtpx:hr>
          </gpxtpx:TrackPointExtension>
        </extensions>
      </trkpt>
      <trkpt lat="38.83770753160407" lon="121.51006901141635">
        <ele>9.720742330886424</ele>
        <time>2025-11-20T15:55:19Z</time>
        <extensions>
          <gpxtpx:TrackPointExtension>
            <gpxtpx:hr>135</gpxtpx:hr>
          </gpxtpx:TrackPointExtension>
        </extensions>
      </trkpt>
      <trkpt lat="38.83776234215508" lon="121.50991543377894">
        <ele>8.570254973135889</ele>
        <time>2025-11-20T15:55:25Z</time>
        <extensions>
          <gpxtpx:TrackPointExtension>
            <gpxtpx:hr>135</gpxtpx:hr>
          </gpxtpx:TrackPointExtension>
        </extensions>
      </trkpt>
      <trkpt lat="38.837818069992956" lon="121.50992375811549">
        <ele>7.8605327401310205</ele>
        <time>2025-11-20T15:55:28Z</time>
        <extensions>
          <gpxtpx:TrackPointExtension>
            <gpxtpx:hr>134</gpxtpx:hr>
          </gpxtpx:TrackPointExtension>
        </extensions>
      </trkpt>
      <trkpt lat="38.83793256780268" lon="121.50972926712937">
        <ele>7.032249218784273</ele>
        <time>2025-11-20T15:55:36Z</time>
        <extensions>
          <gpxtpx:TrackPointExtension>
            <gpxtpx:hr>134</gpxtpx:hr>
          </gpxtpx:TrackPointExtension>
        </extensions>
      </trkpt>
      <trkpt lat="38.838023536778785" lon="121.50939051847236">
        <ele>9.748215884901583</ele>
        <time>2025-11-20T15:55:48Z</time>
        <extensions>
          <gpxtpx:TrackPointExtension>
            <gpxtpx:hr>137</gpxtpx:hr>
          </gpxtpx:TrackPointExtension>
        </extensions>
      </trkpt>
      <trkpt lat="38.838083122839286" lon="121.5093030233654">
        <ele>10.426448041573167</ele>
        <time>2025-11-20T15:55:52Z</time>
        <extensions>
          <gpxtpx:TrackPointExtension>
            <gpxtpx:hr>139</gpxtpx:hr>
          </gpxtpx:TrackPointExtension>
        </extensions>
      </trkpt>
      <trkpt lat="38.83827656310669" lon="121.50916924568416">
        <ele>11.084228793159127</ele>
        <time>2025-11-20T15:56:02Z</time>
        <extensions>
          <gpxtpx:TrackPointExtension>
            <gpxtpx:hr>140</gpxtpx:hr>
          </gpxtpx:TrackPointExtension>
        </extensions>
      </trkpt>
      <trkpt lat="38.83831098873136" lon="121.50910229540546">
        <ele>10.552212162874639</ele>
        <time>2025-11-20T15:56:05Z</time>
        <extensions>
          <gpxtpx:TrackPointExtension>
            <gpxtpx:hr>141</gpxtpx:hr>
          </gpxtpx:TrackPointExtension>
        </extensions>
      </trkpt>
      <trkpt lat="38.8382764461629" lon="121.50902630608682">
        <ele>9.999381897971034</ele>
        <time>2025-11-20T15:56:08Z</time>
        <extensions>
          <gpxtpx:TrackPointExtension>
            <gpxtpx:hr>141</gpxtpx:hr>
          </gpxtpx:TrackPointExtension>
        </extensions>
      </trkpt>
      <trkpt lat="38.838053030232295" lon="121.50880318039744">
        <ele>11.448249343782663</ele>
        <time>2025-11-20T15:56:20Z</time>
        <extensions>
          <gpxtpx:TrackPointExtension>
            <gpxtpx:hr>142</gpxtpx:hr>
          </gpxtpx:TrackPointExtension>
        </extensions>
      </trkpt>
      <trkpt lat="38.83779793687532" lon="121.50854977073271">
        <ele>12.41077265702188</ele>
        <time>2025-11-20T15:56:35Z</time>
        <extensions>
          <gpxtpx:TrackPointExtension>
            <gpxtpx:hr>141</gpxtpx:hr>
          </gpxtpx:TrackPointExtension>
        </extensions>
      </trkpt>
      <trkpt lat="38.83769347830473" lon="121.50842402048991">
        <ele>11.478290083818138</ele>
        <time>2025-11-20T15:56:41Z</time>
        <extensions>
          <gpxtpx:TrackPointExtension>
            <gpxtpx:hr>139</gpxtpx:hr>
          </gpxtpx:TrackPointExtension>
        </extensions>
      </trkpt>
      <trkpt lat="38.83765514185617" lon="121.50835122901712">
        <ele>11.708267937414348</ele>
        <time>2025-11-20T15:56:44Z</time>
        <extensions>
          <gpxtpx:TrackPointExtension>
            <gpxtpx:hr>139</gpxtpx:hr>
          </gpxtpx:TrackPointExtension>
        </extensions>
      </trkpt>
      <trkpt lat="38.837485630054935" lon="121.50819036801602">
        <ele>11.03376216813922</ele>
        <time>2025-11-20T15:56:53Z</time>
        <extensions>
          <gpxtpx:TrackPointExtension>
            <gpxtpx:hr>139</gpxtpx:hr>
          </gpxtpx:TrackPointExtension>
        </extensions>
      </trkpt>
      <trkpt lat="38.83741447798511" lon="121.50814769579465">
        <ele>10.867587649263442</ele>
        <time>2025-11-20T15:56:56Z</time>
        <extensions>
          <gpxtpx:TrackPointExtension>
            <gpxtpx:hr>139</gpxtpx:hr>
          </gpxtpx:TrackPointExtension>
        </extensions>
      </trkpt>
      <trkpt lat="38.83729711865797" lon="121.50803697624127">
        <ele>10.972057912498713</ele>
        <time>2025-11-20T15:57:02Z</time>
        <extensions>
          <gpxtpx:TrackPointExtension>
            <gpxtpx:hr>139</gpxtpx:hr>
          </gpxtpx:TrackPointExtension>
        </extensions>
      </trkpt>
      <trkpt lat="38.83725237323356" lon="121.50797213879746">
        <ele>10.342428160831332</ele>
        <time>2025-11-20T15:57:05Z</time>
        <extensions>
          <gpxtpx:TrackPointExtension>
            <gpxtpx:hr>139</gpxtpx:hr>
          </gpxtpx:TrackPointExtension>
        </extensions>
      </trkpt>
      <trkpt lat="38.83699996512134" lon="121.50778036525134">
        <ele>11.694598807953298</ele>
        <time>2025-11-20T15:57:17Z</time>
        <extensions>
          <gpxtpx:TrackPointExtension>
            <gpxtpx:hr>139</gpxtpx:hr>
          </gpxtpx:TrackPointExtension>
        </extensions>
      </trkpt>
      <trkpt lat="38.83695375169704" lon="121.50771262420332">
        <ele>11.404642303474247</ele>
        <time>2025-11-20T15:57:20Z</time>
        <extensions>
          <gpxtpx:TrackPointExtension>
            <gpxtpx:hr>139</gpxtpx:hr>
          </gpxtpx:TrackPointExtension>
        </extensions>
      </trkpt>
      <trkpt lat="38.836766695959774" lon="121.50755253478067">
        <ele>11.2651004511863</ele>
        <time>2025-11-20T15:57:29Z</time>
        <extensions>
          <gpxtpx:TrackPointExtension>
            <gpxtpx:hr>139</gpxtpx:hr>
          </gpxtpx:TrackPointExtension>
        </extensions>
      </trkpt>
      <trkpt lat="38.83668899016036" lon="121.50742155503934">
        <ele>11.84475439786911</ele>
        <time>2025-11-20T15:57:36Z</time>
        <extensions>
          <gpxtpx:TrackPointExtension>
            <gpxtpx:hr>139</gpxtpx:hr>
          </gpxtpx:TrackPointExtension>
        </extensions>
      </trkpt>
      <trkpt lat="38.83679535001422" lon="121.50720967755703">
        <ele>11.446050874888897</ele>
        <time>2025-11-20T15:57:46Z</time>
        <extensions>
          <gpxtpx:TrackPointExtension>
            <gpxtpx:hr>138</gpxtpx:hr>
          </gpxtpx:TrackPointExtension>
        </extensions>
      </trkpt>
      <trkpt lat="38.83686079087946" lon="121.50713111895791">
        <ele>11.210934302769601</ele>
        <time>2025-11-20T15:57:50Z</time>
        <extensions>
          <gpxtpx:TrackPointExtension>
            <gpxtpx:hr>136</gpxtpx:hr>
          </gpxtpx:TrackPointExtension>
        </extensions>
      </trkpt>
      <trkpt lat="38.83704358317366" lon="121.50680753112354">
        <ele>9.828449401073158</ele>
        <time>2025-11-20T15:58:05Z</time>
        <extensions>
          <gpxtpx:TrackPointExtension>
            <gpxtpx:hr>136</gpxtpx:hr>
          </gpxtpx:TrackPointExtension>
        </extensions>
      </trkpt>
      <trkpt lat="38.83721579846418" lon="121.50651768879816">
        <ele>10.053164607845247</ele>
        <time>2025-11-20T15:58:17Z</time>
        <extensions>
          <gpxtpx:TrackPointExtension>
            <gpxtpx:hr>138</gpxtpx:hr>
          </gpxtpx:TrackPointExtension>
        </extensions>
      </trkpt>
      <trkpt lat="38.83738323596361" lon="121.50621295517574">
        <ele>10.928411211818457</ele>
        <time>2025-11-20T15:58:29Z</time>
        <extensions>
          <gpxtpx:TrackPointExtension>
            <gpxtpx:hr>139</gpxtpx:hr>
          </gpxtpx:TrackPointExtension>
        </extensions>
      </trkpt>
      <trkpt lat="38.83750039189276" lon="121.50598979405288">
        <ele>11.182896456681192</ele>
        <time>2025-11-20T15:58:38Z</time>
        <extensions>
          <gpxtpx:TrackPointExtension>
            <gpxtpx:hr>140</gpxtpx:hr>
          </gpxtpx:TrackPointExtension>
        </extensions>
      </trkpt>
      <trkpt lat="38.83764283655007" lon="121.50578122813003">
        <ele>10.368125092238188</ele>
        <time>2025-11-20T15:58:47Z</time>
        <extensions>
          <gpxtpx:TrackPointExtension>
            <gpxtpx:hr>139</gpxtpx:hr>
          </gpxtpx:TrackPointExtension>
        </extensions>
      </trkpt>
      <trkpt lat="38.837746135863746" lon="121.50554007019421">
        <ele>10.676320648752153</ele>
        <time>2025-11-20T15:58:56Z</time>
        <extensions>
          <gpxtpx:TrackPointExtension>
            <gpxtpx:hr>137</gpxtpx:hr>
          </gpxtpx:TrackPointExtension>
        </extensions>
      </trkpt>
      <trkpt lat="38.837836833886215" lon="121.50543188374144">
        <ele>10.592427953146398</ele>
        <time>2025-11-20T15:59:02Z</time>
        <extensions>
          <gpxtpx:TrackPointExtension>
            <gpxtpx:hr>138</gpxtpx:hr>
          </gpxtpx:TrackPointExtension>
        </extensions>
      </trkpt>
      <trkpt lat="38.837836833886215" lon="121.50543188374144">
        <ele>10.592427953146398</ele>
        <time>2025-11-20T15:59:08Z</time>
        <extensions>
          <gpxtpx:TrackPointExtension>
            <gpxtpx:hr>138</gpxtpx:hr>
          </gpxtpx:TrackPointExtension>
        </extensions>
      </trkpt>
    </trkseg>
  </trk>
</gpx>