<?xml version="1.0" encoding="UTF-8"?>
<gpx xmlns="http://www.topografix.com/GPX/1/1" xmlns:gpxtpx="http://www.garmin.com/xmlschemas/TrackPointExtension/v1" xmlns:xsi="http://www.w3.org/2001/XMLSchema-instance" xsi:schemaLocation="http://www.topografix.com/GPX/1/1 http://www.topografix.com/GPX/1/1/gpx.xsd" version="1.1" creator="gpx.py -- https://github.com/tkrajina/gpxpy">
  <trk>
    <name>gpx from keep</name>
    <type>Run</type>
    <trkseg>
      <trkpt lat="38.838045377543175" lon="121.50495167167296">
        <ele>11.63469648361206</ele>
        <time>2024-10-22T14:30:26Z</time>
        <extensions>
          <gpxtpx:TrackPointExtension>
            <gpxtpx:hr>98</gpxtpx:hr>
          </gpxtpx:TrackPointExtension>
        </extensions>
      </trkpt>
      <trkpt lat="38.83814547362748" lon="121.50508745382385">
        <ele>9.98155927658081</ele>
        <time>2024-10-22T14:30:32Z</time>
        <extensions>
          <gpxtpx:TrackPointExtension>
            <gpxtpx:hr>98</gpxtpx:hr>
          </gpxtpx:TrackPointExtension>
        </extensions>
      </trkpt>
      <trkpt lat="38.837983589612044" lon="121.50507873570926">
        <ele>13.324271997436881</ele>
        <time>2024-10-22T14:30:35Z</time>
        <extensions>
          <gpxtpx:TrackPointExtension>
            <gpxtpx:hr>98</gpxtpx:hr>
          </gpxtpx:TrackPointExtension>
        </extensions>
      </trkpt>
      <trkpt lat="38.83807178414023" lon="121.5051512783877">
        <ele>14.778861716389656</ele>
        <time>2024-10-22T14:30:41Z</time>
        <extensions>
          <gpxtpx:TrackPointExtension>
            <gpxtpx:hr>105</gpxtpx:hr>
          </gpxtpx:TrackPointExtension>
        </extensions>
      </trkpt>
      <trkpt lat="38.838124461517474" lon="121.50523979971177">
        <ele>16.369926140643656</ele>
        <time>2024-10-22T14:30:47Z</time>
        <extensions>
          <gpxtpx:TrackPointExtension>
            <gpxtpx:hr>104</gpxtpx:hr>
          </gpxtpx:TrackPointExtension>
        </extensions>
      </trkpt>
      <trkpt lat="38.83818685871301" lon="121.50526702900794">
        <ele>16.651481395587325</ele>
        <time>2024-10-22T14:30:50Z</time>
        <extensions>
          <gpxtpx:TrackPointExtension>
            <gpxtpx:hr>105</gpxtpx:hr>
          </gpxtpx:TrackPointExtension>
        </extensions>
      </trkpt>
      <trkpt lat="38.83831351322094" lon="121.50536596955365">
        <ele>11.40005529858172</ele>
        <time>2024-10-22T14:30:56Z</time>
        <extensions>
          <gpxtpx:TrackPointExtension>
            <gpxtpx:hr>112</gpxtpx:hr>
          </gpxtpx:TrackPointExtension>
        </extensions>
      </trkpt>
      <trkpt lat="38.838444511641526" lon="121.50554267114562">
        <ele>9.928937707096338</ele>
        <time>2024-10-22T14:31:08Z</time>
        <extensions>
          <gpxtpx:TrackPointExtension>
            <gpxtpx:hr>125</gpxtpx:hr>
          </gpxtpx:TrackPointExtension>
        </extensions>
      </trkpt>
      <trkpt lat="38.83868773882943" lon="121.50574819021774">
        <ele>11.678648624569178</ele>
        <time>2024-10-22T14:31:22Z</time>
        <extensions>
          <gpxtpx:TrackPointExtension>
            <gpxtpx:hr>131</gpxtpx:hr>
          </gpxtpx:TrackPointExtension>
        </extensions>
      </trkpt>
      <trkpt lat="38.83879194624446" lon="121.50589035688566">
        <ele>11.439594545401633</ele>
        <time>2024-10-22T14:31:30Z</time>
        <extensions>
          <gpxtpx:TrackPointExtension>
            <gpxtpx:hr>132</gpxtpx:hr>
          </gpxtpx:TrackPointExtension>
        </extensions>
      </trkpt>
      <trkpt lat="38.83886803016497" lon="121.50593229087235">
        <ele>11.351429709233344</ele>
        <time>2024-10-22T14:31:34Z</time>
        <extensions>
          <gpxtpx:TrackPointExtension>
            <gpxtpx:hr>132</gpxtpx:hr>
          </gpxtpx:TrackPointExtension>
        </extensions>
      </trkpt>
      <trkpt lat="38.8388672839552" lon="121.50605575167238">
        <ele>12.290424772538245</ele>
        <time>2024-10-22T14:31:42Z</time>
        <extensions>
          <gpxtpx:TrackPointExtension>
            <gpxtpx:hr>132</gpxtpx:hr>
          </gpxtpx:TrackPointExtension>
        </extensions>
      </trkpt>
      <trkpt lat="38.83867315180488" lon="121.50635073301144">
        <ele>11.49819406773895</ele>
        <time>2024-10-22T14:31:58Z</time>
      </trkpt>
      <trkpt lat="38.83849582822773" lon="121.50662327940803">
        <ele>11.940514556132257</ele>
        <time>2024-10-22T14:32:14Z</time>
      </trkpt>
      <trkpt lat="38.83832905807892" lon="121.50695691183103">
        <ele>12.567765456624329</ele>
        <time>2024-10-22T14:32:30Z</time>
      </trkpt>
      <trkpt lat="38.83815839531071" lon="121.5072533550322">
        <ele>11.216209843754768</ele>
        <time>2024-10-22T14:32:45Z</time>
      </trkpt>
      <trkpt lat="38.83807136606471" lon="121.50743943543819">
        <ele>12.326496245339513</ele>
        <time>2024-10-22T14:32:53Z</time>
      </trkpt>
      <trkpt lat="38.837933877957305" lon="121.50764194431656">
        <ele>10.50390625</ele>
        <time>2024-10-22T14:33:05Z</time>
      </trkpt>
      <trkpt lat="38.837757136015234" lon="121.50797855561218">
        <ele>11.969451249577105</ele>
        <time>2024-10-22T14:33:21Z</time>
      </trkpt>
      <trkpt lat="38.83766486474609" lon="121.50810095192206">
        <ele>12.300188571214676</ele>
        <time>2024-10-22T14:33:29Z</time>
      </trkpt>
      <trkpt lat="38.8376129856289" lon="121.50810690073669">
        <ele>12.307509479112923</ele>
        <time>2024-10-22T14:33:41Z</time>
        <extensions>
          <gpxtpx:TrackPointExtension>
            <gpxtpx:hr>117</gpxtpx:hr>
          </gpxtpx:TrackPointExtension>
        </extensions>
      </trkpt>
      <trkpt lat="38.837554417781476" lon="121.50819589793075">
        <ele>11.593445804901421</ele>
        <time>2024-10-22T14:33:53Z</time>
        <extensions>
          <gpxtpx:TrackPointExtension>
            <gpxtpx:hr>110</gpxtpx:hr>
          </gpxtpx:TrackPointExtension>
        </extensions>
      </trkpt>
      <trkpt lat="38.83764276892517" lon="121.50838657816479">
        <ele>11.434346733614802</ele>
        <time>2024-10-22T14:34:05Z</time>
        <extensions>
          <gpxtpx:TrackPointExtension>
            <gpxtpx:hr>109</gpxtpx:hr>
          </gpxtpx:TrackPointExtension>
        </extensions>
      </trkpt>
      <trkpt lat="38.83754323402496" lon="121.50879099127626">
        <ele>12.435514305718243</ele>
        <time>2024-10-22T14:34:21Z</time>
      </trkpt>
      <trkpt lat="38.83751669352928" lon="121.50888378493373">
        <ele>12.028468592092395</ele>
        <time>2024-10-22T14:34:25Z</time>
      </trkpt>
      <trkpt lat="38.837260245372846" lon="121.50912514077523">
        <ele>11.966560073196888</ele>
        <time>2024-10-22T14:34:40Z</time>
      </trkpt>
      <trkpt lat="38.83717671725933" lon="121.50928538710012">
        <ele>10.766101952642202</ele>
        <time>2024-10-22T14:34:47Z</time>
      </trkpt>
      <trkpt lat="38.83701925994744" lon="121.50967026532764">
        <ele>11.521057792939246</ele>
        <time>2024-10-22T14:35:02Z</time>
      </trkpt>
      <trkpt lat="38.83696933827731" lon="121.50977096980486">
        <ele>11.142808648757637</ele>
        <time>2024-10-22T14:35:06Z</time>
      </trkpt>
      <trkpt lat="38.83682034285896" lon="121.50989668301054">
        <ele>10.220971696078777</ele>
        <time>2024-10-22T14:35:14Z</time>
      </trkpt>
      <trkpt lat="38.83664952697147" lon="121.50995814416284">
        <ele>10.804049677215517</ele>
        <time>2024-10-22T14:35:22Z</time>
      </trkpt>
      <trkpt lat="38.836572707403604" lon="121.50995078426375">
        <ele>10.140847820788622</ele>
        <time>2024-10-22T14:35:26Z</time>
      </trkpt>
      <trkpt lat="38.83651430185057" lon="121.50999026242451">
        <ele>8.995314815081656</ele>
        <time>2024-10-22T14:35:30Z</time>
      </trkpt>
      <trkpt lat="38.836482896907015" lon="121.51008545074684">
        <ele>9.541180713102221</ele>
        <time>2024-10-22T14:35:34Z</time>
      </trkpt>
      <trkpt lat="38.836525239315634" lon="121.5102955027941">
        <ele>8.781348384916782</ele>
        <time>2024-10-22T14:35:42Z</time>
      </trkpt>
      <trkpt lat="38.83657344994141" lon="121.51037512266451">
        <ele>8.223086353391409</ele>
        <time>2024-10-22T14:35:46Z</time>
      </trkpt>
      <trkpt lat="38.83664434812351" lon="121.5104380142485">
        <ele>8.727356567047536</ele>
        <time>2024-10-22T14:35:50Z</time>
      </trkpt>
      <trkpt lat="38.83672264425601" lon="121.51047616132546">
        <ele>8.88466393109411</ele>
        <time>2024-10-22T14:35:54Z</time>
      </trkpt>
      <trkpt lat="38.83689710499338" lon="121.51071250091276">
        <ele>8.971610332839191</ele>
        <time>2024-10-22T14:36:06Z</time>
      </trkpt>
      <trkpt lat="38.83694924062844" lon="121.51080692775705">
        <ele>8.977950304746628</ele>
        <time>2024-10-22T14:36:10Z</time>
      </trkpt>
      <trkpt lat="38.83701481410522" lon="121.5108725354747">
        <ele>9.688819448463619</ele>
        <time>2024-10-22T14:36:14Z</time>
      </trkpt>
      <trkpt lat="38.83709325984932" lon="121.51078588373421">
        <ele>8.803740859963</ele>
        <time>2024-10-22T14:36:18Z</time>
      </trkpt>
      <trkpt lat="38.837141851356385" lon="121.51068551501042">
        <ele>8.368589495308697</ele>
        <time>2024-10-22T14:36:22Z</time>
        <extensions>
          <gpxtpx:TrackPointExtension>
            <gpxtpx:hr>127</gpxtpx:hr>
          </gpxtpx:TrackPointExtension>
        </extensions>
      </trkpt>
      <trkpt lat="38.8372633494139" lon="121.51049472864781">
        <ele>8.706574040465057</ele>
        <time>2024-10-22T14:36:30Z</time>
        <extensions>
          <gpxtpx:TrackPointExtension>
            <gpxtpx:hr>127</gpxtpx:hr>
          </gpxtpx:TrackPointExtension>
        </extensions>
      </trkpt>
      <trkpt lat="38.83749347622589" lon="121.51027053259892">
        <ele>7.517550638876855</ele>
        <time>2024-10-22T14:36:42Z</time>
        <extensions>
          <gpxtpx:TrackPointExtension>
            <gpxtpx:hr>129</gpxtpx:hr>
          </gpxtpx:TrackPointExtension>
        </extensions>
      </trkpt>
      <trkpt lat="38.83761719959288" lon="121.51020272970821">
        <ele>8.538090419955552</ele>
        <time>2024-10-22T14:36:48Z</time>
        <extensions>
          <gpxtpx:TrackPointExtension>
            <gpxtpx:hr>130</gpxtpx:hr>
          </gpxtpx:TrackPointExtension>
        </extensions>
      </trkpt>
      <trkpt lat="38.837705078447655" lon="121.51006022297209">
        <ele>8.718364413827658</ele>
        <time>2024-10-22T14:36:54Z</time>
        <extensions>
          <gpxtpx:TrackPointExtension>
            <gpxtpx:hr>131</gpxtpx:hr>
          </gpxtpx:TrackPointExtension>
        </extensions>
      </trkpt>
      <trkpt lat="38.83773048914488" lon="121.50996869413592">
        <ele>8.760203113779426</ele>
        <time>2024-10-22T14:36:57Z</time>
        <extensions>
          <gpxtpx:TrackPointExtension>
            <gpxtpx:hr>131</gpxtpx:hr>
          </gpxtpx:TrackPointExtension>
        </extensions>
      </trkpt>
      <trkpt lat="38.8377000333972" lon="121.5098571905498">
        <ele>10.698082702234387</ele>
        <time>2024-10-22T14:37:01Z</time>
        <extensions>
          <gpxtpx:TrackPointExtension>
            <gpxtpx:hr>132</gpxtpx:hr>
          </gpxtpx:TrackPointExtension>
        </extensions>
      </trkpt>
      <trkpt lat="38.8376228462511" lon="121.50978437765959">
        <ele>11.11665653809905</ele>
        <time>2024-10-22T14:37:05Z</time>
        <extensions>
          <gpxtpx:TrackPointExtension>
            <gpxtpx:hr>131</gpxtpx:hr>
          </gpxtpx:TrackPointExtension>
        </extensions>
      </trkpt>
      <trkpt lat="38.83753226462614" lon="121.509771088338">
        <ele>11.387435874901712</ele>
        <time>2024-10-22T14:37:09Z</time>
        <extensions>
          <gpxtpx:TrackPointExtension>
            <gpxtpx:hr>132</gpxtpx:hr>
          </gpxtpx:TrackPointExtension>
        </extensions>
      </trkpt>
      <trkpt lat="38.837469685028516" lon="121.5097361586074">
        <ele>9.037661699578166</ele>
        <time>2024-10-22T14:37:13Z</time>
        <extensions>
          <gpxtpx:TrackPointExtension>
            <gpxtpx:hr>132</gpxtpx:hr>
          </gpxtpx:TrackPointExtension>
        </extensions>
      </trkpt>
      <trkpt lat="38.83738465283876" lon="121.50964710711361">
        <ele>11.32783099077642</ele>
        <time>2024-10-22T14:37:17Z</time>
        <extensions>
          <gpxtpx:TrackPointExtension>
            <gpxtpx:hr>133</gpxtpx:hr>
          </gpxtpx:TrackPointExtension>
        </extensions>
      </trkpt>
      <trkpt lat="38.837271882605265" lon="121.5094359712498">
        <ele>10.660193023271859</ele>
        <time>2024-10-22T14:37:25Z</time>
        <extensions>
          <gpxtpx:TrackPointExtension>
            <gpxtpx:hr>134</gpxtpx:hr>
          </gpxtpx:TrackPointExtension>
        </extensions>
      </trkpt>
      <trkpt lat="38.8371859301094" lon="121.5093564607164">
        <ele>11.200113931670785</ele>
        <time>2024-10-22T14:37:29Z</time>
        <extensions>
          <gpxtpx:TrackPointExtension>
            <gpxtpx:hr>134</gpxtpx:hr>
          </gpxtpx:TrackPointExtension>
        </extensions>
      </trkpt>
      <trkpt lat="38.837180380948915" lon="121.50922638747396">
        <ele>10.843794400803745</ele>
        <time>2024-10-22T14:37:33Z</time>
        <extensions>
          <gpxtpx:TrackPointExtension>
            <gpxtpx:hr>134</gpxtpx:hr>
          </gpxtpx:TrackPointExtension>
        </extensions>
      </trkpt>
      <trkpt lat="38.8372197749253" lon="121.50911939132446">
        <ele>9.258037043735385</ele>
        <time>2024-10-22T14:37:37Z</time>
        <extensions>
          <gpxtpx:TrackPointExtension>
            <gpxtpx:hr>134</gpxtpx:hr>
          </gpxtpx:TrackPointExtension>
        </extensions>
      </trkpt>
      <trkpt lat="38.83742022371264" lon="121.50888758139799">
        <ele>11.335093225352466</ele>
        <time>2024-10-22T14:37:49Z</time>
        <extensions>
          <gpxtpx:TrackPointExtension>
            <gpxtpx:hr>143</gpxtpx:hr>
          </gpxtpx:TrackPointExtension>
        </extensions>
      </trkpt>
      <trkpt lat="38.83751895824554" lon="121.50873426267245">
        <ele>9.838881376199424</ele>
        <time>2024-10-22T14:37:57Z</time>
        <extensions>
          <gpxtpx:TrackPointExtension>
            <gpxtpx:hr>143</gpxtpx:hr>
          </gpxtpx:TrackPointExtension>
        </extensions>
      </trkpt>
      <trkpt lat="38.83759253360659" lon="121.50853785180095">
        <ele>10.381022611632943</ele>
        <time>2024-10-22T14:38:05Z</time>
        <extensions>
          <gpxtpx:TrackPointExtension>
            <gpxtpx:hr>145</gpxtpx:hr>
          </gpxtpx:TrackPointExtension>
        </extensions>
      </trkpt>
      <trkpt lat="38.83764767698427" lon="121.5084588140356">
        <ele>9.885123851709068</ele>
        <time>2024-10-22T14:38:09Z</time>
        <extensions>
          <gpxtpx:TrackPointExtension>
            <gpxtpx:hr>145</gpxtpx:hr>
          </gpxtpx:TrackPointExtension>
        </extensions>
      </trkpt>
      <trkpt lat="38.83782417989767" lon="121.50852993286217">
        <ele>12.016026363708079</ele>
        <time>2024-10-22T14:38:17Z</time>
        <extensions>
          <gpxtpx:TrackPointExtension>
            <gpxtpx:hr>144</gpxtpx:hr>
          </gpxtpx:TrackPointExtension>
        </extensions>
      </trkpt>
      <trkpt lat="38.8379236985177" lon="121.50865410326332">
        <ele>10.138862830586731</ele>
        <time>2024-10-22T14:38:25Z</time>
        <extensions>
          <gpxtpx:TrackPointExtension>
            <gpxtpx:hr>144</gpxtpx:hr>
          </gpxtpx:TrackPointExtension>
        </extensions>
      </trkpt>
      <trkpt lat="38.8380210155378" lon="121.50872408354465">
        <ele>11.815551129169762</ele>
        <time>2024-10-22T14:38:29Z</time>
        <extensions>
          <gpxtpx:TrackPointExtension>
            <gpxtpx:hr>143</gpxtpx:hr>
          </gpxtpx:TrackPointExtension>
        </extensions>
      </trkpt>
      <trkpt lat="38.83821775267973" lon="121.50892912769285">
        <ele>11.871570496819913</ele>
        <time>2024-10-22T14:38:41Z</time>
        <extensions>
          <gpxtpx:TrackPointExtension>
            <gpxtpx:hr>144</gpxtpx:hr>
          </gpxtpx:TrackPointExtension>
        </extensions>
      </trkpt>
      <trkpt lat="38.8382771363454" lon="121.50901320985791">
        <ele>11.521559294313192</ele>
        <time>2024-10-22T14:38:45Z</time>
        <extensions>
          <gpxtpx:TrackPointExtension>
            <gpxtpx:hr>144</gpxtpx:hr>
          </gpxtpx:TrackPointExtension>
        </extensions>
      </trkpt>
      <trkpt lat="38.83825685760703" lon="121.50911400412899">
        <ele>11.481549615040421</ele>
        <time>2024-10-22T14:38:49Z</time>
        <extensions>
          <gpxtpx:TrackPointExtension>
            <gpxtpx:hr>143</gpxtpx:hr>
          </gpxtpx:TrackPointExtension>
        </extensions>
      </trkpt>
      <trkpt lat="38.83804626075149" lon="121.50938262424664">
        <ele>11.236452295444906</ele>
        <time>2024-10-22T14:39:02Z</time>
        <extensions>
          <gpxtpx:TrackPointExtension>
            <gpxtpx:hr>141</gpxtpx:hr>
          </gpxtpx:TrackPointExtension>
        </extensions>
      </trkpt>
      <trkpt lat="38.83800687138038" lon="121.50946013086849">
        <ele>11.45925669837743</ele>
        <time>2024-10-22T14:39:06Z</time>
        <extensions>
          <gpxtpx:TrackPointExtension>
            <gpxtpx:hr>139</gpxtpx:hr>
          </gpxtpx:TrackPointExtension>
        </extensions>
      </trkpt>
      <trkpt lat="38.83792830497059" lon="121.50977975728385">
        <ele>10.712183057330549</ele>
        <time>2024-10-22T14:39:18Z</time>
        <extensions>
          <gpxtpx:TrackPointExtension>
            <gpxtpx:hr>140</gpxtpx:hr>
          </gpxtpx:TrackPointExtension>
        </extensions>
      </trkpt>
      <trkpt lat="38.837841917118986" lon="121.50981814453999">
        <ele>10.901695482432842</ele>
        <time>2024-10-22T14:39:22Z</time>
        <extensions>
          <gpxtpx:TrackPointExtension>
            <gpxtpx:hr>139</gpxtpx:hr>
          </gpxtpx:TrackPointExtension>
        </extensions>
      </trkpt>
      <trkpt lat="38.83775566145115" lon="121.50973746456776">
        <ele>11.51083985902369</ele>
        <time>2024-10-22T14:39:26Z</time>
        <extensions>
          <gpxtpx:TrackPointExtension>
            <gpxtpx:hr>140</gpxtpx:hr>
          </gpxtpx:TrackPointExtension>
        </extensions>
      </trkpt>
      <trkpt lat="38.837620880207886" lon="121.50953829678276">
        <ele>11.393867685459554</ele>
        <time>2024-10-22T14:39:34Z</time>
        <extensions>
          <gpxtpx:TrackPointExtension>
            <gpxtpx:hr>139</gpxtpx:hr>
          </gpxtpx:TrackPointExtension>
        </extensions>
      </trkpt>
      <trkpt lat="38.8375763781586" lon="121.50944322662431">
        <ele>11.62363566737622</ele>
        <time>2024-10-22T14:39:38Z</time>
        <extensions>
          <gpxtpx:TrackPointExtension>
            <gpxtpx:hr>138</gpxtpx:hr>
          </gpxtpx:TrackPointExtension>
        </extensions>
      </trkpt>
      <trkpt lat="38.83731033589333" lon="121.50933162352044">
        <ele>11.53100549057126</ele>
        <time>2024-10-22T14:39:50Z</time>
        <extensions>
          <gpxtpx:TrackPointExtension>
            <gpxtpx:hr>141</gpxtpx:hr>
          </gpxtpx:TrackPointExtension>
        </extensions>
      </trkpt>
      <trkpt lat="38.83722573408565" lon="121.50929776796518">
        <ele>11.221715673804283</ele>
        <time>2024-10-22T14:39:54Z</time>
        <extensions>
          <gpxtpx:TrackPointExtension>
            <gpxtpx:hr>141</gpxtpx:hr>
          </gpxtpx:TrackPointExtension>
        </extensions>
      </trkpt>
      <trkpt lat="38.83715680947278" lon="121.5093216284799">
        <ele>10.59071176033467</ele>
        <time>2024-10-22T14:39:58Z</time>
        <extensions>
          <gpxtpx:TrackPointExtension>
            <gpxtpx:hr>141</gpxtpx:hr>
          </gpxtpx:TrackPointExtension>
        </extensions>
      </trkpt>
      <trkpt lat="38.8369724773003" lon="121.50974232857335">
        <ele>11.174093843437731</ele>
        <time>2024-10-22T14:40:14Z</time>
        <extensions>
          <gpxtpx:TrackPointExtension>
            <gpxtpx:hr>142</gpxtpx:hr>
          </gpxtpx:TrackPointExtension>
        </extensions>
      </trkpt>
      <trkpt lat="38.83690770166395" lon="121.5098396785915">
        <ele>11.351574731990695</ele>
        <time>2024-10-22T14:40:18Z</time>
        <extensions>
          <gpxtpx:TrackPointExtension>
            <gpxtpx:hr>142</gpxtpx:hr>
          </gpxtpx:TrackPointExtension>
        </extensions>
      </trkpt>
      <trkpt lat="38.836745127700766" lon="121.50993670375281">
        <ele>10.675164700485766</ele>
        <time>2024-10-22T14:40:26Z</time>
        <extensions>
          <gpxtpx:TrackPointExtension>
            <gpxtpx:hr>142</gpxtpx:hr>
          </gpxtpx:TrackPointExtension>
        </extensions>
      </trkpt>
      <trkpt lat="38.83655883812698" lon="121.50995605919994">
        <ele>10.541959021240473</ele>
        <time>2024-10-22T14:40:34Z</time>
        <extensions>
          <gpxtpx:TrackPointExtension>
            <gpxtpx:hr>144</gpxtpx:hr>
          </gpxtpx:TrackPointExtension>
        </extensions>
      </trkpt>
      <trkpt lat="38.836496893431445" lon="121.51002608473223">
        <ele>10.03949703834951</ele>
        <time>2024-10-22T14:40:38Z</time>
        <extensions>
          <gpxtpx:TrackPointExtension>
            <gpxtpx:hr>143</gpxtpx:hr>
          </gpxtpx:TrackPointExtension>
        </extensions>
      </trkpt>
      <trkpt lat="38.836489543203335" lon="121.51014676511961">
        <ele>8.791874155402184</ele>
        <time>2024-10-22T14:40:42Z</time>
        <extensions>
          <gpxtpx:TrackPointExtension>
            <gpxtpx:hr>142</gpxtpx:hr>
          </gpxtpx:TrackPointExtension>
        </extensions>
      </trkpt>
      <trkpt lat="38.836510119150304" lon="121.51026560489964">
        <ele>9.009748455137014</ele>
        <time>2024-10-22T14:40:46Z</time>
        <extensions>
          <gpxtpx:TrackPointExtension>
            <gpxtpx:hr>142</gpxtpx:hr>
          </gpxtpx:TrackPointExtension>
        </extensions>
      </trkpt>
      <trkpt lat="38.836564682573076" lon="121.51036485218526">
        <ele>9.647295443341136</ele>
        <time>2024-10-22T14:40:50Z</time>
        <extensions>
          <gpxtpx:TrackPointExtension>
            <gpxtpx:hr>142</gpxtpx:hr>
          </gpxtpx:TrackPointExtension>
        </extensions>
      </trkpt>
      <trkpt lat="38.83672466391572" lon="121.51046984571092">
        <ele>8.718150943517685</ele>
        <time>2024-10-22T14:40:57Z</time>
        <extensions>
          <gpxtpx:TrackPointExtension>
            <gpxtpx:hr>143</gpxtpx:hr>
          </gpxtpx:TrackPointExtension>
        </extensions>
      </trkpt>
      <trkpt lat="38.83684919224209" lon="121.5105963713593">
        <ele>7.851000583730638</ele>
        <time>2024-10-22T14:41:04Z</time>
        <extensions>
          <gpxtpx:TrackPointExtension>
            <gpxtpx:hr>143</gpxtpx:hr>
          </gpxtpx:TrackPointExtension>
        </extensions>
      </trkpt>
      <trkpt lat="38.8370189638781" lon="121.51086659299386">
        <ele>6.73104930203408</ele>
        <time>2024-10-22T14:41:16Z</time>
        <extensions>
          <gpxtpx:TrackPointExtension>
            <gpxtpx:hr>143</gpxtpx:hr>
          </gpxtpx:TrackPointExtension>
        </extensions>
      </trkpt>
      <trkpt lat="38.83710048534274" lon="121.51079502257429">
        <ele>6.977296186611056</ele>
        <time>2024-10-22T14:41:20Z</time>
        <extensions>
          <gpxtpx:TrackPointExtension>
            <gpxtpx:hr>142</gpxtpx:hr>
          </gpxtpx:TrackPointExtension>
        </extensions>
      </trkpt>
      <trkpt lat="38.83719681356003" lon="121.51060110439069">
        <ele>8.014709464274347</ele>
        <time>2024-10-22T14:41:28Z</time>
        <extensions>
          <gpxtpx:TrackPointExtension>
            <gpxtpx:hr>143</gpxtpx:hr>
          </gpxtpx:TrackPointExtension>
        </extensions>
      </trkpt>
      <trkpt lat="38.83739459421259" lon="121.51036022121836">
        <ele>9.140192908234894</ele>
        <time>2024-10-22T14:41:40Z</time>
        <extensions>
          <gpxtpx:TrackPointExtension>
            <gpxtpx:hr>143</gpxtpx:hr>
          </gpxtpx:TrackPointExtension>
        </extensions>
      </trkpt>
      <trkpt lat="38.837619623340075" lon="121.51018807350589">
        <ele>9.578576089814305</ele>
        <time>2024-10-22T14:41:52Z</time>
        <extensions>
          <gpxtpx:TrackPointExtension>
            <gpxtpx:hr>143</gpxtpx:hr>
          </gpxtpx:TrackPointExtension>
        </extensions>
      </trkpt>
      <trkpt lat="38.83768786373626" lon="121.5101029073604">
        <ele>9.327445432543755</ele>
        <time>2024-10-22T14:41:56Z</time>
        <extensions>
          <gpxtpx:TrackPointExtension>
            <gpxtpx:hr>143</gpxtpx:hr>
          </gpxtpx:TrackPointExtension>
        </extensions>
      </trkpt>
      <trkpt lat="38.83772585763847" lon="121.50998808324103">
        <ele>8.965845800936222</ele>
        <time>2024-10-22T14:42:00Z</time>
        <extensions>
          <gpxtpx:TrackPointExtension>
            <gpxtpx:hr>143</gpxtpx:hr>
          </gpxtpx:TrackPointExtension>
        </extensions>
      </trkpt>
      <trkpt lat="38.83770629561267" lon="121.50986759090368">
        <ele>9.842802644707263</ele>
        <time>2024-10-22T14:42:04Z</time>
        <extensions>
          <gpxtpx:TrackPointExtension>
            <gpxtpx:hr>143</gpxtpx:hr>
          </gpxtpx:TrackPointExtension>
        </extensions>
      </trkpt>
      <trkpt lat="38.83764250227823" lon="121.50976900145943">
        <ele>10.499982822686434</ele>
        <time>2024-10-22T14:42:08Z</time>
        <extensions>
          <gpxtpx:TrackPointExtension>
            <gpxtpx:hr>144</gpxtpx:hr>
          </gpxtpx:TrackPointExtension>
        </extensions>
      </trkpt>
      <trkpt lat="38.83745731643587" lon="121.50970986289111">
        <ele>11.177772855386138</ele>
        <time>2024-10-22T14:42:16Z</time>
        <extensions>
          <gpxtpx:TrackPointExtension>
            <gpxtpx:hr>144</gpxtpx:hr>
          </gpxtpx:TrackPointExtension>
        </extensions>
      </trkpt>
      <trkpt lat="38.8373869716956" lon="121.50962902432796">
        <ele>11.915277687832713</ele>
        <time>2024-10-22T14:42:20Z</time>
        <extensions>
          <gpxtpx:TrackPointExtension>
            <gpxtpx:hr>145</gpxtpx:hr>
          </gpxtpx:TrackPointExtension>
        </extensions>
      </trkpt>
      <trkpt lat="38.837267971975066" lon="121.50942976265712">
        <ele>10.563215464353561</ele>
        <time>2024-10-22T14:42:28Z</time>
        <extensions>
          <gpxtpx:TrackPointExtension>
            <gpxtpx:hr>145</gpxtpx:hr>
          </gpxtpx:TrackPointExtension>
        </extensions>
      </trkpt>
      <trkpt lat="38.83718298518149" lon="121.50936225721038">
        <ele>11.940053499303758</ele>
        <time>2024-10-22T14:42:32Z</time>
        <extensions>
          <gpxtpx:TrackPointExtension>
            <gpxtpx:hr>146</gpxtpx:hr>
          </gpxtpx:TrackPointExtension>
        </extensions>
      </trkpt>
      <trkpt lat="38.837159128990386" lon="121.50923692791635">
        <ele>12.807316596619785</ele>
        <time>2024-10-22T14:42:36Z</time>
        <extensions>
          <gpxtpx:TrackPointExtension>
            <gpxtpx:hr>146</gpxtpx:hr>
          </gpxtpx:TrackPointExtension>
        </extensions>
      </trkpt>
      <trkpt lat="38.83719891102985" lon="121.50911148202474">
        <ele>11.52977886237204</ele>
        <time>2024-10-22T14:42:40Z</time>
        <extensions>
          <gpxtpx:TrackPointExtension>
            <gpxtpx:hr>146</gpxtpx:hr>
          </gpxtpx:TrackPointExtension>
        </extensions>
      </trkpt>
      <trkpt lat="38.83732574720506" lon="121.50897070515403">
        <ele>11.111413454636931</ele>
        <time>2024-10-22T14:42:48Z</time>
        <extensions>
          <gpxtpx:TrackPointExtension>
            <gpxtpx:hr>145</gpxtpx:hr>
          </gpxtpx:TrackPointExtension>
        </extensions>
      </trkpt>
      <trkpt lat="38.837418646061835" lon="121.50891553601123">
        <ele>11.952230174094439</ele>
        <time>2024-10-22T14:42:52Z</time>
        <extensions>
          <gpxtpx:TrackPointExtension>
            <gpxtpx:hr>145</gpxtpx:hr>
          </gpxtpx:TrackPointExtension>
        </extensions>
      </trkpt>
      <trkpt lat="38.83747677605523" lon="121.5088404970559">
        <ele>11.23715206515044</ele>
        <time>2024-10-22T14:42:56Z</time>
        <extensions>
          <gpxtpx:TrackPointExtension>
            <gpxtpx:hr>145</gpxtpx:hr>
          </gpxtpx:TrackPointExtension>
        </extensions>
      </trkpt>
      <trkpt lat="38.83752262156203" lon="121.50873664748148">
        <ele>11.58370883576572</ele>
        <time>2024-10-22T14:43:00Z</time>
        <extensions>
          <gpxtpx:TrackPointExtension>
            <gpxtpx:hr>145</gpxtpx:hr>
          </gpxtpx:TrackPointExtension>
        </extensions>
      </trkpt>
      <trkpt lat="38.837605113452895" lon="121.50845674305067">
        <ele>10.954413139261305</ele>
        <time>2024-10-22T14:43:11Z</time>
        <extensions>
          <gpxtpx:TrackPointExtension>
            <gpxtpx:hr>145</gpxtpx:hr>
          </gpxtpx:TrackPointExtension>
        </extensions>
      </trkpt>
      <trkpt lat="38.837639333942874" lon="121.50839828241288">
        <ele>10.83660111296922</ele>
        <time>2024-10-22T14:43:14Z</time>
        <extensions>
          <gpxtpx:TrackPointExtension>
            <gpxtpx:hr>145</gpxtpx:hr>
          </gpxtpx:TrackPointExtension>
        </extensions>
      </trkpt>
      <trkpt lat="38.83762392620382" lon="121.50831564834742">
        <ele>12.297074101865292</ele>
        <time>2024-10-22T14:43:18Z</time>
        <extensions>
          <gpxtpx:TrackPointExtension>
            <gpxtpx:hr>145</gpxtpx:hr>
          </gpxtpx:TrackPointExtension>
        </extensions>
      </trkpt>
      <trkpt lat="38.837585006549894" lon="121.50828383339554">
        <ele>11.795636580325663</ele>
        <time>2024-10-22T14:43:22Z</time>
        <extensions>
          <gpxtpx:TrackPointExtension>
            <gpxtpx:hr>144</gpxtpx:hr>
          </gpxtpx:TrackPointExtension>
        </extensions>
      </trkpt>
      <trkpt lat="38.83756560217713" lon="121.508186977435">
        <ele>11.34628492873162</ele>
        <time>2024-10-22T14:43:30Z</time>
        <extensions>
          <gpxtpx:TrackPointExtension>
            <gpxtpx:hr>142</gpxtpx:hr>
          </gpxtpx:TrackPointExtension>
        </extensions>
      </trkpt>
      <trkpt lat="38.83758455072305" lon="121.50812043925913">
        <ele>10.80577508918941</ele>
        <time>2024-10-22T14:43:46Z</time>
        <extensions>
          <gpxtpx:TrackPointExtension>
            <gpxtpx:hr>142</gpxtpx:hr>
          </gpxtpx:TrackPointExtension>
        </extensions>
      </trkpt>
      <trkpt lat="38.8377219682241" lon="121.5080017458859">
        <ele>11.270987651310861</ele>
        <time>2024-10-22T14:43:54Z</time>
        <extensions>
          <gpxtpx:TrackPointExtension>
            <gpxtpx:hr>125</gpxtpx:hr>
          </gpxtpx:TrackPointExtension>
        </extensions>
      </trkpt>
      <trkpt lat="38.83793998849412" lon="121.50765367048103">
        <ele>9.797327822074294</ele>
        <time>2024-10-22T14:44:10Z</time>
        <extensions>
          <gpxtpx:TrackPointExtension>
            <gpxtpx:hr>125</gpxtpx:hr>
          </gpxtpx:TrackPointExtension>
        </extensions>
      </trkpt>
      <trkpt lat="38.83797626875743" lon="121.50756129299452">
        <ele>10.149825922213495</ele>
        <time>2024-10-22T14:44:14Z</time>
        <extensions>
          <gpxtpx:TrackPointExtension>
            <gpxtpx:hr>131</gpxtpx:hr>
          </gpxtpx:TrackPointExtension>
        </extensions>
      </trkpt>
      <trkpt lat="38.83804185138032" lon="121.50745406095932">
        <ele>9.747280571609735</ele>
        <time>2024-10-22T14:44:18Z</time>
        <extensions>
          <gpxtpx:TrackPointExtension>
            <gpxtpx:hr>131</gpxtpx:hr>
          </gpxtpx:TrackPointExtension>
        </extensions>
      </trkpt>
      <trkpt lat="38.83807938567442" lon="121.50734190370252">
        <ele>10.667253154329956</ele>
        <time>2024-10-22T14:44:22Z</time>
        <extensions>
          <gpxtpx:TrackPointExtension>
            <gpxtpx:hr>135</gpxtpx:hr>
          </gpxtpx:TrackPointExtension>
        </extensions>
      </trkpt>
      <trkpt lat="38.838263707774175" lon="121.50706817502342">
        <ele>11.282717198133469</ele>
        <time>2024-10-22T14:44:34Z</time>
        <extensions>
          <gpxtpx:TrackPointExtension>
            <gpxtpx:hr>138</gpxtpx:hr>
          </gpxtpx:TrackPointExtension>
        </extensions>
      </trkpt>
      <trkpt lat="38.838459765906784" lon="121.50671978664818">
        <ele>9.336635635234416</ele>
        <time>2024-10-22T14:44:50Z</time>
        <extensions>
          <gpxtpx:TrackPointExtension>
            <gpxtpx:hr>142</gpxtpx:hr>
          </gpxtpx:TrackPointExtension>
        </extensions>
      </trkpt>
      <trkpt lat="38.838524557826126" lon="121.50663433799716">
        <ele>11.068379923701286</ele>
        <time>2024-10-22T14:44:54Z</time>
        <extensions>
          <gpxtpx:TrackPointExtension>
            <gpxtpx:hr>143</gpxtpx:hr>
          </gpxtpx:TrackPointExtension>
        </extensions>
      </trkpt>
      <trkpt lat="38.838611472882285" lon="121.50625286018165">
        <ele>11.745038196444511</ele>
        <time>2024-10-22T14:45:12Z</time>
        <extensions>
          <gpxtpx:TrackPointExtension>
            <gpxtpx:hr>144</gpxtpx:hr>
          </gpxtpx:TrackPointExtension>
        </extensions>
      </trkpt>
      <trkpt lat="38.83860792300674" lon="121.5062054730482">
        <ele>12.259965063072741</ele>
        <time>2024-10-22T14:45:15Z</time>
        <extensions>
          <gpxtpx:TrackPointExtension>
            <gpxtpx:hr>144</gpxtpx:hr>
          </gpxtpx:TrackPointExtension>
        </extensions>
      </trkpt>
    </trkseg>
  </trk>
</gpx>