<?xml version="1.0" encoding="UTF-8"?>
<gpx xmlns="http://www.topografix.com/GPX/1/1" xmlns:gpxtpx="http://www.garmin.com/xmlschemas/TrackPointExtension/v1" xmlns:xsi="http://www.w3.org/2001/XMLSchema-instance" xsi:schemaLocation="http://www.topografix.com/GPX/1/1 http://www.topografix.com/GPX/1/1/gpx.xsd" version="1.1" creator="gpx.py -- https://github.com/tkrajina/gpxpy">
  <trk>
    <name>gpx from keep</name>
    <type>Run</type>
    <trkseg>
      <trkpt lat="38.835655675516335" lon="121.50662536663972">
        <ele>18.14513349533081</ele>
        <time>2024-11-05T00:55:14Z</time>
      </trkpt>
      <trkpt lat="38.83553661504204" lon="121.50660692574667">
        <ele>15.954765197820961</ele>
        <time>2024-11-05T00:55:20Z</time>
      </trkpt>
      <trkpt lat="38.83539510956777" lon="121.50662403751846">
        <ele>15.381523131392896</ele>
        <time>2024-11-05T00:55:26Z</time>
      </trkpt>
      <trkpt lat="38.83532587867457" lon="121.50660827064128">
        <ele>13.80876917205751</ele>
        <time>2024-11-05T00:55:29Z</time>
      </trkpt>
      <trkpt lat="38.83527737350687" lon="121.50655419257725">
        <ele>12.93456260394305</ele>
        <time>2024-11-05T00:55:32Z</time>
      </trkpt>
      <trkpt lat="38.83521354780551" lon="121.50643053857206">
        <ele>7.954075448215008</ele>
        <time>2024-11-05T00:55:36Z</time>
      </trkpt>
      <trkpt lat="38.83507373519014" lon="121.50633258256676">
        <ele>7.341268299147487</ele>
        <time>2024-11-05T00:55:44Z</time>
        <extensions>
          <gpxtpx:TrackPointExtension>
            <gpxtpx:hr>139</gpxtpx:hr>
          </gpxtpx:TrackPointExtension>
        </extensions>
      </trkpt>
      <trkpt lat="38.83494101553589" lon="121.50619601668133">
        <ele>7.009767037816346</ele>
        <time>2024-11-05T00:55:52Z</time>
        <extensions>
          <gpxtpx:TrackPointExtension>
            <gpxtpx:hr>139</gpxtpx:hr>
          </gpxtpx:TrackPointExtension>
        </extensions>
      </trkpt>
      <trkpt lat="38.83464457345135" lon="121.50598041384356">
        <ele>5.972885936498642</ele>
        <time>2024-11-05T00:56:08Z</time>
        <extensions>
          <gpxtpx:TrackPointExtension>
            <gpxtpx:hr>142</gpxtpx:hr>
          </gpxtpx:TrackPointExtension>
        </extensions>
      </trkpt>
      <trkpt lat="38.83434479200511" lon="121.50573044187401">
        <ele>5.538657903671265</ele>
        <time>2024-11-05T00:56:24Z</time>
        <extensions>
          <gpxtpx:TrackPointExtension>
            <gpxtpx:hr>144</gpxtpx:hr>
          </gpxtpx:TrackPointExtension>
        </extensions>
      </trkpt>
      <trkpt lat="38.83419500910231" lon="121.5056031090671">
        <ele>5.625952919013798</ele>
        <time>2024-11-05T00:56:32Z</time>
        <extensions>
          <gpxtpx:TrackPointExtension>
            <gpxtpx:hr>144</gpxtpx:hr>
          </gpxtpx:TrackPointExtension>
        </extensions>
      </trkpt>
      <trkpt lat="38.8341079689764" lon="121.50556646164704">
        <ele>6.413685142993927</ele>
        <time>2024-11-05T00:56:36Z</time>
      </trkpt>
      <trkpt lat="38.83404693174108" lon="121.5054910888987">
        <ele>6.356144439429045</ele>
        <time>2024-11-05T00:56:40Z</time>
      </trkpt>
      <trkpt lat="38.833962179561055" lon="121.505458597033">
        <ele>6.09443529881537</ele>
        <time>2024-11-05T00:56:44Z</time>
      </trkpt>
      <trkpt lat="38.83366921879206" lon="121.50521801700009">
        <ele>7.518220955505967</ele>
        <time>2024-11-05T00:57:00Z</time>
      </trkpt>
      <trkpt lat="38.833606459730646" lon="121.50515242953637">
        <ele>6.859279575757682</ele>
        <time>2024-11-05T00:57:04Z</time>
        <extensions>
          <gpxtpx:TrackPointExtension>
            <gpxtpx:hr>134</gpxtpx:hr>
          </gpxtpx:TrackPointExtension>
        </extensions>
      </trkpt>
      <trkpt lat="38.83352016139399" lon="121.50522195654791">
        <ele>7.000597885809839</ele>
        <time>2024-11-05T00:57:08Z</time>
        <extensions>
          <gpxtpx:TrackPointExtension>
            <gpxtpx:hr>134</gpxtpx:hr>
          </gpxtpx:TrackPointExtension>
        </extensions>
      </trkpt>
      <trkpt lat="38.83334555386629" lon="121.50557663310994">
        <ele>7.178135680034757</ele>
        <time>2024-11-05T00:57:23Z</time>
        <extensions>
          <gpxtpx:TrackPointExtension>
            <gpxtpx:hr>128</gpxtpx:hr>
          </gpxtpx:TrackPointExtension>
        </extensions>
      </trkpt>
      <trkpt lat="38.83325203186656" lon="121.50575774801725">
        <ele>7.601773988455534</ele>
        <time>2024-11-05T00:57:31Z</time>
        <extensions>
          <gpxtpx:TrackPointExtension>
            <gpxtpx:hr>128</gpxtpx:hr>
          </gpxtpx:TrackPointExtension>
        </extensions>
      </trkpt>
      <trkpt lat="38.83308565043267" lon="121.50612816942152">
        <ele>6.363902806304395</ele>
        <time>2024-11-05T00:57:47Z</time>
        <extensions>
          <gpxtpx:TrackPointExtension>
            <gpxtpx:hr>132</gpxtpx:hr>
          </gpxtpx:TrackPointExtension>
        </extensions>
      </trkpt>
      <trkpt lat="38.832908988059664" lon="121.50648505033563">
        <ele>2.703067417256534</ele>
        <time>2024-11-05T00:58:03Z</time>
        <extensions>
          <gpxtpx:TrackPointExtension>
            <gpxtpx:hr>128</gpxtpx:hr>
          </gpxtpx:TrackPointExtension>
        </extensions>
      </trkpt>
      <trkpt lat="38.832815124090274" lon="121.50648594184962">
        <ele>3.0756434686481953</ele>
        <time>2024-11-05T00:58:07Z</time>
        <extensions>
          <gpxtpx:TrackPointExtension>
            <gpxtpx:hr>125</gpxtpx:hr>
          </gpxtpx:TrackPointExtension>
        </extensions>
      </trkpt>
      <trkpt lat="38.832738299009605" lon="121.50643508459025">
        <ele>1.8880234127864242</ele>
        <time>2024-11-05T00:58:11Z</time>
        <extensions>
          <gpxtpx:TrackPointExtension>
            <gpxtpx:hr>125</gpxtpx:hr>
          </gpxtpx:TrackPointExtension>
        </extensions>
      </trkpt>
      <trkpt lat="38.8325756979256" lon="121.50641577772419">
        <ele>2.4090522127225995</ele>
        <time>2024-11-05T00:58:19Z</time>
        <extensions>
          <gpxtpx:TrackPointExtension>
            <gpxtpx:hr>120</gpxtpx:hr>
          </gpxtpx:TrackPointExtension>
        </extensions>
      </trkpt>
      <trkpt lat="38.83248838855448" lon="121.50648617627893">
        <ele>1.9756332375109196</ele>
        <time>2024-11-05T00:58:23Z</time>
        <extensions>
          <gpxtpx:TrackPointExtension>
            <gpxtpx:hr>119</gpxtpx:hr>
          </gpxtpx:TrackPointExtension>
        </extensions>
      </trkpt>
      <trkpt lat="38.83230999384115" lon="121.50642460757848">
        <ele>2.0716178342700005</ele>
        <time>2024-11-05T00:58:31Z</time>
        <extensions>
          <gpxtpx:TrackPointExtension>
            <gpxtpx:hr>122</gpxtpx:hr>
          </gpxtpx:TrackPointExtension>
        </extensions>
      </trkpt>
      <trkpt lat="38.832102537470284" lon="121.50619820905568">
        <ele>2.414666679687798</ele>
        <time>2024-11-05T00:58:43Z</time>
        <extensions>
          <gpxtpx:TrackPointExtension>
            <gpxtpx:hr>126</gpxtpx:hr>
          </gpxtpx:TrackPointExtension>
        </extensions>
      </trkpt>
      <trkpt lat="38.83202232898877" lon="121.50599616597489">
        <ele>1.749062392860651</ele>
        <time>2024-11-05T00:58:51Z</time>
        <extensions>
          <gpxtpx:TrackPointExtension>
            <gpxtpx:hr>128</gpxtpx:hr>
          </gpxtpx:TrackPointExtension>
        </extensions>
      </trkpt>
      <trkpt lat="38.83196597867842" lon="121.50580005322159">
        <ele>2.533662066794932</ele>
        <time>2024-11-05T00:58:59Z</time>
        <extensions>
          <gpxtpx:TrackPointExtension>
            <gpxtpx:hr>126</gpxtpx:hr>
          </gpxtpx:TrackPointExtension>
        </extensions>
      </trkpt>
      <trkpt lat="38.83187330674724" lon="121.50559356221864">
        <ele>3.3809081809595227</ele>
        <time>2024-11-05T00:59:07Z</time>
        <extensions>
          <gpxtpx:TrackPointExtension>
            <gpxtpx:hr>128</gpxtpx:hr>
          </gpxtpx:TrackPointExtension>
        </extensions>
      </trkpt>
      <trkpt lat="38.831728163101666" lon="121.50545215622542">
        <ele>3.9549328917637467</ele>
        <time>2024-11-05T00:59:15Z</time>
        <extensions>
          <gpxtpx:TrackPointExtension>
            <gpxtpx:hr>129</gpxtpx:hr>
          </gpxtpx:TrackPointExtension>
        </extensions>
      </trkpt>
      <trkpt lat="38.83160670099244" lon="121.5053628922465">
        <ele>3.308249754831195</ele>
        <time>2024-11-05T00:59:22Z</time>
        <extensions>
          <gpxtpx:TrackPointExtension>
            <gpxtpx:hr>131</gpxtpx:hr>
          </gpxtpx:TrackPointExtension>
        </extensions>
      </trkpt>
      <trkpt lat="38.83143881435718" lon="121.5052910335752">
        <ele>2.687620165757835</ele>
        <time>2024-11-05T00:59:30Z</time>
        <extensions>
          <gpxtpx:TrackPointExtension>
            <gpxtpx:hr>131</gpxtpx:hr>
          </gpxtpx:TrackPointExtension>
        </extensions>
      </trkpt>
      <trkpt lat="38.83126157057793" lon="121.50527755210462">
        <ele>3.2375126630067825</ele>
        <time>2024-11-05T00:59:38Z</time>
        <extensions>
          <gpxtpx:TrackPointExtension>
            <gpxtpx:hr>130</gpxtpx:hr>
          </gpxtpx:TrackPointExtension>
        </extensions>
      </trkpt>
      <trkpt lat="38.831072805592164" lon="121.50529287529592">
        <ele>3.1014455081894994</ele>
        <time>2024-11-05T00:59:46Z</time>
        <extensions>
          <gpxtpx:TrackPointExtension>
            <gpxtpx:hr>130</gpxtpx:hr>
          </gpxtpx:TrackPointExtension>
        </extensions>
      </trkpt>
      <trkpt lat="38.83080632865055" lon="121.50523649611326">
        <ele>2.9682767735794187</ele>
        <time>2024-11-05T00:59:58Z</time>
        <extensions>
          <gpxtpx:TrackPointExtension>
            <gpxtpx:hr>132</gpxtpx:hr>
          </gpxtpx:TrackPointExtension>
        </extensions>
      </trkpt>
      <trkpt lat="38.83060189965618" lon="121.5050388480265">
        <ele>2.563766804523766</ele>
        <time>2024-11-05T01:00:10Z</time>
        <extensions>
          <gpxtpx:TrackPointExtension>
            <gpxtpx:hr>132</gpxtpx:hr>
          </gpxtpx:TrackPointExtension>
        </extensions>
      </trkpt>
      <trkpt lat="38.83036526143719" lon="121.50487920244024">
        <ele>2.1353994719684124</ele>
        <time>2024-11-05T01:00:22Z</time>
        <extensions>
          <gpxtpx:TrackPointExtension>
            <gpxtpx:hr>136</gpxtpx:hr>
          </gpxtpx:TrackPointExtension>
        </extensions>
      </trkpt>
      <trkpt lat="38.83009135083614" lon="121.50476162412988">
        <ele>3.0030987011268735</ele>
        <time>2024-11-05T01:00:34Z</time>
        <extensions>
          <gpxtpx:TrackPointExtension>
            <gpxtpx:hr>137</gpxtpx:hr>
          </gpxtpx:TrackPointExtension>
        </extensions>
      </trkpt>
      <trkpt lat="38.829947028697816" lon="121.50464516052917">
        <ele>2.0602483032271266</ele>
        <time>2024-11-05T01:00:42Z</time>
        <extensions>
          <gpxtpx:TrackPointExtension>
            <gpxtpx:hr>137</gpxtpx:hr>
          </gpxtpx:TrackPointExtension>
        </extensions>
      </trkpt>
      <trkpt lat="38.82983258526452" lon="121.50446264851352">
        <ele>1.092237719334662</ele>
        <time>2024-11-05T01:00:50Z</time>
        <extensions>
          <gpxtpx:TrackPointExtension>
            <gpxtpx:hr>137</gpxtpx:hr>
          </gpxtpx:TrackPointExtension>
        </extensions>
      </trkpt>
      <trkpt lat="38.829753506470425" lon="121.50439897742339">
        <ele>2.015481452457607</ele>
        <time>2024-11-05T01:00:54Z</time>
        <extensions>
          <gpxtpx:TrackPointExtension>
            <gpxtpx:hr>136</gpxtpx:hr>
          </gpxtpx:TrackPointExtension>
        </extensions>
      </trkpt>
      <trkpt lat="38.829693671984145" lon="121.50432171792815">
        <ele>0.9723470695316792</ele>
        <time>2024-11-05T01:00:58Z</time>
        <extensions>
          <gpxtpx:TrackPointExtension>
            <gpxtpx:hr>136</gpxtpx:hr>
          </gpxtpx:TrackPointExtension>
        </extensions>
      </trkpt>
      <trkpt lat="38.82945267674286" lon="121.5041635055859">
        <ele>1.719442268833518</ele>
        <time>2024-11-05T01:01:10Z</time>
        <extensions>
          <gpxtpx:TrackPointExtension>
            <gpxtpx:hr>132</gpxtpx:hr>
          </gpxtpx:TrackPointExtension>
        </extensions>
      </trkpt>
      <trkpt lat="38.82919735836543" lon="121.50404544167375">
        <ele>2.424273948185146</ele>
        <time>2024-11-05T01:01:22Z</time>
        <extensions>
          <gpxtpx:TrackPointExtension>
            <gpxtpx:hr>140</gpxtpx:hr>
          </gpxtpx:TrackPointExtension>
        </extensions>
      </trkpt>
      <trkpt lat="38.82904801418286" lon="121.50399534759882">
        <ele>2.915255891159177</ele>
        <time>2024-11-05T01:01:29Z</time>
        <extensions>
          <gpxtpx:TrackPointExtension>
            <gpxtpx:hr>139</gpxtpx:hr>
          </gpxtpx:TrackPointExtension>
        </extensions>
      </trkpt>
      <trkpt lat="38.82888107394474" lon="121.50400062094708">
        <ele>2.0564032811671495</ele>
        <time>2024-11-05T01:01:37Z</time>
        <extensions>
          <gpxtpx:TrackPointExtension>
            <gpxtpx:hr>139</gpxtpx:hr>
          </gpxtpx:TrackPointExtension>
        </extensions>
      </trkpt>
      <trkpt lat="38.828798716150125" lon="121.50403433979511">
        <ele>1.8175879353657365</ele>
        <time>2024-11-05T01:01:41Z</time>
        <extensions>
          <gpxtpx:TrackPointExtension>
            <gpxtpx:hr>138</gpxtpx:hr>
          </gpxtpx:TrackPointExtension>
        </extensions>
      </trkpt>
      <trkpt lat="38.82851631781898" lon="121.50409009063046">
        <ele>1.9125431077554822</ele>
        <time>2024-11-05T01:01:53Z</time>
        <extensions>
          <gpxtpx:TrackPointExtension>
            <gpxtpx:hr>138</gpxtpx:hr>
          </gpxtpx:TrackPointExtension>
        </extensions>
      </trkpt>
      <trkpt lat="38.82842502309419" lon="121.50409524452776">
        <ele>1.631119574420154</ele>
        <time>2024-11-05T01:01:57Z</time>
        <extensions>
          <gpxtpx:TrackPointExtension>
            <gpxtpx:hr>138</gpxtpx:hr>
          </gpxtpx:TrackPointExtension>
        </extensions>
      </trkpt>
      <trkpt lat="38.828236639246384" lon="121.50404724369342">
        <ele>1.6586381830275059</ele>
        <time>2024-11-05T01:02:05Z</time>
        <extensions>
          <gpxtpx:TrackPointExtension>
            <gpxtpx:hr>136</gpxtpx:hr>
          </gpxtpx:TrackPointExtension>
        </extensions>
      </trkpt>
      <trkpt lat="38.82815191544608" lon="121.50400758595322">
        <ele>2.0580396875739098</ele>
        <time>2024-11-05T01:02:09Z</time>
        <extensions>
          <gpxtpx:TrackPointExtension>
            <gpxtpx:hr>137</gpxtpx:hr>
          </gpxtpx:TrackPointExtension>
        </extensions>
      </trkpt>
      <trkpt lat="38.82807288737683" lon="121.50393973332591">
        <ele>2.0087689300999045</ele>
        <time>2024-11-05T01:02:13Z</time>
        <extensions>
          <gpxtpx:TrackPointExtension>
            <gpxtpx:hr>140</gpxtpx:hr>
          </gpxtpx:TrackPointExtension>
        </extensions>
      </trkpt>
      <trkpt lat="38.82796167557098" lon="121.50376193924583">
        <ele>1.3911509895697236</ele>
        <time>2024-11-05T01:02:21Z</time>
        <extensions>
          <gpxtpx:TrackPointExtension>
            <gpxtpx:hr>141</gpxtpx:hr>
          </gpxtpx:TrackPointExtension>
        </extensions>
      </trkpt>
      <trkpt lat="38.82798628480666" lon="121.50382627078613">
        <ele>1.3862024350091815</ele>
        <time>2024-11-05T01:02:25Z</time>
        <extensions>
          <gpxtpx:TrackPointExtension>
            <gpxtpx:hr>141</gpxtpx:hr>
          </gpxtpx:TrackPointExtension>
        </extensions>
      </trkpt>
      <trkpt lat="38.828190120063326" lon="121.50401378432153">
        <ele>1.8156390907242894</ele>
        <time>2024-11-05T01:02:37Z</time>
        <extensions>
          <gpxtpx:TrackPointExtension>
            <gpxtpx:hr>137</gpxtpx:hr>
          </gpxtpx:TrackPointExtension>
        </extensions>
      </trkpt>
      <trkpt lat="38.82838277899769" lon="121.50406307874948">
        <ele>2.530931335873902</ele>
        <time>2024-11-05T01:02:45Z</time>
        <extensions>
          <gpxtpx:TrackPointExtension>
            <gpxtpx:hr>137</gpxtpx:hr>
          </gpxtpx:TrackPointExtension>
        </extensions>
      </trkpt>
      <trkpt lat="38.828567187229574" lon="121.50404184152099">
        <ele>2.2977759409695864</ele>
        <time>2024-11-05T01:02:53Z</time>
        <extensions>
          <gpxtpx:TrackPointExtension>
            <gpxtpx:hr>138</gpxtpx:hr>
          </gpxtpx:TrackPointExtension>
        </extensions>
      </trkpt>
      <trkpt lat="38.828757752244705" lon="121.50398275721521">
        <ele>1.9207301354035735</ele>
        <time>2024-11-05T01:03:01Z</time>
        <extensions>
          <gpxtpx:TrackPointExtension>
            <gpxtpx:hr>139</gpxtpx:hr>
          </gpxtpx:TrackPointExtension>
        </extensions>
      </trkpt>
      <trkpt lat="38.828944284295495" lon="121.50403072682677">
        <ele>2.751159935258329</ele>
        <time>2024-11-05T01:03:09Z</time>
        <extensions>
          <gpxtpx:TrackPointExtension>
            <gpxtpx:hr>141</gpxtpx:hr>
          </gpxtpx:TrackPointExtension>
        </extensions>
      </trkpt>
      <trkpt lat="38.829055535047864" lon="121.50399730812552">
        <ele>2.8617069823667407</ele>
        <time>2024-11-05T01:03:13Z</time>
        <extensions>
          <gpxtpx:TrackPointExtension>
            <gpxtpx:hr>141</gpxtpx:hr>
          </gpxtpx:TrackPointExtension>
        </extensions>
      </trkpt>
      <trkpt lat="38.82923510744917" lon="121.50401442489238">
        <ele>3.659943737089634</ele>
        <time>2024-11-05T01:03:21Z</time>
        <extensions>
          <gpxtpx:TrackPointExtension>
            <gpxtpx:hr>141</gpxtpx:hr>
          </gpxtpx:TrackPointExtension>
        </extensions>
      </trkpt>
      <trkpt lat="38.82949053315883" lon="121.50414777197997">
        <ele>2.843460832722485</ele>
        <time>2024-11-05T01:03:33Z</time>
        <extensions>
          <gpxtpx:TrackPointExtension>
            <gpxtpx:hr>143</gpxtpx:hr>
          </gpxtpx:TrackPointExtension>
        </extensions>
      </trkpt>
      <trkpt lat="38.82972999336943" lon="121.50435038861936">
        <ele>1.9775730073451996</ele>
        <time>2024-11-05T01:03:45Z</time>
        <extensions>
          <gpxtpx:TrackPointExtension>
            <gpxtpx:hr>143</gpxtpx:hr>
          </gpxtpx:TrackPointExtension>
        </extensions>
      </trkpt>
      <trkpt lat="38.83000905515912" lon="121.50463214923766">
        <ele>2.421642509289086</ele>
        <time>2024-11-05T01:04:01Z</time>
        <extensions>
          <gpxtpx:TrackPointExtension>
            <gpxtpx:hr>144</gpxtpx:hr>
          </gpxtpx:TrackPointExtension>
        </extensions>
      </trkpt>
      <trkpt lat="38.83025884801042" lon="121.50479492420851">
        <ele>2.3342991154640913</ele>
        <time>2024-11-05T01:04:13Z</time>
        <extensions>
          <gpxtpx:TrackPointExtension>
            <gpxtpx:hr>143</gpxtpx:hr>
          </gpxtpx:TrackPointExtension>
        </extensions>
      </trkpt>
      <trkpt lat="38.830532793561524" lon="121.50496322394429">
        <ele>3.1042792489752173</ele>
        <time>2024-11-05T01:04:25Z</time>
        <extensions>
          <gpxtpx:TrackPointExtension>
            <gpxtpx:hr>144</gpxtpx:hr>
          </gpxtpx:TrackPointExtension>
        </extensions>
      </trkpt>
      <trkpt lat="38.83063324195321" lon="121.50501214583176">
        <ele>2.980668985284865</ele>
        <time>2024-11-05T01:04:29Z</time>
        <extensions>
          <gpxtpx:TrackPointExtension>
            <gpxtpx:hr>144</gpxtpx:hr>
          </gpxtpx:TrackPointExtension>
        </extensions>
      </trkpt>
      <trkpt lat="38.830794257612425" lon="121.50516463057137">
        <ele>3.8692358657717705</ele>
        <time>2024-11-05T01:04:37Z</time>
        <extensions>
          <gpxtpx:TrackPointExtension>
            <gpxtpx:hr>146</gpxtpx:hr>
          </gpxtpx:TrackPointExtension>
        </extensions>
      </trkpt>
      <trkpt lat="38.830950525620615" lon="121.50523447205246">
        <ele>3.1513540409505367</ele>
        <time>2024-11-05T01:04:45Z</time>
        <extensions>
          <gpxtpx:TrackPointExtension>
            <gpxtpx:hr>145</gpxtpx:hr>
          </gpxtpx:TrackPointExtension>
        </extensions>
      </trkpt>
      <trkpt lat="38.831126884530086" lon="121.50525602566414">
        <ele>3.5150251025334</ele>
        <time>2024-11-05T01:04:53Z</time>
        <extensions>
          <gpxtpx:TrackPointExtension>
            <gpxtpx:hr>144</gpxtpx:hr>
          </gpxtpx:TrackPointExtension>
        </extensions>
      </trkpt>
      <trkpt lat="38.8311926133662" lon="121.50517163971156">
        <ele>3.69499830622226</ele>
        <time>2024-11-05T01:04:57Z</time>
        <extensions>
          <gpxtpx:TrackPointExtension>
            <gpxtpx:hr>144</gpxtpx:hr>
          </gpxtpx:TrackPointExtension>
        </extensions>
      </trkpt>
      <trkpt lat="38.83126986179838" lon="121.50512382965843">
        <ele>4.063373959623277</ele>
        <time>2024-11-05T01:05:01Z</time>
        <extensions>
          <gpxtpx:TrackPointExtension>
            <gpxtpx:hr>146</gpxtpx:hr>
          </gpxtpx:TrackPointExtension>
        </extensions>
      </trkpt>
      <trkpt lat="38.83156270756471" lon="121.50519040864211">
        <ele>4.424512126483023</ele>
        <time>2024-11-05T01:05:13Z</time>
        <extensions>
          <gpxtpx:TrackPointExtension>
            <gpxtpx:hr>147</gpxtpx:hr>
          </gpxtpx:TrackPointExtension>
        </extensions>
      </trkpt>
      <trkpt lat="38.83164632970969" lon="121.50519862942262">
        <ele>3.6026594694703817</ele>
        <time>2024-11-05T01:05:17Z</time>
        <extensions>
          <gpxtpx:TrackPointExtension>
            <gpxtpx:hr>147</gpxtpx:hr>
          </gpxtpx:TrackPointExtension>
        </extensions>
      </trkpt>
      <trkpt lat="38.831898627477955" lon="121.5049943867573">
        <ele>5.261796951293945</ele>
        <time>2024-11-05T01:05:29Z</time>
        <extensions>
          <gpxtpx:TrackPointExtension>
            <gpxtpx:hr>149</gpxtpx:hr>
          </gpxtpx:TrackPointExtension>
        </extensions>
      </trkpt>
      <trkpt lat="38.83197263200123" lon="121.50489649757043">
        <ele>6.009435989893973</ele>
        <time>2024-11-05T01:05:33Z</time>
        <extensions>
          <gpxtpx:TrackPointExtension>
            <gpxtpx:hr>150</gpxtpx:hr>
          </gpxtpx:TrackPointExtension>
        </extensions>
      </trkpt>
      <trkpt lat="38.83210564691229" lon="121.50457516885446">
        <ele>5.602128680795431</ele>
        <time>2024-11-05T01:05:44Z</time>
        <extensions>
          <gpxtpx:TrackPointExtension>
            <gpxtpx:hr>151</gpxtpx:hr>
          </gpxtpx:TrackPointExtension>
        </extensions>
      </trkpt>
      <trkpt lat="38.832177188228215" lon="121.50450303356503">
        <ele>6.436921541579068</ele>
        <time>2024-11-05T01:05:48Z</time>
        <extensions>
          <gpxtpx:TrackPointExtension>
            <gpxtpx:hr>151</gpxtpx:hr>
          </gpxtpx:TrackPointExtension>
        </extensions>
      </trkpt>
      <trkpt lat="38.83226316421476" lon="121.5045454976149">
        <ele>8.368254996836185</ele>
        <time>2024-11-05T01:05:52Z</time>
        <extensions>
          <gpxtpx:TrackPointExtension>
            <gpxtpx:hr>151</gpxtpx:hr>
          </gpxtpx:TrackPointExtension>
        </extensions>
      </trkpt>
      <trkpt lat="38.83237398960333" lon="121.50455253712516">
        <ele>7.546303987503052</ele>
        <time>2024-11-05T01:05:56Z</time>
        <extensions>
          <gpxtpx:TrackPointExtension>
            <gpxtpx:hr>148</gpxtpx:hr>
          </gpxtpx:TrackPointExtension>
        </extensions>
      </trkpt>
      <trkpt lat="38.83247330628231" lon="121.50460020179176">
        <ele>7.290847467258573</ele>
        <time>2024-11-05T01:06:00Z</time>
        <extensions>
          <gpxtpx:TrackPointExtension>
            <gpxtpx:hr>148</gpxtpx:hr>
          </gpxtpx:TrackPointExtension>
        </extensions>
      </trkpt>
      <trkpt lat="38.83254801485307" lon="121.50467351147654">
        <ele>7.6535066049546</ele>
        <time>2024-11-05T01:06:04Z</time>
        <extensions>
          <gpxtpx:TrackPointExtension>
            <gpxtpx:hr>156</gpxtpx:hr>
          </gpxtpx:TrackPointExtension>
        </extensions>
      </trkpt>
      <trkpt lat="38.83264692674575" lon="121.50468065125676">
        <ele>7.1585635943338275</ele>
        <time>2024-11-05T01:06:08Z</time>
        <extensions>
          <gpxtpx:TrackPointExtension>
            <gpxtpx:hr>157</gpxtpx:hr>
          </gpxtpx:TrackPointExtension>
        </extensions>
      </trkpt>
      <trkpt lat="38.83275123064106" lon="121.50472936742304">
        <ele>7.561230075545609</ele>
        <time>2024-11-05T01:06:12Z</time>
        <extensions>
          <gpxtpx:TrackPointExtension>
            <gpxtpx:hr>157</gpxtpx:hr>
          </gpxtpx:TrackPointExtension>
        </extensions>
      </trkpt>
      <trkpt lat="38.83285878770359" lon="121.50473548397669">
        <ele>7.467455911450088</ele>
        <time>2024-11-05T01:06:16Z</time>
        <extensions>
          <gpxtpx:TrackPointExtension>
            <gpxtpx:hr>157</gpxtpx:hr>
          </gpxtpx:TrackPointExtension>
        </extensions>
      </trkpt>
      <trkpt lat="38.8329547961563" lon="121.50479679464202">
        <ele>7.027875296771526</ele>
        <time>2024-11-05T01:06:20Z</time>
        <extensions>
          <gpxtpx:TrackPointExtension>
            <gpxtpx:hr>157</gpxtpx:hr>
          </gpxtpx:TrackPointExtension>
        </extensions>
      </trkpt>
      <trkpt lat="38.833251504603986" lon="121.50485860467965">
        <ele>7.423015302978456</ele>
        <time>2024-11-05T01:06:32Z</time>
        <extensions>
          <gpxtpx:TrackPointExtension>
            <gpxtpx:hr>157</gpxtpx:hr>
          </gpxtpx:TrackPointExtension>
        </extensions>
      </trkpt>
      <trkpt lat="38.833430073735336" lon="121.50494247606797">
        <ele>7.055831519886851</ele>
        <time>2024-11-05T01:06:40Z</time>
        <extensions>
          <gpxtpx:TrackPointExtension>
            <gpxtpx:hr>158</gpxtpx:hr>
          </gpxtpx:TrackPointExtension>
        </extensions>
      </trkpt>
      <trkpt lat="38.83351272586986" lon="121.5050098926646">
        <ele>6.410236773081124</ele>
        <time>2024-11-05T01:06:44Z</time>
        <extensions>
          <gpxtpx:TrackPointExtension>
            <gpxtpx:hr>158</gpxtpx:hr>
          </gpxtpx:TrackPointExtension>
        </extensions>
      </trkpt>
      <trkpt lat="38.83361194335225" lon="121.50505665986348">
        <ele>6.435664840042591</ele>
        <time>2024-11-05T01:06:48Z</time>
        <extensions>
          <gpxtpx:TrackPointExtension>
            <gpxtpx:hr>158</gpxtpx:hr>
          </gpxtpx:TrackPointExtension>
        </extensions>
      </trkpt>
      <trkpt lat="38.83377935871199" lon="121.50519680235776">
        <ele>6.616318060085177</ele>
        <time>2024-11-05T01:06:56Z</time>
        <extensions>
          <gpxtpx:TrackPointExtension>
            <gpxtpx:hr>158</gpxtpx:hr>
          </gpxtpx:TrackPointExtension>
        </extensions>
      </trkpt>
      <trkpt lat="38.8338991813444" lon="121.50536154141574">
        <ele>7.03658811468631</ele>
        <time>2024-11-05T01:07:04Z</time>
        <extensions>
          <gpxtpx:TrackPointExtension>
            <gpxtpx:hr>158</gpxtpx:hr>
          </gpxtpx:TrackPointExtension>
        </extensions>
      </trkpt>
      <trkpt lat="38.834093108875415" lon="121.50547635030486">
        <ele>5.986193518154323</ele>
        <time>2024-11-05T01:07:12Z</time>
        <extensions>
          <gpxtpx:TrackPointExtension>
            <gpxtpx:hr>158</gpxtpx:hr>
          </gpxtpx:TrackPointExtension>
        </extensions>
      </trkpt>
      <trkpt lat="38.83416430930828" lon="121.50556031613476">
        <ele>7.113380238413811</ele>
        <time>2024-11-05T01:07:16Z</time>
        <extensions>
          <gpxtpx:TrackPointExtension>
            <gpxtpx:hr>158</gpxtpx:hr>
          </gpxtpx:TrackPointExtension>
        </extensions>
      </trkpt>
      <trkpt lat="38.83425449827299" lon="121.50559612707636">
        <ele>7.1963135581463575</ele>
        <time>2024-11-05T01:07:20Z</time>
        <extensions>
          <gpxtpx:TrackPointExtension>
            <gpxtpx:hr>159</gpxtpx:hr>
          </gpxtpx:TrackPointExtension>
        </extensions>
      </trkpt>
      <trkpt lat="38.83432105737193" lon="121.505661391384">
        <ele>5.776206881739199</ele>
        <time>2024-11-05T01:07:24Z</time>
        <extensions>
          <gpxtpx:TrackPointExtension>
            <gpxtpx:hr>158</gpxtpx:hr>
          </gpxtpx:TrackPointExtension>
        </extensions>
      </trkpt>
      <trkpt lat="38.83445941656187" lon="121.50576280160685">
        <ele>5.352311723865569</ele>
        <time>2024-11-05T01:07:32Z</time>
        <extensions>
          <gpxtpx:TrackPointExtension>
            <gpxtpx:hr>158</gpxtpx:hr>
          </gpxtpx:TrackPointExtension>
        </extensions>
      </trkpt>
      <trkpt lat="38.834658762909854" lon="121.50587430573756">
        <ele>5.635533113963902</ele>
        <time>2024-11-05T01:07:47Z</time>
        <extensions>
          <gpxtpx:TrackPointExtension>
            <gpxtpx:hr>154</gpxtpx:hr>
          </gpxtpx:TrackPointExtension>
        </extensions>
      </trkpt>
      <trkpt lat="38.834790967164786" lon="121.50599811325564">
        <ele>4.84202291816473</ele>
        <time>2024-11-05T01:07:55Z</time>
        <extensions>
          <gpxtpx:TrackPointExtension>
            <gpxtpx:hr>151</gpxtpx:hr>
          </gpxtpx:TrackPointExtension>
        </extensions>
      </trkpt>
      <trkpt lat="38.8348513641265" lon="121.5060238756016">
        <ele>5.931644328869879</ele>
        <time>2024-11-05T01:07:59Z</time>
        <extensions>
          <gpxtpx:TrackPointExtension>
            <gpxtpx:hr>149</gpxtpx:hr>
          </gpxtpx:TrackPointExtension>
        </extensions>
      </trkpt>
      <trkpt lat="38.835149241800416" lon="121.50626360088124">
        <ele>6.010859066620469</ele>
        <time>2024-11-05T01:08:23Z</time>
        <extensions>
          <gpxtpx:TrackPointExtension>
            <gpxtpx:hr>138</gpxtpx:hr>
          </gpxtpx:TrackPointExtension>
        </extensions>
      </trkpt>
      <trkpt lat="38.83539047798676" lon="121.5064505291239">
        <ele>7.1305453553795815</ele>
        <time>2024-11-05T01:08:35Z</time>
        <extensions>
          <gpxtpx:TrackPointExtension>
            <gpxtpx:hr>138</gpxtpx:hr>
          </gpxtpx:TrackPointExtension>
        </extensions>
      </trkpt>
      <trkpt lat="38.835464288819004" lon="121.50649395106102">
        <ele>6.51608104724437</ele>
        <time>2024-11-05T01:08:39Z</time>
        <extensions>
          <gpxtpx:TrackPointExtension>
            <gpxtpx:hr>138</gpxtpx:hr>
          </gpxtpx:TrackPointExtension>
        </extensions>
      </trkpt>
      <trkpt lat="38.835627528185405" lon="121.50645081753025">
        <ele>7.783863057382405</ele>
        <time>2024-11-05T01:08:47Z</time>
        <extensions>
          <gpxtpx:TrackPointExtension>
            <gpxtpx:hr>140</gpxtpx:hr>
          </gpxtpx:TrackPointExtension>
        </extensions>
      </trkpt>
      <trkpt lat="38.83580707919889" lon="121.50648250567384">
        <ele>9.353761915117502</ele>
        <time>2024-11-05T01:08:55Z</time>
        <extensions>
          <gpxtpx:TrackPointExtension>
            <gpxtpx:hr>141</gpxtpx:hr>
          </gpxtpx:TrackPointExtension>
        </extensions>
      </trkpt>
      <trkpt lat="38.83587492682812" lon="121.50651742970432">
        <ele>10.167317390441895</ele>
        <time>2024-11-05T01:09:03Z</time>
        <extensions>
          <gpxtpx:TrackPointExtension>
            <gpxtpx:hr>143</gpxtpx:hr>
          </gpxtpx:TrackPointExtension>
        </extensions>
      </trkpt>
    </trkseg>
  </trk>
</gpx>