<?xml version="1.0" encoding="UTF-8"?>
<gpx xmlns="http://www.topografix.com/GPX/1/1" xmlns:gpxtpx="http://www.garmin.com/xmlschemas/TrackPointExtension/v1" xmlns:xsi="http://www.w3.org/2001/XMLSchema-instance" xsi:schemaLocation="http://www.topografix.com/GPX/1/1 http://www.topografix.com/GPX/1/1/gpx.xsd" version="1.1" creator="gpx.py -- https://github.com/tkrajina/gpxpy">
  <trk>
    <name>gpx from keep</name>
    <type>Run</type>
    <trkseg>
      <trkpt lat="38.837359661699686" lon="121.51002663877374">
        <ele>9.257489203540846</ele>
        <time>2025-12-30T00:02:08Z</time>
      </trkpt>
      <trkpt lat="38.83707182262196" lon="121.50977893381321">
        <ele>10.240929948206077</ele>
        <time>2025-12-30T00:02:11Z</time>
      </trkpt>
      <trkpt lat="38.837035508457" lon="121.50967040367489">
        <ele>8.872042262176834</ele>
        <time>2025-12-30T00:02:14Z</time>
      </trkpt>
      <trkpt lat="38.83683790213616" lon="121.50989849864979">
        <ele>9.407897093333304</ele>
        <time>2025-12-30T00:02:38Z</time>
      </trkpt>
      <trkpt lat="38.836653388543404" lon="121.50995194891378">
        <ele>9.080945425666869</ele>
        <time>2025-12-30T00:02:50Z</time>
      </trkpt>
      <trkpt lat="38.83651684982574" lon="121.50994080396892">
        <ele>8.583251839503646</ele>
        <time>2025-12-30T00:02:58Z</time>
      </trkpt>
      <trkpt lat="38.83634648693872" lon="121.50997454757854">
        <ele>8.951633962802589</ele>
        <time>2025-12-30T00:03:08Z</time>
      </trkpt>
      <trkpt lat="38.836170216869625" lon="121.51008194604289">
        <ele>8.64601931348443</ele>
        <time>2025-12-30T00:03:20Z</time>
      </trkpt>
      <trkpt lat="38.83609700253095" lon="121.5101463125322">
        <ele>8.64641295094043</ele>
        <time>2025-12-30T00:03:26Z</time>
      </trkpt>
      <trkpt lat="38.83608630009126" lon="121.51020361904719">
        <ele>8.504126656800508</ele>
        <time>2025-12-30T00:03:29Z</time>
      </trkpt>
      <trkpt lat="38.836135561245925" lon="121.51028202193694">
        <ele>8.48727373406291</ele>
        <time>2025-12-30T00:03:35Z</time>
      </trkpt>
      <trkpt lat="38.83615728660589" lon="121.51038912899415">
        <ele>9.532601740211248</ele>
        <time>2025-12-30T00:03:41Z</time>
      </trkpt>
      <trkpt lat="38.83622288207941" lon="121.51060145706234">
        <ele>8.845530095510185</ele>
        <time>2025-12-30T00:03:56Z</time>
      </trkpt>
      <trkpt lat="38.83620237388023" lon="121.51079013062179">
        <ele>8.395159838721156</ele>
        <time>2025-12-30T00:04:05Z</time>
      </trkpt>
      <trkpt lat="38.83604982893901" lon="121.51108791192205">
        <ele>6.270690564066172</ele>
        <time>2025-12-30T00:04:25Z</time>
      </trkpt>
      <trkpt lat="38.83598615520519" lon="121.51123904163312">
        <ele>6.307399078272283</ele>
        <time>2025-12-30T00:04:33Z</time>
      </trkpt>
      <trkpt lat="38.83595032108411" lon="121.51146384302854">
        <ele>6.012992839328945</ele>
        <time>2025-12-30T00:04:44Z</time>
      </trkpt>
      <trkpt lat="38.83595164496073" lon="121.51157963078477">
        <ele>6.0882489793002605</ele>
        <time>2025-12-30T00:04:50Z</time>
      </trkpt>
      <trkpt lat="38.83602959596575" lon="121.511791532294">
        <ele>6.3257524548098445</ele>
        <time>2025-12-30T00:05:02Z</time>
      </trkpt>
      <trkpt lat="38.83607907348462" lon="121.51187844151725">
        <ele>5.725001118145883</ele>
        <time>2025-12-30T00:05:08Z</time>
      </trkpt>
      <trkpt lat="38.83626807395852" lon="121.51197871347088">
        <ele>4.165523997507989</ele>
        <time>2025-12-30T00:05:23Z</time>
      </trkpt>
      <trkpt lat="38.836359140749906" lon="121.5119605357492">
        <ele>5.6813096180558205</ele>
        <time>2025-12-30T00:05:29Z</time>
      </trkpt>
      <trkpt lat="38.8364350036262" lon="121.51192229786805">
        <ele>5.4646064499393106</ele>
        <time>2025-12-30T00:05:35Z</time>
      </trkpt>
      <trkpt lat="38.83652416874266" lon="121.51190344980455">
        <ele>6.191165016032755</ele>
        <time>2025-12-30T00:05:41Z</time>
      </trkpt>
      <trkpt lat="38.8367832222066" lon="121.51164988800085">
        <ele>7.2587137715891</ele>
        <time>2025-12-30T00:06:02Z</time>
      </trkpt>
      <trkpt lat="38.83695886872606" lon="121.51136262817548">
        <ele>6.8705507116392255</ele>
        <time>2025-12-30T00:06:23Z</time>
      </trkpt>
      <trkpt lat="38.837021813710535" lon="121.51112030180369">
        <ele>7.9070745734497905</ele>
        <time>2025-12-30T00:06:39Z</time>
      </trkpt>
      <trkpt lat="38.83703549627081" lon="121.51099467201263">
        <ele>7.255906553007662</ele>
        <time>2025-12-30T00:06:46Z</time>
      </trkpt>
      <trkpt lat="38.83712408179979" lon="121.51075677575226">
        <ele>9.038224253803492</ele>
        <time>2025-12-30T00:07:04Z</time>
      </trkpt>
      <trkpt lat="38.83726677177921" lon="121.51052338174875">
        <ele>9.13211237359792</ele>
        <time>2025-12-30T00:07:22Z</time>
      </trkpt>
      <trkpt lat="38.83744803600018" lon="121.51037584898539">
        <ele>9.161151724867523</ele>
        <time>2025-12-30T00:07:40Z</time>
      </trkpt>
      <trkpt lat="38.83749415117404" lon="121.51030535167565">
        <ele>10.127977679483593</ele>
        <time>2025-12-30T00:07:46Z</time>
      </trkpt>
      <trkpt lat="38.83763509703699" lon="121.51022415271284">
        <ele>8.888675139285624</ele>
        <time>2025-12-30T00:07:58Z</time>
      </trkpt>
      <trkpt lat="38.837690304340256" lon="121.51014672462577">
        <ele>9.602659363299608</ele>
        <time>2025-12-30T00:08:04Z</time>
      </trkpt>
      <trkpt lat="38.837718576002956" lon="121.51005934083749">
        <ele>9.518691214732826</ele>
        <time>2025-12-30T00:08:10Z</time>
      </trkpt>
      <trkpt lat="38.83771390147904" lon="121.50990125164277">
        <ele>10.257239040918648</ele>
        <time>2025-12-30T00:08:19Z</time>
      </trkpt>
      <trkpt lat="38.837673156561216" lon="121.50980980707295">
        <ele>10.268207462504506</ele>
        <time>2025-12-30T00:08:25Z</time>
      </trkpt>
      <trkpt lat="38.837462996505856" lon="121.5095767936459">
        <ele>11.323015490546823</ele>
        <time>2025-12-30T00:08:45Z</time>
      </trkpt>
      <trkpt lat="38.83719593363868" lon="121.50941384889941">
        <ele>10.121509537100792</ele>
        <time>2025-12-30T00:09:03Z</time>
      </trkpt>
      <trkpt lat="38.83713949942917" lon="121.5094155425958">
        <ele>10.122419388964772</ele>
        <time>2025-12-30T00:09:06Z</time>
      </trkpt>
      <trkpt lat="38.83706688102095" lon="121.5095124751843">
        <ele>9.885624043643475</ele>
        <time>2025-12-30T00:09:12Z</time>
      </trkpt>
      <trkpt lat="38.83698892193733" lon="121.50969906039123">
        <ele>10.37353983335197</ele>
        <time>2025-12-30T00:09:21Z</time>
      </trkpt>
      <trkpt lat="38.83685795179951" lon="121.50986002848002">
        <ele>9.95053106918931</ele>
        <time>2025-12-30T00:09:31Z</time>
      </trkpt>
      <trkpt lat="38.83669742445793" lon="121.50992890276719">
        <ele>10.32867677602917</ele>
        <time>2025-12-30T00:09:40Z</time>
      </trkpt>
      <trkpt lat="38.83653313822797" lon="121.50993445604084">
        <ele>9.297175557352602</ele>
        <time>2025-12-30T00:09:49Z</time>
      </trkpt>
      <trkpt lat="38.83648331515714" lon="121.50996634208549">
        <ele>9.067839945666492</ele>
        <time>2025-12-30T00:09:52Z</time>
      </trkpt>
      <trkpt lat="38.83621303964934" lon="121.51005438729239">
        <ele>9.444631128571928</ele>
        <time>2025-12-30T00:10:07Z</time>
      </trkpt>
      <trkpt lat="38.836113630992166" lon="121.51011312477564">
        <ele>9.192507972940803</ele>
        <time>2025-12-30T00:10:13Z</time>
      </trkpt>
      <trkpt lat="38.83609016417732" lon="121.51017838621533">
        <ele>9.073707900941372</ele>
        <time>2025-12-30T00:10:16Z</time>
      </trkpt>
      <trkpt lat="38.8361651219583" lon="121.51030923280751">
        <ele>7.73096545599401</ele>
        <time>2025-12-30T00:10:22Z</time>
      </trkpt>
      <trkpt lat="38.83624299987171" lon="121.51057501030107">
        <ele>7.888986822217703</ele>
        <time>2025-12-30T00:10:34Z</time>
      </trkpt>
      <trkpt lat="38.83623783958426" lon="121.51066931876925">
        <ele>7.965450718067586</ele>
        <time>2025-12-30T00:10:38Z</time>
      </trkpt>
      <trkpt lat="38.836136392159105" lon="121.51096628822037">
        <ele>8.014014187268913</ele>
        <time>2025-12-30T00:10:51Z</time>
      </trkpt>
      <trkpt lat="38.835998275978646" lon="121.51124906634644">
        <ele>6.7819809671491385</ele>
        <time>2025-12-30T00:11:06Z</time>
      </trkpt>
      <trkpt lat="38.83596263199928" lon="121.51144781213009">
        <ele>6.944186655804515</ele>
        <time>2025-12-30T00:11:15Z</time>
      </trkpt>
      <trkpt lat="38.83600271370237" lon="121.51165683981948">
        <ele>7.074662576429546</ele>
        <time>2025-12-30T00:11:24Z</time>
      </trkpt>
      <trkpt lat="38.83605435640852" lon="121.51178566827656">
        <ele>6.6265127081424</ele>
        <time>2025-12-30T00:11:30Z</time>
      </trkpt>
      <trkpt lat="38.836095147212696" lon="121.51184514569837">
        <ele>6.99778201058507</ele>
        <time>2025-12-30T00:11:33Z</time>
      </trkpt>
      <trkpt lat="38.83628896814086" lon="121.51195283292729">
        <ele>5.700985938310623</ele>
        <time>2025-12-30T00:11:45Z</time>
      </trkpt>
      <trkpt lat="38.83655751025948" lon="121.51185556726985">
        <ele>6.818110033869743</ele>
        <time>2025-12-30T00:12:00Z</time>
      </trkpt>
      <trkpt lat="38.83677900548077" lon="121.51160624003337">
        <ele>7.857353120110929</ele>
        <time>2025-12-30T00:12:30Z</time>
      </trkpt>
      <trkpt lat="38.836957538454016" lon="121.51133534159499">
        <ele>7.687611044384539</ele>
        <time>2025-12-30T00:12:46Z</time>
      </trkpt>
      <trkpt lat="38.83702232852137" lon="121.5110847701802">
        <ele>7.836875480599701</ele>
        <time>2025-12-30T00:12:58Z</time>
      </trkpt>
      <trkpt lat="38.83708082659294" lon="121.51083857160792">
        <ele>8.444021691568196</ele>
        <time>2025-12-30T00:13:10Z</time>
      </trkpt>
      <trkpt lat="38.83726375346062" lon="121.51053523768282">
        <ele>8.297682607546449</ele>
        <time>2025-12-30T00:13:28Z</time>
      </trkpt>
      <trkpt lat="38.83746356578748" lon="121.51030241962604">
        <ele>9.663134400732815</ele>
        <time>2025-12-30T00:13:43Z</time>
      </trkpt>
      <trkpt lat="38.837651813926335" lon="121.51015218481295">
        <ele>9.607894106768072</ele>
        <time>2025-12-30T00:13:55Z</time>
      </trkpt>
      <trkpt lat="38.83772935225147" lon="121.50996502764008">
        <ele>9.519736535847187</ele>
        <time>2025-12-30T00:14:04Z</time>
      </trkpt>
      <trkpt lat="38.83777485808339" lon="121.50992023573065">
        <ele>8.823340533301234</ele>
        <time>2025-12-30T00:14:07Z</time>
      </trkpt>
      <trkpt lat="38.8378264111827" lon="121.5099317142025">
        <ele>9.153802373446524</ele>
        <time>2025-12-30T00:14:10Z</time>
      </trkpt>
      <trkpt lat="38.83786133014865" lon="121.5098618387153">
        <ele>9.516603923402727</ele>
        <time>2025-12-30T00:14:13Z</time>
      </trkpt>
      <trkpt lat="38.83790586888896" lon="121.50982248708435">
        <ele>9.40182981453836</ele>
        <time>2025-12-30T00:14:16Z</time>
      </trkpt>
      <trkpt lat="38.83798311414146" lon="121.50943372643158">
        <ele>10.692218255251646</ele>
        <time>2025-12-30T00:14:34Z</time>
      </trkpt>
      <trkpt lat="38.838046757984735" lon="121.5093266397072">
        <ele>11.479646216146648</ele>
        <time>2025-12-30T00:14:40Z</time>
      </trkpt>
      <trkpt lat="38.83826530556626" lon="121.50914217535438">
        <ele>11.992639458738267</ele>
        <time>2025-12-30T00:14:55Z</time>
      </trkpt>
      <trkpt lat="38.838281212580654" lon="121.50908290866086">
        <ele>11.328717502765357</ele>
        <time>2025-12-30T00:14:58Z</time>
      </trkpt>
      <trkpt lat="38.83825871791144" lon="121.50902503873064">
        <ele>11.361611241474748</ele>
        <time>2025-12-30T00:15:01Z</time>
      </trkpt>
      <trkpt lat="38.83817392213664" lon="121.50894949549468">
        <ele>10.708363103680313</ele>
        <time>2025-12-30T00:15:07Z</time>
      </trkpt>
      <trkpt lat="38.83800658901859" lon="121.50888395642474">
        <ele>11.306198306381702</ele>
        <time>2025-12-30T00:15:16Z</time>
      </trkpt>
      <trkpt lat="38.83780308497845" lon="121.50863745923635">
        <ele>10.271080296486616</ele>
        <time>2025-12-30T00:15:31Z</time>
      </trkpt>
      <trkpt lat="38.83777452544481" lon="121.50857145567433">
        <ele>10.565362862311304</ele>
        <time>2025-12-30T00:15:34Z</time>
      </trkpt>
      <trkpt lat="38.83766318911944" lon="121.50850755788886">
        <ele>11.140146779827774</ele>
        <time>2025-12-30T00:15:40Z</time>
      </trkpt>
      <trkpt lat="38.83761199014934" lon="121.50855670917815">
        <ele>11.843303034082055</ele>
        <time>2025-12-30T00:15:43Z</time>
      </trkpt>
      <trkpt lat="38.83749697049334" lon="121.5089055646446">
        <ele>11.917121232487261</ele>
        <time>2025-12-30T00:15:58Z</time>
      </trkpt>
      <trkpt lat="38.83746557740201" lon="121.50897012796275">
        <ele>11.861393552273512</ele>
        <time>2025-12-30T00:16:01Z</time>
      </trkpt>
      <trkpt lat="38.83723954516167" lon="121.5091906934328">
        <ele>11.20403048954904</ele>
        <time>2025-12-30T00:16:22Z</time>
      </trkpt>
      <trkpt lat="38.837092475890245" lon="121.50949066836657">
        <ele>10.671064110472798</ele>
        <time>2025-12-30T00:16:37Z</time>
      </trkpt>
      <trkpt lat="38.836982145323034" lon="121.5097303300153">
        <ele>9.980178699828684</ele>
        <time>2025-12-30T00:16:49Z</time>
      </trkpt>
      <trkpt lat="38.83676900242874" lon="121.50992870857166">
        <ele>9.773937243036926</ele>
        <time>2025-12-30T00:17:02Z</time>
      </trkpt>
      <trkpt lat="38.836463087316396" lon="121.5099712904541">
        <ele>9.17169597838074</ele>
        <time>2025-12-30T00:17:17Z</time>
      </trkpt>
      <trkpt lat="38.8362192199805" lon="121.51004414371535">
        <ele>8.96620103251189</ele>
        <time>2025-12-30T00:17:29Z</time>
      </trkpt>
      <trkpt lat="38.8361081207577" lon="121.51013009997604">
        <ele>9.35891161300242</ele>
        <time>2025-12-30T00:17:35Z</time>
      </trkpt>
      <trkpt lat="38.83609502467059" lon="121.51020182255672">
        <ele>8.678372163325548</ele>
        <time>2025-12-30T00:17:38Z</time>
      </trkpt>
      <trkpt lat="38.83617040973692" lon="121.51032319661802">
        <ele>8.388556915335357</ele>
        <time>2025-12-30T00:17:44Z</time>
      </trkpt>
      <trkpt lat="38.83623762912232" lon="121.51054683283797">
        <ele>8.250013089738786</ele>
        <time>2025-12-30T00:17:53Z</time>
      </trkpt>
      <trkpt lat="38.83623920446416" lon="121.51069622481604">
        <ele>7.721380332484841</ele>
        <time>2025-12-30T00:17:59Z</time>
      </trkpt>
      <trkpt lat="38.836207100206174" lon="121.51083340917118">
        <ele>8.69991153664887</ele>
        <time>2025-12-30T00:18:05Z</time>
      </trkpt>
      <trkpt lat="38.83604160735174" lon="121.51113897742066">
        <ele>7.5902250381186604</ele>
        <time>2025-12-30T00:18:20Z</time>
      </trkpt>
      <trkpt lat="38.83600792681995" lon="121.51120087554642">
        <ele>7.733209500089288</ele>
        <time>2025-12-30T00:18:23Z</time>
      </trkpt>
      <trkpt lat="38.83597043514464" lon="121.51142536868672">
        <ele>7.111244352534413</ele>
        <time>2025-12-30T00:18:32Z</time>
      </trkpt>
      <trkpt lat="38.836003036176386" lon="121.51164362987912">
        <ele>6.606549513526261</ele>
        <time>2025-12-30T00:18:41Z</time>
      </trkpt>
      <trkpt lat="38.83609385044752" lon="121.51183495217596">
        <ele>7.025811297819018</ele>
        <time>2025-12-30T00:18:50Z</time>
      </trkpt>
      <trkpt lat="38.83617707401642" lon="121.51193165959373">
        <ele>6.069938411936164</ele>
        <time>2025-12-30T00:18:56Z</time>
      </trkpt>
      <trkpt lat="38.836332707240715" lon="121.51194498007777">
        <ele>5.970272375270724</ele>
        <time>2025-12-30T00:19:04Z</time>
      </trkpt>
      <trkpt lat="38.83659970407193" lon="121.51182424654738">
        <ele>8.53665023110807</ele>
        <time>2025-12-30T00:19:19Z</time>
      </trkpt>
      <trkpt lat="38.83672219693291" lon="121.51168518945593">
        <ele>8.490242483094335</ele>
        <time>2025-12-30T00:19:28Z</time>
      </trkpt>
      <trkpt lat="38.83689727034726" lon="121.51139879033695">
        <ele>7.885608393698931</ele>
        <time>2025-12-30T00:19:43Z</time>
      </trkpt>
      <trkpt lat="38.83697114417937" lon="121.51122709777881">
        <ele>7.522515476681292</ele>
        <time>2025-12-30T00:19:52Z</time>
      </trkpt>
      <trkpt lat="38.83700260074428" lon="121.51102603387956">
        <ele>8.155585375614464</ele>
        <time>2025-12-30T00:20:01Z</time>
      </trkpt>
      <trkpt lat="38.83709157665328" lon="121.51076588579939">
        <ele>8.67261906992644</ele>
        <time>2025-12-30T00:20:13Z</time>
      </trkpt>
      <trkpt lat="38.837303994815194" lon="121.51046549747537">
        <ele>9.318857070989907</ele>
        <time>2025-12-30T00:20:31Z</time>
      </trkpt>
      <trkpt lat="38.83753210194793" lon="121.5102507738827">
        <ele>10.695351304486394</ele>
        <time>2025-12-30T00:20:49Z</time>
      </trkpt>
      <trkpt lat="38.83760233777883" lon="121.5102006662887">
        <ele>10.232766946777701</ele>
        <time>2025-12-30T00:20:55Z</time>
      </trkpt>
      <trkpt lat="38.83770662194125" lon="121.51005326268084">
        <ele>10.314599314704537</ele>
        <time>2025-12-30T00:21:05Z</time>
      </trkpt>
      <trkpt lat="38.837773245363586" lon="121.50981614522934">
        <ele>10.496957080438733</ele>
        <time>2025-12-30T00:21:17Z</time>
      </trkpt>
      <trkpt lat="38.83774417254892" lon="121.50949016977742">
        <ele>10.679900605231524</ele>
        <time>2025-12-30T00:21:32Z</time>
      </trkpt>
      <trkpt lat="38.837714292158985" lon="121.50929757748771">
        <ele>11.68293940834701</ele>
        <time>2025-12-30T00:21:41Z</time>
      </trkpt>
      <trkpt lat="38.83774368117618" lon="121.50902569529221">
        <ele>11.923209683969617</ele>
        <time>2025-12-30T00:21:53Z</time>
      </trkpt>
      <trkpt lat="38.83775461764465" lon="121.50868060384114">
        <ele>10.441335735842586</ele>
        <time>2025-12-30T00:22:08Z</time>
      </trkpt>
      <trkpt lat="38.83772893336214" lon="121.5085377199346">
        <ele>10.395814983174205</ele>
        <time>2025-12-30T00:22:14Z</time>
      </trkpt>
      <trkpt lat="38.8376409545369" lon="121.50836549634398">
        <ele>10.809274695813656</ele>
        <time>2025-12-30T00:22:23Z</time>
      </trkpt>
      <trkpt lat="38.83753733571185" lon="121.50824292395433">
        <ele>11.309702233411372</ele>
        <time>2025-12-30T00:22:35Z</time>
      </trkpt>
      <trkpt lat="38.83738128994306" lon="121.50813205342116">
        <ele>11.589227749034762</ele>
        <time>2025-12-30T00:22:56Z</time>
      </trkpt>
      <trkpt lat="38.837243428756516" lon="121.50798422381084">
        <ele>12.137306047603488</ele>
        <time>2025-12-30T00:23:12Z</time>
      </trkpt>
      <trkpt lat="38.837243428756516" lon="121.50798422381084">
        <ele>12.137306047603488</ele>
        <time>2025-12-30T00:23:14Z</time>
      </trkpt>
    </trkseg>
  </trk>
</gpx>