<?xml version="1.0" encoding="UTF-8"?>
<gpx xmlns="http://www.topografix.com/GPX/1/1" xmlns:gpxtpx="http://www.garmin.com/xmlschemas/TrackPointExtension/v1" xmlns:xsi="http://www.w3.org/2001/XMLSchema-instance" xsi:schemaLocation="http://www.topografix.com/GPX/1/1 http://www.topografix.com/GPX/1/1/gpx.xsd" version="1.1" creator="gpx.py -- https://github.com/tkrajina/gpxpy">
  <trk>
    <name>gpx from keep</name>
    <type>Run</type>
    <trkseg>
      <trkpt lat="38.83314881097346" lon="121.50703990007503">
        <ele>-0.6599469315260649</ele>
        <time>2025-09-07T00:10:01Z</time>
      </trkpt>
      <trkpt lat="38.833099924572394" lon="121.50693146043838">
        <ele>-0.6522255185991526</ele>
        <time>2025-09-07T00:10:07Z</time>
      </trkpt>
      <trkpt lat="38.83301898307285" lon="121.50685382737055">
        <ele>2.7944478802382946</ele>
        <time>2025-09-07T00:10:13Z</time>
      </trkpt>
      <trkpt lat="38.8329941643855" lon="121.5067978267511">
        <ele>2.1541809029877186</ele>
        <time>2025-09-07T00:10:16Z</time>
      </trkpt>
      <trkpt lat="38.83281048183468" lon="121.50661022669715">
        <ele>0.22341416962444782</ele>
        <time>2025-09-07T00:10:28Z</time>
      </trkpt>
      <trkpt lat="38.83259359917507" lon="121.5065080686866">
        <ele>-0.12732302583754063</ele>
        <time>2025-09-07T00:10:40Z</time>
      </trkpt>
      <trkpt lat="38.832386049778286" lon="121.50648064902737">
        <ele>0.018056029453873634</ele>
        <time>2025-09-07T00:10:49Z</time>
      </trkpt>
      <trkpt lat="38.83226220141873" lon="121.50640030256703">
        <ele>1.2665487341582775</ele>
        <time>2025-09-07T00:10:55Z</time>
      </trkpt>
      <trkpt lat="38.832110711825045" lon="121.50624274984592">
        <ele>0.9066882701590657</ele>
        <time>2025-09-07T00:11:04Z</time>
      </trkpt>
      <trkpt lat="38.832004627511445" lon="121.50601662671993">
        <ele>0.4217187575995922</ele>
        <time>2025-09-07T00:11:13Z</time>
      </trkpt>
      <trkpt lat="38.83191394432456" lon="121.50576439676095">
        <ele>-2.1368536949157715</ele>
        <time>2025-09-07T00:11:23Z</time>
      </trkpt>
      <trkpt lat="38.83172098837329" lon="121.50548720927159">
        <ele>0.059864227660000324</ele>
        <time>2025-09-07T00:11:36Z</time>
      </trkpt>
      <trkpt lat="38.83150186765553" lon="121.50535267741805">
        <ele>0.502032027579844</ele>
        <time>2025-09-07T00:11:48Z</time>
      </trkpt>
      <trkpt lat="38.83137668776697" lon="121.50529900908873">
        <ele>2.1609076261520386</ele>
        <time>2025-09-07T00:11:54Z</time>
      </trkpt>
      <trkpt lat="38.831152987600504" lon="121.50530250035854">
        <ele>0.7748727416619658</ele>
        <time>2025-09-07T00:12:04Z</time>
      </trkpt>
      <trkpt lat="38.83097613398074" lon="121.50532181912247">
        <ele>-0.12716527190059423</ele>
        <time>2025-09-07T00:12:13Z</time>
        <extensions>
          <gpxtpx:TrackPointExtension>
            <gpxtpx:hr>133</gpxtpx:hr>
          </gpxtpx:TrackPointExtension>
        </extensions>
      </trkpt>
      <trkpt lat="38.830836645250045" lon="121.50528698506398">
        <ele>0.3600274221971631</ele>
        <time>2025-09-07T00:12:19Z</time>
        <extensions>
          <gpxtpx:TrackPointExtension>
            <gpxtpx:hr>133</gpxtpx:hr>
          </gpxtpx:TrackPointExtension>
        </extensions>
      </trkpt>
      <trkpt lat="38.83078730002153" lon="121.50523822986173">
        <ele>1.4632699899375439</ele>
        <time>2025-09-07T00:12:22Z</time>
        <extensions>
          <gpxtpx:TrackPointExtension>
            <gpxtpx:hr>133</gpxtpx:hr>
          </gpxtpx:TrackPointExtension>
        </extensions>
      </trkpt>
      <trkpt lat="38.83072560651235" lon="121.50521090774248">
        <ele>0.4224603846669197</ele>
        <time>2025-09-07T00:12:25Z</time>
        <extensions>
          <gpxtpx:TrackPointExtension>
            <gpxtpx:hr>133</gpxtpx:hr>
          </gpxtpx:TrackPointExtension>
        </extensions>
      </trkpt>
      <trkpt lat="38.83050979578517" lon="121.50497486852329">
        <ele>0.8970795441418886</ele>
        <time>2025-09-07T00:12:37Z</time>
        <extensions>
          <gpxtpx:TrackPointExtension>
            <gpxtpx:hr>129</gpxtpx:hr>
          </gpxtpx:TrackPointExtension>
        </extensions>
      </trkpt>
      <trkpt lat="38.83039787870304" lon="121.50492206071166">
        <ele>0.39418826811015606</ele>
        <time>2025-09-07T00:12:43Z</time>
        <extensions>
          <gpxtpx:TrackPointExtension>
            <gpxtpx:hr>130</gpxtpx:hr>
          </gpxtpx:TrackPointExtension>
        </extensions>
      </trkpt>
      <trkpt lat="38.830283190210146" lon="121.50484340982474">
        <ele>1.9927885308861732</ele>
        <time>2025-09-07T00:12:49Z</time>
        <extensions>
          <gpxtpx:TrackPointExtension>
            <gpxtpx:hr>130</gpxtpx:hr>
          </gpxtpx:TrackPointExtension>
        </extensions>
      </trkpt>
      <trkpt lat="38.830024815900046" lon="121.50472736795787">
        <ele>1.0000709211453795</ele>
        <time>2025-09-07T00:13:01Z</time>
        <extensions>
          <gpxtpx:TrackPointExtension>
            <gpxtpx:hr>131</gpxtpx:hr>
          </gpxtpx:TrackPointExtension>
        </extensions>
      </trkpt>
      <trkpt lat="38.829870378346705" lon="121.50457158865365">
        <ele>0.4724444979801774</ele>
        <time>2025-09-07T00:13:10Z</time>
        <extensions>
          <gpxtpx:TrackPointExtension>
            <gpxtpx:hr>131</gpxtpx:hr>
          </gpxtpx:TrackPointExtension>
        </extensions>
      </trkpt>
      <trkpt lat="38.829621238756424" lon="121.50427877485998">
        <ele>0.3514124685898423</ele>
        <time>2025-09-07T00:13:25Z</time>
        <extensions>
          <gpxtpx:TrackPointExtension>
            <gpxtpx:hr>139</gpxtpx:hr>
          </gpxtpx:TrackPointExtension>
        </extensions>
      </trkpt>
      <trkpt lat="38.82934400958469" lon="121.50410191709383">
        <ele>1.394060687161982</ele>
        <time>2025-09-07T00:13:39Z</time>
        <extensions>
          <gpxtpx:TrackPointExtension>
            <gpxtpx:hr>140</gpxtpx:hr>
          </gpxtpx:TrackPointExtension>
        </extensions>
      </trkpt>
      <trkpt lat="38.82911670385845" lon="121.50401269552464">
        <ele>3.313334151171148</ele>
        <time>2025-09-07T00:13:49Z</time>
        <extensions>
          <gpxtpx:TrackPointExtension>
            <gpxtpx:hr>142</gpxtpx:hr>
          </gpxtpx:TrackPointExtension>
        </extensions>
      </trkpt>
      <trkpt lat="38.829058839087985" lon="121.50402147983026">
        <ele>1.6892419205978513</ele>
        <time>2025-09-07T00:13:52Z</time>
        <extensions>
          <gpxtpx:TrackPointExtension>
            <gpxtpx:hr>142</gpxtpx:hr>
          </gpxtpx:TrackPointExtension>
        </extensions>
      </trkpt>
      <trkpt lat="38.82900888777392" lon="121.50406990453256">
        <ele>1.7621999820694327</ele>
        <time>2025-09-07T00:13:55Z</time>
        <extensions>
          <gpxtpx:TrackPointExtension>
            <gpxtpx:hr>142</gpxtpx:hr>
          </gpxtpx:TrackPointExtension>
        </extensions>
      </trkpt>
      <trkpt lat="38.82894778194024" lon="121.50405059765968">
        <ele>1.8930869288742542</ele>
        <time>2025-09-07T00:13:58Z</time>
        <extensions>
          <gpxtpx:TrackPointExtension>
            <gpxtpx:hr>142</gpxtpx:hr>
          </gpxtpx:TrackPointExtension>
        </extensions>
      </trkpt>
      <trkpt lat="38.82888663817676" lon="121.50405766276378">
        <ele>1.1479148473590612</ele>
        <time>2025-09-07T00:14:01Z</time>
        <extensions>
          <gpxtpx:TrackPointExtension>
            <gpxtpx:hr>142</gpxtpx:hr>
          </gpxtpx:TrackPointExtension>
        </extensions>
      </trkpt>
      <trkpt lat="38.82884548276623" lon="121.50400678775677">
        <ele>0.5529218716546893</ele>
        <time>2025-09-07T00:14:04Z</time>
        <extensions>
          <gpxtpx:TrackPointExtension>
            <gpxtpx:hr>142</gpxtpx:hr>
          </gpxtpx:TrackPointExtension>
        </extensions>
      </trkpt>
      <trkpt lat="38.828762843825295" lon="121.50400769961433">
        <ele>0.4389288378879428</ele>
        <time>2025-09-07T00:14:07Z</time>
        <extensions>
          <gpxtpx:TrackPointExtension>
            <gpxtpx:hr>141</gpxtpx:hr>
          </gpxtpx:TrackPointExtension>
        </extensions>
      </trkpt>
      <trkpt lat="38.828550796625805" lon="121.50408087249026">
        <ele>1.7861490659415722</ele>
        <time>2025-09-07T00:14:16Z</time>
        <extensions>
          <gpxtpx:TrackPointExtension>
            <gpxtpx:hr>141</gpxtpx:hr>
          </gpxtpx:TrackPointExtension>
        </extensions>
      </trkpt>
      <trkpt lat="38.8282521477813" lon="121.50403170623562">
        <ele>1.1231751181185246</ele>
        <time>2025-09-07T00:14:31Z</time>
        <extensions>
          <gpxtpx:TrackPointExtension>
            <gpxtpx:hr>141</gpxtpx:hr>
          </gpxtpx:TrackPointExtension>
        </extensions>
      </trkpt>
      <trkpt lat="38.828070044289355" lon="121.50390203849683">
        <ele>1.6071508890017867</ele>
        <time>2025-09-07T00:14:40Z</time>
        <extensions>
          <gpxtpx:TrackPointExtension>
            <gpxtpx:hr>142</gpxtpx:hr>
          </gpxtpx:TrackPointExtension>
        </extensions>
      </trkpt>
      <trkpt lat="38.82797708029284" lon="121.50377879638694">
        <ele>1.222919873893261</ele>
        <time>2025-09-07T00:14:46Z</time>
        <extensions>
          <gpxtpx:TrackPointExtension>
            <gpxtpx:hr>142</gpxtpx:hr>
          </gpxtpx:TrackPointExtension>
        </extensions>
      </trkpt>
      <trkpt lat="38.82789640825519" lon="121.50353673207242">
        <ele>1.0192831018939614</ele>
        <time>2025-09-07T00:14:55Z</time>
        <extensions>
          <gpxtpx:TrackPointExtension>
            <gpxtpx:hr>142</gpxtpx:hr>
          </gpxtpx:TrackPointExtension>
        </extensions>
      </trkpt>
      <trkpt lat="38.8278636861795" lon="121.50335963754756">
        <ele>1.0886157853528857</ele>
        <time>2025-09-07T00:15:01Z</time>
        <extensions>
          <gpxtpx:TrackPointExtension>
            <gpxtpx:hr>143</gpxtpx:hr>
          </gpxtpx:TrackPointExtension>
        </extensions>
      </trkpt>
      <trkpt lat="38.827827618186056" lon="121.50328037022217">
        <ele>1.130950415506959</ele>
        <time>2025-09-07T00:15:04Z</time>
        <extensions>
          <gpxtpx:TrackPointExtension>
            <gpxtpx:hr>143</gpxtpx:hr>
          </gpxtpx:TrackPointExtension>
        </extensions>
      </trkpt>
      <trkpt lat="38.82776888731806" lon="121.50322950994878">
        <ele>1.5800351621583104</ele>
        <time>2025-09-07T00:15:07Z</time>
        <extensions>
          <gpxtpx:TrackPointExtension>
            <gpxtpx:hr>143</gpxtpx:hr>
          </gpxtpx:TrackPointExtension>
        </extensions>
      </trkpt>
      <trkpt lat="38.82769868029795" lon="121.5032004289212">
        <ele>1.0213916776701808</ele>
        <time>2025-09-07T00:15:10Z</time>
        <extensions>
          <gpxtpx:TrackPointExtension>
            <gpxtpx:hr>142</gpxtpx:hr>
          </gpxtpx:TrackPointExtension>
        </extensions>
      </trkpt>
      <trkpt lat="38.827595150440075" lon="121.5030795997585">
        <ele>2.190746915526688</ele>
        <time>2025-09-07T00:15:16Z</time>
        <extensions>
          <gpxtpx:TrackPointExtension>
            <gpxtpx:hr>142</gpxtpx:hr>
          </gpxtpx:TrackPointExtension>
        </extensions>
      </trkpt>
      <trkpt lat="38.827393270633145" lon="121.50299893452024">
        <ele>1.219298578798771</ele>
        <time>2025-09-07T00:15:25Z</time>
        <extensions>
          <gpxtpx:TrackPointExtension>
            <gpxtpx:hr>144</gpxtpx:hr>
          </gpxtpx:TrackPointExtension>
        </extensions>
      </trkpt>
      <trkpt lat="38.827254935820854" lon="121.5029952056618">
        <ele>1.0501090921461582</ele>
        <time>2025-09-07T00:15:31Z</time>
        <extensions>
          <gpxtpx:TrackPointExtension>
            <gpxtpx:hr>144</gpxtpx:hr>
          </gpxtpx:TrackPointExtension>
        </extensions>
      </trkpt>
      <trkpt lat="38.82701803627264" lon="121.50309924378715">
        <ele>1.3873396022245288</ele>
        <time>2025-09-07T00:15:41Z</time>
        <extensions>
          <gpxtpx:TrackPointExtension>
            <gpxtpx:hr>145</gpxtpx:hr>
          </gpxtpx:TrackPointExtension>
        </extensions>
      </trkpt>
      <trkpt lat="38.82678127240581" lon="121.50337676806647">
        <ele>0.07697729766368866</ele>
        <time>2025-09-07T00:15:55Z</time>
        <extensions>
          <gpxtpx:TrackPointExtension>
            <gpxtpx:hr>145</gpxtpx:hr>
          </gpxtpx:TrackPointExtension>
        </extensions>
      </trkpt>
      <trkpt lat="38.826722924684496" lon="121.50344219709244">
        <ele>0.23962210956960917</ele>
        <time>2025-09-07T00:15:58Z</time>
        <extensions>
          <gpxtpx:TrackPointExtension>
            <gpxtpx:hr>148</gpxtpx:hr>
          </gpxtpx:TrackPointExtension>
        </extensions>
      </trkpt>
      <trkpt lat="38.82665118040274" lon="121.50358065001804">
        <ele>0.304156425409019</ele>
        <time>2025-09-07T00:16:04Z</time>
        <extensions>
          <gpxtpx:TrackPointExtension>
            <gpxtpx:hr>148</gpxtpx:hr>
          </gpxtpx:TrackPointExtension>
        </extensions>
      </trkpt>
      <trkpt lat="38.826580533599945" lon="121.50380537651607">
        <ele>0.5918853087350726</ele>
        <time>2025-09-07T00:16:13Z</time>
        <extensions>
          <gpxtpx:TrackPointExtension>
            <gpxtpx:hr>147</gpxtpx:hr>
          </gpxtpx:TrackPointExtension>
        </extensions>
      </trkpt>
      <trkpt lat="38.82655261966679" lon="121.5041725580042">
        <ele>1.0137939844280481</ele>
        <time>2025-09-07T00:16:25Z</time>
        <extensions>
          <gpxtpx:TrackPointExtension>
            <gpxtpx:hr>147</gpxtpx:hr>
          </gpxtpx:TrackPointExtension>
        </extensions>
      </trkpt>
      <trkpt lat="38.8265698956465" lon="121.50426059367132">
        <ele>-0.25233019795268774</ele>
        <time>2025-09-07T00:16:28Z</time>
        <extensions>
          <gpxtpx:TrackPointExtension>
            <gpxtpx:hr>147</gpxtpx:hr>
          </gpxtpx:TrackPointExtension>
        </extensions>
      </trkpt>
      <trkpt lat="38.826540405098875" lon="121.50443245252765">
        <ele>1.3934999844059348</ele>
        <time>2025-09-07T00:16:34Z</time>
        <extensions>
          <gpxtpx:TrackPointExtension>
            <gpxtpx:hr>146</gpxtpx:hr>
          </gpxtpx:TrackPointExtension>
        </extensions>
      </trkpt>
      <trkpt lat="38.82641534841085" lon="121.50476799892535">
        <ele>1.2908854810521007</ele>
        <time>2025-09-07T00:16:46Z</time>
        <extensions>
          <gpxtpx:TrackPointExtension>
            <gpxtpx:hr>144</gpxtpx:hr>
          </gpxtpx:TrackPointExtension>
        </extensions>
      </trkpt>
      <trkpt lat="38.82620814247258" lon="121.50497955356828">
        <ele>-0.7635414926335216</ele>
        <time>2025-09-07T00:16:58Z</time>
        <extensions>
          <gpxtpx:TrackPointExtension>
            <gpxtpx:hr>149</gpxtpx:hr>
          </gpxtpx:TrackPointExtension>
        </extensions>
      </trkpt>
      <trkpt lat="38.8261586553021" lon="121.50493939700968">
        <ele>-0.16671186313033104</ele>
        <time>2025-09-07T00:17:01Z</time>
        <extensions>
          <gpxtpx:TrackPointExtension>
            <gpxtpx:hr>149</gpxtpx:hr>
          </gpxtpx:TrackPointExtension>
        </extensions>
      </trkpt>
      <trkpt lat="38.826083159377795" lon="121.50494543111853">
        <ele>-0.222024061717093</ele>
        <time>2025-09-07T00:17:04Z</time>
        <extensions>
          <gpxtpx:TrackPointExtension>
            <gpxtpx:hr>149</gpxtpx:hr>
          </gpxtpx:TrackPointExtension>
        </extensions>
      </trkpt>
      <trkpt lat="38.82613010499027" lon="121.50488157657787">
        <ele>-0.39637474063783884</ele>
        <time>2025-09-07T00:17:07Z</time>
        <extensions>
          <gpxtpx:TrackPointExtension>
            <gpxtpx:hr>149</gpxtpx:hr>
          </gpxtpx:TrackPointExtension>
        </extensions>
      </trkpt>
      <trkpt lat="38.826210468833715" lon="121.50486784283629">
        <ele>0.3947087749838829</ele>
        <time>2025-09-07T00:17:10Z</time>
        <extensions>
          <gpxtpx:TrackPointExtension>
            <gpxtpx:hr>149</gpxtpx:hr>
          </gpxtpx:TrackPointExtension>
        </extensions>
      </trkpt>
      <trkpt lat="38.82632870756348" lon="121.5047709700327">
        <ele>-0.10828540753573179</ele>
        <time>2025-09-07T00:17:16Z</time>
        <extensions>
          <gpxtpx:TrackPointExtension>
            <gpxtpx:hr>149</gpxtpx:hr>
          </gpxtpx:TrackPointExtension>
        </extensions>
      </trkpt>
      <trkpt lat="38.826512161317694" lon="121.50452482443862">
        <ele>-0.7348133884370327</ele>
        <time>2025-09-07T00:17:28Z</time>
      </trkpt>
      <trkpt lat="38.82657701199531" lon="121.50425212671911">
        <ele>0.05224265158176422</ele>
        <time>2025-09-07T00:17:37Z</time>
      </trkpt>
      <trkpt lat="38.82658348474841" lon="121.50387307183223">
        <ele>-0.1578886043280363</ele>
        <time>2025-09-07T00:17:50Z</time>
        <extensions>
          <gpxtpx:TrackPointExtension>
            <gpxtpx:hr>154</gpxtpx:hr>
          </gpxtpx:TrackPointExtension>
        </extensions>
      </trkpt>
      <trkpt lat="38.82659261809303" lon="121.503779817664">
        <ele>0.7951763207092881</ele>
        <time>2025-09-07T00:17:53Z</time>
        <extensions>
          <gpxtpx:TrackPointExtension>
            <gpxtpx:hr>154</gpxtpx:hr>
          </gpxtpx:TrackPointExtension>
        </extensions>
      </trkpt>
      <trkpt lat="38.82669746457185" lon="121.50351448247339">
        <ele>0.36962143424898386</ele>
        <time>2025-09-07T00:18:02Z</time>
        <extensions>
          <gpxtpx:TrackPointExtension>
            <gpxtpx:hr>154</gpxtpx:hr>
          </gpxtpx:TrackPointExtension>
        </extensions>
      </trkpt>
      <trkpt lat="38.82684162090686" lon="121.50330844612228">
        <ele>-0.4578301524743438</ele>
        <time>2025-09-07T00:18:11Z</time>
        <extensions>
          <gpxtpx:TrackPointExtension>
            <gpxtpx:hr>154</gpxtpx:hr>
          </gpxtpx:TrackPointExtension>
        </extensions>
      </trkpt>
      <trkpt lat="38.82705597937857" lon="121.50306869420089">
        <ele>0.19581525307148695</ele>
        <time>2025-09-07T00:18:23Z</time>
      </trkpt>
      <trkpt lat="38.82710002685078" lon="121.50298281992694">
        <ele>0.541135324165225</ele>
        <time>2025-09-07T00:18:26Z</time>
      </trkpt>
      <trkpt lat="38.827247088091625" lon="121.50293342715447">
        <ele>0.6130052506923676</ele>
        <time>2025-09-07T00:18:32Z</time>
      </trkpt>
      <trkpt lat="38.82732130210058" lon="121.50293904837112">
        <ele>1.352909529581666</ele>
        <time>2025-09-07T00:18:35Z</time>
      </trkpt>
      <trkpt lat="38.827594892871936" lon="121.50307129167355">
        <ele>2.1392123950645328</ele>
        <time>2025-09-07T00:18:47Z</time>
      </trkpt>
      <trkpt lat="38.82771917077104" lon="121.5032047007111">
        <ele>1.5493568293750286</ele>
        <time>2025-09-07T00:18:53Z</time>
      </trkpt>
      <trkpt lat="38.827789870655415" lon="121.50324740163639">
        <ele>1.6925900308415294</ele>
        <time>2025-09-07T00:18:56Z</time>
      </trkpt>
      <trkpt lat="38.82784003952957" lon="121.50332098474523">
        <ele>1.5867745941504836</ele>
        <time>2025-09-07T00:18:59Z</time>
      </trkpt>
      <trkpt lat="38.827947250481444" lon="121.50369305550608">
        <ele>1.8417114093899727</ele>
        <time>2025-09-07T00:19:11Z</time>
      </trkpt>
      <trkpt lat="38.82797700239442" lon="121.50376983469393">
        <ele>1.5220198770985007</ele>
        <time>2025-09-07T00:19:14Z</time>
      </trkpt>
      <trkpt lat="38.828149812396695" lon="121.50398883365365">
        <ele>0.8212286224588752</ele>
        <time>2025-09-07T00:19:23Z</time>
      </trkpt>
      <trkpt lat="38.828378780973146" lon="121.50407906020162">
        <ele>0.8667291374877095</ele>
        <time>2025-09-07T00:19:32Z</time>
      </trkpt>
      <trkpt lat="38.82861655645115" lon="121.50407578253933">
        <ele>0.7124254442751408</ele>
        <time>2025-09-07T00:19:41Z</time>
      </trkpt>
      <trkpt lat="38.82868063270136" lon="121.50403501741744">
        <ele>0.7564005814492702</ele>
        <time>2025-09-07T00:19:44Z</time>
      </trkpt>
      <trkpt lat="38.828785852488416" lon="121.50402250280136">
        <ele>0.5437079472467303</ele>
        <time>2025-09-07T00:19:48Z</time>
      </trkpt>
      <trkpt lat="38.82888643298603" lon="121.50403794229807">
        <ele>0.8358997516334057</ele>
        <time>2025-09-07T00:19:52Z</time>
      </trkpt>
      <trkpt lat="38.82897501471152" lon="121.50408880372903">
        <ele>1.0199068197980523</ele>
        <time>2025-09-07T00:19:56Z</time>
      </trkpt>
      <trkpt lat="38.82914082941301" lon="121.50404019170152">
        <ele>0.4410534715279937</ele>
        <time>2025-09-07T00:20:03Z</time>
      </trkpt>
      <trkpt lat="38.82942509435935" lon="121.50415863007007">
        <ele>1.7945251362398267</ele>
        <time>2025-09-07T00:20:15Z</time>
      </trkpt>
      <trkpt lat="38.8296473309209" lon="121.50431074391935">
        <ele>-0.0023812400177121162</ele>
        <time>2025-09-07T00:20:27Z</time>
      </trkpt>
      <trkpt lat="38.82987527103292" lon="121.50458946550317">
        <ele>0.15273063722997904</ele>
        <time>2025-09-07T00:20:39Z</time>
      </trkpt>
      <trkpt lat="38.83004895369023" lon="121.50475297254805">
        <ele>0.5171288438141346</ele>
        <time>2025-09-07T00:20:48Z</time>
      </trkpt>
      <trkpt lat="38.83032444254003" lon="121.50488886284327">
        <ele>1.6458095284178853</ele>
        <time>2025-09-07T00:21:00Z</time>
        <extensions>
          <gpxtpx:TrackPointExtension>
            <gpxtpx:hr>163</gpxtpx:hr>
          </gpxtpx:TrackPointExtension>
        </extensions>
      </trkpt>
      <trkpt lat="38.830646546429925" lon="121.50505965874352">
        <ele>1.2936230776831508</ele>
        <time>2025-09-07T00:21:15Z</time>
        <extensions>
          <gpxtpx:TrackPointExtension>
            <gpxtpx:hr>163</gpxtpx:hr>
          </gpxtpx:TrackPointExtension>
        </extensions>
      </trkpt>
      <trkpt lat="38.8307485555575" lon="121.50515218940903">
        <ele>2.056459229439497</ele>
        <time>2025-09-07T00:21:21Z</time>
        <extensions>
          <gpxtpx:TrackPointExtension>
            <gpxtpx:hr>163</gpxtpx:hr>
          </gpxtpx:TrackPointExtension>
        </extensions>
      </trkpt>
      <trkpt lat="38.830951487635396" lon="121.50523722633211">
        <ele>2.0348748303949833</ele>
        <time>2025-09-07T00:21:30Z</time>
        <extensions>
          <gpxtpx:TrackPointExtension>
            <gpxtpx:hr>163</gpxtpx:hr>
          </gpxtpx:TrackPointExtension>
        </extensions>
      </trkpt>
      <trkpt lat="38.83123657323478" lon="121.50526021181298">
        <ele>1.8934244643896818</ele>
        <time>2025-09-07T00:21:42Z</time>
        <extensions>
          <gpxtpx:TrackPointExtension>
            <gpxtpx:hr>163</gpxtpx:hr>
          </gpxtpx:TrackPointExtension>
        </extensions>
      </trkpt>
      <trkpt lat="38.83130499348108" lon="121.50527949053965">
        <ele>2.3133052866905928</ele>
        <time>2025-09-07T00:21:45Z</time>
      </trkpt>
      <trkpt lat="38.83159284338999" lon="121.50541091367053">
        <ele>0.7613756004720926</ele>
        <time>2025-09-07T00:21:59Z</time>
      </trkpt>
      <trkpt lat="38.831805471506314" lon="121.50560163683232">
        <ele>0.8730989210307598</ele>
        <time>2025-09-07T00:22:10Z</time>
      </trkpt>
      <trkpt lat="38.831959442470726" lon="121.50588360199352">
        <ele>1.3679735716432333</ele>
        <time>2025-09-07T00:22:22Z</time>
      </trkpt>
      <trkpt lat="38.83202616146995" lon="121.50613992850174">
        <ele>1.532523524016142</ele>
        <time>2025-09-07T00:22:31Z</time>
      </trkpt>
      <trkpt lat="38.83207008609568" lon="121.50621308610268">
        <ele>1.83598015550524</ele>
        <time>2025-09-07T00:22:34Z</time>
      </trkpt>
      <trkpt lat="38.83228997194716" lon="121.50643352907615">
        <ele>0.7654909780249</ele>
        <time>2025-09-07T00:22:46Z</time>
        <extensions>
          <gpxtpx:TrackPointExtension>
            <gpxtpx:hr>153</gpxtpx:hr>
          </gpxtpx:TrackPointExtension>
        </extensions>
      </trkpt>
      <trkpt lat="38.83235102979322" lon="121.50647758297897">
        <ele>0.8662040419876575</ele>
        <time>2025-09-07T00:22:49Z</time>
        <extensions>
          <gpxtpx:TrackPointExtension>
            <gpxtpx:hr>153</gpxtpx:hr>
          </gpxtpx:TrackPointExtension>
        </extensions>
      </trkpt>
      <trkpt lat="38.832616656880106" lon="121.50651484672099">
        <ele>0.5641230307519436</ele>
        <time>2025-09-07T00:23:01Z</time>
        <extensions>
          <gpxtpx:TrackPointExtension>
            <gpxtpx:hr>153</gpxtpx:hr>
          </gpxtpx:TrackPointExtension>
        </extensions>
      </trkpt>
      <trkpt lat="38.83287749091613" lon="121.50665241027211">
        <ele>2.2742997584864497</ele>
        <time>2025-09-07T00:23:13Z</time>
        <extensions>
          <gpxtpx:TrackPointExtension>
            <gpxtpx:hr>154</gpxtpx:hr>
          </gpxtpx:TrackPointExtension>
        </extensions>
      </trkpt>
      <trkpt lat="38.8330342886125" lon="121.50684649780882">
        <ele>0.8576849708333611</ele>
        <time>2025-09-07T00:23:28Z</time>
        <extensions>
          <gpxtpx:TrackPointExtension>
            <gpxtpx:hr>154</gpxtpx:hr>
          </gpxtpx:TrackPointExtension>
        </extensions>
      </trkpt>
    </trkseg>
  </trk>
</gpx>