<?xml version="1.0" encoding="UTF-8"?>
<gpx xmlns="http://www.topografix.com/GPX/1/1" xmlns:gpxtpx="http://www.garmin.com/xmlschemas/TrackPointExtension/v1" xmlns:xsi="http://www.w3.org/2001/XMLSchema-instance" xsi:schemaLocation="http://www.topografix.com/GPX/1/1 http://www.topografix.com/GPX/1/1/gpx.xsd" version="1.1" creator="gpx.py -- https://github.com/tkrajina/gpxpy">
  <trk>
    <name>gpx from keep</name>
    <type>Run</type>
    <trkseg>
      <trkpt lat="38.837312887520696" lon="121.50923114433849">
        <ele>10.914981447160244</ele>
        <time>2025-07-25T06:11:24Z</time>
      </trkpt>
      <trkpt lat="38.83731220561872" lon="121.50932975099573">
        <ele>10.972610609605908</ele>
        <time>2025-07-25T06:11:30Z</time>
      </trkpt>
      <trkpt lat="38.83718442112065" lon="121.5093554513766">
        <ele>10.368957874365151</ele>
        <time>2025-07-25T06:11:36Z</time>
      </trkpt>
      <trkpt lat="38.83712975943922" lon="121.50948850047516">
        <ele>10.283019850030541</ele>
        <time>2025-07-25T06:11:42Z</time>
      </trkpt>
      <trkpt lat="38.83704258386058" lon="121.50960069103097">
        <ele>10.172947809100151</ele>
        <time>2025-07-25T06:11:48Z</time>
      </trkpt>
      <trkpt lat="38.83702069721634" lon="121.50966251148172">
        <ele>8.79407964181155</ele>
        <time>2025-07-25T06:11:51Z</time>
      </trkpt>
      <trkpt lat="38.836838990664475" lon="121.50989013142849">
        <ele>10.341684638522565</ele>
        <time>2025-07-25T06:12:03Z</time>
      </trkpt>
      <trkpt lat="38.83671021810687" lon="121.50991815185124">
        <ele>8.441472196951509</ele>
        <time>2025-07-25T06:12:09Z</time>
      </trkpt>
      <trkpt lat="38.836587311034414" lon="121.50992832676114">
        <ele>7.678113802336156</ele>
        <time>2025-07-25T06:12:15Z</time>
      </trkpt>
      <trkpt lat="38.83633158588811" lon="121.50997236598703">
        <ele>9.563490021042526</ele>
        <time>2025-07-25T06:12:27Z</time>
      </trkpt>
      <trkpt lat="38.83631400871068" lon="121.5100487215894">
        <ele>9.122147239744663</ele>
        <time>2025-07-25T06:12:30Z</time>
      </trkpt>
      <trkpt lat="38.83644702847621" lon="121.51011586883926">
        <ele>9.119405457749963</ele>
        <time>2025-07-25T06:12:36Z</time>
      </trkpt>
      <trkpt lat="38.836467109618916" lon="121.51026648216826">
        <ele>9.00513048376888</ele>
        <time>2025-07-25T06:12:42Z</time>
      </trkpt>
      <trkpt lat="38.83649972519615" lon="121.51033966297352">
        <ele>9.402852640487254</ele>
        <time>2025-07-25T06:12:45Z</time>
      </trkpt>
      <trkpt lat="38.83655312760803" lon="121.51040349130221">
        <ele>9.187748622149229</ele>
        <time>2025-07-25T06:12:48Z</time>
      </trkpt>
      <trkpt lat="38.83678679458789" lon="121.51055885752595">
        <ele>8.461968355812132</ele>
        <time>2025-07-25T06:13:00Z</time>
      </trkpt>
      <trkpt lat="38.836951013332346" lon="121.51082944411245">
        <ele>8.579801582731307</ele>
        <time>2025-07-25T06:13:12Z</time>
      </trkpt>
      <trkpt lat="38.83703710674952" lon="121.51088597916842">
        <ele>8.311076551675797</ele>
        <time>2025-07-25T06:13:16Z</time>
      </trkpt>
      <trkpt lat="38.83722745113289" lon="121.51063093153036">
        <ele>8.678517284803092</ele>
        <time>2025-07-25T06:13:28Z</time>
      </trkpt>
      <trkpt lat="38.83743270244017" lon="121.51040655155613">
        <ele>9.780476417392492</ele>
        <time>2025-07-25T06:13:40Z</time>
      </trkpt>
      <trkpt lat="38.83767471447379" lon="121.51022619007381">
        <ele>9.724674926139414</ele>
        <time>2025-07-25T06:13:53Z</time>
      </trkpt>
      <trkpt lat="38.837791552873014" lon="121.51011734026102">
        <ele>10.371538577601314</ele>
        <time>2025-07-25T06:13:59Z</time>
      </trkpt>
      <trkpt lat="38.8378298321126" lon="121.50994443662408">
        <ele>9.583172441460192</ele>
        <time>2025-07-25T06:14:05Z</time>
      </trkpt>
      <trkpt lat="38.83789138574507" lon="121.50993580853618">
        <ele>9.523297995328903</ele>
        <time>2025-07-25T06:14:08Z</time>
      </trkpt>
      <trkpt lat="38.83806287923794" lon="121.50968743254619">
        <ele>10.453646387904882</ele>
        <time>2025-07-25T06:14:20Z</time>
      </trkpt>
      <trkpt lat="38.83813875784226" lon="121.50943782310962">
        <ele>11.382622443139553</ele>
        <time>2025-07-25T06:14:29Z</time>
      </trkpt>
      <trkpt lat="38.83822626230287" lon="121.50930242874402">
        <ele>11.029238949529827</ele>
        <time>2025-07-25T06:14:35Z</time>
      </trkpt>
      <trkpt lat="38.83842578309813" lon="121.50918401254441">
        <ele>10.906591427512467</ele>
        <time>2025-07-25T06:14:44Z</time>
      </trkpt>
      <trkpt lat="38.83844013009035" lon="121.50909692746278">
        <ele>11.077007443644106</ele>
        <time>2025-07-25T06:14:47Z</time>
      </trkpt>
      <trkpt lat="38.838280864941254" lon="121.50892850765676">
        <ele>10.61212947871536</ele>
        <time>2025-07-25T06:14:53Z</time>
      </trkpt>
      <trkpt lat="38.838074628691196" lon="121.5087931729635">
        <ele>11.083503676578403</ele>
        <time>2025-07-25T06:15:02Z</time>
      </trkpt>
      <trkpt lat="38.83789295573601" lon="121.50852544159008">
        <ele>10.986549707129598</ele>
        <time>2025-07-25T06:15:13Z</time>
      </trkpt>
      <trkpt lat="38.83786583957734" lon="121.50841582820007">
        <ele>10.489240610972047</ele>
        <time>2025-07-25T06:15:17Z</time>
      </trkpt>
      <trkpt lat="38.837811303960606" lon="121.50836481799679">
        <ele>10.784600754268467</ele>
        <time>2025-07-25T06:15:21Z</time>
      </trkpt>
      <trkpt lat="38.83772631536531" lon="121.50832017573649">
        <ele>10.680042877793312</ele>
        <time>2025-07-25T06:15:25Z</time>
      </trkpt>
      <trkpt lat="38.83766477980413" lon="121.50839236222193">
        <ele>11.084017463028431</ele>
        <time>2025-07-25T06:15:29Z</time>
      </trkpt>
      <trkpt lat="38.8375343293338" lon="121.50874482668324">
        <ele>10.70369684882462</ele>
        <time>2025-07-25T06:15:41Z</time>
      </trkpt>
      <trkpt lat="38.83723354942166" lon="121.50895827040353">
        <ele>10.574212785810232</ele>
        <time>2025-07-25T06:15:53Z</time>
      </trkpt>
      <trkpt lat="38.837156045343185" lon="121.50905810943428">
        <ele>9.560314749367535</ele>
        <time>2025-07-25T06:15:57Z</time>
      </trkpt>
      <trkpt lat="38.837101920944335" lon="121.50917320894227">
        <ele>10.881249683909118</ele>
        <time>2025-07-25T06:16:01Z</time>
      </trkpt>
      <trkpt lat="38.837083038354265" lon="121.50931426662538">
        <ele>9.711474020965397</ele>
        <time>2025-07-25T06:16:05Z</time>
      </trkpt>
      <trkpt lat="38.83697637373932" lon="121.50955010094981">
        <ele>10.54781971219927</ele>
        <time>2025-07-25T06:16:13Z</time>
      </trkpt>
      <trkpt lat="38.83683546696044" lon="121.50976457481548">
        <ele>9.317985122092068</ele>
        <time>2025-07-25T06:16:21Z</time>
      </trkpt>
      <trkpt lat="38.836747853709404" lon="121.50983197741208">
        <ele>10.205402310937643</ele>
        <time>2025-07-25T06:16:25Z</time>
      </trkpt>
      <trkpt lat="38.83659500406012" lon="121.50988742032173">
        <ele>10.048953469842672</ele>
        <time>2025-07-25T06:16:32Z</time>
      </trkpt>
      <trkpt lat="38.83632534800259" lon="121.50986336054876">
        <ele>8.016631473787129</ele>
        <time>2025-07-25T06:16:42Z</time>
      </trkpt>
      <trkpt lat="38.83611063671359" lon="121.50997986241622">
        <ele>9.078495893627405</ele>
        <time>2025-07-25T06:16:52Z</time>
      </trkpt>
      <trkpt lat="38.836273775525754" lon="121.50997878970755">
        <ele>9.194651269353926</ele>
        <time>2025-07-25T06:16:58Z</time>
      </trkpt>
      <trkpt lat="38.83641464659379" lon="121.51006974690637">
        <ele>8.815792586654425</ele>
        <time>2025-07-25T06:17:04Z</time>
      </trkpt>
      <trkpt lat="38.83645125933431" lon="121.51015465482499">
        <ele>8.418275312520564</ele>
        <time>2025-07-25T06:17:07Z</time>
      </trkpt>
      <trkpt lat="38.83644478121761" lon="121.51024380398036">
        <ele>9.222781737335026</ele>
        <time>2025-07-25T06:17:10Z</time>
      </trkpt>
      <trkpt lat="38.836486331862375" lon="121.51033447301378">
        <ele>9.151520284824073</ele>
        <time>2025-07-25T06:17:13Z</time>
      </trkpt>
      <trkpt lat="38.83656095253787" lon="121.5104173227929">
        <ele>8.104276537895203</ele>
        <time>2025-07-25T06:17:17Z</time>
      </trkpt>
      <trkpt lat="38.83673023458467" lon="121.51052196848116">
        <ele>8.861577703617513</ele>
        <time>2025-07-25T06:17:25Z</time>
      </trkpt>
      <trkpt lat="38.83681007516896" lon="121.51060173406057">
        <ele>8.861552318558097</ele>
        <time>2025-07-25T06:17:29Z</time>
      </trkpt>
      <trkpt lat="38.83691421218635" lon="121.5108071629871">
        <ele>8.226282665506005</ele>
        <time>2025-07-25T06:17:37Z</time>
      </trkpt>
      <trkpt lat="38.836984645479255" lon="121.5109016470728">
        <ele>9.477000007405877</ele>
        <time>2025-07-25T06:17:41Z</time>
      </trkpt>
      <trkpt lat="38.83708263835352" lon="121.51084737595558">
        <ele>8.202307394705713</ele>
        <time>2025-07-25T06:17:45Z</time>
      </trkpt>
      <trkpt lat="38.83721020571797" lon="121.5106564815958">
        <ele>8.59760251455009</ele>
        <time>2025-07-25T06:17:53Z</time>
      </trkpt>
      <trkpt lat="38.83745272101878" lon="121.51043567610341">
        <ele>9.521713289432228</ele>
        <time>2025-07-25T06:18:05Z</time>
      </trkpt>
      <trkpt lat="38.83750537510392" lon="121.51032803398685">
        <ele>9.325423712842166</ele>
        <time>2025-07-25T06:18:09Z</time>
      </trkpt>
      <trkpt lat="38.8376703153758" lon="121.51020539939793">
        <ele>10.114052275195718</ele>
        <time>2025-07-25T06:18:17Z</time>
      </trkpt>
      <trkpt lat="38.83775325657654" lon="121.51011327131911">
        <ele>10.142625643871725</ele>
        <time>2025-07-25T06:18:21Z</time>
      </trkpt>
      <trkpt lat="38.83787164132761" lon="121.50993171476176">
        <ele>10.053836557082832</ele>
        <time>2025-07-25T06:18:29Z</time>
      </trkpt>
      <trkpt lat="38.837952505163244" lon="121.50987856440887">
        <ele>9.220660610124469</ele>
        <time>2025-07-25T06:18:33Z</time>
      </trkpt>
      <trkpt lat="38.83805498970288" lon="121.50967372343824">
        <ele>10.690630588680506</ele>
        <time>2025-07-25T06:18:41Z</time>
      </trkpt>
      <trkpt lat="38.838138641026106" lon="121.50944342695958">
        <ele>11.207117355428636</ele>
        <time>2025-07-25T06:18:49Z</time>
      </trkpt>
      <trkpt lat="38.83819306927891" lon="121.50935578590317">
        <ele>10.755403534509242</ele>
        <time>2025-07-25T06:18:53Z</time>
      </trkpt>
      <trkpt lat="38.838348648084505" lon="121.50922810780533">
        <ele>10.73178125359118</ele>
        <time>2025-07-25T06:19:01Z</time>
      </trkpt>
      <trkpt lat="38.83841027946253" lon="121.50911359928558">
        <ele>11.149521538056433</ele>
        <time>2025-07-25T06:19:05Z</time>
      </trkpt>
      <trkpt lat="38.83829418183115" lon="121.50898638936039">
        <ele>11.998894330114126</ele>
        <time>2025-07-25T06:19:09Z</time>
      </trkpt>
      <trkpt lat="38.838196270812716" lon="121.50890600285717">
        <ele>11.487644273787737</ele>
        <time>2025-07-25T06:19:13Z</time>
      </trkpt>
      <trkpt lat="38.83809807969579" lon="121.50887209948763">
        <ele>11.275004150345922</ele>
        <time>2025-07-25T06:19:17Z</time>
      </trkpt>
      <trkpt lat="38.838017185914914" lon="121.50881603069965">
        <ele>9.618587737902999</ele>
        <time>2025-07-25T06:19:21Z</time>
      </trkpt>
      <trkpt lat="38.837854780038924" lon="121.50863347691977">
        <ele>10.197276435792446</ele>
        <time>2025-07-25T06:19:29Z</time>
      </trkpt>
      <trkpt lat="38.837807902046215" lon="121.5085172774576">
        <ele>10.779210256412625</ele>
        <time>2025-07-25T06:19:33Z</time>
      </trkpt>
      <trkpt lat="38.83772498490468" lon="121.50847206062384">
        <ele>10.836645268835127</ele>
        <time>2025-07-25T06:19:37Z</time>
      </trkpt>
      <trkpt lat="38.83762604187921" lon="121.50852543899782">
        <ele>11.287865731865168</ele>
        <time>2025-07-25T06:19:41Z</time>
      </trkpt>
      <trkpt lat="38.837558582233015" lon="121.50863469777919">
        <ele>10.968505898490548</ele>
        <time>2025-07-25T06:19:45Z</time>
      </trkpt>
      <trkpt lat="38.837468910687264" lon="121.50886598753532">
        <ele>9.26451821718365</ele>
        <time>2025-07-25T06:19:53Z</time>
      </trkpt>
      <trkpt lat="38.8374043850104" lon="121.50895923788545">
        <ele>10.122949675656855</ele>
        <time>2025-07-25T06:19:57Z</time>
      </trkpt>
      <trkpt lat="38.83731411487444" lon="121.50903319050539">
        <ele>11.496171809732914</ele>
        <time>2025-07-25T06:20:01Z</time>
      </trkpt>
      <trkpt lat="38.83720622104986" lon="121.50908378809251">
        <ele>10.647487896494567</ele>
        <time>2025-07-25T06:20:05Z</time>
      </trkpt>
      <trkpt lat="38.83715070392912" lon="121.509176904246">
        <ele>11.545400571078062</ele>
        <time>2025-07-25T06:20:09Z</time>
      </trkpt>
      <trkpt lat="38.83706748590495" lon="121.50942437297476">
        <ele>11.527531450614333</ele>
        <time>2025-07-25T06:20:17Z</time>
      </trkpt>
      <trkpt lat="38.83690650150392" lon="121.50977091825611">
        <ele>8.828445124439895</ele>
        <time>2025-07-25T06:20:29Z</time>
      </trkpt>
      <trkpt lat="38.836756642795436" lon="121.50991482718501">
        <ele>8.917836422100663</ele>
        <time>2025-07-25T06:20:37Z</time>
      </trkpt>
      <trkpt lat="38.836568315901985" lon="121.50997065300146">
        <ele>8.1157904881984</ele>
        <time>2025-07-25T06:20:45Z</time>
      </trkpt>
      <trkpt lat="38.83646823311325" lon="121.51004479864035">
        <ele>9.05167543888092</ele>
        <time>2025-07-25T06:20:49Z</time>
      </trkpt>
      <trkpt lat="38.836468032760145" lon="121.51018246859458">
        <ele>9.325299772433937</ele>
        <time>2025-07-25T06:20:53Z</time>
      </trkpt>
      <trkpt lat="38.83650548493326" lon="121.51029911943185">
        <ele>9.020959520712495</ele>
        <time>2025-07-25T06:20:57Z</time>
      </trkpt>
      <trkpt lat="38.8365809113736" lon="121.51039657708549">
        <ele>9.148868727497756</ele>
        <time>2025-07-25T06:21:01Z</time>
      </trkpt>
      <trkpt lat="38.83673647851952" lon="121.51049185613999">
        <ele>8.41042116470635</ele>
        <time>2025-07-25T06:21:09Z</time>
      </trkpt>
      <trkpt lat="38.83681789866401" lon="121.51058043766271">
        <ele>8.139425683766603</ele>
        <time>2025-07-25T06:21:13Z</time>
      </trkpt>
      <trkpt lat="38.836945058965405" lon="121.51080391726747">
        <ele>8.726241764612496</ele>
        <time>2025-07-25T06:21:21Z</time>
      </trkpt>
      <trkpt lat="38.83700141290752" lon="121.51086864898939">
        <ele>8.941984411329031</ele>
        <time>2025-07-25T06:21:24Z</time>
      </trkpt>
      <trkpt lat="38.83712024202318" lon="121.5107909411745">
        <ele>8.962554773315787</ele>
        <time>2025-07-25T06:21:28Z</time>
      </trkpt>
      <trkpt lat="38.837256083336385" lon="121.51061419778354">
        <ele>9.01369952969253</ele>
        <time>2025-07-25T06:21:36Z</time>
      </trkpt>
      <trkpt lat="38.837309677630536" lon="121.51050771093752">
        <ele>8.942118786275387</ele>
        <time>2025-07-25T06:21:40Z</time>
      </trkpt>
      <trkpt lat="38.83754522487476" lon="121.51030408745676">
        <ele>9.694031483493745</ele>
        <time>2025-07-25T06:21:52Z</time>
      </trkpt>
      <trkpt lat="38.837706166438245" lon="121.51020054334064">
        <ele>9.517223031260073</ele>
        <time>2025-07-25T06:22:00Z</time>
      </trkpt>
      <trkpt lat="38.837833887031415" lon="121.50999831918212">
        <ele>9.915450078435242</ele>
        <time>2025-07-25T06:22:08Z</time>
      </trkpt>
      <trkpt lat="38.83791053733881" lon="121.50994354604667">
        <ele>9.29079007357359</ele>
        <time>2025-07-25T06:22:12Z</time>
      </trkpt>
      <trkpt lat="38.83797337013256" lon="121.50982303117944">
        <ele>9.63502329774201</ele>
        <time>2025-07-25T06:22:16Z</time>
      </trkpt>
      <trkpt lat="38.83801686781323" lon="121.50969360689594">
        <ele>10.84452583361417</ele>
        <time>2025-07-25T06:22:20Z</time>
      </trkpt>
      <trkpt lat="38.838074809923675" lon="121.50940800479411">
        <ele>11.122849833220243</ele>
        <time>2025-07-25T06:22:28Z</time>
      </trkpt>
      <trkpt lat="38.83814114738583" lon="121.50929675995883">
        <ele>11.113234301097691</ele>
        <time>2025-07-25T06:22:32Z</time>
      </trkpt>
      <trkpt lat="38.83832692898527" lon="121.50914908001381">
        <ele>11.45760586950928</ele>
        <time>2025-07-25T06:22:40Z</time>
      </trkpt>
      <trkpt lat="38.83839034345356" lon="121.50903365241714">
        <ele>11.39061201363802</ele>
        <time>2025-07-25T06:22:44Z</time>
      </trkpt>
      <trkpt lat="38.83828433810577" lon="121.508942071512">
        <ele>10.510185470804572</ele>
        <time>2025-07-25T06:22:48Z</time>
      </trkpt>
      <trkpt lat="38.83810046366373" lon="121.50889498717635">
        <ele>11.347775248810649</ele>
        <time>2025-07-25T06:22:56Z</time>
      </trkpt>
      <trkpt lat="38.8380178727432" lon="121.50884829386358">
        <ele>11.069549201056361</ele>
        <time>2025-07-25T06:23:00Z</time>
      </trkpt>
      <trkpt lat="38.837815866854996" lon="121.5085641905828">
        <ele>11.222193261608481</ele>
        <time>2025-07-25T06:23:12Z</time>
      </trkpt>
      <trkpt lat="38.837734912814206" lon="121.50852337642127">
        <ele>11.149508191272616</ele>
        <time>2025-07-25T06:23:16Z</time>
      </trkpt>
      <trkpt lat="38.83756715286247" lon="121.50865083839284">
        <ele>10.673074626363814</ele>
        <time>2025-07-25T06:23:24Z</time>
      </trkpt>
      <trkpt lat="38.83749506968443" lon="121.50874163164224">
        <ele>9.84983144979924</ele>
        <time>2025-07-25T06:23:28Z</time>
      </trkpt>
      <trkpt lat="38.83734520616832" lon="121.50887770623731">
        <ele>10.755827523767948</ele>
        <time>2025-07-25T06:23:35Z</time>
      </trkpt>
      <trkpt lat="38.83728837160563" lon="121.5089911328594">
        <ele>10.03987645637244</ele>
        <time>2025-07-25T06:23:39Z</time>
      </trkpt>
      <trkpt lat="38.83720215375728" lon="121.50924679355767">
        <ele>11.081202807836235</ele>
        <time>2025-07-25T06:23:47Z</time>
      </trkpt>
      <trkpt lat="38.83702187921357" lon="121.50953267003743">
        <ele>11.626585888676345</ele>
        <time>2025-07-25T06:23:59Z</time>
      </trkpt>
      <trkpt lat="38.83694021699434" lon="121.5095901488468">
        <ele>9.80265627335757</ele>
        <time>2025-07-25T06:24:03Z</time>
      </trkpt>
      <trkpt lat="38.83662692627782" lon="121.5097043893892">
        <ele>8.144874295219779</ele>
        <time>2025-07-25T06:24:15Z</time>
      </trkpt>
      <trkpt lat="38.83640726905433" lon="121.50977215421452">
        <ele>8.720593981444836</ele>
        <time>2025-07-25T06:24:23Z</time>
      </trkpt>
      <trkpt lat="38.83613668579407" lon="121.50993415845974">
        <ele>8.496850625611842</ele>
        <time>2025-07-25T06:24:35Z</time>
      </trkpt>
      <trkpt lat="38.83608211716638" lon="121.50995218252207">
        <ele>8.295962252654135</ele>
        <time>2025-07-25T06:24:39Z</time>
      </trkpt>
      <trkpt lat="38.83613245442476" lon="121.50992882237165">
        <ele>7.846997721120715</ele>
        <time>2025-07-25T06:24:43Z</time>
      </trkpt>
      <trkpt lat="38.83613245442476" lon="121.50992882237165">
        <ele>7.846997721120715</ele>
        <time>2025-07-25T06:24:46Z</time>
      </trkpt>
    </trkseg>
  </trk>
</gpx>