<?xml version="1.0" encoding="UTF-8"?>
<gpx xmlns="http://www.topografix.com/GPX/1/1" xmlns:gpxtpx="http://www.garmin.com/xmlschemas/TrackPointExtension/v1" xmlns:xsi="http://www.w3.org/2001/XMLSchema-instance" xsi:schemaLocation="http://www.topografix.com/GPX/1/1 http://www.topografix.com/GPX/1/1/gpx.xsd" version="1.1" creator="gpx.py -- https://github.com/tkrajina/gpxpy">
  <trk>
    <name>gpx from keep</name>
    <type>Run</type>
    <trkseg>
      <trkpt lat="38.83764553289763" lon="121.50471247531802">
        <ele>10.268708665855229</ele>
        <time>2025-09-08T15:35:08Z</time>
      </trkpt>
      <trkpt lat="38.8377751439252" lon="121.5048792943445">
        <ele>7.403846559114754</ele>
        <time>2025-09-08T15:35:26Z</time>
      </trkpt>
      <trkpt lat="38.83785298912009" lon="121.50501216567842">
        <ele>8.174700053408742</ele>
        <time>2025-09-08T15:35:35Z</time>
      </trkpt>
      <trkpt lat="38.83793255514129" lon="121.50508273134646">
        <ele>9.759852792136371</ele>
        <time>2025-09-08T15:35:41Z</time>
      </trkpt>
      <trkpt lat="38.837966383104586" lon="121.50525276018479">
        <ele>9.075691123493016</ele>
        <time>2025-09-08T15:35:50Z</time>
      </trkpt>
      <trkpt lat="38.83780721282326" lon="121.50553603971201">
        <ele>8.784870808944106</ele>
        <time>2025-09-08T15:36:05Z</time>
      </trkpt>
      <trkpt lat="38.83762894390617" lon="121.50581891472183">
        <ele>9.451935932971537</ele>
        <time>2025-09-08T15:36:20Z</time>
      </trkpt>
      <trkpt lat="38.8374558403039" lon="121.50614599963616">
        <ele>10.163135558366776</ele>
        <time>2025-09-08T15:36:35Z</time>
      </trkpt>
      <trkpt lat="38.837284448725896" lon="121.50649531185915">
        <ele>10.130583833903074</ele>
        <time>2025-09-08T15:36:51Z</time>
      </trkpt>
      <trkpt lat="38.837097862936275" lon="121.50679075171638">
        <ele>9.908937832340598</ele>
        <time>2025-09-08T15:37:06Z</time>
      </trkpt>
      <trkpt lat="38.83692658766738" lon="121.5070711024705">
        <ele>9.755656125023961</ele>
        <time>2025-09-08T15:37:21Z</time>
      </trkpt>
      <trkpt lat="38.83686772551294" lon="121.50721345389839">
        <ele>9.522730394266546</ele>
        <time>2025-09-08T15:37:27Z</time>
      </trkpt>
      <trkpt lat="38.836804672655944" lon="121.50726124012598">
        <ele>9.103864778764546</ele>
        <time>2025-09-08T15:37:30Z</time>
      </trkpt>
      <trkpt lat="38.83674977111652" lon="121.50726713080672">
        <ele>8.866101224906743</ele>
        <time>2025-09-08T15:37:33Z</time>
      </trkpt>
      <trkpt lat="38.836711049211345" lon="121.5073775243843">
        <ele>9.628346965648234</ele>
        <time>2025-09-08T15:37:39Z</time>
      </trkpt>
      <trkpt lat="38.836717247919275" lon="121.50745874000438">
        <ele>9.52241282351315</ele>
        <time>2025-09-08T15:37:42Z</time>
      </trkpt>
      <trkpt lat="38.8369292873493" lon="121.50769046659381">
        <ele>9.626739662140608</ele>
        <time>2025-09-08T15:37:57Z</time>
      </trkpt>
      <trkpt lat="38.83703129813059" lon="121.50777465518915">
        <ele>9.733618763275445</ele>
        <time>2025-09-08T15:38:03Z</time>
      </trkpt>
      <trkpt lat="38.837064302306956" lon="121.50782464607897">
        <ele>10.103017326444387</ele>
        <time>2025-09-08T15:38:06Z</time>
      </trkpt>
      <trkpt lat="38.83728047261309" lon="121.50800687133635">
        <ele>10.898463590070605</ele>
        <time>2025-09-08T15:38:18Z</time>
      </trkpt>
      <trkpt lat="38.837360282058064" lon="121.50810575756462">
        <ele>10.161397066898644</ele>
        <time>2025-09-08T15:38:24Z</time>
      </trkpt>
      <trkpt lat="38.83762166570902" lon="121.50830467753578">
        <ele>10.414401944726706</ele>
        <time>2025-09-08T15:38:39Z</time>
      </trkpt>
      <trkpt lat="38.83764853104282" lon="121.50836560505023">
        <ele>10.077466926537454</ele>
        <time>2025-09-08T15:38:42Z</time>
      </trkpt>
      <trkpt lat="38.83754195012377" lon="121.5086207839845">
        <ele>9.768612936139107</ele>
        <time>2025-09-08T15:38:53Z</time>
      </trkpt>
      <trkpt lat="38.837515981138466" lon="121.50872805733637">
        <ele>9.311381655745208</ele>
        <time>2025-09-08T15:38:57Z</time>
      </trkpt>
      <trkpt lat="38.83750816402004" lon="121.50884530341088">
        <ele>9.604395030997694</ele>
        <time>2025-09-08T15:39:01Z</time>
      </trkpt>
      <trkpt lat="38.83726236656175" lon="121.50913441160748">
        <ele>7.535341740585864</ele>
        <time>2025-09-08T15:39:17Z</time>
      </trkpt>
      <trkpt lat="38.83710535510949" lon="121.50941680546185">
        <ele>8.920444476418197</ele>
        <time>2025-09-08T15:39:29Z</time>
      </trkpt>
      <trkpt lat="38.837042642430895" lon="121.50956045927832">
        <ele>8.36965308059007</ele>
        <time>2025-09-08T15:39:35Z</time>
      </trkpt>
      <trkpt lat="38.83699389971586" lon="121.50970868598803">
        <ele>8.142469468526542</ele>
        <time>2025-09-08T15:39:41Z</time>
      </trkpt>
      <trkpt lat="38.836956214168865" lon="121.50976938160636">
        <ele>7.569423463195562</ele>
        <time>2025-09-08T15:39:44Z</time>
      </trkpt>
      <trkpt lat="38.83680432811389" lon="121.50990238068155">
        <ele>7.548122991807759</ele>
        <time>2025-09-08T15:39:53Z</time>
      </trkpt>
      <trkpt lat="38.83649185279547" lon="121.50996066253603">
        <ele>6.178385987877846</ele>
        <time>2025-09-08T15:40:08Z</time>
      </trkpt>
      <trkpt lat="38.836368651769234" lon="121.50997869980316">
        <ele>5.991690115071833</ele>
        <time>2025-09-08T15:40:14Z</time>
      </trkpt>
      <trkpt lat="38.83617198929147" lon="121.51006360515474">
        <ele>6.716904690489173</ele>
        <time>2025-09-08T15:40:23Z</time>
      </trkpt>
      <trkpt lat="38.836114314468915" lon="121.51010768771876">
        <ele>6.732929909601808</ele>
        <time>2025-09-08T15:40:26Z</time>
      </trkpt>
      <trkpt lat="38.83609569180695" lon="121.510193542453">
        <ele>7.183495785109699</ele>
        <time>2025-09-08T15:40:29Z</time>
      </trkpt>
      <trkpt lat="38.83620885968438" lon="121.51039689073079">
        <ele>6.31588342692703</ele>
        <time>2025-09-08T15:40:38Z</time>
      </trkpt>
      <trkpt lat="38.83625442402665" lon="121.5105625500974">
        <ele>5.731834529899061</ele>
        <time>2025-09-08T15:40:44Z</time>
      </trkpt>
      <trkpt lat="38.83625280754815" lon="121.51065509012275">
        <ele>6.102625172585249</ele>
        <time>2025-09-08T15:40:47Z</time>
      </trkpt>
      <trkpt lat="38.8361683973881" lon="121.51091888735967">
        <ele>5.378297233022749</ele>
        <time>2025-09-08T15:40:57Z</time>
      </trkpt>
      <trkpt lat="38.83606840661638" lon="121.51108000518705">
        <ele>5.100928783416748</ele>
        <time>2025-09-08T15:41:05Z</time>
      </trkpt>
      <trkpt lat="38.835966579166474" lon="121.51139660715151">
        <ele>4.29947395902127</ele>
        <time>2025-09-08T15:41:17Z</time>
      </trkpt>
      <trkpt lat="38.836017856476936" lon="121.51170260616958">
        <ele>4.162304131314158</ele>
        <time>2025-09-08T15:41:28Z</time>
      </trkpt>
      <trkpt lat="38.83609865476898" lon="121.51184533240951">
        <ele>4.7197868674993515</ele>
        <time>2025-09-08T15:41:34Z</time>
      </trkpt>
      <trkpt lat="38.83628454966737" lon="121.51194648109762">
        <ele>4.378788868896663</ele>
        <time>2025-09-08T15:41:43Z</time>
      </trkpt>
      <trkpt lat="38.836355284996905" lon="121.51194477489098">
        <ele>5.687193931080401</ele>
        <time>2025-09-08T15:41:46Z</time>
      </trkpt>
      <trkpt lat="38.83661143750419" lon="121.51180863594351">
        <ele>4.174263418652117</ele>
        <time>2025-09-08T15:41:58Z</time>
      </trkpt>
      <trkpt lat="38.83680887379528" lon="121.5115709371387">
        <ele>5.183780278079212</ele>
        <time>2025-09-08T15:42:10Z</time>
      </trkpt>
      <trkpt lat="38.83699150899765" lon="121.51123079189853">
        <ele>6.218642657622695</ele>
        <time>2025-09-08T15:42:25Z</time>
      </trkpt>
      <trkpt lat="38.837028921879025" lon="121.5110822673991">
        <ele>6.1867036717012525</ele>
        <time>2025-09-08T15:42:31Z</time>
      </trkpt>
      <trkpt lat="38.83702756425532" lon="121.51100175266052">
        <ele>6.303575038909912</ele>
        <time>2025-09-08T15:42:34Z</time>
      </trkpt>
      <trkpt lat="38.83709475806274" lon="121.51078409659021">
        <ele>7.01210105791688</ele>
        <time>2025-09-08T15:42:43Z</time>
      </trkpt>
      <trkpt lat="38.837288302107055" lon="121.51048154158623">
        <ele>7.250058959238231</ele>
        <time>2025-09-08T15:42:58Z</time>
      </trkpt>
      <trkpt lat="38.8374862231211" lon="121.51027230699059">
        <ele>8.256314532831311</ele>
        <time>2025-09-08T15:43:10Z</time>
      </trkpt>
      <trkpt lat="38.83763877076231" lon="121.51015963572937">
        <ele>8.823147788643837</ele>
        <time>2025-09-08T15:43:18Z</time>
      </trkpt>
      <trkpt lat="38.83771327500317" lon="121.51008027662965">
        <ele>9.287597361952066</ele>
        <time>2025-09-08T15:43:22Z</time>
      </trkpt>
      <trkpt lat="38.837739148946085" lon="121.5099654076456">
        <ele>9.441378380171955</ele>
        <time>2025-09-08T15:43:26Z</time>
      </trkpt>
      <trkpt lat="38.83786489713546" lon="121.50987417672428">
        <ele>8.126165869645774</ele>
        <time>2025-09-08T15:43:33Z</time>
      </trkpt>
      <trkpt lat="38.837939947842564" lon="121.50972096897937">
        <ele>8.793881048448384</ele>
        <time>2025-09-08T15:43:39Z</time>
      </trkpt>
      <trkpt lat="38.83802335179588" lon="121.50938652836837">
        <ele>7.866864262148738</ele>
        <time>2025-09-08T15:43:51Z</time>
      </trkpt>
      <trkpt lat="38.838068705168176" lon="121.50931368118242">
        <ele>8.313105889596045</ele>
        <time>2025-09-08T15:43:54Z</time>
      </trkpt>
      <trkpt lat="38.838171479071434" lon="121.50923557171535">
        <ele>9.140599924139678</ele>
        <time>2025-09-08T15:44:00Z</time>
      </trkpt>
      <trkpt lat="38.83826809659468" lon="121.50913064752913">
        <ele>9.18792276084423</ele>
        <time>2025-09-08T15:44:06Z</time>
      </trkpt>
      <trkpt lat="38.838304956133484" lon="121.50905401472082">
        <ele>9.570932177826762</ele>
        <time>2025-09-08T15:44:09Z</time>
      </trkpt>
      <trkpt lat="38.83817908050062" lon="121.5089267522849">
        <ele>9.55182725097984</ele>
        <time>2025-09-08T15:44:15Z</time>
      </trkpt>
      <trkpt lat="38.83811239026333" lon="121.50891601121701">
        <ele>9.053491052240133</ele>
        <time>2025-09-08T15:44:18Z</time>
      </trkpt>
      <trkpt lat="38.83799409590985" lon="121.50885003577723">
        <ele>9.61522223893553</ele>
        <time>2025-09-08T15:44:24Z</time>
      </trkpt>
      <trkpt lat="38.83783982166237" lon="121.50866792630131">
        <ele>9.312672030180693</ele>
        <time>2025-09-08T15:44:33Z</time>
      </trkpt>
      <trkpt lat="38.83775666246798" lon="121.50851811233527">
        <ele>9.430759135633707</ele>
        <time>2025-09-08T15:44:39Z</time>
      </trkpt>
      <trkpt lat="38.83768370517438" lon="121.50847837630779">
        <ele>9.513329793699086</ele>
        <time>2025-09-08T15:44:42Z</time>
      </trkpt>
      <trkpt lat="38.83761813924817" lon="121.50847778806147">
        <ele>9.703407099470496</ele>
        <time>2025-09-08T15:44:45Z</time>
      </trkpt>
      <trkpt lat="38.83757520894479" lon="121.50857595683186">
        <ele>9.898541097529233</ele>
        <time>2025-09-08T15:44:48Z</time>
      </trkpt>
      <trkpt lat="38.83756097058959" lon="121.50867313492965">
        <ele>8.935594774782658</ele>
        <time>2025-09-08T15:44:51Z</time>
      </trkpt>
      <trkpt lat="38.83747715587036" lon="121.50891804148712">
        <ele>9.56069890409708</ele>
        <time>2025-09-08T15:45:00Z</time>
      </trkpt>
      <trkpt lat="38.83736077064801" lon="121.50905487052174">
        <ele>9.297177530825138</ele>
        <time>2025-09-08T15:45:07Z</time>
      </trkpt>
      <trkpt lat="38.837306882243624" lon="121.50909012533161">
        <ele>9.23065223544836</ele>
        <time>2025-09-08T15:45:10Z</time>
      </trkpt>
      <trkpt lat="38.837235124686366" lon="121.50917553641054">
        <ele>9.881182198412716</ele>
        <time>2025-09-08T15:45:14Z</time>
      </trkpt>
      <trkpt lat="38.83712320579235" lon="121.5093785151265">
        <ele>9.143800179474056</ele>
        <time>2025-09-08T15:45:22Z</time>
      </trkpt>
      <trkpt lat="38.8370222166695" lon="121.50970375923029">
        <ele>8.789187870919704</ele>
        <time>2025-09-08T15:45:34Z</time>
      </trkpt>
      <trkpt lat="38.8369340946562" lon="121.50984102039338">
        <ele>8.540539093315601</ele>
        <time>2025-09-08T15:45:40Z</time>
      </trkpt>
      <trkpt lat="38.836757631282254" lon="121.50994924098394">
        <ele>7.918945376761258</ele>
        <time>2025-09-08T15:45:49Z</time>
      </trkpt>
      <trkpt lat="38.83650017155568" lon="121.50995473815118">
        <ele>7.4062385046854615</ele>
        <time>2025-09-08T15:46:04Z</time>
      </trkpt>
      <trkpt lat="38.83617819908178" lon="121.51006734825873">
        <ele>6.2100547244772315</ele>
        <time>2025-09-08T15:46:19Z</time>
      </trkpt>
      <trkpt lat="38.83610062314546" lon="121.51013840269545">
        <ele>6.991355366073549</ele>
        <time>2025-09-08T15:46:22Z</time>
      </trkpt>
      <trkpt lat="38.83611282969673" lon="121.5102224912303">
        <ele>6.845207686536014</ele>
        <time>2025-09-08T15:46:25Z</time>
      </trkpt>
      <trkpt lat="38.83616664664266" lon="121.51029180155147">
        <ele>7.10518510453403</ele>
        <time>2025-09-08T15:46:28Z</time>
      </trkpt>
      <trkpt lat="38.8362535333741" lon="121.51054294059266">
        <ele>6.459570572711527</ele>
        <time>2025-09-08T15:46:38Z</time>
      </trkpt>
      <trkpt lat="38.83623652349064" lon="121.51073242583591">
        <ele>6.209189626388252</ele>
        <time>2025-09-08T15:46:44Z</time>
      </trkpt>
      <trkpt lat="38.836167622142575" lon="121.51094969367743">
        <ele>5.722670388408005</ele>
        <time>2025-09-08T15:46:53Z</time>
      </trkpt>
      <trkpt lat="38.83607254738445" lon="121.51109068310969">
        <ele>5.632719038054347</ele>
        <time>2025-09-08T15:46:59Z</time>
      </trkpt>
      <trkpt lat="38.83596858935641" lon="121.51142291311533">
        <ele>4.995840382762253</ele>
        <time>2025-09-08T15:47:11Z</time>
      </trkpt>
      <trkpt lat="38.83600008904053" lon="121.5116378330275">
        <ele>5.522136754356325</ele>
        <time>2025-09-08T15:47:19Z</time>
      </trkpt>
      <trkpt lat="38.83608596501367" lon="121.51182231254874">
        <ele>6.148145846091211</ele>
        <time>2025-09-08T15:47:26Z</time>
      </trkpt>
      <trkpt lat="38.8361342713906" lon="121.51187747392854">
        <ele>6.300275205634534</ele>
        <time>2025-09-08T15:47:29Z</time>
      </trkpt>
      <trkpt lat="38.836276276941824" lon="121.51194497927392">
        <ele>6.585672588087618</ele>
        <time>2025-09-08T15:47:35Z</time>
      </trkpt>
      <trkpt lat="38.836341471516285" lon="121.5119485879381">
        <ele>6.598040672019124</ele>
        <time>2025-09-08T15:47:38Z</time>
      </trkpt>
      <trkpt lat="38.83654028281527" lon="121.51185335860468">
        <ele>6.010254290886223</ele>
        <time>2025-09-08T15:47:47Z</time>
      </trkpt>
      <trkpt lat="38.83670551648964" lon="121.51170641365997">
        <ele>5.395948895253241</ele>
        <time>2025-09-08T15:47:56Z</time>
      </trkpt>
      <trkpt lat="38.8368908145602" lon="121.51143305522321">
        <ele>6.578904455527663</ele>
        <time>2025-09-08T15:48:08Z</time>
      </trkpt>
      <trkpt lat="38.836962267622845" lon="121.51129209222015">
        <ele>6.454455996863544</ele>
        <time>2025-09-08T15:48:14Z</time>
      </trkpt>
      <trkpt lat="38.83706509365495" lon="121.51089308677946">
        <ele>6.438922334462404</ele>
        <time>2025-09-08T15:48:29Z</time>
      </trkpt>
      <trkpt lat="38.83710170998673" lon="121.51073959519158">
        <ele>6.828504835255444</ele>
        <time>2025-09-08T15:48:35Z</time>
      </trkpt>
      <trkpt lat="38.83727767741577" lon="121.5104742489258">
        <ele>8.976883356459439</ele>
        <time>2025-09-08T15:48:47Z</time>
      </trkpt>
      <trkpt lat="38.83755898253873" lon="121.51023648350609">
        <ele>8.05236095469445</ele>
        <time>2025-09-08T15:49:02Z</time>
      </trkpt>
      <trkpt lat="38.83769793940218" lon="121.51007333432247">
        <ele>8.864682266488671</ele>
        <time>2025-09-08T15:49:11Z</time>
      </trkpt>
      <trkpt lat="38.83775613173677" lon="121.50992775436339">
        <ele>10.038448019884527</ele>
        <time>2025-09-08T15:49:17Z</time>
      </trkpt>
      <trkpt lat="38.837783241163415" lon="121.50981066050134">
        <ele>9.88853057473898</ele>
        <time>2025-09-08T15:49:21Z</time>
      </trkpt>
      <trkpt lat="38.83778701329476" lon="121.50968823018805">
        <ele>10.512744115665555</ele>
        <time>2025-09-08T15:49:25Z</time>
      </trkpt>
      <trkpt lat="38.83775403157981" lon="121.5094088529846">
        <ele>10.144395662471652</ele>
        <time>2025-09-08T15:49:36Z</time>
      </trkpt>
      <trkpt lat="38.83775403157981" lon="121.5094088529846">
        <ele>10.144395662471652</ele>
        <time>2025-09-08T15:49:39Z</time>
      </trkpt>
    </trkseg>
  </trk>
</gpx>