<?xml version="1.0" encoding="UTF-8"?>
<gpx xmlns="http://www.topografix.com/GPX/1/1" xmlns:gpxtpx="http://www.garmin.com/xmlschemas/TrackPointExtension/v1" xmlns:xsi="http://www.w3.org/2001/XMLSchema-instance" xsi:schemaLocation="http://www.topografix.com/GPX/1/1 http://www.topografix.com/GPX/1/1/gpx.xsd" version="1.1" creator="gpx.py -- https://github.com/tkrajina/gpxpy">
  <trk>
    <name>gpx from keep</name>
    <type>Run</type>
    <trkseg>
      <trkpt lat="38.83796586567595" lon="121.50531586476589">
        <ele>9.781485765586655</ele>
        <time>2025-08-07T15:14:44Z</time>
      </trkpt>
      <trkpt lat="38.837878153335964" lon="121.50532352655675">
        <ele>9.935711581587</ele>
        <time>2025-08-07T15:14:47Z</time>
      </trkpt>
      <trkpt lat="38.83770236885267" lon="121.50560248149242">
        <ele>10.464656091295183</ele>
        <time>2025-08-07T15:15:06Z</time>
      </trkpt>
      <trkpt lat="38.83755860597627" lon="121.50578270149794">
        <ele>10.463586963713169</ele>
        <time>2025-08-07T15:15:12Z</time>
      </trkpt>
      <trkpt lat="38.83753639051682" lon="121.50588525483482">
        <ele>9.942278334870934</ele>
        <time>2025-08-07T15:15:18Z</time>
      </trkpt>
      <trkpt lat="38.83742884985328" lon="121.50597475486948">
        <ele>10.855285031720996</ele>
        <time>2025-08-07T15:15:24Z</time>
      </trkpt>
      <trkpt lat="38.83740133722547" lon="121.5060594031757">
        <ele>10.63793323840946</ele>
        <time>2025-08-07T15:15:30Z</time>
      </trkpt>
      <trkpt lat="38.83734631620097" lon="121.50605961267863">
        <ele>10.789776539430022</ele>
        <time>2025-08-07T15:15:36Z</time>
      </trkpt>
      <trkpt lat="38.837287653990835" lon="121.5061684272489">
        <ele>11.286550928838551</ele>
        <time>2025-08-07T15:15:45Z</time>
      </trkpt>
      <trkpt lat="38.83728310094684" lon="121.5062259420577">
        <ele>11.30790642183274</ele>
        <time>2025-08-07T15:15:48Z</time>
      </trkpt>
      <trkpt lat="38.83731312148298" lon="121.5063108906501">
        <ele>11.396677499637008</ele>
        <time>2025-08-07T15:15:54Z</time>
      </trkpt>
      <trkpt lat="38.837223692779844" lon="121.50652664912286">
        <ele>10.477528582327068</ele>
        <time>2025-08-07T15:16:03Z</time>
      </trkpt>
      <trkpt lat="38.83702957170137" lon="121.50683715687526">
        <ele>10.898257154040039</ele>
        <time>2025-08-07T15:16:18Z</time>
      </trkpt>
      <trkpt lat="38.83689352612258" lon="121.50709664598949">
        <ele>10.896080222912133</ele>
        <time>2025-08-07T15:16:30Z</time>
      </trkpt>
      <trkpt lat="38.83683829049923" lon="121.5071486853409">
        <ele>10.926233326084912</ele>
        <time>2025-08-07T15:16:33Z</time>
      </trkpt>
      <trkpt lat="38.83674271815157" lon="121.5073668282126">
        <ele>10.864657296799123</ele>
        <time>2025-08-07T15:16:42Z</time>
      </trkpt>
      <trkpt lat="38.83673572598564" lon="121.50744680588814">
        <ele>11.02550607919693</ele>
        <time>2025-08-07T15:16:45Z</time>
      </trkpt>
      <trkpt lat="38.83683447573283" lon="121.50759498991343">
        <ele>10.86126590333879</ele>
        <time>2025-08-07T15:16:52Z</time>
      </trkpt>
      <trkpt lat="38.83695771660015" lon="121.50773850070773">
        <ele>11.190895769745111</ele>
        <time>2025-08-07T15:17:00Z</time>
      </trkpt>
      <trkpt lat="38.83710025464628" lon="121.50787176269566">
        <ele>11.157125867903233</ele>
        <time>2025-08-07T15:17:08Z</time>
      </trkpt>
      <trkpt lat="38.837251588628156" lon="121.50789901722239">
        <ele>11.01794689707458</ele>
        <time>2025-08-07T15:17:12Z</time>
      </trkpt>
      <trkpt lat="38.837486584816254" lon="121.50809924995647">
        <ele>11.435597343370318</ele>
        <time>2025-08-07T15:17:29Z</time>
      </trkpt>
      <trkpt lat="38.83750124937499" lon="121.50818450999786">
        <ele>10.542828874662519</ele>
        <time>2025-08-07T15:17:38Z</time>
      </trkpt>
      <trkpt lat="38.83754628886285" lon="121.50822423305311">
        <ele>10.070496353320777</ele>
        <time>2025-08-07T15:17:41Z</time>
      </trkpt>
      <trkpt lat="38.83760393801707" lon="121.50834330517553">
        <ele>10.541850417852402</ele>
        <time>2025-08-07T15:17:47Z</time>
      </trkpt>
      <trkpt lat="38.837606149977155" lon="121.50842072136544">
        <ele>9.96272278856486</ele>
        <time>2025-08-07T15:17:50Z</time>
      </trkpt>
      <trkpt lat="38.837504969677575" lon="121.50879824768502">
        <ele>10.417325308546424</ele>
        <time>2025-08-07T15:18:05Z</time>
      </trkpt>
      <trkpt lat="38.837480343624755" lon="121.50889090835378">
        <ele>10.493934066966176</ele>
        <time>2025-08-07T15:18:08Z</time>
      </trkpt>
      <trkpt lat="38.83742963299113" lon="121.5089637515696">
        <ele>10.619306174106896</ele>
        <time>2025-08-07T15:18:11Z</time>
      </trkpt>
      <trkpt lat="38.837369753376514" lon="121.50899492411178">
        <ele>10.557231230661273</ele>
        <time>2025-08-07T15:18:14Z</time>
      </trkpt>
      <trkpt lat="38.83721746942927" lon="121.50915535894782">
        <ele>10.39616095367819</ele>
        <time>2025-08-07T15:18:23Z</time>
      </trkpt>
      <trkpt lat="38.8370797229411" lon="121.50943721051792">
        <ele>10.52442817762494</ele>
        <time>2025-08-07T15:18:35Z</time>
      </trkpt>
      <trkpt lat="38.836928509130765" lon="121.50976232052575">
        <ele>9.68874689284712</ele>
        <time>2025-08-07T15:18:50Z</time>
      </trkpt>
      <trkpt lat="38.83681321515887" lon="121.50989488475187">
        <ele>9.788848727941513</ele>
        <time>2025-08-07T15:18:57Z</time>
      </trkpt>
      <trkpt lat="38.83673428998804" lon="121.50995235499434">
        <ele>9.385844960808754</ele>
        <time>2025-08-07T15:19:01Z</time>
      </trkpt>
      <trkpt lat="38.83654551782853" lon="121.50994471287333">
        <ele>9.045093943364918</ele>
        <time>2025-08-07T15:19:13Z</time>
      </trkpt>
      <trkpt lat="38.83649259561886" lon="121.51001111181543">
        <ele>8.497070433571935</ele>
        <time>2025-08-07T15:19:17Z</time>
      </trkpt>
      <trkpt lat="38.83649228208448" lon="121.51011748620706">
        <ele>8.823176898993552</ele>
        <time>2025-08-07T15:19:21Z</time>
      </trkpt>
      <trkpt lat="38.836516818950166" lon="121.51022423079155">
        <ele>8.492458743043244</ele>
        <time>2025-08-07T15:19:25Z</time>
      </trkpt>
      <trkpt lat="38.83650519432744" lon="121.51028409059708">
        <ele>7.3622691836208105</ele>
        <time>2025-08-07T15:19:28Z</time>
      </trkpt>
      <trkpt lat="38.836523303420215" lon="121.5103385157418">
        <ele>9.042182683944702</ele>
        <time>2025-08-07T15:19:32Z</time>
      </trkpt>
      <trkpt lat="38.83661984560724" lon="121.51044282757881">
        <ele>8.479697630740702</ele>
        <time>2025-08-07T15:19:40Z</time>
      </trkpt>
      <trkpt lat="38.8366819223006" lon="121.51055646995124">
        <ele>7.994505038484931</ele>
        <time>2025-08-07T15:19:46Z</time>
      </trkpt>
      <trkpt lat="38.83689322929231" lon="121.51080162999786">
        <ele>6.5589251313358545</ele>
        <time>2025-08-07T15:19:58Z</time>
      </trkpt>
      <trkpt lat="38.836989431874386" lon="121.51079233657983">
        <ele>7.018910895101726</ele>
        <time>2025-08-07T15:20:04Z</time>
      </trkpt>
      <trkpt lat="38.837155967438896" lon="121.5106210062205">
        <ele>7.145179090090096</ele>
        <time>2025-08-07T15:20:13Z</time>
      </trkpt>
      <trkpt lat="38.837276678464185" lon="121.5104619437873">
        <ele>8.9068654589355</ele>
        <time>2025-08-07T15:20:22Z</time>
      </trkpt>
      <trkpt lat="38.83745656630391" lon="121.51035709526307">
        <ele>8.824765491299331</ele>
        <time>2025-08-07T15:20:31Z</time>
      </trkpt>
      <trkpt lat="38.8376814519678" lon="121.51014751788604">
        <ele>9.398383251391351</ele>
        <time>2025-08-07T15:20:43Z</time>
      </trkpt>
      <trkpt lat="38.8378193742611" lon="121.50992815242704">
        <ele>9.845059670507908</ele>
        <time>2025-08-07T15:20:52Z</time>
      </trkpt>
      <trkpt lat="38.83793611703395" lon="121.5098103795595">
        <ele>8.609700595960021</ele>
        <time>2025-08-07T15:20:58Z</time>
      </trkpt>
      <trkpt lat="38.83804789942998" lon="121.50943864102196">
        <ele>10.572805552743375</ele>
        <time>2025-08-07T15:21:12Z</time>
      </trkpt>
      <trkpt lat="38.8381179883804" lon="121.50932735845967">
        <ele>11.54930679127574</ele>
        <time>2025-08-07T15:21:16Z</time>
      </trkpt>
      <trkpt lat="38.83818252260063" lon="121.50925961657066">
        <ele>11.405047398991883</ele>
        <time>2025-08-07T15:21:20Z</time>
      </trkpt>
      <trkpt lat="38.83835111335183" lon="121.50913294095423">
        <ele>10.933961302042007</ele>
        <time>2025-08-07T15:21:28Z</time>
      </trkpt>
      <trkpt lat="38.838372539741066" lon="121.50900792749628">
        <ele>11.205179021693766</ele>
        <time>2025-08-07T15:21:32Z</time>
      </trkpt>
      <trkpt lat="38.83827131656647" lon="121.50891717025566">
        <ele>11.116086724214256</ele>
        <time>2025-08-07T15:21:36Z</time>
      </trkpt>
      <trkpt lat="38.83815471022346" lon="121.50890923581045">
        <ele>10.484583261422813</ele>
        <time>2025-08-07T15:21:44Z</time>
      </trkpt>
      <trkpt lat="38.838007194827725" lon="121.50879775321602">
        <ele>11.315674901939929</ele>
        <time>2025-08-07T15:21:52Z</time>
      </trkpt>
      <trkpt lat="38.83774069903421" lon="121.50851805164524">
        <ele>10.750509550794959</ele>
        <time>2025-08-07T15:22:04Z</time>
      </trkpt>
      <trkpt lat="38.83766203971868" lon="121.50849994040084">
        <ele>10.750510910525918</ele>
        <time>2025-08-07T15:22:07Z</time>
      </trkpt>
      <trkpt lat="38.837610275316514" lon="121.50854627300687">
        <ele>11.11866229120642</ele>
        <time>2025-08-07T15:22:10Z</time>
      </trkpt>
      <trkpt lat="38.83748373826215" lon="121.50893039148487">
        <ele>10.407858033664525</ele>
        <time>2025-08-07T15:22:25Z</time>
      </trkpt>
      <trkpt lat="38.83723380622013" lon="121.50912208109919">
        <ele>10.55651368573308</ele>
        <time>2025-08-07T15:22:37Z</time>
      </trkpt>
      <trkpt lat="38.83709999169982" lon="121.50945111216754">
        <ele>9.771797168068588</ele>
        <time>2025-08-07T15:22:49Z</time>
      </trkpt>
      <trkpt lat="38.83700438078355" lon="121.50971010359308">
        <ele>9.835866702720523</ele>
        <time>2025-08-07T15:22:58Z</time>
      </trkpt>
      <trkpt lat="38.83683747900512" lon="121.50989707115077">
        <ele>9.336880208924413</ele>
        <time>2025-08-07T15:23:07Z</time>
      </trkpt>
      <trkpt lat="38.83659108032145" lon="121.50998539139957">
        <ele>8.953347436152399</ele>
        <time>2025-08-07T15:23:18Z</time>
      </trkpt>
      <trkpt lat="38.83652910711142" lon="121.51007487196892">
        <ele>8.017614050768316</ele>
        <time>2025-08-07T15:23:22Z</time>
      </trkpt>
      <trkpt lat="38.83652466675072" lon="121.51018245761634">
        <ele>8.704096235334873</ele>
        <time>2025-08-07T15:23:26Z</time>
      </trkpt>
      <trkpt lat="38.83656666657617" lon="121.51038567047564">
        <ele>8.261744575574994</ele>
        <time>2025-08-07T15:23:34Z</time>
      </trkpt>
      <trkpt lat="38.836695713595915" lon="121.51052634874816">
        <ele>7.443015206605196</ele>
        <time>2025-08-07T15:23:46Z</time>
      </trkpt>
      <trkpt lat="38.83681047155593" lon="121.51061650569406">
        <ele>7.904597296379507</ele>
        <time>2025-08-07T15:23:54Z</time>
      </trkpt>
      <trkpt lat="38.83688790405827" lon="121.51080446034398">
        <ele>6.172078845091164</ele>
        <time>2025-08-07T15:24:02Z</time>
      </trkpt>
      <trkpt lat="38.83695564099345" lon="121.51083164665066">
        <ele>7.061363128013909</ele>
        <time>2025-08-07T15:24:06Z</time>
      </trkpt>
      <trkpt lat="38.83720393639963" lon="121.51057978400334">
        <ele>8.749326933175325</ele>
        <time>2025-08-07T15:24:18Z</time>
      </trkpt>
      <trkpt lat="38.83733378537318" lon="121.51043360937078">
        <ele>9.099110347218812</ele>
        <time>2025-08-07T15:24:26Z</time>
      </trkpt>
      <trkpt lat="38.837567964935914" lon="121.51029256698389">
        <ele>8.428748711943626</ele>
        <time>2025-08-07T15:24:38Z</time>
      </trkpt>
      <trkpt lat="38.837647974498736" lon="121.51022171822574">
        <ele>8.534877235069871</ele>
        <time>2025-08-07T15:24:42Z</time>
      </trkpt>
      <trkpt lat="38.83771708284712" lon="121.51010768990136">
        <ele>9.30623458698392</ele>
        <time>2025-08-07T15:24:46Z</time>
      </trkpt>
      <trkpt lat="38.83776007874992" lon="121.50998552293669">
        <ele>10.166874787770212</ele>
        <time>2025-08-07T15:24:50Z</time>
      </trkpt>
      <trkpt lat="38.837815439338584" lon="121.50989626912151">
        <ele>10.202761716209352</ele>
        <time>2025-08-07T15:24:54Z</time>
      </trkpt>
      <trkpt lat="38.83788418416565" lon="121.50984376015094">
        <ele>8.845022940076888</ele>
        <time>2025-08-07T15:24:58Z</time>
      </trkpt>
      <trkpt lat="38.83793896027565" lon="121.50975782498915">
        <ele>9.57296705339104</ele>
        <time>2025-08-07T15:25:02Z</time>
      </trkpt>
      <trkpt lat="38.83804979026445" lon="121.50942347385411">
        <ele>10.432981022633612</ele>
        <time>2025-08-07T15:25:14Z</time>
      </trkpt>
      <trkpt lat="38.83810483938699" lon="121.50931937810081">
        <ele>11.751646098680794</ele>
        <time>2025-08-07T15:25:18Z</time>
      </trkpt>
      <trkpt lat="38.83819274030558" lon="121.50924281409496">
        <ele>11.196791717782617</ele>
        <time>2025-08-07T15:25:22Z</time>
      </trkpt>
      <trkpt lat="38.8382889600495" lon="121.50918927357904">
        <ele>10.747777407988906</ele>
        <time>2025-08-07T15:25:26Z</time>
      </trkpt>
      <trkpt lat="38.83836974043721" lon="121.5091021675178">
        <ele>12.195952510461211</ele>
        <time>2025-08-07T15:25:30Z</time>
      </trkpt>
      <trkpt lat="38.8383458262467" lon="121.50897135128868">
        <ele>11.201891545206308</ele>
        <time>2025-08-07T15:25:34Z</time>
      </trkpt>
      <trkpt lat="38.83827336906269" lon="121.50890764987217">
        <ele>10.23088452219963</ele>
        <time>2025-08-07T15:25:38Z</time>
      </trkpt>
      <trkpt lat="38.83808502538166" lon="121.50886931112238">
        <ele>9.832599421963096</ele>
        <time>2025-08-07T15:25:46Z</time>
      </trkpt>
      <trkpt lat="38.83793503938536" lon="121.5087497853656">
        <ele>11.654374592006207</ele>
        <time>2025-08-07T15:25:54Z</time>
      </trkpt>
      <trkpt lat="38.83776022339145" lon="121.50849425425861">
        <ele>10.967685450799763</ele>
        <time>2025-08-07T15:26:06Z</time>
      </trkpt>
      <trkpt lat="38.8376778172497" lon="121.50841862277245">
        <ele>11.739919627085328</ele>
        <time>2025-08-07T15:26:10Z</time>
      </trkpt>
      <trkpt lat="38.83763687723683" lon="121.50833138475039">
        <ele>10.941110509447753</ele>
        <time>2025-08-07T15:26:14Z</time>
      </trkpt>
      <trkpt lat="38.837575946184195" lon="121.50826669941941">
        <ele>11.227087520994246</ele>
        <time>2025-08-07T15:26:18Z</time>
      </trkpt>
      <trkpt lat="38.83755053423387" lon="121.50819632288291">
        <ele>11.15522719360888</ele>
        <time>2025-08-07T15:26:22Z</time>
      </trkpt>
      <trkpt lat="38.83758675458926" lon="121.50812424098521">
        <ele>10.667625677771866</ele>
        <time>2025-08-07T15:26:26Z</time>
      </trkpt>
      <trkpt lat="38.83735938194872" lon="121.50785163446326">
        <ele>10.886621695011854</ele>
        <time>2025-08-07T15:26:42Z</time>
      </trkpt>
      <trkpt lat="38.837217322956626" lon="121.50766693770603">
        <ele>10.797977620735765</ele>
        <time>2025-08-07T15:26:50Z</time>
      </trkpt>
      <trkpt lat="38.837036254567636" lon="121.50750772270153">
        <ele>11.122722162865102</ele>
        <time>2025-08-07T15:26:58Z</time>
      </trkpt>
      <trkpt lat="38.8368621832663" lon="121.50728925088085">
        <ele>10.309313441626728</ele>
        <time>2025-08-07T15:27:06Z</time>
      </trkpt>
      <trkpt lat="38.83680418423212" lon="121.50717893586122">
        <ele>10.897870112210512</ele>
        <time>2025-08-07T15:27:10Z</time>
      </trkpt>
      <trkpt lat="38.83703022478314" lon="121.50683866804783">
        <ele>10.039962272159755</ele>
        <time>2025-08-07T15:27:25Z</time>
      </trkpt>
      <trkpt lat="38.837102789375024" lon="121.50674336352986">
        <ele>10.261585826985538</ele>
        <time>2025-08-07T15:27:29Z</time>
      </trkpt>
      <trkpt lat="38.83715280290086" lon="121.50661936102372">
        <ele>11.431749670766294</ele>
        <time>2025-08-07T15:27:33Z</time>
      </trkpt>
      <trkpt lat="38.83718171654213" lon="121.50648458213095">
        <ele>11.034862416796386</ele>
        <time>2025-08-07T15:27:37Z</time>
      </trkpt>
      <trkpt lat="38.83726547345139" lon="121.50626921162464">
        <ele>11.385989365167916</ele>
        <time>2025-08-07T15:27:45Z</time>
      </trkpt>
      <trkpt lat="38.83725907441679" lon="121.50616069705276">
        <ele>11.244412179104984</ele>
        <time>2025-08-07T15:27:49Z</time>
      </trkpt>
      <trkpt lat="38.83729883656146" lon="121.50605081408494">
        <ele>10.782672293484211</ele>
        <time>2025-08-07T15:27:53Z</time>
      </trkpt>
      <trkpt lat="38.83749231533383" lon="121.50577860576344">
        <ele>10.900139537639916</ele>
        <time>2025-08-07T15:28:05Z</time>
      </trkpt>
      <trkpt lat="38.83757809613318" lon="121.50568187066104">
        <ele>11.400155855342746</ele>
        <time>2025-08-07T15:28:09Z</time>
      </trkpt>
      <trkpt lat="38.83774584816695" lon="121.50540497878697">
        <ele>9.941613676957786</ele>
        <time>2025-08-07T15:28:21Z</time>
      </trkpt>
      <trkpt lat="38.83782070101276" lon="121.50532435704075">
        <ele>9.063105782493949</ele>
        <time>2025-08-07T15:28:25Z</time>
      </trkpt>
      <trkpt lat="38.837881641831835" lon="121.50529739108626">
        <ele>10.001917580142617</ele>
        <time>2025-08-07T15:28:29Z</time>
      </trkpt>
      <trkpt lat="38.83796573013545" lon="121.50521244719147">
        <ele>9.373624715954065</ele>
        <time>2025-08-07T15:28:37Z</time>
      </trkpt>
      <trkpt lat="38.83796573013545" lon="121.50521244719147">
        <ele>9.373624715954065</ele>
        <time>2025-08-07T15:28:40Z</time>
      </trkpt>
    </trkseg>
  </trk>
</gpx>