<?xml version="1.0" encoding="UTF-8"?>
<gpx xmlns="http://www.topografix.com/GPX/1/1" xmlns:gpxtpx="http://www.garmin.com/xmlschemas/TrackPointExtension/v1" xmlns:xsi="http://www.w3.org/2001/XMLSchema-instance" xsi:schemaLocation="http://www.topografix.com/GPX/1/1 http://www.topografix.com/GPX/1/1/gpx.xsd" version="1.1" creator="gpx.py -- https://github.com/tkrajina/gpxpy">
  <trk>
    <name>gpx from keep</name>
    <type>Run</type>
    <trkseg>
      <trkpt lat="38.83713286427102" lon="121.5069208092376">
        <ele>10.672061589026526</ele>
        <time>2026-01-07T23:45:41Z</time>
      </trkpt>
      <trkpt lat="38.83707291669994" lon="121.50689800059459">
        <ele>10.368706591691815</ele>
        <time>2026-01-07T23:45:44Z</time>
      </trkpt>
      <trkpt lat="38.837004575289455" lon="121.50689717015455">
        <ele>10.415862106649517</ele>
        <time>2026-01-07T23:45:47Z</time>
      </trkpt>
      <trkpt lat="38.83682661534591" lon="121.50716477419353">
        <ele>10.300756443291903</ele>
        <time>2026-01-07T23:46:05Z</time>
      </trkpt>
      <trkpt lat="38.83677277331254" lon="121.50721803625959">
        <ele>10.429197317920625</ele>
        <time>2026-01-07T23:46:08Z</time>
      </trkpt>
      <trkpt lat="38.836694191052295" lon="121.5071861850539">
        <ele>9.280331000685692</ele>
        <time>2026-01-07T23:46:11Z</time>
      </trkpt>
      <trkpt lat="38.83644859525347" lon="121.50698285398337">
        <ele>8.7288274820894</ele>
        <time>2026-01-07T23:46:23Z</time>
      </trkpt>
      <trkpt lat="38.83621086210758" lon="121.50680296942804">
        <ele>9.126936151646078</ele>
        <time>2026-01-07T23:46:38Z</time>
      </trkpt>
      <trkpt lat="38.83615149738707" lon="121.50680810665479">
        <ele>8.932792769744992</ele>
        <time>2026-01-07T23:46:44Z</time>
      </trkpt>
      <trkpt lat="38.836098747255036" lon="121.50696044358553">
        <ele>8.099569074809551</ele>
        <time>2026-01-07T23:46:50Z</time>
      </trkpt>
      <trkpt lat="38.83604313327784" lon="121.507027319243">
        <ele>9.319856495596468</ele>
        <time>2026-01-07T23:46:56Z</time>
      </trkpt>
      <trkpt lat="38.835949723183965" lon="121.50736714861111">
        <ele>8.275497894734144</ele>
        <time>2026-01-07T23:47:32Z</time>
      </trkpt>
      <trkpt lat="38.83581790735994" lon="121.50774059214466">
        <ele>8.168682281859219</ele>
        <time>2026-01-07T23:47:47Z</time>
      </trkpt>
      <trkpt lat="38.835721807359626" lon="121.50807964821652">
        <ele>7.898405043408275</ele>
        <time>2026-01-07T23:47:59Z</time>
      </trkpt>
      <trkpt lat="38.83560522289149" lon="121.50839159132009">
        <ele>9.023279339075089</ele>
        <time>2026-01-07T23:48:11Z</time>
      </trkpt>
      <trkpt lat="38.83554260026288" lon="121.50860236673948">
        <ele>8.004787281155586</ele>
        <time>2026-01-07T23:48:19Z</time>
      </trkpt>
      <trkpt lat="38.83540823143346" lon="121.50892611266036">
        <ele>9.664929538033903</ele>
        <time>2026-01-07T23:48:31Z</time>
      </trkpt>
      <trkpt lat="38.835312347411644" lon="121.50926459111537">
        <ele>8.281415396369994</ele>
        <time>2026-01-07T23:48:43Z</time>
      </trkpt>
      <trkpt lat="38.83531977111474" lon="121.50933869443459">
        <ele>8.459323872812092</ele>
        <time>2026-01-07T23:48:47Z</time>
      </trkpt>
      <trkpt lat="38.83540359271574" lon="121.5094676277299">
        <ele>7.709497535601258</ele>
        <time>2026-01-07T23:48:55Z</time>
      </trkpt>
      <trkpt lat="38.83556146239274" lon="121.50959157078067">
        <ele>7.5908113848418</ele>
        <time>2026-01-07T23:49:03Z</time>
      </trkpt>
      <trkpt lat="38.83580494711127" lon="121.50983597604332">
        <ele>7.738732485100627</ele>
        <time>2026-01-07T23:49:18Z</time>
      </trkpt>
      <trkpt lat="38.835942961679805" lon="121.50993474230155">
        <ele>7.770590465515852</ele>
        <time>2026-01-07T23:49:24Z</time>
      </trkpt>
      <trkpt lat="38.835987774643726" lon="121.51001999821241">
        <ele>7.96414552628994</ele>
        <time>2026-01-07T23:49:27Z</time>
      </trkpt>
      <trkpt lat="38.83601230722238" lon="121.51011282462389">
        <ele>7.845549434423447</ele>
        <time>2026-01-07T23:49:30Z</time>
      </trkpt>
      <trkpt lat="38.83604783580114" lon="121.51017877877423">
        <ele>7.771803195588291</ele>
        <time>2026-01-07T23:49:33Z</time>
      </trkpt>
      <trkpt lat="38.836116042442434" lon="121.51018522860542">
        <ele>7.376171035692096</ele>
        <time>2026-01-07T23:49:36Z</time>
      </trkpt>
      <trkpt lat="38.83619248226918" lon="121.51032466096576">
        <ele>7.678708082064986</ele>
        <time>2026-01-07T23:49:42Z</time>
      </trkpt>
      <trkpt lat="38.83626355261115" lon="121.51057957962416">
        <ele>7.079130094498396</ele>
        <time>2026-01-07T23:49:51Z</time>
      </trkpt>
      <trkpt lat="38.83626112725672" lon="121.51068051471994">
        <ele>6.720105440355837</ele>
        <time>2026-01-07T23:49:54Z</time>
      </trkpt>
      <trkpt lat="38.83620121311724" lon="121.51088584540538">
        <ele>6.417241584509611</ele>
        <time>2026-01-07T23:50:01Z</time>
      </trkpt>
      <trkpt lat="38.836052882803" lon="121.5111316111948">
        <ele>5.985821461305022</ele>
        <time>2026-01-07T23:50:11Z</time>
      </trkpt>
      <trkpt lat="38.83597493630586" lon="121.5113937454282">
        <ele>5.687946408055723</ele>
        <time>2026-01-07T23:50:21Z</time>
      </trkpt>
      <trkpt lat="38.8359734501284" lon="121.51148018756587">
        <ele>5.3274012338370085</ele>
        <time>2026-01-07T23:50:24Z</time>
      </trkpt>
      <trkpt lat="38.83604168034782" lon="121.51173848000407">
        <ele>5.665296041406691</ele>
        <time>2026-01-07T23:50:33Z</time>
      </trkpt>
      <trkpt lat="38.83612241871642" lon="121.51187091258996">
        <ele>6.1734313843771815</ele>
        <time>2026-01-07T23:50:39Z</time>
      </trkpt>
      <trkpt lat="38.83624888689453" lon="121.51193306454826">
        <ele>6.453128395602107</ele>
        <time>2026-01-07T23:50:45Z</time>
      </trkpt>
      <trkpt lat="38.836388887837074" lon="121.51192155700298">
        <ele>6.480467123910785</ele>
        <time>2026-01-07T23:50:51Z</time>
      </trkpt>
      <trkpt lat="38.836573393716435" lon="121.51184210837386">
        <ele>6.311506561934948</ele>
        <time>2026-01-07T23:51:00Z</time>
      </trkpt>
      <trkpt lat="38.83667919182603" lon="121.5117557808515">
        <ele>6.299470962956548</ele>
        <time>2026-01-07T23:51:06Z</time>
      </trkpt>
      <trkpt lat="38.83689155691364" lon="121.51144018306219">
        <ele>5.1701437355950475</ele>
        <time>2026-01-07T23:51:21Z</time>
      </trkpt>
      <trkpt lat="38.83698444428598" lon="121.51121360207013">
        <ele>5.863759632222354</ele>
        <time>2026-01-07T23:51:30Z</time>
      </trkpt>
      <trkpt lat="38.837009806295924" lon="121.51104374568708">
        <ele>7.02142362575978</ele>
        <time>2026-01-07T23:51:36Z</time>
      </trkpt>
      <trkpt lat="38.83714321323283" lon="121.51074507618839">
        <ele>7.512315835803747</ele>
        <time>2026-01-07T23:51:48Z</time>
      </trkpt>
      <trkpt lat="38.83737756426324" lon="121.51038953936339">
        <ele>8.34589172899723</ele>
        <time>2026-01-07T23:52:04Z</time>
      </trkpt>
      <trkpt lat="38.837516683840676" lon="121.51025164054232">
        <ele>8.63823252916336</ele>
        <time>2026-01-07T23:52:12Z</time>
      </trkpt>
      <trkpt lat="38.83766804866679" lon="121.51014108972109">
        <ele>9.002585660666227</ele>
        <time>2026-01-07T23:52:20Z</time>
      </trkpt>
      <trkpt lat="38.837747721833416" lon="121.50994076535733">
        <ele>9.505963010713458</ele>
        <time>2026-01-07T23:52:28Z</time>
      </trkpt>
      <trkpt lat="38.83782315016502" lon="121.50992224322462">
        <ele>9.050865262746811</ele>
        <time>2026-01-07T23:52:31Z</time>
      </trkpt>
      <trkpt lat="38.83791247020216" lon="121.5097940255854">
        <ele>8.45601317845285</ele>
        <time>2026-01-07T23:52:37Z</time>
      </trkpt>
      <trkpt lat="38.837964624820664" lon="121.50953692635152">
        <ele>9.950884091667831</ele>
        <time>2026-01-07T23:52:46Z</time>
      </trkpt>
      <trkpt lat="38.83802190360133" lon="121.5093691532371">
        <ele>10.731041071005166</ele>
        <time>2026-01-07T23:52:52Z</time>
      </trkpt>
      <trkpt lat="38.83827697100537" lon="121.5091049300375">
        <ele>10.721683795563877</ele>
        <time>2026-01-07T23:53:07Z</time>
      </trkpt>
      <trkpt lat="38.83827070607018" lon="121.50902992180002">
        <ele>10.84026940446347</ele>
        <time>2026-01-07T23:53:10Z</time>
      </trkpt>
      <trkpt lat="38.83816452985112" lon="121.50894938362217">
        <ele>10.567570461891592</ele>
        <time>2026-01-07T23:53:16Z</time>
      </trkpt>
      <trkpt lat="38.83802142174878" lon="121.50889273939691">
        <ele>11.309311736375093</ele>
        <time>2026-01-07T23:53:22Z</time>
      </trkpt>
      <trkpt lat="38.837909905613344" lon="121.50877897721993">
        <ele>9.929829142056406</ele>
        <time>2026-01-07T23:53:28Z</time>
      </trkpt>
      <trkpt lat="38.83778585049309" lon="121.50857024998338">
        <ele>11.93501614779234</ele>
        <time>2026-01-07T23:53:37Z</time>
      </trkpt>
      <trkpt lat="38.837674312017946" lon="121.50849123263556">
        <ele>10.269273984245956</ele>
        <time>2026-01-07T23:53:43Z</time>
      </trkpt>
      <trkpt lat="38.837614715837205" lon="121.50854636923269">
        <ele>11.530662302859128</ele>
        <time>2026-01-07T23:53:46Z</time>
      </trkpt>
      <trkpt lat="38.83751500040155" lon="121.50886993425269">
        <ele>9.802576271817088</ele>
        <time>2026-01-07T23:53:58Z</time>
      </trkpt>
      <trkpt lat="38.83727655130153" lon="121.50915812283502">
        <ele>9.155954882502556</ele>
        <time>2026-01-07T23:54:12Z</time>
      </trkpt>
      <trkpt lat="38.837105485710374" lon="121.5094530314013">
        <ele>9.344355861656368</ele>
        <time>2026-01-07T23:54:24Z</time>
      </trkpt>
      <trkpt lat="38.83702289396495" lon="121.50968136081788">
        <ele>8.66764745209366</ele>
        <time>2026-01-07T23:54:32Z</time>
      </trkpt>
      <trkpt lat="38.83691754700483" lon="121.50985826766187">
        <ele>8.706436730921268</ele>
        <time>2026-01-07T23:54:39Z</time>
      </trkpt>
      <trkpt lat="38.83678070962722" lon="121.5099353829729">
        <ele>8.452196368016303</ele>
        <time>2026-01-07T23:54:45Z</time>
      </trkpt>
      <trkpt lat="38.83649796822216" lon="121.50997374729977">
        <ele>7.71309091988951</ele>
        <time>2026-01-07T23:54:57Z</time>
      </trkpt>
      <trkpt lat="38.83621182089992" lon="121.51004425915245">
        <ele>8.127471740357578</ele>
        <time>2026-01-07T23:55:09Z</time>
      </trkpt>
      <trkpt lat="38.836146034310396" lon="121.51007449416602">
        <ele>8.352510182186961</ele>
        <time>2026-01-07T23:55:12Z</time>
      </trkpt>
      <trkpt lat="38.836104864207584" lon="121.51015256300832">
        <ele>8.196808269247413</ele>
        <time>2026-01-07T23:55:15Z</time>
      </trkpt>
      <trkpt lat="38.83622029046593" lon="121.51041159989681">
        <ele>7.622384990565479</ele>
        <time>2026-01-07T23:55:24Z</time>
      </trkpt>
      <trkpt lat="38.83626573973034" lon="121.51059991447815">
        <ele>7.151063533499837</ele>
        <time>2026-01-07T23:55:30Z</time>
      </trkpt>
      <trkpt lat="38.83622326188858" lon="121.51079189112983">
        <ele>7.293043440207839</ele>
        <time>2026-01-07T23:55:36Z</time>
      </trkpt>
      <trkpt lat="38.836069235588035" lon="121.511103899031">
        <ele>6.576410863548517</ele>
        <time>2026-01-07T23:55:48Z</time>
      </trkpt>
      <trkpt lat="38.83598803684645" lon="121.51137004950563">
        <ele>7.023464878089726</ele>
        <time>2026-01-07T23:55:57Z</time>
      </trkpt>
      <trkpt lat="38.83599287517337" lon="121.51155159974068">
        <ele>5.254302242770791</ele>
        <time>2026-01-07T23:56:03Z</time>
      </trkpt>
      <trkpt lat="38.8360412760084" lon="121.51172464174378">
        <ele>6.440505335107446</ele>
        <time>2026-01-07T23:56:09Z</time>
      </trkpt>
      <trkpt lat="38.83614307666976" lon="121.51187927500231">
        <ele>6.510929076932371</ele>
        <time>2026-01-07T23:56:16Z</time>
      </trkpt>
      <trkpt lat="38.83628241193045" lon="121.51193718263356">
        <ele>6.714442449621856</ele>
        <time>2026-01-07T23:56:22Z</time>
      </trkpt>
      <trkpt lat="38.83658209283977" lon="121.51186460969478">
        <ele>6.72912111133337</ele>
        <time>2026-01-07T23:56:34Z</time>
      </trkpt>
      <trkpt lat="38.83678932928451" lon="121.5115831517826">
        <ele>6.441816501319408</ele>
        <time>2026-01-07T23:56:46Z</time>
      </trkpt>
      <trkpt lat="38.83694721347803" lon="121.51129641202554">
        <ele>7.264618950895965</ele>
        <time>2026-01-07T23:56:58Z</time>
      </trkpt>
      <trkpt lat="38.83707556454989" lon="121.51086614854721">
        <ele>6.98409306909889</ele>
        <time>2026-01-07T23:57:13Z</time>
      </trkpt>
      <trkpt lat="38.83724150433652" lon="121.51054797447156">
        <ele>8.252815120853484</ele>
        <time>2026-01-07T23:57:25Z</time>
      </trkpt>
      <trkpt lat="38.83745461483221" lon="121.51029977559602">
        <ele>8.611719182692468</ele>
        <time>2026-01-07T23:57:37Z</time>
      </trkpt>
      <trkpt lat="38.837645072110824" lon="121.5101646362248">
        <ele>9.018637474626303</ele>
        <time>2026-01-07T23:57:46Z</time>
      </trkpt>
      <trkpt lat="38.83769210890249" lon="121.51010117978409">
        <ele>8.703128862194717</ele>
        <time>2026-01-07T23:57:49Z</time>
      </trkpt>
      <trkpt lat="38.83774814929261" lon="121.5099379170511">
        <ele>8.991911643184721</ele>
        <time>2026-01-07T23:57:55Z</time>
      </trkpt>
      <trkpt lat="38.83781491732154" lon="121.50991787758036">
        <ele>9.169159651733935</ele>
        <time>2026-01-07T23:57:58Z</time>
      </trkpt>
      <trkpt lat="38.837871623930994" lon="121.50985898724598">
        <ele>8.427818031050265</ele>
        <time>2026-01-07T23:58:01Z</time>
      </trkpt>
      <trkpt lat="38.837934611251924" lon="121.50969877289572">
        <ele>9.48577604163438</ele>
        <time>2026-01-07T23:58:07Z</time>
      </trkpt>
      <trkpt lat="38.83798164923315" lon="121.50944062235533">
        <ele>9.580091529525816</ele>
        <time>2026-01-07T23:58:16Z</time>
      </trkpt>
      <trkpt lat="38.838031960161295" lon="121.50933387904794">
        <ele>9.24232177156955</ele>
        <time>2026-01-07T23:58:20Z</time>
      </trkpt>
      <trkpt lat="38.8382578755847" lon="121.50913604058177">
        <ele>10.29218920134008</ele>
        <time>2026-01-07T23:58:32Z</time>
      </trkpt>
      <trkpt lat="38.83828818477121" lon="121.50906141308592">
        <ele>9.809700788930058</ele>
        <time>2026-01-07T23:58:35Z</time>
      </trkpt>
      <trkpt lat="38.8382306644857" lon="121.50898902213001">
        <ele>10.879976844415069</ele>
        <time>2026-01-07T23:58:38Z</time>
      </trkpt>
      <trkpt lat="38.837948347873905" lon="121.50882317990644">
        <ele>11.160361493006349</ele>
        <time>2026-01-07T23:58:51Z</time>
      </trkpt>
      <trkpt lat="38.837766678775196" lon="121.50855910084339">
        <ele>11.20546018704772</ele>
        <time>2026-01-07T23:59:03Z</time>
      </trkpt>
      <trkpt lat="38.83769865812742" lon="121.50851732305267">
        <ele>10.510088275186718</ele>
        <time>2026-01-07T23:59:06Z</time>
      </trkpt>
      <trkpt lat="38.83763390762485" lon="121.50851263942941">
        <ele>11.358673695474863</ele>
        <time>2026-01-07T23:59:09Z</time>
      </trkpt>
      <trkpt lat="38.83756095853639" lon="121.50868876584131">
        <ele>10.441880794242024</ele>
        <time>2026-01-07T23:59:15Z</time>
      </trkpt>
      <trkpt lat="38.837514007175045" lon="121.50876258345907">
        <ele>10.255708258599043</ele>
        <time>2026-01-07T23:59:18Z</time>
      </trkpt>
      <trkpt lat="38.83744151283048" lon="121.50893213049142">
        <ele>9.690018322318792</ele>
        <time>2026-01-07T23:59:24Z</time>
      </trkpt>
      <trkpt lat="38.83721498665946" lon="121.50920133238989">
        <ele>9.573818676173687</ele>
        <time>2026-01-07T23:59:36Z</time>
      </trkpt>
      <trkpt lat="38.83718100978716" lon="121.50929917103437">
        <ele>9.775778114795685</ele>
        <time>2026-01-07T23:59:39Z</time>
      </trkpt>
      <trkpt lat="38.83712808669158" lon="121.50937833519596">
        <ele>8.934592911973596</ele>
        <time>2026-01-07T23:59:42Z</time>
      </trkpt>
      <trkpt lat="38.83697914072747" lon="121.5097434253059">
        <ele>8.741403840482235</ele>
        <time>2026-01-07T23:59:54Z</time>
      </trkpt>
      <trkpt lat="38.836855725650125" lon="121.50986158758556">
        <ele>8.4363674223423</ele>
        <time>2026-01-08T00:00:00Z</time>
      </trkpt>
      <trkpt lat="38.83670635752226" lon="121.50992227734011">
        <ele>9.50185951590538</ele>
        <time>2026-01-08T00:00:06Z</time>
      </trkpt>
      <trkpt lat="38.8364366630043" lon="121.50994179691885">
        <ele>6.700750719755888</ele>
        <time>2026-01-08T00:00:18Z</time>
      </trkpt>
      <trkpt lat="38.83629727319371" lon="121.50998573397281">
        <ele>7.574327393434942</ele>
        <time>2026-01-08T00:00:24Z</time>
      </trkpt>
      <trkpt lat="38.83620643464569" lon="121.51005282343462">
        <ele>7.678191910497844</ele>
        <time>2026-01-08T00:00:28Z</time>
      </trkpt>
      <trkpt lat="38.83610865633729" lon="121.51003774910497">
        <ele>8.196500675752759</ele>
        <time>2026-01-08T00:00:34Z</time>
      </trkpt>
    </trkseg>
  </trk>
</gpx>