<?xml version="1.0" encoding="UTF-8"?>
<gpx xmlns="http://www.topografix.com/GPX/1/1" xmlns:gpxtpx="http://www.garmin.com/xmlschemas/TrackPointExtension/v1" xmlns:xsi="http://www.w3.org/2001/XMLSchema-instance" xsi:schemaLocation="http://www.topografix.com/GPX/1/1 http://www.topografix.com/GPX/1/1/gpx.xsd" version="1.1" creator="gpx.py -- https://github.com/tkrajina/gpxpy">
  <trk>
    <name>gpx from keep</name>
    <type>Run</type>
    <trkseg>
      <trkpt lat="38.8393508001725" lon="121.50533158991362">
        <ele>10.44598856292982</ele>
        <time>2025-10-11T13:13:52Z</time>
      </trkpt>
      <trkpt lat="38.83930688945554" lon="121.50542743576251">
        <ele>11.86215399176315</ele>
        <time>2025-10-11T13:13:56Z</time>
      </trkpt>
      <trkpt lat="38.83926256458554" lon="121.50538894965221">
        <ele>11.906192391276083</ele>
        <time>2025-10-11T13:13:59Z</time>
      </trkpt>
      <trkpt lat="38.83920617222716" lon="121.50538563075801">
        <ele>12.55501714348793</ele>
        <time>2025-10-11T13:14:14Z</time>
      </trkpt>
      <trkpt lat="38.839135394690565" lon="121.50529860153678">
        <ele>10.336801713332534</ele>
        <time>2025-10-11T13:14:20Z</time>
      </trkpt>
      <trkpt lat="38.83907769474039" lon="121.50528958858789">
        <ele>11.628540564328432</ele>
        <time>2025-10-11T13:14:32Z</time>
      </trkpt>
      <trkpt lat="38.839042176217276" lon="121.5052377739139">
        <ele>10.69340911693871</ele>
        <time>2025-10-11T13:14:44Z</time>
      </trkpt>
      <trkpt lat="38.83899333636245" lon="121.50523770396387">
        <ele>10.865358327515423</ele>
        <time>2025-10-11T13:14:53Z</time>
      </trkpt>
      <trkpt lat="38.83895072437062" lon="121.50527801313635">
        <ele>11.295801703818142</ele>
        <time>2025-10-11T13:15:02Z</time>
      </trkpt>
      <trkpt lat="38.838867338168974" lon="121.50518615771126">
        <ele>10.020021416246891</ele>
        <time>2025-10-11T13:15:17Z</time>
      </trkpt>
      <trkpt lat="38.838753470590106" lon="121.50518100025705">
        <ele>11.449857264757156</ele>
        <time>2025-10-11T13:15:35Z</time>
      </trkpt>
      <trkpt lat="38.83870717007046" lon="121.50530373559809">
        <ele>13.248192213475704</ele>
        <time>2025-10-11T13:15:50Z</time>
      </trkpt>
      <trkpt lat="38.83866313395821" lon="121.50527534242114">
        <ele>11.154513935558498</ele>
        <time>2025-10-11T13:17:12Z</time>
      </trkpt>
      <trkpt lat="38.838723210174926" lon="121.50532671855237">
        <ele>10.712669764645398</ele>
        <time>2025-10-11T13:17:21Z</time>
      </trkpt>
      <trkpt lat="38.838749256107285" lon="121.50527118856111">
        <ele>10.487736035138369</ele>
        <time>2025-10-11T13:17:27Z</time>
      </trkpt>
      <trkpt lat="38.83865341278392" lon="121.50519486341328">
        <ele>10.317552456632257</ele>
        <time>2025-10-11T13:17:39Z</time>
      </trkpt>
      <trkpt lat="38.838620708995705" lon="121.50506253659779">
        <ele>9.460072970949113</ele>
        <time>2025-10-11T13:17:51Z</time>
      </trkpt>
      <trkpt lat="38.83863286583689" lon="121.50499112438726">
        <ele>9.139740681275725</ele>
        <time>2025-10-11T13:17:57Z</time>
      </trkpt>
      <trkpt lat="38.83858756683425" lon="121.5049142768303">
        <ele>10.062106182798743</ele>
        <time>2025-10-11T13:18:03Z</time>
      </trkpt>
      <trkpt lat="38.83856375112226" lon="121.5048564188774">
        <ele>9.760903026908636</ele>
        <time>2025-10-11T13:18:26Z</time>
      </trkpt>
      <trkpt lat="38.83856962500349" lon="121.50479617618446">
        <ele>11.205292796716094</ele>
        <time>2025-10-11T13:18:58Z</time>
      </trkpt>
      <trkpt lat="38.83855005807089" lon="121.50484969187471">
        <ele>10.965895920991898</ele>
        <time>2025-10-11T13:19:01Z</time>
      </trkpt>
      <trkpt lat="38.838606048731364" lon="121.50489733500687">
        <ele>9.942435211502016</ele>
        <time>2025-10-11T13:19:16Z</time>
      </trkpt>
      <trkpt lat="38.83806254076177" lon="121.50464553996866">
        <ele>9.639977597339154</ele>
        <time>2025-10-11T13:19:59Z</time>
      </trkpt>
      <trkpt lat="38.838381876846434" lon="121.50467996699871">
        <ele>9.499188838526607</ele>
        <time>2025-10-11T13:20:07Z</time>
      </trkpt>
      <trkpt lat="38.83841764100588" lon="121.50482736909147">
        <ele>9.841959737241268</ele>
        <time>2025-10-11T13:20:25Z</time>
      </trkpt>
      <trkpt lat="38.838358697130694" lon="121.50481473766075">
        <ele>9.670937024056911</ele>
        <time>2025-10-11T13:20:51Z</time>
      </trkpt>
      <trkpt lat="38.83831950318556" lon="121.50475450281883">
        <ele>8.570327653549612</ele>
        <time>2025-10-11T13:21:03Z</time>
      </trkpt>
      <trkpt lat="38.83827643079047" lon="121.50470374548829">
        <ele>8.658918287605047</ele>
        <time>2025-10-11T13:21:48Z</time>
      </trkpt>
      <trkpt lat="38.83824125242598" lon="121.50465216872922">
        <ele>9.473086069338024</ele>
        <time>2025-10-11T13:22:22Z</time>
      </trkpt>
      <trkpt lat="38.83826202664069" lon="121.50458205766186">
        <ele>8.864409822039306</ele>
        <time>2025-10-11T13:22:34Z</time>
      </trkpt>
      <trkpt lat="38.83825555400479" lon="121.50447944304685">
        <ele>9.47379327006638</ele>
        <time>2025-10-11T13:22:42Z</time>
      </trkpt>
      <trkpt lat="38.83820291891635" lon="121.50445902510715">
        <ele>9.247275420464575</ele>
        <time>2025-10-11T13:22:45Z</time>
      </trkpt>
      <trkpt lat="38.83814618955577" lon="121.50429313517307">
        <ele>9.602784658782184</ele>
        <time>2025-10-11T13:22:57Z</time>
      </trkpt>
      <trkpt lat="38.83815891488078" lon="121.50423004105083">
        <ele>9.619083666242659</ele>
        <time>2025-10-11T13:23:12Z</time>
      </trkpt>
      <trkpt lat="38.83806251862167" lon="121.50433720631533">
        <ele>10.360455469991386</ele>
        <time>2025-10-11T13:23:43Z</time>
      </trkpt>
      <trkpt lat="38.83806251862167" lon="121.50433720631533">
        <ele>10.360455469991386</ele>
        <time>2025-10-11T13:23:45Z</time>
      </trkpt>
    </trkseg>
  </trk>
</gpx>