<?xml version="1.0" encoding="UTF-8"?>
<gpx xmlns="http://www.topografix.com/GPX/1/1" xmlns:gpxtpx="http://www.garmin.com/xmlschemas/TrackPointExtension/v1" xmlns:xsi="http://www.w3.org/2001/XMLSchema-instance" xsi:schemaLocation="http://www.topografix.com/GPX/1/1 http://www.topografix.com/GPX/1/1/gpx.xsd" version="1.1" creator="gpx.py -- https://github.com/tkrajina/gpxpy">
  <trk>
    <name>gpx from keep</name>
    <type>Run</type>
    <trkseg>
      <trkpt lat="38.83747054046903" lon="121.50930797031424">
        <ele>10.9112166154773</ele>
        <time>2026-08-25T00:09:29Z</time>
      </trkpt>
      <trkpt lat="38.83721562854161" lon="121.50923394939043">
        <ele>10.54619570039851</ele>
        <time>2026-08-25T00:09:33Z</time>
      </trkpt>
      <trkpt lat="38.837096787426404" lon="121.50942349351695">
        <ele>10.250054248608649</ele>
        <time>2026-08-25T00:09:45Z</time>
      </trkpt>
      <trkpt lat="38.83699560508352" lon="121.5097080607689">
        <ele>10.07990481890738</ele>
        <time>2026-08-25T00:09:57Z</time>
      </trkpt>
      <trkpt lat="38.8368806647261" lon="121.50987204985724">
        <ele>8.727527206763625</ele>
        <time>2026-08-25T00:10:05Z</time>
      </trkpt>
      <trkpt lat="38.83675806552358" lon="121.50993918795658">
        <ele>8.524658605456352</ele>
        <time>2026-08-25T00:10:12Z</time>
      </trkpt>
      <trkpt lat="38.836633231173415" lon="121.50995928613841">
        <ele>7.912760959006846</ele>
        <time>2026-08-25T00:10:18Z</time>
      </trkpt>
      <trkpt lat="38.83650254474299" lon="121.50994714597708">
        <ele>8.08944567386061</ele>
        <time>2026-08-25T00:10:24Z</time>
      </trkpt>
      <trkpt lat="38.83638105128096" lon="121.50996947268922">
        <ele>7.510162026621401</ele>
        <time>2026-08-25T00:10:30Z</time>
      </trkpt>
      <trkpt lat="38.836134726657654" lon="121.51008790701682">
        <ele>7.4963933527469635</ele>
        <time>2026-08-25T00:10:42Z</time>
      </trkpt>
      <trkpt lat="38.83608761242275" lon="121.51013531074591">
        <ele>7.725064123049378</ele>
        <time>2026-08-25T00:10:45Z</time>
      </trkpt>
      <trkpt lat="38.83610092508889" lon="121.51022356497681">
        <ele>8.300243214704096</ele>
        <time>2026-08-25T00:10:48Z</time>
      </trkpt>
      <trkpt lat="38.836230825673255" lon="121.51047168751803">
        <ele>7.30830523185432</ele>
        <time>2026-08-25T00:11:00Z</time>
      </trkpt>
      <trkpt lat="38.836249235096645" lon="121.51062720076267">
        <ele>6.879616683349013</ele>
        <time>2026-08-25T00:11:06Z</time>
      </trkpt>
      <trkpt lat="38.83623663275931" lon="121.51071683195323">
        <ele>7.3834806671366096</ele>
        <time>2026-08-25T00:11:09Z</time>
      </trkpt>
      <trkpt lat="38.83610034060257" lon="121.51101176235312">
        <ele>7.058215580880642</ele>
        <time>2026-08-25T00:11:21Z</time>
      </trkpt>
      <trkpt lat="38.83600105714571" lon="121.51121900989104">
        <ele>5.576543941162527</ele>
        <time>2026-08-25T00:11:30Z</time>
      </trkpt>
      <trkpt lat="38.835946181536734" lon="121.5114803759284">
        <ele>6.695618335157633</ele>
        <time>2026-08-25T00:11:40Z</time>
      </trkpt>
      <trkpt lat="38.83601014702884" lon="121.51170064836148">
        <ele>6.123000632971525</ele>
        <time>2026-08-25T00:11:49Z</time>
      </trkpt>
      <trkpt lat="38.83613338620224" lon="121.51189388852751">
        <ele>6.776888387277722</ele>
        <time>2026-08-25T00:11:58Z</time>
      </trkpt>
      <trkpt lat="38.836258791140054" lon="121.51194966014712">
        <ele>7.266426946036518</ele>
        <time>2026-08-25T00:12:04Z</time>
      </trkpt>
      <trkpt lat="38.83633008460157" lon="121.51195841162408">
        <ele>7.855918355286121</ele>
        <time>2026-08-25T00:12:07Z</time>
      </trkpt>
      <trkpt lat="38.83662464398488" lon="121.51178452502036">
        <ele>7.124054220505059</ele>
        <time>2026-08-25T00:12:22Z</time>
      </trkpt>
      <trkpt lat="38.836687434238826" lon="121.51176901999979">
        <ele>7.130604057572782</ele>
        <time>2026-08-25T00:12:25Z</time>
      </trkpt>
      <trkpt lat="38.83674252721721" lon="121.51182196609523">
        <ele>8.00497459154576</ele>
        <time>2026-08-25T00:12:28Z</time>
      </trkpt>
      <trkpt lat="38.83680448963058" lon="121.51182014152042">
        <ele>7.902246778830886</ele>
        <time>2026-08-25T00:12:31Z</time>
      </trkpt>
      <trkpt lat="38.83700736594144" lon="121.51149977388876">
        <ele>7.499586499296129</ele>
        <time>2026-08-25T00:12:46Z</time>
      </trkpt>
      <trkpt lat="38.83705948046609" lon="121.51144515920548">
        <ele>7.870359390042722</ele>
        <time>2026-08-25T00:12:49Z</time>
      </trkpt>
      <trkpt lat="38.83710911838769" lon="121.5112733305474">
        <ele>7.610972967930138</ele>
        <time>2026-08-25T00:12:55Z</time>
      </trkpt>
      <trkpt lat="38.83710663527743" lon="121.5111756854177">
        <ele>8.21573003847152</ele>
        <time>2026-08-25T00:12:58Z</time>
      </trkpt>
      <trkpt lat="38.83704319106721" lon="121.51111327531882">
        <ele>8.674799906089902</ele>
        <time>2026-08-25T00:13:01Z</time>
      </trkpt>
      <trkpt lat="38.83702863804189" lon="121.51104169597689">
        <ele>8.108479712158442</ele>
        <time>2026-08-25T00:13:04Z</time>
      </trkpt>
      <trkpt lat="38.83703620114628" lon="121.51095930386599">
        <ele>7.115057333372533</ele>
        <time>2026-08-25T00:13:07Z</time>
      </trkpt>
      <trkpt lat="38.83715985451101" lon="121.51067362876321">
        <ele>8.388900813646615</ele>
        <time>2026-08-25T00:13:19Z</time>
      </trkpt>
      <trkpt lat="38.837243879774796" lon="121.5105253497316">
        <ele>9.130677128210664</ele>
        <time>2026-08-25T00:13:25Z</time>
      </trkpt>
      <trkpt lat="38.83751682116692" lon="121.51025924322768">
        <ele>9.146307944320142</ele>
        <time>2026-08-25T00:13:41Z</time>
      </trkpt>
      <trkpt lat="38.83764174140521" lon="121.51015205152896">
        <ele>9.233260210603476</ele>
        <time>2026-08-25T00:13:48Z</time>
      </trkpt>
      <trkpt lat="38.83778984160523" lon="121.50991368635943">
        <ele>9.447523613460362</ele>
        <time>2026-08-25T00:14:00Z</time>
      </trkpt>
      <trkpt lat="38.837842854157564" lon="121.5098798576461">
        <ele>7.782978134229779</ele>
        <time>2026-08-25T00:14:03Z</time>
      </trkpt>
      <trkpt lat="38.83797390802665" lon="121.50960361646726">
        <ele>10.48899904359132</ele>
        <time>2026-08-25T00:14:15Z</time>
      </trkpt>
      <trkpt lat="38.8380410876492" lon="121.50935995710608">
        <ele>10.560986039228737</ele>
        <time>2026-08-25T00:14:24Z</time>
      </trkpt>
      <trkpt lat="38.83809224603363" lon="121.5092897923303">
        <ele>11.168009744025767</ele>
        <time>2026-08-25T00:14:27Z</time>
      </trkpt>
      <trkpt lat="38.83827479690772" lon="121.50913412220736">
        <ele>11.53214855492115</ele>
        <time>2026-08-25T00:14:37Z</time>
      </trkpt>
      <trkpt lat="38.838288980046265" lon="121.50904907472963">
        <ele>11.56665354501456</ele>
        <time>2026-08-25T00:14:40Z</time>
      </trkpt>
      <trkpt lat="38.83818069050849" lon="121.50894026512368">
        <ele>11.602890619076788</ele>
        <time>2026-08-25T00:14:46Z</time>
      </trkpt>
      <trkpt lat="38.83798933354739" lon="121.50885553009562">
        <ele>11.468899071216583</ele>
        <time>2026-08-25T00:14:55Z</time>
      </trkpt>
      <trkpt lat="38.8377967684348" lon="121.50860525347578">
        <ele>11.830592101439834</ele>
        <time>2026-08-25T00:15:07Z</time>
      </trkpt>
      <trkpt lat="38.83775071447243" lon="121.5085399868477">
        <ele>10.892325046472251</ele>
        <time>2026-08-25T00:15:10Z</time>
      </trkpt>
      <trkpt lat="38.83768136052731" lon="121.50850554224591">
        <ele>10.985536268912256</ele>
        <time>2026-08-25T00:15:13Z</time>
      </trkpt>
      <trkpt lat="38.83760956578804" lon="121.50854502112486">
        <ele>11.490379790775478</ele>
        <time>2026-08-25T00:15:16Z</time>
      </trkpt>
      <trkpt lat="38.83752150189326" lon="121.50878380816859">
        <ele>10.027996841818094</ele>
        <time>2026-08-25T00:15:25Z</time>
      </trkpt>
      <trkpt lat="38.837516022652686" lon="121.5088817593613">
        <ele>10.405848351307213</ele>
        <time>2026-08-25T00:15:28Z</time>
      </trkpt>
      <trkpt lat="38.837345268709676" lon="121.50907184597834">
        <ele>12.02768613025546</ele>
        <time>2026-08-25T00:15:37Z</time>
      </trkpt>
      <trkpt lat="38.837287472264364" lon="121.50910976654284">
        <ele>11.69551994279027</ele>
        <time>2026-08-25T00:15:40Z</time>
      </trkpt>
      <trkpt lat="38.83714284706234" lon="121.50936624891344">
        <ele>10.86205254867673</ele>
        <time>2026-08-25T00:15:50Z</time>
      </trkpt>
      <trkpt lat="38.83711059368258" lon="121.50944969017553">
        <ele>9.845622115768492</ele>
        <time>2026-08-25T00:15:53Z</time>
      </trkpt>
      <trkpt lat="38.837061317552916" lon="121.50951818853088">
        <ele>10.088760193437338</ele>
        <time>2026-08-25T00:15:56Z</time>
      </trkpt>
      <trkpt lat="38.83698650323177" lon="121.50969895755755">
        <ele>10.693449103273451</ele>
        <time>2026-08-25T00:16:02Z</time>
      </trkpt>
      <trkpt lat="38.83687742758358" lon="121.50984364492633">
        <ele>10.00298029370606</ele>
        <time>2026-08-25T00:16:08Z</time>
      </trkpt>
      <trkpt lat="38.83679361682898" lon="121.50991874346046">
        <ele>10.19441646989435</ele>
        <time>2026-08-25T00:16:12Z</time>
      </trkpt>
      <trkpt lat="38.83672699075766" lon="121.50994576135871">
        <ele>10.46058142464608</ele>
        <time>2026-08-25T00:16:15Z</time>
      </trkpt>
      <trkpt lat="38.836436603936974" lon="121.50997032205524">
        <ele>8.843036911450326</ele>
        <time>2026-08-25T00:16:27Z</time>
      </trkpt>
      <trkpt lat="38.83615930462188" lon="121.51006742845834">
        <ele>7.594538424164057</ele>
        <time>2026-08-25T00:16:39Z</time>
      </trkpt>
      <trkpt lat="38.83610622150566" lon="121.51011919319677">
        <ele>6.691311453469098</ele>
        <time>2026-08-25T00:16:42Z</time>
      </trkpt>
      <trkpt lat="38.836115240668015" lon="121.51021659449236">
        <ele>6.751133162528276</ele>
        <time>2026-08-25T00:16:45Z</time>
      </trkpt>
      <trkpt lat="38.8362351718934" lon="121.51046062599852">
        <ele>7.608387378044426</ele>
        <time>2026-08-25T00:16:54Z</time>
      </trkpt>
      <trkpt lat="38.83625670068927" lon="121.51055279709512">
        <ele>7.700242210179567</ele>
        <time>2026-08-25T00:16:57Z</time>
      </trkpt>
      <trkpt lat="38.83625547676077" lon="121.51063238020691">
        <ele>8.110740977339447</ele>
        <time>2026-08-25T00:17:00Z</time>
      </trkpt>
      <trkpt lat="38.83615608534219" lon="121.51089700006351">
        <ele>7.624672902747989</ele>
        <time>2026-08-25T00:17:09Z</time>
      </trkpt>
      <trkpt lat="38.83602617573756" lon="121.51115977885404">
        <ele>7.52188734523952</ele>
        <time>2026-08-25T00:17:18Z</time>
      </trkpt>
      <trkpt lat="38.83597695030111" lon="121.51135142881903">
        <ele>7.694479322060943</ele>
        <time>2026-08-25T00:17:24Z</time>
      </trkpt>
      <trkpt lat="38.835968874224186" lon="121.51143847693419">
        <ele>7.7995862336829305</ele>
        <time>2026-08-25T00:17:27Z</time>
      </trkpt>
      <trkpt lat="38.83599510029759" lon="121.51162440478879">
        <ele>7.134656683541834</ele>
        <time>2026-08-25T00:17:33Z</time>
      </trkpt>
      <trkpt lat="38.83606217250164" lon="121.51179322196408">
        <ele>5.979721617884934</ele>
        <time>2026-08-25T00:17:39Z</time>
      </trkpt>
      <trkpt lat="38.83618436807712" lon="121.51191427585998">
        <ele>5.554997660219669</ele>
        <time>2026-08-25T00:17:45Z</time>
      </trkpt>
      <trkpt lat="38.83625692834426" lon="121.51194898328237">
        <ele>6.717538644559681</ele>
        <time>2026-08-25T00:17:48Z</time>
      </trkpt>
      <trkpt lat="38.83633215302438" lon="121.51195224877362">
        <ele>6.462275858968496</ele>
        <time>2026-08-25T00:17:51Z</time>
      </trkpt>
      <trkpt lat="38.8364282706754" lon="121.51192037378611">
        <ele>6.992478375323117</ele>
        <time>2026-08-25T00:17:55Z</time>
      </trkpt>
      <trkpt lat="38.83661969524617" lon="121.51179573699075">
        <ele>7.429436418227851</ele>
        <time>2026-08-25T00:18:04Z</time>
      </trkpt>
      <trkpt lat="38.83669067139133" lon="121.51176839184605">
        <ele>7.520380454137921</ele>
        <time>2026-08-25T00:18:07Z</time>
      </trkpt>
      <trkpt lat="38.83675875689555" lon="121.51183952553122">
        <ele>8.148942411877215</ele>
        <time>2026-08-25T00:18:10Z</time>
      </trkpt>
      <trkpt lat="38.83699325589603" lon="121.51154328379775">
        <ele>6.966482065618038</ele>
        <time>2026-08-25T00:18:22Z</time>
      </trkpt>
      <trkpt lat="38.837088499244544" lon="121.51136910275419">
        <ele>6.923243277706206</ele>
        <time>2026-08-25T00:18:28Z</time>
      </trkpt>
      <trkpt lat="38.83707846334277" lon="121.51126751776428">
        <ele>7.662681688554585</ele>
        <time>2026-08-25T00:18:31Z</time>
      </trkpt>
      <trkpt lat="38.83704022940931" lon="121.5111614011314">
        <ele>8.55346107762307</ele>
        <time>2026-08-25T00:18:34Z</time>
      </trkpt>
      <trkpt lat="38.83702503997161" lon="121.51105496739842">
        <ele>7.084799749776721</ele>
        <time>2026-08-25T00:18:37Z</time>
      </trkpt>
      <trkpt lat="38.837032897381185" lon="121.51097052938145">
        <ele>7.1652018669992685</ele>
        <time>2026-08-25T00:18:40Z</time>
      </trkpt>
      <trkpt lat="38.83712662359503" lon="121.51072003487032">
        <ele>8.834515173919499</ele>
        <time>2026-08-25T00:18:49Z</time>
      </trkpt>
      <trkpt lat="38.837320494518345" lon="121.51046087737113">
        <ele>9.722265551798046</ele>
        <time>2026-08-25T00:19:01Z</time>
      </trkpt>
      <trkpt lat="38.83753999010211" lon="121.51025246932872">
        <ele>9.936089648865163</ele>
        <time>2026-08-25T00:19:13Z</time>
      </trkpt>
      <trkpt lat="38.83759881238969" lon="121.51020916349702">
        <ele>10.60065068397671</ele>
        <time>2026-08-25T00:19:16Z</time>
      </trkpt>
      <trkpt lat="38.8377001204635" lon="121.5100933143959">
        <ele>10.44562557619065</ele>
        <time>2026-08-25T00:19:22Z</time>
      </trkpt>
      <trkpt lat="38.83773644719215" lon="121.50992961409176">
        <ele>10.07542192749679</ele>
        <time>2026-08-25T00:19:28Z</time>
      </trkpt>
      <trkpt lat="38.837853653227654" lon="121.5099176546271">
        <ele>9.473268484696746</ele>
        <time>2026-08-25T00:19:34Z</time>
      </trkpt>
      <trkpt lat="38.83792998853997" lon="121.5097914406969">
        <ele>10.289153222925961</ele>
        <time>2026-08-25T00:19:40Z</time>
      </trkpt>
      <trkpt lat="38.837964847527516" lon="121.50961831569653">
        <ele>11.50743153411895</ele>
        <time>2026-08-25T00:19:46Z</time>
      </trkpt>
      <trkpt lat="38.83796338118576" lon="121.50951591843175">
        <ele>11.413998644798994</ele>
        <time>2026-08-25T00:19:49Z</time>
      </trkpt>
      <trkpt lat="38.83801842293022" lon="121.50932601948142">
        <ele>11.714247552677989</ele>
        <time>2026-08-25T00:19:55Z</time>
      </trkpt>
      <trkpt lat="38.83822662098796" lon="121.50914956013496">
        <ele>11.667891309596598</ele>
        <time>2026-08-25T00:20:06Z</time>
      </trkpt>
      <trkpt lat="38.83829007701844" lon="121.50906200695694">
        <ele>11.773527150973678</ele>
        <time>2026-08-25T00:20:10Z</time>
      </trkpt>
      <trkpt lat="38.83819116266836" lon="121.50891742986158">
        <ele>13.168305987492204</ele>
        <time>2026-08-25T00:20:18Z</time>
      </trkpt>
      <trkpt lat="38.83805040893687" lon="121.50888133959737">
        <ele>12.189709655940533</ele>
        <time>2026-08-25T00:20:24Z</time>
      </trkpt>
      <trkpt lat="38.83792726442238" lon="121.50879111311833">
        <ele>11.79402654338628</ele>
        <time>2026-08-25T00:20:30Z</time>
      </trkpt>
      <trkpt lat="38.83781484842094" lon="121.50856972038797">
        <ele>11.146528330631554</ele>
        <time>2026-08-25T00:20:39Z</time>
      </trkpt>
      <trkpt lat="38.83774191469031" lon="121.50852083400738">
        <ele>11.50429109390825</ele>
        <time>2026-08-25T00:20:42Z</time>
      </trkpt>
      <trkpt lat="38.83766948879815" lon="121.50850248105041">
        <ele>11.245026800781488</ele>
        <time>2026-08-25T00:20:45Z</time>
      </trkpt>
      <trkpt lat="38.83760829909567" lon="121.50856801569421">
        <ele>11.988125427626073</ele>
        <time>2026-08-25T00:20:48Z</time>
      </trkpt>
      <trkpt lat="38.83748292153576" lon="121.50890666540131">
        <ele>11.996561227366328</ele>
        <time>2026-08-25T00:21:00Z</time>
      </trkpt>
      <trkpt lat="38.837251184502115" lon="121.50915071818018">
        <ele>11.370446786284447</ele>
        <time>2026-08-25T00:21:12Z</time>
      </trkpt>
      <trkpt lat="38.83708216598855" lon="121.50946197908382">
        <ele>10.91967302467674</ele>
        <time>2026-08-25T00:21:24Z</time>
      </trkpt>
      <trkpt lat="38.83702573833937" lon="121.50965302142515">
        <ele>11.053149555809796</ele>
        <time>2026-08-25T00:21:30Z</time>
      </trkpt>
      <trkpt lat="38.8368719534285" lon="121.50987871643078">
        <ele>9.676792453974485</ele>
        <time>2026-08-25T00:21:39Z</time>
      </trkpt>
      <trkpt lat="38.836814299733426" lon="121.50993168046966">
        <ele>9.45176235679537</ele>
        <time>2026-08-25T00:21:42Z</time>
      </trkpt>
      <trkpt lat="38.83654072657492" lon="121.50995823704905">
        <ele>8.420657402835786</ele>
        <time>2026-08-25T00:21:54Z</time>
      </trkpt>
      <trkpt lat="38.83648603869871" lon="121.51003833510232">
        <ele>8.894861453212798</ele>
        <time>2026-08-25T00:21:57Z</time>
      </trkpt>
      <trkpt lat="38.83647573616625" lon="121.51013293808536">
        <ele>9.08883882779628</ele>
        <time>2026-08-25T00:22:00Z</time>
      </trkpt>
      <trkpt lat="38.83648596550593" lon="121.51023688979855">
        <ele>9.20309313107282</ele>
        <time>2026-08-25T00:22:03Z</time>
      </trkpt>
      <trkpt lat="38.83652031309726" lon="121.51034895130223">
        <ele>9.474693368189037</ele>
        <time>2026-08-25T00:22:07Z</time>
      </trkpt>
      <trkpt lat="38.83659661895781" lon="121.51043212605327">
        <ele>9.107471246272326</ele>
        <time>2026-08-25T00:22:11Z</time>
      </trkpt>
      <trkpt lat="38.83677432540763" lon="121.51053907511516">
        <ele>8.94462359789759</ele>
        <time>2026-08-25T00:22:19Z</time>
      </trkpt>
      <trkpt lat="38.83695357367747" lon="121.51083387443478">
        <ele>8.09851901885122</ele>
        <time>2026-08-25T00:22:31Z</time>
      </trkpt>
      <trkpt lat="38.83703490845669" lon="121.51088185959043">
        <ele>8.206440073437989</ele>
        <time>2026-08-25T00:22:35Z</time>
      </trkpt>
      <trkpt lat="38.83715892182581" lon="121.51063936317851">
        <ele>8.719001786783338</ele>
        <time>2026-08-25T00:22:44Z</time>
      </trkpt>
      <trkpt lat="38.837250345041156" lon="121.51052536318143">
        <ele>9.31667583156377</ele>
        <time>2026-08-25T00:22:50Z</time>
      </trkpt>
      <trkpt lat="38.837250345041156" lon="121.51052536318143">
        <ele>9.31667583156377</ele>
        <time>2026-08-25T00:22:52Z</time>
      </trkpt>
    </trkseg>
  </trk>
</gpx>