<?xml version="1.0" encoding="UTF-8"?>
<gpx xmlns="http://www.topografix.com/GPX/1/1" xmlns:gpxtpx="http://www.garmin.com/xmlschemas/TrackPointExtension/v1" xmlns:xsi="http://www.w3.org/2001/XMLSchema-instance" xsi:schemaLocation="http://www.topografix.com/GPX/1/1 http://www.topografix.com/GPX/1/1/gpx.xsd" version="1.1" creator="gpx.py -- https://github.com/tkrajina/gpxpy">
  <trk>
    <name>gpx from keep</name>
    <type>Run</type>
    <trkseg>
      <trkpt lat="38.836780721169" lon="121.50474300706581">
        <ele>9.331029448042631</ele>
        <time>2025-08-14T15:59:55Z</time>
      </trkpt>
      <trkpt lat="38.836927859835946" lon="121.50453050319017">
        <ele>9.57452561189385</ele>
        <time>2025-08-14T16:00:03Z</time>
      </trkpt>
      <trkpt lat="38.836978757997564" lon="121.5043727893922">
        <ele>9.929393978789449</ele>
        <time>2025-08-14T16:00:11Z</time>
      </trkpt>
      <trkpt lat="38.83701305285608" lon="121.5043173449648">
        <ele>9.75529224332422</ele>
        <time>2025-08-14T16:00:15Z</time>
      </trkpt>
      <trkpt lat="38.83702449874438" lon="121.50424916615975">
        <ele>9.609684389084578</ele>
        <time>2025-08-14T16:00:19Z</time>
      </trkpt>
      <trkpt lat="38.837109797775696" lon="121.50421125183495">
        <ele>9.635874407365918</ele>
        <time>2025-08-14T16:00:27Z</time>
      </trkpt>
      <trkpt lat="38.83722582608017" lon="121.50420010814246">
        <ele>9.098325247876346</ele>
        <time>2025-08-14T16:00:35Z</time>
      </trkpt>
      <trkpt lat="38.837230356623266" lon="121.50429919894944">
        <ele>8.762714741751552</ele>
        <time>2025-08-14T16:00:43Z</time>
      </trkpt>
      <trkpt lat="38.83745475114248" lon="121.50446219761153">
        <ele>8.67732192762196</ele>
        <time>2025-08-14T16:01:15Z</time>
      </trkpt>
      <trkpt lat="38.837574824272814" lon="121.50461846700382">
        <ele>8.815092457458377</ele>
        <time>2025-08-14T16:01:31Z</time>
      </trkpt>
      <trkpt lat="38.83770616727124" lon="121.50474256063323">
        <ele>8.462578757666051</ele>
        <time>2025-08-14T16:01:43Z</time>
      </trkpt>
      <trkpt lat="38.8379401195449" lon="121.50498012163371">
        <ele>9.493841422721744</ele>
        <time>2025-08-14T16:01:56Z</time>
      </trkpt>
      <trkpt lat="38.83802331572692" lon="121.50508630724627">
        <ele>9.685521650128067</ele>
        <time>2025-08-14T16:02:02Z</time>
      </trkpt>
      <trkpt lat="38.838106857798195" lon="121.50515220216893">
        <ele>9.822296028956771</ele>
        <time>2025-08-14T16:02:06Z</time>
      </trkpt>
      <trkpt lat="38.8380495757965" lon="121.50522800586423">
        <ele>9.58493619505316</ele>
        <time>2025-08-14T16:02:10Z</time>
      </trkpt>
      <trkpt lat="38.83792045538174" lon="121.50530246942962">
        <ele>10.025007613003254</ele>
        <time>2025-08-14T16:02:18Z</time>
      </trkpt>
      <trkpt lat="38.837873898652546" lon="121.50534884562884">
        <ele>9.984239620156586</ele>
        <time>2025-08-14T16:02:22Z</time>
      </trkpt>
      <trkpt lat="38.83784016495481" lon="121.50545219296403">
        <ele>10.319869134575129</ele>
        <time>2025-08-14T16:02:30Z</time>
      </trkpt>
      <trkpt lat="38.83801189033667" lon="121.5055596324006">
        <ele>10.741717050783336</ele>
        <time>2025-08-14T16:02:54Z</time>
      </trkpt>
      <trkpt lat="38.83775855132681" lon="121.50567247244649">
        <ele>10.60338023211807</ele>
        <time>2025-08-14T16:03:10Z</time>
      </trkpt>
      <trkpt lat="38.83765279952858" lon="121.50585288826497">
        <ele>10.804785713553429</ele>
        <time>2025-08-14T16:03:18Z</time>
      </trkpt>
      <trkpt lat="38.8376113747205" lon="121.50597591430324">
        <ele>10.823548869229853</ele>
        <time>2025-08-14T16:03:26Z</time>
      </trkpt>
      <trkpt lat="38.83753615758713" lon="121.50599919398077">
        <ele>11.115858349949121</ele>
        <time>2025-08-14T16:03:29Z</time>
      </trkpt>
      <trkpt lat="38.837345962798004" lon="121.5062506050466">
        <ele>10.313047036528587</ele>
        <time>2025-08-14T16:03:39Z</time>
      </trkpt>
      <trkpt lat="38.83730267663568" lon="121.50633476474364">
        <ele>10.69410090520978</ele>
        <time>2025-08-14T16:03:42Z</time>
      </trkpt>
      <trkpt lat="38.83732141811053" lon="121.50641037883543">
        <ele>10.849780284799635</ele>
        <time>2025-08-14T16:03:45Z</time>
      </trkpt>
      <trkpt lat="38.837316047236754" lon="121.50648696752428">
        <ele>10.870668868534267</ele>
        <time>2025-08-14T16:03:48Z</time>
      </trkpt>
      <trkpt lat="38.8372916212526" lon="121.50656527556532">
        <ele>10.408811471424997</ele>
        <time>2025-08-14T16:03:51Z</time>
      </trkpt>
      <trkpt lat="38.83709847488586" lon="121.50671537643328">
        <ele>11.297825665213168</ele>
        <time>2025-08-14T16:04:01Z</time>
      </trkpt>
      <trkpt lat="38.83701333404723" lon="121.5069946232168">
        <ele>10.546725235879421</ele>
        <time>2025-08-14T16:04:14Z</time>
      </trkpt>
      <trkpt lat="38.83696192090156" lon="121.50707912858054">
        <ele>10.234294169582427</ele>
        <time>2025-08-14T16:04:18Z</time>
      </trkpt>
      <trkpt lat="38.83693965128023" lon="121.50716306003214">
        <ele>10.048402731306851</ele>
        <time>2025-08-14T16:04:21Z</time>
      </trkpt>
      <trkpt lat="38.836870613387305" lon="121.50720897678247">
        <ele>10.57784956600517</ele>
        <time>2025-08-14T16:04:25Z</time>
      </trkpt>
      <trkpt lat="38.836560070803316" lon="121.50711039953822">
        <ele>11.035084006376565</ele>
        <time>2025-08-14T16:04:37Z</time>
      </trkpt>
      <trkpt lat="38.83636216423635" lon="121.50703291198086">
        <ele>11.073795868083835</ele>
        <time>2025-08-14T16:04:45Z</time>
      </trkpt>
      <trkpt lat="38.8361703766235" lon="121.50690931436844">
        <ele>10.285098722204566</ele>
        <time>2025-08-14T16:04:53Z</time>
      </trkpt>
      <trkpt lat="38.8362134013254" lon="121.50651725754112">
        <ele>9.390019285492599</ele>
        <time>2025-08-14T16:05:05Z</time>
      </trkpt>
      <trkpt lat="38.83623789985004" lon="121.50639574288938">
        <ele>9.57833384629339</ele>
        <time>2025-08-14T16:05:09Z</time>
      </trkpt>
      <trkpt lat="38.83631433251914" lon="121.50616373224415">
        <ele>9.348041845485568</ele>
        <time>2025-08-14T16:05:17Z</time>
      </trkpt>
      <trkpt lat="38.836327754610686" lon="121.5060509574264">
        <ele>9.672258377075195</ele>
        <time>2025-08-14T16:05:21Z</time>
      </trkpt>
      <trkpt lat="38.83643328896685" lon="121.50568599638582">
        <ele>9.669579829089344</ele>
        <time>2025-08-14T16:05:37Z</time>
      </trkpt>
      <trkpt lat="38.83648123530165" lon="121.50549739906035">
        <ele>9.012647558003664</ele>
        <time>2025-08-14T16:05:44Z</time>
      </trkpt>
      <trkpt lat="38.83656483592746" lon="121.50528394443396">
        <ele>9.37252039834857</ele>
        <time>2025-08-14T16:05:52Z</time>
      </trkpt>
      <trkpt lat="38.83668054129918" lon="121.50514746818652">
        <ele>9.634351965971291</ele>
        <time>2025-08-14T16:06:08Z</time>
      </trkpt>
      <trkpt lat="38.83678918937078" lon="121.50479243668245">
        <ele>9.233207947574556</ele>
        <time>2025-08-14T16:06:22Z</time>
      </trkpt>
      <trkpt lat="38.83689442593732" lon="121.50445660453703">
        <ele>9.002780634909868</ele>
        <time>2025-08-14T16:06:34Z</time>
      </trkpt>
      <trkpt lat="38.83691610036958" lon="121.50434138549623">
        <ele>9.939722171984613</ele>
        <time>2025-08-14T16:06:38Z</time>
      </trkpt>
      <trkpt lat="38.83698127018831" lon="121.50426446622957">
        <ele>9.470637367106974</ele>
        <time>2025-08-14T16:06:42Z</time>
      </trkpt>
      <trkpt lat="38.83712108606905" lon="121.50432609190733">
        <ele>10.114429583773017</ele>
        <time>2025-08-14T16:06:50Z</time>
      </trkpt>
      <trkpt lat="38.83741147689943" lon="121.50454883747528">
        <ele>8.553817734122276</ele>
        <time>2025-08-14T16:07:06Z</time>
      </trkpt>
      <trkpt lat="38.83750719374984" lon="121.50461100949906">
        <ele>8.543677436187863</ele>
        <time>2025-08-14T16:07:14Z</time>
      </trkpt>
      <trkpt lat="38.83753778059352" lon="121.50466438257207">
        <ele>8.770320025272667</ele>
        <time>2025-08-14T16:07:18Z</time>
      </trkpt>
      <trkpt lat="38.837826951444285" lon="121.50487828397061">
        <ele>8.967398432083428</ele>
        <time>2025-08-14T16:07:34Z</time>
      </trkpt>
      <trkpt lat="38.837954318482026" lon="121.50500184954787">
        <ele>8.690793477930129</ele>
        <time>2025-08-14T16:07:42Z</time>
      </trkpt>
      <trkpt lat="38.83804985634795" lon="121.50514361157694">
        <ele>9.437650189734995</ele>
        <time>2025-08-14T16:07:50Z</time>
      </trkpt>
      <trkpt lat="38.83801062446075" lon="121.50521896432363">
        <ele>9.889025068841875</ele>
        <time>2025-08-14T16:07:54Z</time>
      </trkpt>
      <trkpt lat="38.837927856620645" lon="121.50523270280819">
        <ele>9.801675204187632</ele>
        <time>2025-08-14T16:07:58Z</time>
      </trkpt>
      <trkpt lat="38.83785138118721" lon="121.50530221031411">
        <ele>10.073789129033685</ele>
        <time>2025-08-14T16:08:02Z</time>
      </trkpt>
      <trkpt lat="38.837677735537085" lon="121.50559587951247">
        <ele>10.330082157626748</ele>
        <time>2025-08-14T16:08:14Z</time>
      </trkpt>
      <trkpt lat="38.837477808415116" lon="121.50594337084205">
        <ele>11.172567518427968</ele>
        <time>2025-08-14T16:08:29Z</time>
      </trkpt>
      <trkpt lat="38.83732824041715" lon="121.50622584609705">
        <ele>10.524647702462971</ele>
        <time>2025-08-14T16:08:41Z</time>
      </trkpt>
      <trkpt lat="38.83733104559551" lon="121.50633765352097">
        <ele>10.993030820041895</ele>
        <time>2025-08-14T16:08:45Z</time>
      </trkpt>
      <trkpt lat="38.83740109200491" lon="121.50638682998358">
        <ele>10.465698005631566</ele>
        <time>2025-08-14T16:08:49Z</time>
      </trkpt>
      <trkpt lat="38.83748143929437" lon="121.50632517318179">
        <ele>10.51643006503582</ele>
        <time>2025-08-14T16:08:53Z</time>
      </trkpt>
      <trkpt lat="38.83765682871364" lon="121.50599715998182">
        <ele>11.120068167336285</ele>
        <time>2025-08-14T16:09:05Z</time>
      </trkpt>
      <trkpt lat="38.83784784382681" lon="121.50562815206939">
        <ele>11.052379653789103</ele>
        <time>2025-08-14T16:09:21Z</time>
      </trkpt>
      <trkpt lat="38.83789813036137" lon="121.50541738248064">
        <ele>10.600828498601913</ele>
        <time>2025-08-14T16:09:29Z</time>
      </trkpt>
      <trkpt lat="38.83793791422191" lon="121.50532767409626">
        <ele>10.13218505308032</ele>
        <time>2025-08-14T16:09:33Z</time>
      </trkpt>
      <trkpt lat="38.83783893744343" lon="121.5051743293239">
        <ele>9.951461236923933</ele>
        <time>2025-08-14T16:09:41Z</time>
      </trkpt>
      <trkpt lat="38.83775220811048" lon="121.50519841003897">
        <ele>8.746869627386332</ele>
        <time>2025-08-14T16:09:45Z</time>
      </trkpt>
      <trkpt lat="38.837619915914516" lon="121.50560145069116">
        <ele>10.3450240874663</ele>
        <time>2025-08-14T16:09:57Z</time>
      </trkpt>
      <trkpt lat="38.837498049326534" lon="121.50593213906164">
        <ele>11.087605862878263</ele>
        <time>2025-08-14T16:10:09Z</time>
      </trkpt>
      <trkpt lat="38.837355575740446" lon="121.50624245719904">
        <ele>10.309205912984908</ele>
        <time>2025-08-14T16:10:21Z</time>
      </trkpt>
      <trkpt lat="38.837333921280745" lon="121.50634256072824">
        <ele>10.786057801917195</ele>
        <time>2025-08-14T16:10:25Z</time>
      </trkpt>
      <trkpt lat="38.83737502154934" lon="121.50639429257676">
        <ele>10.708892805501819</ele>
        <time>2025-08-14T16:10:28Z</time>
      </trkpt>
      <trkpt lat="38.83744324409817" lon="121.50634452573073">
        <ele>10.51703360490501</ele>
        <time>2025-08-14T16:10:32Z</time>
      </trkpt>
      <trkpt lat="38.83749938336865" lon="121.50627024062784">
        <ele>10.528134304098785</ele>
        <time>2025-08-14T16:10:36Z</time>
      </trkpt>
      <trkpt lat="38.83753927343418" lon="121.50617870469355">
        <ele>10.641871390864253</ele>
        <time>2025-08-14T16:10:40Z</time>
      </trkpt>
      <trkpt lat="38.83760528460295" lon="121.5060861532051">
        <ele>10.755655479617417</ele>
        <time>2025-08-14T16:10:44Z</time>
      </trkpt>
      <trkpt lat="38.83775615926947" lon="121.50575427069134">
        <ele>10.343033537268639</ele>
        <time>2025-08-14T16:10:56Z</time>
      </trkpt>
      <trkpt lat="38.8379049359162" lon="121.50533207066958">
        <ele>10.591340419836342</ele>
        <time>2025-08-14T16:11:12Z</time>
      </trkpt>
      <trkpt lat="38.837874825574325" lon="121.50525269398567">
        <ele>10.184996603988111</ele>
        <time>2025-08-14T16:11:16Z</time>
      </trkpt>
      <trkpt lat="38.83779394396623" lon="121.50526434421776">
        <ele>10.230931982398033</ele>
        <time>2025-08-14T16:11:20Z</time>
      </trkpt>
      <trkpt lat="38.83768659760386" lon="121.50548926183905">
        <ele>10.242366099730134</ele>
        <time>2025-08-14T16:11:28Z</time>
      </trkpt>
      <trkpt lat="38.83755490807993" lon="121.50583452546982">
        <ele>10.838888820260763</ele>
        <time>2025-08-14T16:11:41Z</time>
      </trkpt>
      <trkpt lat="38.837375616797814" lon="121.50606733085392">
        <ele>10.571491048671305</ele>
        <time>2025-08-14T16:11:53Z</time>
      </trkpt>
      <trkpt lat="38.83732916053387" lon="121.50615964230084">
        <ele>10.293425123207271</ele>
        <time>2025-08-14T16:11:57Z</time>
      </trkpt>
      <trkpt lat="38.83730463698527" lon="121.5062735610353">
        <ele>10.965599708259106</ele>
        <time>2025-08-14T16:12:01Z</time>
      </trkpt>
      <trkpt lat="38.83736210938878" lon="121.50636524336633">
        <ele>10.374191349372268</ele>
        <time>2025-08-14T16:12:05Z</time>
      </trkpt>
      <trkpt lat="38.83743291718982" lon="121.50630676863119">
        <ele>11.174577067606151</ele>
        <time>2025-08-14T16:12:09Z</time>
      </trkpt>
      <trkpt lat="38.837605102265336" lon="121.50599317709091">
        <ele>10.969111266545951</ele>
        <time>2025-08-14T16:12:21Z</time>
      </trkpt>
      <trkpt lat="38.83775738921741" lon="121.50568131609212">
        <ele>11.320690536871552</ele>
        <time>2025-08-14T16:12:33Z</time>
      </trkpt>
      <trkpt lat="38.83786672352795" lon="121.50539258051884">
        <ele>10.400015599094331</ele>
        <time>2025-08-14T16:12:44Z</time>
      </trkpt>
      <trkpt lat="38.83792016026851" lon="121.5052891055177">
        <ele>9.449619959108531</ele>
        <time>2025-08-14T16:12:48Z</time>
      </trkpt>
      <trkpt lat="38.83797342746895" lon="121.50508344338053">
        <ele>9.422036451287568</ele>
        <time>2025-08-14T16:12:56Z</time>
      </trkpt>
      <trkpt lat="38.83797342746895" lon="121.50508344338053">
        <ele>9.422036451287568</ele>
        <time>2025-08-14T16:12:59Z</time>
      </trkpt>
    </trkseg>
  </trk>
</gpx>