<?xml version="1.0" encoding="UTF-8"?>
<gpx xmlns="http://www.topografix.com/GPX/1/1" xmlns:gpxtpx="http://www.garmin.com/xmlschemas/TrackPointExtension/v1" xmlns:xsi="http://www.w3.org/2001/XMLSchema-instance" xsi:schemaLocation="http://www.topografix.com/GPX/1/1 http://www.topografix.com/GPX/1/1/gpx.xsd" version="1.1" creator="gpx.py -- https://github.com/tkrajina/gpxpy">
  <trk>
    <name>gpx from keep</name>
    <type>Run</type>
    <trkseg>
      <trkpt lat="38.8331394424869" lon="121.507644966186">
        <ele>4.612159653971609</ele>
        <time>2026-03-09T00:54:01Z</time>
      </trkpt>
      <trkpt lat="38.83320692567825" lon="121.50753558585424">
        <ele>4.872594186104834</ele>
        <time>2026-03-09T00:54:13Z</time>
      </trkpt>
      <trkpt lat="38.833232157562406" lon="121.50744962888422">
        <ele>4.343102452345192</ele>
        <time>2026-03-09T00:54:19Z</time>
      </trkpt>
      <trkpt lat="38.8332398397335" lon="121.50732238830145">
        <ele>3.878683409653604</ele>
        <time>2026-03-09T00:54:25Z</time>
      </trkpt>
      <trkpt lat="38.83317809274312" lon="121.50705921773513">
        <ele>4.3761369017884135</ele>
        <time>2026-03-09T00:54:37Z</time>
      </trkpt>
      <trkpt lat="38.83310637722967" lon="121.50692856591816">
        <ele>5.228840214200318</ele>
        <time>2026-03-09T00:54:43Z</time>
      </trkpt>
      <trkpt lat="38.83293789466972" lon="121.5067111559312">
        <ele>3.8758601834997535</ele>
        <time>2026-03-09T00:54:55Z</time>
      </trkpt>
      <trkpt lat="38.8327055499779" lon="121.50655189633324">
        <ele>4.779345540329814</ele>
        <time>2026-03-09T00:55:10Z</time>
      </trkpt>
      <trkpt lat="38.83242149309307" lon="121.50650735402223">
        <ele>5.286758873611689</ele>
        <time>2026-03-09T00:55:28Z</time>
      </trkpt>
      <trkpt lat="38.832323901205754" lon="121.50647816028787">
        <ele>4.199754527769983</ele>
        <time>2026-03-09T00:55:34Z</time>
      </trkpt>
      <trkpt lat="38.83228743956447" lon="121.50642260806174">
        <ele>3.584198020398617</ele>
        <time>2026-03-09T00:55:37Z</time>
      </trkpt>
      <trkpt lat="38.83205964255009" lon="121.50616510831887">
        <ele>4.896140092983842</ele>
        <time>2026-03-09T00:55:52Z</time>
      </trkpt>
      <trkpt lat="38.831949794481886" lon="121.5057831797504">
        <ele>3.212864371947944</ele>
        <time>2026-03-09T00:56:08Z</time>
      </trkpt>
      <trkpt lat="38.831794693602404" lon="121.50553685696153">
        <ele>5.118629882112145</ele>
        <time>2026-03-09T00:56:20Z</time>
      </trkpt>
      <trkpt lat="38.83174167980901" lon="121.50549922752109">
        <ele>4.86444028839469</ele>
        <time>2026-03-09T00:56:23Z</time>
      </trkpt>
      <trkpt lat="38.831693978311506" lon="121.50543313285387">
        <ele>4.345723357051611</ele>
        <time>2026-03-09T00:56:26Z</time>
      </trkpt>
      <trkpt lat="38.83157771676856" lon="121.50536683344025">
        <ele>4.330171685665846</ele>
        <time>2026-03-09T00:56:32Z</time>
      </trkpt>
      <trkpt lat="38.83134475091828" lon="121.50531065708259">
        <ele>2.821474190801382</ele>
        <time>2026-03-09T00:56:44Z</time>
      </trkpt>
      <trkpt lat="38.83100550211222" lon="121.50528126669722">
        <ele>4.976422348991036</ele>
        <time>2026-03-09T00:56:59Z</time>
      </trkpt>
      <trkpt lat="38.83075365462332" lon="121.50522923421802">
        <ele>4.78024288918823</ele>
        <time>2026-03-09T00:57:11Z</time>
      </trkpt>
      <trkpt lat="38.830657174716194" lon="121.50510952142605">
        <ele>3.9815052999183536</ele>
        <time>2026-03-09T00:57:18Z</time>
      </trkpt>
      <trkpt lat="38.830429393965474" lon="121.50494940843824">
        <ele>3.5556895323097706</ele>
        <time>2026-03-09T00:57:30Z</time>
      </trkpt>
      <trkpt lat="38.83038706179973" lon="121.50489915813318">
        <ele>3.758764412254095</ele>
        <time>2026-03-09T00:57:33Z</time>
      </trkpt>
      <trkpt lat="38.83013375295182" lon="121.50481403695939">
        <ele>3.7069293884560466</ele>
        <time>2026-03-09T00:57:45Z</time>
      </trkpt>
      <trkpt lat="38.82996609491684" lon="121.5046853235684">
        <ele>4.548968473449349</ele>
        <time>2026-03-09T00:57:54Z</time>
      </trkpt>
      <trkpt lat="38.82974679370813" lon="121.50439948139187">
        <ele>3.697330981492996</ele>
        <time>2026-03-09T00:58:09Z</time>
      </trkpt>
      <trkpt lat="38.82951900067492" lon="121.50418706676496">
        <ele>4.703100938349962</ele>
        <time>2026-03-09T00:58:21Z</time>
      </trkpt>
      <trkpt lat="38.82936498062559" lon="121.5041046333519">
        <ele>4.700360644608736</ele>
        <time>2026-03-09T00:58:28Z</time>
      </trkpt>
      <trkpt lat="38.82929772763781" lon="121.50410566955516">
        <ele>5.425342288799584</ele>
        <time>2026-03-09T00:58:31Z</time>
      </trkpt>
      <trkpt lat="38.82918964710909" lon="121.5040379146393">
        <ele>3.8386205220595</ele>
        <time>2026-03-09T00:58:37Z</time>
      </trkpt>
      <trkpt lat="38.829107822769764" lon="121.50403488138086">
        <ele>4.942511445842683</ele>
        <time>2026-03-09T00:58:40Z</time>
      </trkpt>
      <trkpt lat="38.828970339221556" lon="121.50407846987208">
        <ele>4.1453791707754135</ele>
        <time>2026-03-09T00:58:46Z</time>
      </trkpt>
      <trkpt lat="38.828898058479325" lon="121.50407190250266">
        <ele>4.140057632699609</ele>
        <time>2026-03-09T00:58:49Z</time>
      </trkpt>
      <trkpt lat="38.82884348826894" lon="121.504020012247">
        <ele>3.934024941176176</ele>
        <time>2026-03-09T00:58:52Z</time>
      </trkpt>
      <trkpt lat="38.82857747987975" lon="121.50410147161489">
        <ele>2.713161274790764</ele>
        <time>2026-03-09T00:59:04Z</time>
      </trkpt>
      <trkpt lat="38.82838613175829" lon="121.50409401635937">
        <ele>2.1437236508354545</ele>
        <time>2026-03-09T00:59:13Z</time>
      </trkpt>
      <trkpt lat="38.82825106835495" lon="121.50406039843563">
        <ele>3.895026574842632</ele>
        <time>2026-03-09T00:59:19Z</time>
      </trkpt>
      <trkpt lat="38.82812708387198" lon="121.50397280115618">
        <ele>4.269838383421302</ele>
        <time>2026-03-09T00:59:25Z</time>
      </trkpt>
      <trkpt lat="38.827947467457655" lon="121.50371782429558">
        <ele>2.7621688321232796</ele>
        <time>2026-03-09T00:59:37Z</time>
      </trkpt>
      <trkpt lat="38.82789519276859" lon="121.50357721851245">
        <ele>3.051302455365658</ele>
        <time>2026-03-09T00:59:43Z</time>
      </trkpt>
      <trkpt lat="38.827901552252136" lon="121.50347734348536">
        <ele>4.275363883934915</ele>
        <time>2026-03-09T00:59:46Z</time>
      </trkpt>
      <trkpt lat="38.827860556006996" lon="121.50331978593304">
        <ele>3.868872243911028</ele>
        <time>2026-03-09T00:59:52Z</time>
      </trkpt>
      <trkpt lat="38.82763482746635" lon="121.50309811636176">
        <ele>3.8954412015154958</ele>
        <time>2026-03-09T01:00:04Z</time>
      </trkpt>
      <trkpt lat="38.82750491878798" lon="121.50302110582984">
        <ele>2.845711284317076</ele>
        <time>2026-03-09T01:00:10Z</time>
      </trkpt>
      <trkpt lat="38.82733744823008" lon="121.50300030786065">
        <ele>4.2241517240181565</ele>
        <time>2026-03-09T01:00:17Z</time>
      </trkpt>
      <trkpt lat="38.82713752711027" lon="121.50304382464584">
        <ele>4.270708791911602</ele>
        <time>2026-03-09T01:00:25Z</time>
      </trkpt>
      <trkpt lat="38.82690457033032" lon="121.50327849753842">
        <ele>4.17441897187382</ele>
        <time>2026-03-09T01:00:38Z</time>
      </trkpt>
      <trkpt lat="38.82670309814125" lon="121.50350190695846">
        <ele>3.390073075890541</ele>
        <time>2026-03-09T01:00:50Z</time>
      </trkpt>
      <trkpt lat="38.82665588229461" lon="121.50358240224975">
        <ele>4.573159845545888</ele>
        <time>2026-03-09T01:00:53Z</time>
      </trkpt>
      <trkpt lat="38.82659277169598" lon="121.50383797517469">
        <ele>4.633333284407854</ele>
        <time>2026-03-09T01:01:02Z</time>
      </trkpt>
      <trkpt lat="38.826589453517144" lon="121.50419403949036">
        <ele>4.656094674021006</ele>
        <time>2026-03-09T01:01:14Z</time>
      </trkpt>
      <trkpt lat="38.82656788045068" lon="121.5044370711566">
        <ele>3.7099797995761037</ele>
        <time>2026-03-09T01:01:23Z</time>
      </trkpt>
      <trkpt lat="38.82643908752021" lon="121.50474662412597">
        <ele>3.774727562442422</ele>
        <time>2026-03-09T01:01:35Z</time>
      </trkpt>
      <trkpt lat="38.82634315304132" lon="121.5048924425643">
        <ele>3.795489637181163</ele>
        <time>2026-03-09T01:01:41Z</time>
      </trkpt>
      <trkpt lat="38.8262381677455" lon="121.50496056683073">
        <ele>3.197532620280981</ele>
        <time>2026-03-09T01:01:47Z</time>
      </trkpt>
      <trkpt lat="38.826197929154844" lon="121.50489397811354">
        <ele>4.695253447629511</ele>
        <time>2026-03-09T01:01:50Z</time>
      </trkpt>
      <trkpt lat="38.82633540769826" lon="121.50483926572208">
        <ele>4.246691283769906</ele>
        <time>2026-03-09T01:01:56Z</time>
      </trkpt>
      <trkpt lat="38.826391336181274" lon="121.50483620819541">
        <ele>3.026167606934905</ele>
        <time>2026-03-09T01:01:59Z</time>
      </trkpt>
      <trkpt lat="38.826527768375776" lon="121.50451341551165">
        <ele>3.35168868675828</ele>
        <time>2026-03-09T01:02:11Z</time>
      </trkpt>
      <trkpt lat="38.826571025036216" lon="121.50444227232865">
        <ele>3.4351227013394237</ele>
        <time>2026-03-09T01:02:14Z</time>
      </trkpt>
      <trkpt lat="38.826597541845636" lon="121.5043594451247">
        <ele>3.0533354859799147</ele>
        <time>2026-03-09T01:02:17Z</time>
      </trkpt>
      <trkpt lat="38.8266046919335" lon="121.50414671506144">
        <ele>3.4117557192221284</ele>
        <time>2026-03-09T01:02:24Z</time>
      </trkpt>
      <trkpt lat="38.82658818428105" lon="121.50394701660302">
        <ele>4.2332064332440495</ele>
        <time>2026-03-09T01:02:30Z</time>
      </trkpt>
      <trkpt lat="38.8266217909771" lon="121.50375938471136">
        <ele>4.633196751587093</ele>
        <time>2026-03-09T01:02:36Z</time>
      </trkpt>
      <trkpt lat="38.82672997641012" lon="121.50352115281854">
        <ele>3.5234296889975667</ele>
        <time>2026-03-09T01:02:45Z</time>
      </trkpt>
      <trkpt lat="38.82693275182972" lon="121.50326366203193">
        <ele>3.949012789875269</ele>
        <time>2026-03-09T01:02:57Z</time>
      </trkpt>
      <trkpt lat="38.826989349985595" lon="121.50321914819308">
        <ele>5.1220316253602505</ele>
        <time>2026-03-09T01:03:00Z</time>
      </trkpt>
      <trkpt lat="38.82703296597263" lon="121.50314703969586">
        <ele>4.919947289861739</ele>
        <time>2026-03-09T01:03:03Z</time>
      </trkpt>
      <trkpt lat="38.827216424051436" lon="121.50301547336015">
        <ele>4.514847284182906</ele>
        <time>2026-03-09T01:03:12Z</time>
      </trkpt>
      <trkpt lat="38.82728201240477" lon="121.50299483036146">
        <ele>4.647315048612654</ele>
        <time>2026-03-09T01:03:15Z</time>
      </trkpt>
      <trkpt lat="38.827356168677156" lon="121.50299676356414">
        <ele>4.052681458182633</ele>
        <time>2026-03-09T01:03:18Z</time>
      </trkpt>
      <trkpt lat="38.82741836799354" lon="121.5030310683425">
        <ele>4.3484883308410645</ele>
        <time>2026-03-09T01:03:21Z</time>
      </trkpt>
      <trkpt lat="38.82755592509303" lon="121.50307248999071">
        <ele>3.93744611274451</ele>
        <time>2026-03-09T01:03:27Z</time>
      </trkpt>
      <trkpt lat="38.82762271716159" lon="121.50311633818521">
        <ele>3.873300999403</ele>
        <time>2026-03-09T01:03:30Z</time>
      </trkpt>
      <trkpt lat="38.8276640407745" lon="121.50320574681471">
        <ele>3.2652663718909025</ele>
        <time>2026-03-09T01:03:33Z</time>
      </trkpt>
      <trkpt lat="38.82773561139471" lon="121.50323954410678">
        <ele>3.82055358402431</ele>
        <time>2026-03-09T01:03:36Z</time>
      </trkpt>
      <trkpt lat="38.82779994145163" lon="121.50324119983503">
        <ele>3.4756057364866138</ele>
        <time>2026-03-09T01:03:39Z</time>
      </trkpt>
      <trkpt lat="38.82788042555649" lon="121.50342249645263">
        <ele>3.9329797737300396</ele>
        <time>2026-03-09T01:03:45Z</time>
      </trkpt>
      <trkpt lat="38.82792950481964" lon="121.5036756232481">
        <ele>4.055096685886383</ele>
        <time>2026-03-09T01:03:54Z</time>
      </trkpt>
      <trkpt lat="38.828053453699496" lon="121.50391285116166">
        <ele>3.49196202121675</ele>
        <time>2026-03-09T01:04:03Z</time>
      </trkpt>
      <trkpt lat="38.828259860627696" lon="121.50406416015645">
        <ele>4.159855220466852</ele>
        <time>2026-03-09T01:04:12Z</time>
      </trkpt>
      <trkpt lat="38.828423654842666" lon="121.50410115318321">
        <ele>4.726921425200999</ele>
        <time>2026-03-09T01:04:18Z</time>
      </trkpt>
      <trkpt lat="38.828766390820014" lon="121.50404511230175">
        <ele>4.954505369998515</ele>
        <time>2026-03-09T01:04:31Z</time>
      </trkpt>
      <trkpt lat="38.82884866921551" lon="121.50404301891456">
        <ele>4.477103582583368</ele>
        <time>2026-03-09T01:04:34Z</time>
      </trkpt>
      <trkpt lat="38.8289115464513" lon="121.50408577818192">
        <ele>4.147828982211649</ele>
        <time>2026-03-09T01:04:37Z</time>
      </trkpt>
      <trkpt lat="38.82907837157887" lon="121.50403077152613">
        <ele>3.759375018067658</ele>
        <time>2026-03-09T01:04:43Z</time>
      </trkpt>
      <trkpt lat="38.829377300412425" lon="121.50413810443098">
        <ele>4.118689272552729</ele>
        <time>2026-03-09T01:04:55Z</time>
      </trkpt>
      <trkpt lat="38.829582886870845" lon="121.50423808252035">
        <ele>4.319935992360115</ele>
        <time>2026-03-09T01:05:04Z</time>
      </trkpt>
      <trkpt lat="38.82980520527177" lon="121.50448769223111">
        <ele>4.265910397283733</ele>
        <time>2026-03-09T01:05:16Z</time>
      </trkpt>
      <trkpt lat="38.82990732225062" lon="121.50463774856244">
        <ele>4.262748901732266</ele>
        <time>2026-03-09T01:05:22Z</time>
      </trkpt>
      <trkpt lat="38.830103535963175" lon="121.50479621388911">
        <ele>3.742823732085526</ele>
        <time>2026-03-09T01:05:31Z</time>
      </trkpt>
      <trkpt lat="38.83039135035122" lon="121.50492791381058">
        <ele>4.237529252655804</ele>
        <time>2026-03-09T01:05:43Z</time>
      </trkpt>
      <trkpt lat="38.83065261010858" lon="121.50513716689947">
        <ele>4.616824807599187</ele>
        <time>2026-03-09T01:05:55Z</time>
      </trkpt>
      <trkpt lat="38.83071280017935" lon="121.50517458110812">
        <ele>4.323697063140571</ele>
        <time>2026-03-09T01:05:58Z</time>
      </trkpt>
      <trkpt lat="38.83076217919512" lon="121.50525649807636">
        <ele>4.38561215531081</ele>
        <time>2026-03-09T01:06:01Z</time>
      </trkpt>
      <trkpt lat="38.83081719122695" lon="121.50530821199271">
        <ele>3.9516668803989887</ele>
        <time>2026-03-09T01:06:04Z</time>
      </trkpt>
      <trkpt lat="38.830966182691064" lon="121.50533627209164">
        <ele>3.1629555402323604</ele>
        <time>2026-03-09T01:06:10Z</time>
      </trkpt>
      <trkpt lat="38.83126502602556" lon="121.50532027586911">
        <ele>4.179875971749425</ele>
        <time>2026-03-09T01:06:22Z</time>
      </trkpt>
      <trkpt lat="38.83148959044332" lon="121.50536347281877">
        <ele>4.13584200385958</ele>
        <time>2026-03-09T01:06:31Z</time>
      </trkpt>
      <trkpt lat="38.831720815535164" lon="121.50550003703336">
        <ele>4.628773281350732</ele>
        <time>2026-03-09T01:06:41Z</time>
      </trkpt>
      <trkpt lat="38.83187585873194" lon="121.50569045907395">
        <ele>4.651854467578232</ele>
        <time>2026-03-09T01:06:50Z</time>
      </trkpt>
      <trkpt lat="38.832017357354275" lon="121.50603255391741">
        <ele>4.151534994132817</ele>
        <time>2026-03-09T01:07:02Z</time>
      </trkpt>
      <trkpt lat="38.832042204971636" lon="121.5061226325211">
        <ele>3.166253066621721</ele>
        <time>2026-03-09T01:07:05Z</time>
      </trkpt>
      <trkpt lat="38.83219021991381" lon="121.5063543030262">
        <ele>3.325104563497007</ele>
        <time>2026-03-09T01:07:14Z</time>
      </trkpt>
      <trkpt lat="38.83230818720023" lon="121.5064712386306">
        <ele>3.5902065690606833</ele>
        <time>2026-03-09T01:07:20Z</time>
      </trkpt>
      <trkpt lat="38.83244462384905" lon="121.50652470349976">
        <ele>3.3142767753452063</ele>
        <time>2026-03-09T01:07:26Z</time>
      </trkpt>
      <trkpt lat="38.83268055278508" lon="121.50653380627365">
        <ele>3.8640280487015843</ele>
        <time>2026-03-09T01:07:35Z</time>
      </trkpt>
      <trkpt lat="38.832746907397365" lon="121.50658548384102">
        <ele>3.9555060882121325</ele>
        <time>2026-03-09T01:07:38Z</time>
      </trkpt>
      <trkpt lat="38.83281639917496" lon="121.50659911323875">
        <ele>3.4845763333141804</ele>
        <time>2026-03-09T01:07:41Z</time>
      </trkpt>
      <trkpt lat="38.83305142907618" lon="121.50687072352932">
        <ele>4.10396742541343</ele>
        <time>2026-03-09T01:07:53Z</time>
      </trkpt>
      <trkpt lat="38.83319834792654" lon="121.50707164672896">
        <ele>5.530064709484577</ele>
        <time>2026-03-09T01:08:02Z</time>
      </trkpt>
      <trkpt lat="38.833240224019" lon="121.50725296134611">
        <ele>5.11509037297219</ele>
        <time>2026-03-09T01:08:08Z</time>
      </trkpt>
      <trkpt lat="38.83325725961839" lon="121.50740005511985">
        <ele>4.897040684707463</ele>
        <time>2026-03-09T01:08:17Z</time>
      </trkpt>
      <trkpt lat="38.8332332531562" lon="121.50743095016303">
        <ele>6.5553995640948415</ele>
        <time>2026-03-09T01:08:20Z</time>
      </trkpt>
    </trkseg>
  </trk>
</gpx>