<?xml version="1.0" encoding="UTF-8"?>
<gpx xmlns="http://www.topografix.com/GPX/1/1" xmlns:gpxtpx="http://www.garmin.com/xmlschemas/TrackPointExtension/v1" xmlns:xsi="http://www.w3.org/2001/XMLSchema-instance" xsi:schemaLocation="http://www.topografix.com/GPX/1/1 http://www.topografix.com/GPX/1/1/gpx.xsd" version="1.1" creator="gpx.py -- https://github.com/tkrajina/gpxpy">
  <trk>
    <name>gpx from keep</name>
    <type>Run</type>
    <trkseg>
      <trkpt lat="38.833216152114574" lon="121.50722632008124">
        <ele>5.335564549197175</ele>
        <time>2025-06-28T01:50:36Z</time>
      </trkpt>
      <trkpt lat="38.833178319401924" lon="121.50706512466252">
        <ele>4.303817539475858</ele>
        <time>2025-06-28T01:50:44Z</time>
      </trkpt>
      <trkpt lat="38.833035195714764" lon="121.50681494564793">
        <ele>3.6662720628082752</ele>
        <time>2025-06-28T01:50:54Z</time>
      </trkpt>
      <trkpt lat="38.83297978928455" lon="121.50676656959058">
        <ele>3.5642115036025643</ele>
        <time>2025-06-28T01:50:57Z</time>
      </trkpt>
      <trkpt lat="38.83292055124793" lon="121.50667171506603">
        <ele>4.909794169478118</ele>
        <time>2025-06-28T01:51:00Z</time>
      </trkpt>
      <trkpt lat="38.83267282551752" lon="121.50652778173276">
        <ele>4.806144495494664</ele>
        <time>2025-06-28T01:51:12Z</time>
      </trkpt>
      <trkpt lat="38.83241059833847" lon="121.50645750682929">
        <ele>4.1392498798668385</ele>
        <time>2025-06-28T01:51:24Z</time>
      </trkpt>
      <trkpt lat="38.832342013450365" lon="121.50641906997585">
        <ele>5.362584141083062</ele>
        <time>2025-06-28T01:51:27Z</time>
      </trkpt>
      <trkpt lat="38.83223070870792" lon="121.50640567680678">
        <ele>3.5337202325463295</ele>
        <time>2025-06-28T01:51:33Z</time>
      </trkpt>
      <trkpt lat="38.83211733355486" lon="121.50628796932689">
        <ele>3.7517287665978074</ele>
        <time>2025-06-28T01:51:39Z</time>
      </trkpt>
      <trkpt lat="38.83208512019366" lon="121.50621714043878">
        <ele>4.288259530439973</ele>
        <time>2025-06-28T01:51:42Z</time>
      </trkpt>
      <trkpt lat="38.832087772934" lon="121.50613633306199">
        <ele>4.571104904636741</ele>
        <time>2025-06-28T01:51:45Z</time>
      </trkpt>
      <trkpt lat="38.832032523742285" lon="121.50606753689478">
        <ele>5.153378821909428</ele>
        <time>2025-06-28T01:51:48Z</time>
      </trkpt>
      <trkpt lat="38.83202068408039" lon="121.50600713543096">
        <ele>4.464099516160786</ele>
        <time>2025-06-28T01:51:51Z</time>
      </trkpt>
      <trkpt lat="38.831986345442466" lon="121.50596528805013">
        <ele>3.3225511321797967</ele>
        <time>2025-06-28T01:52:21Z</time>
      </trkpt>
      <trkpt lat="38.83200617806887" lon="121.5058888683423">
        <ele>3.9451660215854645</ele>
        <time>2025-06-28T01:52:27Z</time>
      </trkpt>
      <trkpt lat="38.83191257072945" lon="121.50582323314084">
        <ele>5.097448609769344</ele>
        <time>2025-06-28T01:52:30Z</time>
      </trkpt>
      <trkpt lat="38.83188527645416" lon="121.50573529478643">
        <ele>5.787545911036432</ele>
        <time>2025-06-28T01:52:33Z</time>
      </trkpt>
      <trkpt lat="38.83177883191686" lon="121.50557333895067">
        <ele>5.152271490544081</ele>
        <time>2025-06-28T01:52:40Z</time>
      </trkpt>
      <trkpt lat="38.831719461130916" lon="121.50552567431892">
        <ele>5.243290157057345</ele>
        <time>2025-06-28T01:52:43Z</time>
      </trkpt>
      <trkpt lat="38.831669882552" lon="121.50545335538925">
        <ele>3.6248737946152687</ele>
        <time>2025-06-28T01:52:46Z</time>
      </trkpt>
      <trkpt lat="38.83153749864658" lon="121.50539122718028">
        <ele>4.082747426815331</ele>
        <time>2025-06-28T01:52:52Z</time>
      </trkpt>
      <trkpt lat="38.831488913578156" lon="121.50533215969669">
        <ele>4.820359783247113</ele>
        <time>2025-06-28T01:52:55Z</time>
      </trkpt>
      <trkpt lat="38.831402603963184" lon="121.50528070131931">
        <ele>5.041847037151456</ele>
        <time>2025-06-28T01:52:58Z</time>
      </trkpt>
      <trkpt lat="38.83119863239381" lon="121.50525641295012">
        <ele>5.63839652761817</ele>
        <time>2025-06-28T01:53:07Z</time>
      </trkpt>
      <trkpt lat="38.83113149351626" lon="121.50528332961171">
        <ele>5.812550310045481</ele>
        <time>2025-06-28T01:53:10Z</time>
      </trkpt>
      <trkpt lat="38.83105600899419" lon="121.50527363281002">
        <ele>6.122118270024657</ele>
        <time>2025-06-28T01:53:13Z</time>
      </trkpt>
      <trkpt lat="38.830990277607" lon="121.50523477293606">
        <ele>6.128478585742414</ele>
        <time>2025-06-28T01:53:16Z</time>
      </trkpt>
      <trkpt lat="38.830916621608054" lon="121.50522374733706">
        <ele>4.226949667558074</ele>
        <time>2025-06-28T01:53:19Z</time>
      </trkpt>
      <trkpt lat="38.83065747827786" lon="121.50508771889868">
        <ele>6.47646607644856</ele>
        <time>2025-06-28T01:53:31Z</time>
      </trkpt>
      <trkpt lat="38.8306031738653" lon="121.5050469956571">
        <ele>5.719694586470723</ele>
        <time>2025-06-28T01:53:34Z</time>
      </trkpt>
      <trkpt lat="38.8305612403746" lon="121.50497486457417">
        <ele>6.631012277677655</ele>
        <time>2025-06-28T01:53:37Z</time>
      </trkpt>
      <trkpt lat="38.83041937848012" lon="121.504922961673">
        <ele>6.698946392163634</ele>
        <time>2025-06-28T01:53:43Z</time>
      </trkpt>
      <trkpt lat="38.830158755946925" lon="121.50478071599203">
        <ele>4.960760867223144</ele>
        <time>2025-06-28T01:53:55Z</time>
      </trkpt>
      <trkpt lat="38.82995261225472" lon="121.50464674591737">
        <ele>5.117057074792683</ele>
        <time>2025-06-28T01:54:04Z</time>
      </trkpt>
      <trkpt lat="38.82990560336754" lon="121.50458703402698">
        <ele>4.922783501446247</ele>
        <time>2025-06-28T01:54:07Z</time>
      </trkpt>
      <trkpt lat="38.829831352072496" lon="121.50456529577733">
        <ele>4.484219123609364</ele>
        <time>2025-06-28T01:54:10Z</time>
      </trkpt>
      <trkpt lat="38.82978750108834" lon="121.50447655631183">
        <ele>4.695765977725387</ele>
        <time>2025-06-28T01:54:13Z</time>
      </trkpt>
      <trkpt lat="38.82953985045063" lon="121.50425341757688">
        <ele>5.149140752851963</ele>
        <time>2025-06-28T01:54:25Z</time>
      </trkpt>
      <trkpt lat="38.82928526502786" lon="121.50410825584053">
        <ele>5.507584136910737</ele>
        <time>2025-06-28T01:54:37Z</time>
      </trkpt>
      <trkpt lat="38.82922349548188" lon="121.50407500362203">
        <ele>6.097805632278323</ele>
        <time>2025-06-28T01:54:40Z</time>
      </trkpt>
      <trkpt lat="38.829033176621365" lon="121.50404329052404">
        <ele>4.295574577525258</ele>
        <time>2025-06-28T01:54:48Z</time>
      </trkpt>
      <trkpt lat="38.82900593485039" lon="121.50412445781646">
        <ele>4.426193506456912</ele>
        <time>2025-06-28T01:54:51Z</time>
      </trkpt>
      <trkpt lat="38.828901760345865" lon="121.50405607589701">
        <ele>4.778401299379766</ele>
        <time>2025-06-28T01:54:54Z</time>
      </trkpt>
      <trkpt lat="38.82882741925237" lon="121.50404264010503">
        <ele>3.520267501473427</ele>
        <time>2025-06-28T01:54:58Z</time>
      </trkpt>
      <trkpt lat="38.82854406113272" lon="121.50410875613781">
        <ele>3.7339622285217047</ele>
        <time>2025-06-28T01:55:10Z</time>
      </trkpt>
      <trkpt lat="38.82841007627412" lon="121.5040772855874">
        <ele>1.9145166762173176</ele>
        <time>2025-06-28T01:55:16Z</time>
      </trkpt>
      <trkpt lat="38.828338152356196" lon="121.50408287624495">
        <ele>4.730782637372613</ele>
        <time>2025-06-28T01:55:19Z</time>
      </trkpt>
      <trkpt lat="38.82818331815537" lon="121.50403990029179">
        <ele>4.599735646508634</ele>
        <time>2025-06-28T01:55:25Z</time>
      </trkpt>
      <trkpt lat="38.82811174221888" lon="121.50399226182897">
        <ele>3.972985414788127</ele>
        <time>2025-06-28T01:55:28Z</time>
      </trkpt>
      <trkpt lat="38.82791968001845" lon="121.50366708241576">
        <ele>4.7115397760644555</ele>
        <time>2025-06-28T01:55:40Z</time>
      </trkpt>
      <trkpt lat="38.82788562387655" lon="121.50358079194245">
        <ele>5.647263132035732</ele>
        <time>2025-06-28T01:55:43Z</time>
      </trkpt>
      <trkpt lat="38.827830766396204" lon="121.50332435224345">
        <ele>4.682894525118172</ele>
        <time>2025-06-28T01:55:52Z</time>
      </trkpt>
      <trkpt lat="38.82777638692744" lon="121.50324852560682">
        <ele>5.239285249263048</ele>
        <time>2025-06-28T01:55:55Z</time>
      </trkpt>
      <trkpt lat="38.82769930521398" lon="121.50324312535214">
        <ele>5.437613888643682</ele>
        <time>2025-06-28T01:55:58Z</time>
      </trkpt>
      <trkpt lat="38.82763397184204" lon="121.5031911594185">
        <ele>6.172515667974949</ele>
        <time>2025-06-28T01:56:01Z</time>
      </trkpt>
      <trkpt lat="38.82760468456905" lon="121.5030995603759">
        <ele>6.0883590234443545</ele>
        <time>2025-06-28T01:56:04Z</time>
      </trkpt>
      <trkpt lat="38.827432086882006" lon="121.50300896680139">
        <ele>5.27851687092334</ele>
        <time>2025-06-28T01:56:16Z</time>
      </trkpt>
      <trkpt lat="38.82728265759534" lon="121.5030004966899">
        <ele>4.399952233769</ele>
        <time>2025-06-28T01:56:22Z</time>
      </trkpt>
      <trkpt lat="38.82707634605093" lon="121.50309064480322">
        <ele>5.182293139398098</ele>
        <time>2025-06-28T01:56:31Z</time>
      </trkpt>
      <trkpt lat="38.82696517610572" lon="121.50318487561897">
        <ele>3.60909478738904</ele>
        <time>2025-06-28T01:56:37Z</time>
      </trkpt>
      <trkpt lat="38.82691634983978" lon="121.50326092952957">
        <ele>3.952375396154821</ele>
        <time>2025-06-28T01:56:40Z</time>
      </trkpt>
      <trkpt lat="38.826847452974" lon="121.503318387472">
        <ele>4.816164957359433</ele>
        <time>2025-06-28T01:56:43Z</time>
      </trkpt>
      <trkpt lat="38.826658022106976" lon="121.50356606770598">
        <ele>4.62623496260494</ele>
        <time>2025-06-28T01:56:54Z</time>
      </trkpt>
      <trkpt lat="38.82660949310014" lon="121.50366865191873">
        <ele>4.5443122535943985</ele>
        <time>2025-06-28T01:56:58Z</time>
      </trkpt>
      <trkpt lat="38.82657755503649" lon="121.50378751274198">
        <ele>4.561569667421281</ele>
        <time>2025-06-28T01:57:02Z</time>
      </trkpt>
      <trkpt lat="38.826546347714405" lon="121.50404913442483">
        <ele>5.207932741381228</ele>
        <time>2025-06-28T01:57:10Z</time>
      </trkpt>
      <trkpt lat="38.826565650480745" lon="121.50417078893877">
        <ele>4.761488952673972</ele>
        <time>2025-06-28T01:57:14Z</time>
      </trkpt>
      <trkpt lat="38.82654102357803" lon="121.50446048888668">
        <ele>5.036353881470859</ele>
        <time>2025-06-28T01:57:23Z</time>
      </trkpt>
      <trkpt lat="38.82648360944742" lon="121.50463738347386">
        <ele>4.668187369592488</ele>
        <time>2025-06-28T01:57:29Z</time>
      </trkpt>
      <trkpt lat="38.82634597622845" lon="121.5048694419301">
        <ele>4.830901123583317</ele>
        <time>2025-06-28T01:57:38Z</time>
      </trkpt>
      <trkpt lat="38.82622364531103" lon="121.50498770754326">
        <ele>5.0039656441658735</ele>
        <time>2025-06-28T01:57:44Z</time>
      </trkpt>
      <trkpt lat="38.82625016030383" lon="121.50486631566697">
        <ele>4.590248530730605</ele>
        <time>2025-06-28T01:57:50Z</time>
      </trkpt>
      <trkpt lat="38.82640943454004" lon="121.50468811705726">
        <ele>3.716552209109068</ele>
        <time>2025-06-28T01:57:59Z</time>
      </trkpt>
      <trkpt lat="38.82646609808195" lon="121.5047002851496">
        <ele>4.871517636813223</ele>
        <time>2025-06-28T01:58:02Z</time>
      </trkpt>
      <trkpt lat="38.82654637914662" lon="121.50440868470457">
        <ele>3.5316103398799896</ele>
        <time>2025-06-28T01:58:11Z</time>
      </trkpt>
      <trkpt lat="38.826576808938846" lon="121.50421886306043">
        <ele>3.8954742029309273</ele>
        <time>2025-06-28T01:58:17Z</time>
      </trkpt>
      <trkpt lat="38.826562583445856" lon="121.5040332759468">
        <ele>4.1849826304242015</ele>
        <time>2025-06-28T01:58:23Z</time>
      </trkpt>
      <trkpt lat="38.82658421663142" lon="121.5037478317452">
        <ele>4.309554945677519</ele>
        <time>2025-06-28T01:58:32Z</time>
      </trkpt>
      <trkpt lat="38.82673171155349" lon="121.50343968026725">
        <ele>3.702842464670539</ele>
        <time>2025-06-28T01:58:44Z</time>
      </trkpt>
      <trkpt lat="38.82683925359161" lon="121.5033021051557">
        <ele>3.933226832188666</ele>
        <time>2025-06-28T01:58:50Z</time>
      </trkpt>
      <trkpt lat="38.826921950023824" lon="121.50326434097751">
        <ele>3.916925891302526</ele>
        <time>2025-06-28T01:58:53Z</time>
      </trkpt>
      <trkpt lat="38.827046734847315" lon="121.50311078491482">
        <ele>4.709415517747402</ele>
        <time>2025-06-28T01:59:00Z</time>
      </trkpt>
      <trkpt lat="38.82713824987265" lon="121.50304927021276">
        <ele>4.483964953571558</ele>
        <time>2025-06-28T01:59:04Z</time>
      </trkpt>
      <trkpt lat="38.82733273584502" lon="121.50298919798816">
        <ele>4.214107460342348</ele>
        <time>2025-06-28T01:59:12Z</time>
      </trkpt>
      <trkpt lat="38.82760170719402" lon="121.50309036879179">
        <ele>4.843996767885983</ele>
        <time>2025-06-28T01:59:23Z</time>
      </trkpt>
      <trkpt lat="38.8276545873919" lon="121.50317159535992">
        <ele>4.002407759428024</ele>
        <time>2025-06-28T01:59:26Z</time>
      </trkpt>
      <trkpt lat="38.827715141212046" lon="121.50322340909706">
        <ele>3.396224508062005</ele>
        <time>2025-06-28T01:59:29Z</time>
      </trkpt>
      <trkpt lat="38.82779143776678" lon="121.50323864716212">
        <ele>4.8993085362017155</ele>
        <time>2025-06-28T01:59:32Z</time>
      </trkpt>
      <trkpt lat="38.827867470014" lon="121.50342477776049">
        <ele>4.32522230502218</ele>
        <time>2025-06-28T01:59:38Z</time>
      </trkpt>
      <trkpt lat="38.827906489256755" lon="121.50362304194972">
        <ele>4.246598468162119</ele>
        <time>2025-06-28T01:59:44Z</time>
      </trkpt>
      <trkpt lat="38.828013386249" lon="121.50385709986197">
        <ele>4.125074747018516</ele>
        <time>2025-06-28T01:59:53Z</time>
      </trkpt>
      <trkpt lat="38.82817237429739" lon="121.50401297415887">
        <ele>4.405172624625266</ele>
        <time>2025-06-28T02:00:02Z</time>
      </trkpt>
      <trkpt lat="38.82837266054619" lon="121.50409049027226">
        <ele>4.710696820169687</ele>
        <time>2025-06-28T02:00:11Z</time>
      </trkpt>
      <trkpt lat="38.82865338264474" lon="121.50406169469113">
        <ele>4.7009743098169565</ele>
        <time>2025-06-28T02:00:23Z</time>
      </trkpt>
      <trkpt lat="38.82880724125893" lon="121.50403075853137">
        <ele>4.448586001060903</ele>
        <time>2025-06-28T02:00:29Z</time>
      </trkpt>
      <trkpt lat="38.82888401415743" lon="121.50404340251481">
        <ele>4.2681849943473935</ele>
        <time>2025-06-28T02:00:32Z</time>
      </trkpt>
      <trkpt lat="38.828952708674116" lon="121.50409649256103">
        <ele>4.642654047347605</ele>
        <time>2025-06-28T02:00:35Z</time>
      </trkpt>
      <trkpt lat="38.82903941854391" lon="121.50406507939452">
        <ele>4.843885132111609</ele>
        <time>2025-06-28T02:00:38Z</time>
      </trkpt>
      <trkpt lat="38.829090786105986" lon="121.50401976856476">
        <ele>4.815677896142006</ele>
        <time>2025-06-28T02:00:41Z</time>
      </trkpt>
      <trkpt lat="38.82925614047903" lon="121.50406780317944">
        <ele>4.450543927028775</ele>
        <time>2025-06-28T02:00:47Z</time>
      </trkpt>
      <trkpt lat="38.82952054980127" lon="121.50423044777371">
        <ele>4.219000048004091</ele>
        <time>2025-06-28T02:01:14Z</time>
      </trkpt>
      <trkpt lat="38.82979253471538" lon="121.50447236706779">
        <ele>4.841255024075508</ele>
        <time>2025-06-28T02:01:46Z</time>
      </trkpt>
      <trkpt lat="38.83000095419757" lon="121.50474207663889">
        <ele>4.65520556923002</ele>
        <time>2025-06-28T02:02:13Z</time>
      </trkpt>
      <trkpt lat="38.83027385223928" lon="121.50486959863268">
        <ele>4.23291274625808</ele>
        <time>2025-06-28T02:02:34Z</time>
      </trkpt>
      <trkpt lat="38.83048683460007" lon="121.50497300035377">
        <ele>2.601234508678317</ele>
        <time>2025-06-28T02:02:43Z</time>
      </trkpt>
      <trkpt lat="38.83075188435663" lon="121.50523730153311">
        <ele>4.51928744930774</ele>
        <time>2025-06-28T02:02:55Z</time>
      </trkpt>
      <trkpt lat="38.83081080503289" lon="121.50530290452802">
        <ele>4.872100168839097</ele>
        <time>2025-06-28T02:02:58Z</time>
      </trkpt>
      <trkpt lat="38.830883069172785" lon="121.50533456355164">
        <ele>5.299394136294723</ele>
        <time>2025-06-28T02:03:01Z</time>
      </trkpt>
      <trkpt lat="38.830954676087345" lon="121.50533216823818">
        <ele>4.794949150644243</ele>
        <time>2025-06-28T02:03:04Z</time>
      </trkpt>
      <trkpt lat="38.83125084177905" lon="121.50531755431305">
        <ele>5.3907624166458845</ele>
        <time>2025-06-28T02:03:16Z</time>
      </trkpt>
      <trkpt lat="38.83145016195843" lon="121.50534093528394">
        <ele>6.422725420445204</ele>
        <time>2025-06-28T02:03:24Z</time>
      </trkpt>
      <trkpt lat="38.83154888409734" lon="121.50537303680944">
        <ele>5.168177343904972</ele>
        <time>2025-06-28T02:03:28Z</time>
      </trkpt>
      <trkpt lat="38.83167269582299" lon="121.50546435127731">
        <ele>5.473454120568931</ele>
        <time>2025-06-28T02:03:34Z</time>
      </trkpt>
      <trkpt lat="38.83186157420448" lon="121.5057013471132">
        <ele>5.1456347135826945</ele>
        <time>2025-06-28T02:04:01Z</time>
      </trkpt>
      <trkpt lat="38.832000387514725" lon="121.5060447455686">
        <ele>4.576209414750338</ele>
        <time>2025-06-28T02:04:44Z</time>
      </trkpt>
      <trkpt lat="38.83201070113426" lon="121.50610182842084">
        <ele>6.029328476637602</ele>
        <time>2025-06-28T02:05:36Z</time>
      </trkpt>
      <trkpt lat="38.83213655713642" lon="121.50632261480085">
        <ele>6.6897657830268145</ele>
        <time>2025-06-28T02:06:24Z</time>
      </trkpt>
      <trkpt lat="38.83225586194066" lon="121.50642300094651">
        <ele>5.032653385773301</ele>
        <time>2025-06-28T02:06:39Z</time>
      </trkpt>
      <trkpt lat="38.83252113916748" lon="121.5065163819581">
        <ele>4.441130678169429</ele>
        <time>2025-06-28T02:06:51Z</time>
      </trkpt>
      <trkpt lat="38.83268102090998" lon="121.50654742669239">
        <ele>2.4274330735206604</ele>
        <time>2025-06-28T02:06:57Z</time>
      </trkpt>
      <trkpt lat="38.83281763903431" lon="121.50662122079702">
        <ele>5.037557547912002</ele>
        <time>2025-06-28T02:07:03Z</time>
      </trkpt>
      <trkpt lat="38.8330532196381" lon="121.50687554067605">
        <ele>4.58610983658582</ele>
        <time>2025-06-28T02:07:15Z</time>
      </trkpt>
      <trkpt lat="38.833085423468304" lon="121.50697218908991">
        <ele>4.821115447208285</ele>
        <time>2025-06-28T02:07:18Z</time>
      </trkpt>
      <trkpt lat="38.83317482089108" lon="121.50712038027173">
        <ele>4.488700831308961</ele>
        <time>2025-06-28T02:07:25Z</time>
      </trkpt>
      <trkpt lat="38.83318325383062" lon="121.50723604126608">
        <ele>4.761907004751265</ele>
        <time>2025-06-28T02:07:34Z</time>
      </trkpt>
      <trkpt lat="38.83318325383062" lon="121.50723604126608">
        <ele>4.761907004751265</ele>
        <time>2025-06-28T02:07:40Z</time>
      </trkpt>
    </trkseg>
  </trk>
</gpx>